##########################################################
# Query made at 05/05/2026 03:30:32 UTC
# Time interval: from 10/01/2023 00:00  to 10/31/2023 23:59  UTC
##########################################################

##########################################################
# WIHH, Jakarta Halim Perdanakusuma (Indonesia)
# WMO index: 96747. WIGOS ID: Unknown
# Latitude 06-15S. Longitude 106-54E. Altitude 30 m.
##########################################################

###################################
#  METAR/SPECI from WIHH
###################################
202310312330 METAR WIHH 312330Z 22002KT 5000 HZ FEW020 27/24 Q1011 NOSIG=
202310312300 METAR WIHH 312300Z 00000KT 5000 HZ FEW020 27/23 Q1011 NOSIG=
202310312230 METAR WIHH 312230Z 21002KT 5000 HZ FEW020 26/23 Q1010 NOSIG=
202310312200 METAR WIHH 312200Z 13003KT 5000 HZ FEW020 27/23 Q1010 NOSIG=
202310312130 METAR WIHH 312130Z 00000KT 5000 HZ FEW020 26/23 Q1010 NOSIG=
202310312100 METAR WIHH NIL=
202310312030 METAR WIHH NIL=
202310312000 METAR WIHH NIL=
202310311930 METAR WIHH NIL=
202310311900 METAR WIHH NIL=
202310311830 METAR WIHH NIL=
202310311800 METAR WIHH NIL=
202310311730 METAR WIHH NIL=
202310311700 METAR WIHH 311700Z 00000KT 5000 HZ FEW020 28/23 Q1010 NOSIG=
202310311630 METAR WIHH 311630Z 00000KT 5000 HZ SCT018 28/23 Q1011 NOSIG=
202310311600 METAR WIHH 311600Z 18003KT 6000 SCT018 29/22 Q1011 NOSIG=
202310311530 METAR WIHH 311530Z 19004KT 6000 SCT018 29/22 Q1011 NOSIG=
202310311500 METAR WIHH 311500Z 25003KT 6000 SCT018 28/22 Q1011 NOSIG=
202310311430 METAR WIHH 311430Z 00000KT 6000 SCT018 28/22 Q1011 NOSIG=
202310311400 METAR WIHH 311400Z 18003KT 6000 SCT018 28/22 Q1011 NOSIG=
202310311330 METAR WIHH 311330Z 20004KT 6000 SCT018 28/22 Q1011 NOSIG=
202310311300 METAR WIHH 311300Z 23002KT 6000 SCT018 28/23 Q1010 NOSIG=
202310311230 METAR WIHH 311230Z 22004KT 6000 SCT018 28/22 Q1010 RMK RA TO NW=
202310311200 METAR WIHH 311200Z 23008KT 6000 SCT018 29/24 Q1009 RMK RA TO NW=
202310311130 METAR WIHH 311130Z 22007KT 5000 HZ BKN018 30/22 Q1009 TEMPO FM1200 -RA RMK RA TO SW=
202310311100 METAR WIHH 311100Z 17004KT 5000 HZ BKN018 30/22 Q1008 TEMPO FM1200 -RA RMK RA TO S=
202310311030 METAR WIHH 311030Z 34005KT 6000 BKN018 32/24 Q1008 RMK RA TO S=
202310311000 METAR WIHH 311000Z 36010KT 6000 FEW018CB SCT020 32/24 Q1007 RMK CB AND RA TO SW=
202310310930 METAR WIHH 310930Z 33005KT 6000 FEW018CB FEW020 33/23 Q1007 RMK CB TO S=
202310310900 METAR WIHH 310900Z 36010KT 6000 FEW018CB FEW020 34/23 Q1006 RMK CB TO S=
202310310830 METAR WIHH 310830Z 35012KT 6000 FEW020 34/23 Q1006 NOSIG=
202310310800 METAR WIHH 310800Z 35012KT 6000 FEW020 35/23 Q1006 NOSIG=
202310310730 METAR WIHH 310730Z 35012KT 6000 SCT020 36/24 Q1006 NOSIG=
202310310700 METAR WIHH 310700Z 01010KT 6000 SCT020 36/24 Q1007 NOSIG=
202310310630 METAR WIHH 310630Z 03005KT 6000 SCT020 35/23 Q1008 NOSIG=
202310310600 METAR WIHH 310600Z 05007KT 6000 SCT020 35/23 Q1008 NOSIG=
202310310530 METAR WIHH 310530Z 35010KT 6000 SCT020 36/22 Q1008 NOSIG=
202310310500 METAR WIHH 310500Z 33003KT 5000 HZ SCT020 35/22 Q1009 NOSIG=
202310310430 METAR WIHH 310430Z 25003KT 5000 HZ SCT020 35/22 Q1009 NOSIG=
202310310400 METAR WIHH 310400Z 02005KT 5000 HZ SCT020 35/22 Q1010 NOSIG=
202310310330 METAR WIHH 310330Z 30005KT 5000 HZ SCT020 34/22 Q1011 NOSIG=
202310310300 METAR WIHH 310300Z 33006KT 5000 HZ SCT020 34/22 Q1011 NOSIG=
202310310230 METAR WIHH 310230Z 12004KT 5000 HZ FEW020 32/22 Q1011 NOSIG=
202310310200 METAR WIHH 310200Z 09004KT 5000 HZ FEW020 32/23 Q1011 NOSIG=
202310310130 METAR WIHH 310130Z 11003KT 5000 HZ FEW020 31/23 Q1011 NOSIG=
202310310100 METAR WIHH 310100Z 09003KT 5000 HZ FEW020 31/24 Q1011 NOSIG=
202310310030 METAR WIHH 310030Z 17003KT 5000 HZ FEW020 30/24 Q1010 NOSIG=
202310310000 METAR WIHH 310000Z 17003KT 5000 HZ FEW020 28/24 Q1010 NOSIG=
202310302330 METAR WIHH 302330Z 17003KT 5000 HZ FEW020 28/24 Q1010 NOSIG=
202310302300 METAR WIHH 302300Z 15003KT 5000 HZ FEW020 27/24 Q1010 NOSIG=
202310302230 METAR WIHH 302230Z 00000KT 6000 NSC 26/23 Q1009 NOSIG=
202310302200 METAR WIHH 302200Z 00000KT 6000 NSC 26/22 Q1009 NOSIG=
202310302130 METAR WIHH 302130Z 00000KT 6000 NSC 26/22 Q1009 NOSIG=
202310302100 METAR WIHH 302100Z 00000KT 6000 NSC 27/22 Q1009 NOSIG=
202310302030 METAR WIHH NIL=
202310302000 METAR WIHH NIL=
202310301930 METAR WIHH NIL=
202310301900 METAR WIHH NIL=
202310301830 METAR WIHH NIL=
202310301800 METAR WIHH NIL=
202310301730 METAR WIHH NIL=
202310301700 METAR WIHH NIL=
202310301630 METAR WIHH NIL=
202310301600 METAR WIHH NIL=
202310301530 METAR WIHH 301530Z 00000KT 7000 NSC 29/24 Q1010 NOSIG=
202310301500 METAR WIHH 301500Z 00000KT 7000 NSC 30/24 Q1010 NOSIG=
202310301430 METAR WIHH 301430Z 00000KT 7000 NSC 29/24 Q1010 NOSIG=
202310301400 METAR WIHH 301400Z 04003KT 7000 NSC 30/24 Q1010 NOSIG=
202310301330 METAR WIHH 301330Z 30003KT 7000 NSC 30/24 Q1009 NOSIG=
202310301300 METAR WIHH 301300Z 30003KT 7000 NSC 30/24 Q1009 NOSIG=
202310301230 METAR WIHH 301230Z 30003KT 7000 NSC 30/24 Q1009 NOSIG=
202310301200 METAR WIHH 301200Z 33003KT 7000 NSC 30/24 Q1008 NOSIG=
202310301130 METAR WIHH 301130Z 30003KT 6000 NSC 30/23 Q1008 NOSIG=
202310301100 METAR WIHH 301100Z 34003KT 6000 FEW020 32/23 Q1008 NOSIG=
202310301030 METAR WIHH 301030Z 34004KT 6000 FEW020 32/23 Q1007 NOSIG=
202310301000 METAR WIHH 301000Z 36006KT 6000 FEW020 32/22 Q1007 NOSIG=
202310300930 METAR WIHH 300930Z 35011KT 6000 FEW020 32/22 Q1006 NOSIG=
202310300900 METAR WIHH 300900Z 35012KT 6000 FEW020 33/22 Q1006 NOSIG=
202310300830 METAR WIHH 300830Z 01013KT 6000 FEW018CB FEW020 35/22 Q1006 RMK CB TO S=
202310300800 METAR WIHH 300800Z 03013KT 6000 SCT020 35/22 Q1006 NOSIG=
202310300730 METAR WIHH 300730Z 34013KT 6000 SCT020 35/22 Q1007 NOSIG=
202310300700 METAR WIHH 300700Z 03010KT 6000 SCT020 36/21 Q1007 NOSIG=
202310300630 METAR WIHH 300630Z 15015KT 6000 SCT020 37/21 Q1007 NOSIG=
202310300600 METAR WIHH 300600Z 02007KT 6000 SCT020 37/21 Q1007 NOSIG=
202310300530 METAR WIHH 300530Z 02005KT 6000 SCT020 36/20 Q1008 NOSIG=
202310300500 METAR WIHH 300500Z 24005KT 6000 SCT020 36/19 Q1009 NOSIG=
202310300430 METAR WIHH 300430Z 30005KT 6000 FEW020 36/19 Q1009 NOSIG=
202310300400 METAR WIHH 300400Z 18005KT 6000 FEW020 35/20 Q1010 NOSIG=
202310300330 METAR WIHH 300330Z 21005KT 6000 FEW020 35/20 Q1011 NOSIG=
202310300300 METAR WIHH 300300Z 19003KT 6000 FEW020 33/20 Q1011 NOSIG=
202310300230 METAR WIHH 300230Z 30003KT 6000 FEW020 33/21 Q1011 NOSIG=
202310300200 METAR WIHH 300200Z 27003KT 6000 NSC 32/21 Q1011 NOSIG=
202310300130 METAR WIHH 300130Z 16006KT 6000 NSC 31/21 Q1011 NOSIG=
202310300100 METAR WIHH 300100Z 16006KT 6000 NSC 31/21 Q1011 NOSIG=
202310300030 METAR WIHH 300030Z 19005KT 6000 NSC 29/21 Q1011 NOSIG=
202310300000 METAR WIHH 300000Z 21004KT 6000 NSC 28/21 Q1010 NOSIG=
202310292330 METAR WIHH 292330Z 24003KT 6000 NSC 25/21 Q1010 NOSIG=
202310292300 METAR WIHH 292300Z 24003KT 6000 NSC 25/21 Q1010 NOSIG=
202310292230 METAR WIHH 292230Z 25003KT 6000 NSC 25/21 Q1010 NOSIG=
202310292200 METAR WIHH 292200Z 22003KT 6000 NSC 25/21 Q1009 NOSIG=
202310292130 METAR WIHH 292130Z 00000KT 6000 NSC 25/22 Q1009 NOSIG=
202310292100 METAR WIHH NIL=
202310292030 METAR WIHH NIL=
202310292000 METAR WIHH NIL=
202310291930 METAR WIHH NIL=
202310291900 METAR WIHH NIL=
202310291830 METAR WIHH NIL=
202310291800 METAR WIHH NIL=
202310291730 METAR WIHH NIL=
202310291700 METAR WIHH 291700Z 24003KT 6000 NSC 27/23 Q1010 NOSIG=
202310291630 METAR WIHH 291630Z 24003KT 6000 NSC 27/23 Q1010 NOSIG=
202310291600 METAR WIHH 291600Z 22003KT 6000 NSC 28/24 Q1010 NOSIG=
202310291530 METAR WIHH 291530Z 22004KT 6000 NSC 28/24 Q1010 NOSIG=
202310291500 METAR WIHH 291500Z 23003KT 6000 NSC 28/23 Q1010 NOSIG=
202310291430 METAR WIHH 291430Z 23003KT 6000 NSC 27/23 Q1010 NOSIG=
202310291400 METAR WIHH 291400Z 00000KT 6000 NSC 28/23 Q1010 NOSIG=
202310291330 METAR WIHH 291330Z 00000KT 6000 FEW020 28/23 Q1009 NOSIG=
202310291300 METAR WIHH 291300Z 00000KT 6000 FEW020 29/23 Q1009 NOSIG=
202310291230 METAR WIHH 291230Z 33003KT 7000 FEW020 29/22 Q1009 NOSIG=
202310291200 METAR WIHH 291200Z 02004KT 6000 FEW020 31/21 Q1008 NOSIG=
202310291130 METAR WIHH 291130Z 36005KT 7000 FEW020 31/22 Q1008 NOSIG=
202310291100 METAR WIHH 291100Z 36005KT 7000 FEW020 32/22 Q1008 NOSIG=
202310291030 METAR WIHH 291030Z 36006KT 7000 FEW020 32/22 Q1007 NOSIG=
202310291000 METAR WIHH 291000Z 36012KT 7000 FEW020 33/22 Q1007 NOSIG=
202310290930 METAR WIHH 290930Z 02015KT 7000 FEW020 35/23 Q1007 NOSIG=
202310290900 METAR WIHH 290900Z 02013KT 7000 NSC 34/21 Q1006 NOSIG=
202310290830 METAR WIHH 290830Z 02015KT 7000 FEW020 35/23 Q1007 NOSIG=
202310290800 METAR WIHH 290800Z 35015KT 7000 FEW020 35/23 Q1007 NOSIG=
202310290730 METAR WIHH 290730Z 01015KT 7000 FEW020 36/22 Q1007 NOSIG=
202310290700 METAR WIHH 290700Z 35015KT 7000 FEW020 35/23 Q1007 NOSIG=
202310290630 METAR WIHH 290630Z 02015KT 7000 FEW020 36/21 Q1007 NOSIG=
202310290600 METAR WIHH 290600Z 06018KT 7000 FEW020 38/16 Q1008 NOSIG=
202310290530 METAR WIHH 290530Z 08015KT 6000 FEW020 38/14 Q1009 NOSIG=
202310290500 METAR WIHH 290500Z 08015KT 6000 FEW020 37/14 Q1009 NOSIG=
202310290430 METAR WIHH 290430Z 08012KT 6000 FEW020 36/17 Q1010 NOSIG=
202310290400 METAR WIHH 290400Z 16007KT 6000 FEW020 35/18 Q1010 NOSIG=
202310290330 METAR WIHH 290330Z 13007KT 5000 HZ FEW020 34/19 Q1011 NOSIG=
202310290300 METAR WIHH 290300Z 13004KT 5000 HZ NSC 33/20 Q1011 NOSIG=
202310290230 METAR WIHH 290230Z 06006KT 5000 HZ NSC 33/21 Q1012 NOSIG=
202310290200 METAR WIHH 290200Z 36003KT 5000 HZ NSC 31/22 Q1012 NOSIG=
202310290130 METAR WIHH 290130Z 09005KT 5000 HZ NSC 31/23 Q1012 NOSIG=
202310290100 METAR WIHH 290100Z 13005KT 5000 HZ NSC 30/22 Q1012 NOSIG=
202310290030 METAR WIHH 290030Z 12003KT 5000 HZ NSC 28/21 Q1011 NOSIG=
202310290000 METAR WIHH 290000Z 00000KT 5000 HZ NSC 28/21 Q1011 NOSIG=
202310282330 METAR WIHH 282330Z 12003KT 4000 HZ NSC 26/21 Q1011 NOSIG=
202310282300 METAR WIHH 282300Z 14003KT 5000 HZ NSC 25/21 Q1011 NOSIG=
202310282230 METAR WIHH 282230Z 16003KT 5000 HZ NSC 25/22 Q1010 NOSIG=
202310282200 METAR WIHH 282200Z 16003KT 5000 HZ NSC 25/22 Q1010 NOSIG=
202310282130 METAR WIHH 282130Z 24003KT 5000 HZ NSC 25/22 Q1010 NOSIG=
202310282100 METAR WIHH NIL=
202310282030 METAR WIHH NIL=
202310282000 METAR WIHH NIL=
202310281930 METAR WIHH NIL=
202310281900 METAR WIHH NIL=
202310281830 METAR WIHH NIL=
202310281800 METAR WIHH NIL=
202310281730 METAR WIHH NIL=
202310281700 METAR WIHH 281700Z 00000KT 6000 NSC 27/24 Q1011 NOSIG=
202310281630 METAR WIHH 281630Z 00000KT 6000 NSC 27/24 Q1011 NOSIG=
202310281600 METAR WIHH 281600Z 00000KT 6000 NSC 27/24 Q1011 NOSIG=
202310281530 METAR WIHH 281530Z 25003KT 6000 NSC 27/24 Q1011 NOSIG=
202310281500 METAR WIHH 281500Z 25003KT 6000 NSC 27/24 Q1011 NOSIG=
202310281430 METAR WIHH 281430Z 00000KT 6000 NSC 27/23 Q1011 NOSIG=
202310281400 METAR WIHH 281400Z 00000KT 6000 NSC 28/23 Q1011 NOSIG=
202310281330 METAR WIHH 281330Z 03003KT 6000 NSC 29/23 Q1010 NOSIG=
202310281300 METAR WIHH 281300Z 05005KT 6000 NSC 29/23 Q1010 NOSIG=
202310281230 METAR WIHH 281230Z 03010KT 6000 NSC 30/23 Q1009 NOSIG=
202310281200 METAR WIHH 281200Z 04010KT 6000 NSC 30/23 Q1009 NOSIG=
202310281130 METAR WIHH 281130Z 05012KT 6000 NSC 31/22 Q1009 NOSIG=
202310281100 METAR WIHH 281100Z 05016KT 6000 NSC 31/22 Q1008 NOSIG=
202310281030 METAR WIHH 281030Z 05017KT 7000 NSC 33/19 Q1008 NOSIG=
202310281000 METAR WIHH 281000Z 05017KT 8000 NSC 35/16 Q1007 NOSIG=
202310280930 METAR WIHH 280930Z 03015KT 8000 NSC 36/14 Q1007 NOSIG=
202310280900 METAR WIHH 280900Z 06018KT 8000 NSC 36/14 Q1007 NOSIG=
202310280830 METAR WIHH 280830Z 06015KT 8000 NSC 37/15 Q1007 NOSIG=
202310280800 METAR WIHH 280800Z 06018KT 8000 NSC 37/15 Q1007 NOSIG=
202310280730 METAR WIHH 280730Z 06015KT 8000 NSC 37/15 Q1008 NOSIG=
202310280700 METAR WIHH 280700Z 36015KT 7000 FEW020 38/15 Q1008 NOSIG=
202310280630 METAR WIHH 280630Z 36015KT 7000 FEW020 37/17 Q1009 NOSIG=
202310280600 METAR WIHH 280600Z 06012KT 7000 FEW020 37/14 Q1009 NOSIG=
202310280530 METAR WIHH 280530Z 06015KT 7000 FEW020 38/17 Q1010 NOSIG=
202310280500 METAR WIHH 280500Z 06015KT 7000 FEW020 37/17 Q1010 NOSIG=
202310280430 METAR WIHH 280430Z 35010KT 6000 FEW020 37/18 Q1011 NOSIG=
202310280400 METAR WIHH 280400Z 33005KT 6000 FEW020 36/20 Q1011 NOSIG=
202310280330 METAR WIHH 280330Z 01005KT 6000 NSC 34/20 Q1012 NOSIG=
202310280300 METAR WIHH 280300Z 10010KT 6000 NSC 34/20 Q1012 NOSIG=
202310280230 METAR WIHH 280230Z 12006KT 6000 NSC 33/20 Q1012 NOSIG=
202310280200 METAR WIHH 280200Z 16003KT 6000 NSC 33/22 Q1013 NOSIG=
202310280130 METAR WIHH 280130Z 16003KT 6000 NSC 31/23 Q1013 NOSIG=
202310280100 METAR WIHH 280100Z 19003KT 6000 NSC 30/22 Q1012 NOSIG=
202310280030 METAR WIHH 280030Z 18005KT 6000 NSC 30/22 Q1012 NOSIG=
202310280000 METAR WIHH 280000Z 20004KT 6000 NSC 28/23 Q1012 NOSIG=
202310272330 METAR WIHH 272330Z 19003KT 5000 HZ NSC 27/22 Q1012 NOSIG=
202310272300 METAR WIHH 272300Z 20005KT 4000 HZ NSC 25/22 Q1011 NOSIG=
202310272230 METAR WIHH 272230Z 19002KT 4000 HZ NSC 25/22 Q1011 NOSIG=
202310272200 METAR WIHH 272200Z 24003KT 4000 HZ FEW020 25/22 Q1011 NOSIG=
202310272130 METAR WIHH 272130Z 25002KT 4000 HZ FEW020 25/22 Q1010 NOSIG=
202310272100 METAR WIHH 272100Z 00000KT 4000 HZ FEW020 25/22 Q1010 NOSIG=
202310272030 METAR WIHH NIL=
202310272000 METAR WIHH NIL=
202310271930 METAR WIHH NIL=
202310271900 METAR WIHH NIL=
202310271830 METAR WIHH NIL=
202310271800 METAR WIHH NIL=
202310271730 METAR WIHH NIL=
202310271700 METAR WIHH 271700Z 23004KT 5000 HZ FEW020 26/22 Q1011 NOSIG=
202310271630 METAR WIHH NIL=
202310271600 METAR WIHH 271600Z 22004KT 6000 FEW020 26/24 Q1012 NOSIG=
202310271530 METAR WIHH 271530Z 24004KT 6000 FEW020 27/24 Q1012 NOSIG=
202310271500 METAR WIHH 271500Z 00000KT 6000 FEW020 27/24 Q1011 NOSIG=
202310271430 METAR WIHH 271430Z 00000KT 6000 FEW020 28/24 Q1011 NOSIG=
202310271400 METAR WIHH 271400Z 08002KT 6000 FEW020 29/24 Q1011 NOSIG=
202310271330 METAR WIHH 271330Z 00000KT 6000 FEW020 28/24 Q1011 NOSIG=
202310271300 METAR WIHH 271300Z 02003KT 6000 FEW020 30/24 Q1010 NOSIG=
202310271230 METAR WIHH 271230Z 06004KT 6000 FEW020 30/24 Q1010 NOSIG=
202310271200 METAR WIHH 271200Z 05007KT 6000 FEW020 30/24 Q1010 NOSIG=
202310271130 METAR WIHH 271130Z 01007KT 6000 FEW020 31/23 Q1009 NOSIG=
202310271100 METAR WIHH 271100Z 02005KT 5000 HZ FEW020 32/23 Q1009 NOSIG=
202310271030 METAR WIHH NIL=
202310271000 METAR WIHH 271000Z 05010KT 5000 HZ SCT020 33/23 Q1008 NOSIG=
202310270930 METAR WIHH 270930Z 05010KT 5000 HZ SCT020 33/23 Q1008 NOSIG=
202310270900 METAR WIHH 270900Z 05015KT 5000 HZ SCT020 33/23 Q1008 NOSIG=
202310270830 METAR WIHH 270830Z 34012KT 5000 HZ SCT020 35/23 Q1008 NOSIG=
202310270800 METAR WIHH NIL=
202310270730 METAR WIHH NIL=
202310270700 METAR WIHH 270700Z 35012KT 5000 HZ SCT020 35/24 Q1008 NOSIG=
202310270630 METAR WIHH 270630Z 03015KT 5000 HZ SCT020 35/24 Q1008 NOSIG=
202310270600 METAR WIHH 270600Z 32007KT 5000 HZ SCT020 36/24 Q1009 NOSIG=
202310270530 METAR WIHH 270530Z 06012KT 5000 HZ SCT020 36/21 Q1009 NOSIG=
202310270500 METAR WIHH NIL=
202310270430 METAR WIHH 270430Z 05012KT 5000 HZ SCT020 34/22 Q1011 NOSIG=
202310270400 METAR WIHH 270400Z 03005KT 5000 HZ SCT020 35/22 Q1011 NOSIG=
202310270330 METAR WIHH 270330Z 05005KT 5000 HZ SCT020 34/21 Q1011 NOSIG=
202310270300 METAR WIHH NIL=
202310270230 METAR WIHH 270230Z 18005KT 6000 NSC 32/22 Q1012 NOSIG=
202310270200 METAR WIHH 270200Z 15006KT 6000 NSC 32/22 Q1012 NOSIG=
202310270130 METAR WIHH 270130Z 18003KT 5000 HZ NSC 32/21 Q102 NOSIG=
202310270100 METAR WIHH 270100Z 20005KT 5000 HZ NSC 31/22 Q102 NOSIG=
202310270030 METAR WIHH 270030Z 21005KT 5000 HZ NSC 29/22 Q102 NOSIG=
202310270000 METAR WIHH 270000Z 26004KT 4000 HZ NSC 28/22 Q1012 NOSIG=
202310262330 METAR WIHH 262330Z 00000KT 4000 HZ NSC 27/23 Q102 NOSIG=
202310262300 METAR WIHH 262300Z 00000KT 3000 HZ NSC 26/23 Q1011 NOSIG=
202310262230 METAR WIHH 262230Z 00000KT 3000 HZ NSC 26/23 Q1011 NOSIG=
202310262200 METAR WIHH 262200Z 00000KT 3000 HZ NSC 26/23 Q1011 NOSIG=
202310262130 METAR WIHH 262130Z 00000KT 4000 HZ NSC 26/24 Q1011 NOSIG=
202310262100 METAR WIHH 262100Z 00000KT 4000 HZ NSC 26/24 Q1010 NOSIG=
202310262030 METAR WIHH NIL=
202310262000 METAR WIHH NIL=
202310261930 METAR WIHH NIL=
202310261900 METAR WIHH NIL=
202310261830 METAR WIHH NIL=
202310261800 METAR WIHH NIL=
202310261730 METAR WIHH NIL=
202310261700 METAR WIHH 261700Z 20003KT 6000 NSC 26/23 Q1012 NOSIG=
202310261630 METAR WIHH 261630Z 20003KT 6000 NSC 26/23 Q1012 NOSIG=
202310261600 METAR WIHH 261600Z 00000KT 6000 NSC 26/23 Q1012 NOSIG=
202310261530 METAR WIHH 261530Z 22003KT 6000 NSC 27/23 Q1013 NOSIG=
202310261500 METAR WIHH 261500Z 22003KT 6000 NSC 327/23 Q1013 NOSIG=
202310261430 METAR WIHH 261430Z 26003KT 6000 NSC 28/23 Q1013 NOSIG=
202310261400 METAR WIHH 261400Z 24003KT 6000 FEW020 28/23 Q1012 NOSIG=
202310261330 METAR WIHH 261330Z 26004KT 6000 FEW020 28/22 Q1011 NOSIG=
202310261300 METAR WIHH 261300Z 22006KT 6000 FEW020 29/22 Q1011 NOSIG=
202310261230 METAR WIHH 261230Z 26006KT 5000 HZ FEW020 29/21 Q1011 NOSIG=
202310261200 METAR WIHH 261200Z 29006KT 5000 HZ FEW020 30/22 Q1011 NOSIG=
202310261130 METAR WIHH 261130Z 33004KT 5000 HZ FEW020 30/24 Q1010 NOSIG=
202310261100 METAR WIHH 261100Z 32005KT 5000 HZ FEW020 31/24 Q1010 NOSIG=
202310261030 METAR WIHH 261030Z 32007KT 5000 HZ FEW020 31/24 Q1009 NOSIG=
202310261000 METAR WIHH 261000Z 31006KT 5000 HZ FEW020 32/24 Q1009 NOSIG=
202310260930 METAR WIHH 260930Z 34010KT 5000 HZ FEW020 33/24 Q1009 NOSIG=
202310260900 METAR WIHH 260900Z 34010KT 5000 HZ FEW020 34/23 Q1008 NOSIG=
202310260830 METAR WIHH 260830Z 34012KT 6000 SCT020 34/23 Q1008 NOSIG=
202310260800 METAR WIHH 260800Z 36010KT 6000 SCT020 34/23 Q1009 NOSIG=
202310260730 METAR WIHH 260730Z 35010KT 6000 SCT020 35/23 Q1009 NOSIG=
202310260700 METAR WIHH 260700Z 33010KT 6000 SCT020 36/23 Q1009 NOSIG=
202310260630 METAR WIHH 260630Z 05007KT 6000 SCT020 35/24 Q1009 NOSIG=
202310260600 METAR WIHH 260600Z 34010KT 5000 HZ SCT020 35/24 Q1010 NOSIG=
202310260530 METAR WIHH 260530Z 02010KT 5000 HZ SCT020 35/23 Q1010 NOSIG=
202310260500 METAR WIHH 260500Z 06009KT 5000 HZ SCT020 36/21 Q1011 NOSIG=
202310260430 METAR WIHH 260430Z 10006KT 6000 SCT020 37/20 Q1011 NOSIG=
202310260400 METAR WIHH NIL=
202310260330 METAR WIHH NIL=
202310260300 METAR WIHH NIL=
202310260230 METAR WIHH 260230Z 15006KT 6000 FEW020 33/22 Q1013 NOSIG=
202310260200 METAR WIHH 260200Z 22005KT 6000 NSC 32/23 Q1013 NOSIG=
202310260130 METAR WIHH 260130Z 18005KT 6000 NSC 31/23 Q1013 NOSIG=
202310260100 METAR WIHH 260100Z 19004KT 6000 NSC 31/23 Q1013 NOSIG=
202310260030 METAR WIHH 260030Z 17005KT 5000 HZ FEW020 30/23 Q1013 NOSIG=
202310260000 METAR WIHH 260000Z 24004KT 5000 HZ FEW020 28/23 Q1013 NOSIG=
202310252330 METAR WIHH 252330Z 00000KT 4000 HZ FEW020 27/23 Q1013 NOSIG=
202310252300 METAR WIHH 252300Z 00000KT 4000 HZ FEW020 26/23 Q1012 NOSIG=
202310252230 METAR WIHH 252230Z 22002KT 5000 HZ FEW020 26/23 Q1012 NOSIG=
202310252200 METAR WIHH 252200Z 00000KT 5000 HZ FEW020 25/23 Q1012 NOSIG=
202310252130 METAR WIHH 252130Z 00000KT 5000 HZ NSC 26/23 Q1012 NOSIG=
202310252100 METAR WIHH NIL=
202310252030 METAR WIHH NIL=
202310252000 METAR WIHH NIL=
202310251930 METAR WIHH NIL=
202310251900 METAR WIHH NIL=
202310251830 METAR WIHH NIL=
202310251800 METAR WIHH NIL=
202310251730 METAR WIHH 251730Z 00000KT 5000 HZ SCT019 27/23 Q1012 NOSIG=
202310251700 METAR WIHH 251700Z 00000KT 5000 HZ SCT020 26/23 Q1013 NOSIG=
202310251630 METAR WIHH 251630Z 00000KT 5000 HZ FEW020 27/23 Q1013 NOSIG=
202310251600 METAR WIHH NIL=
202310251530 METAR WIHH NIL=
202310251500 METAR WIHH 251500Z 00000KT 5000 HZ FEW020 27/23 Q1013 NOSIG=
202310251430 METAR WIHH 251430Z 11003KT 5000 HZ FEW020 27/23 Q1013 NOSIG=
202310251400 METAR WIHH 251400Z 13003KT 6000 FEW020 27/23 Q1012 NOSIG=
202310251330 METAR WIHH 251330Z 13003KT 6000 FEW020 28/23 Q1012 NOSIG=
202310251300 METAR WIHH 251300Z 11004KT 6000 SCT020 28/23 Q1012 NOSIG=
202310251230 METAR WIHH 251230Z 21003KT 6000 SCT020 27/23 Q1012 NOSIG=
202310251200 METAR WIHH 251200Z 18004KT 6000 SCT020 27/23 Q1011 NOSIG=
202310251130 METAR WIHH 251130Z 20005KT 5000 HZ SCT018 28/23 Q1011 NOSIG=
202310251100 METAR WIHH 251100Z 17005KT 5000 HZ SCT018 28/23 Q1011 RMK RA TO E=
202310251030 METAR WIHH 251030Z 18007KT 5000 HZ FEW018CB SCT019 29/23 Q1010 RMK CB AND RA TO SE=
202310251000 METAR WIHH 251000Z 23013KT 5000 HZ FEW018CB SCT019 30/22 Q1010 RMK CB AND RA TO SE-SW=
202310250930 METAR WIHH 250930Z 29004KT 5000 HZ FEW018CB SCT019 31/23 Q1010 RMK CB AND RA TO S=
202310250900 METAR WIHH 250900Z 35008KT 5000 HZ FEW018CB SCT019 31/23 Q1009 RMK CB AND RA TO S-SW=
202310250830 METAR WIHH 250830Z 34011KT 5000 HZ FEW018CB SCT019 32/23 Q1009 RMK CB AND RA TO S-SW=
202310250800 METAR WIHH 250800Z 34011KT 5000 HZ FEW018CB SCT019 34/23 Q1009 RMK CB AND RA TO S-SW=
202310250730 METAR WIHH 250730Z 36010KT 5000 HZ FEW018CB SCT019 34/23 Q1009 RMK CB AND RA TO SW=
202310250700 METAR WIHH 250700Z 36010KT 5000 HZ FEW018CB SCT019 35/23 Q1009 RMK CB AND RA TO SW=
202310250630 METAR WIHH 250630Z 36010KT 5000 HZ FEW018CB SCT019 34/23 Q1010 RMK CB AND RA TO S=
202310250600 METAR WIHH 250600Z 01010KT 5000 HZ FEW018CB SCT019 33/22 Q1010 RMK CB AND RA TO SE AND W=
202310250530 METAR WIHH 250530Z 03007KT 4000 HZ SCT018 33/23 Q1011 RMK RA TO E AND W=
202310250500 METAR WIHH 250500Z 01007KT 4000 HZ SCT018 34/22 Q1011 RMK RA TO N AND E=
202310250430 METAR WIHH 250430Z 25006KT 5000 HZ SCT020 33/22 Q1012 NOSIG=
202310250400 METAR WIHH 250400Z 01004KT 5000 HZ SCT020 35/22 Q1012 NOSIG=
202310250330 METAR WIHH 250330Z 15005KT 5000 HZ FEW020 33/23 Q1013 NOSIG=
202310250300 METAR WIHH 250300Z 15004KT 5000 HZ FEW020 31/23 Q1013 NOSIG=
202310250230 METAR WIHH 250230Z 10003KT 5000 HZ FEW020 31/23 Q1013 NOSIG=
202310250200 METAR WIHH 250200Z 15003KT 5000 HZ FEW020 30/23 Q1013 NOSIG=
202310250130 METAR WIHH 250130Z 17003KT 5000 HZ FEW020 30/23 Q1014 NOSIG=
202310250100 METAR WIHH 250100Z 20003KT 4000 HZ FEW020 29/23 Q1014 NOSIG=
202310250030 METAR WIHH 250030Z 13003KT 4000 HZ FEW020 28/23 Q1014 NOSIG=
202310250000 METAR WIHH 250000Z 11003KT 3000 HZ FEW020 27/23 Q1013 NOSIG=
202310242330 METAR WIHH 242330Z 14004KT 4000 HZ FEW020 26/23 Q1013 NOSIG=
202310242300 METAR WIHH 242300Z 00000KT 4000 HZ FEW020 26/23 Q1012 NOSIG=
202310242230 METAR WIHH 242230Z 18005KT 4000 HZ FEW020 26/23 Q1012 NOSIG=
202310242200 METAR WIHH 242200Z 00000KT 4000 HZ SCT020 26/23 Q1012 NOSIG=
202310242130 METAR WIHH 242130Z 21003KT 5000 HZ SCT020 25/23 Q1012 NOSIG=
202310242100 METAR WIHH 242100Z 22003KT 5000 HZ SCT020 25/23 Q1012 NOSIG=
202310242030 METAR WIHH NIL=
202310242000 METAR WIHH NIL=
202310241930 METAR WIHH NIL=
202310241900 METAR WIHH NIL=
202310241830 METAR WIHH NIL=
202310241800 METAR WIHH NIL=
202310241730 METAR WIHH NIL=
202310241700 METAR WIHH NIL=
202310241630 METAR WIHH NIL=
202310241600 METAR WIHH NIL=
202310241530 METAR WIHH 241530Z 18006KT 6000 SCT020 26/23 Q1013 RMK RA TO SE=
202310241500 METAR WIHH 241500Z 18003KT 6000 SCT020 27/21 Q1013 RMK RA TO SE=
202310241430 METAR WIHH 241430Z 23005KT 6000 SCT020 27/21 Q1013 RMK RA TO NE AND SE=
202310241400 METAR WIHH 241400Z 23005KT 6000 SCT020 27/21 Q1013 RMK RA TO SE=
202310241330 METAR WIHH 241330Z 18005KT 6000 SCT020 27/22 Q1012 NOSIG=
202310241300 METAR WIHH 241300Z 19008KT 6000 SCT020 27/22 Q1012 RMK RA TO SW=
202310241230 METAR WIHH 241230Z 21008KT 5000 HZ FEW018CB SCT020 27/22 Q1012 RMK CB AND RA TO SW=
202310241200 METAR WIHH 241200Z 20008KT 5000 HZ SCT020 27/22 Q1012 RMK RA TO SW=
202310241130 METAR WIHH 241130Z 12008KT 5000 HZ FEW018CB SCT019 29/21 Q1011 RMK CB AND RA TO SE-SW=
202310241100 METAR WIHH 241100Z 02010KT 5000 HZ FEW018CB SCT019 30/24 Q1010 RMK CB AND RA TO SE=
202310241030 METAR WIHH 241030Z 36010KT 6000 FEW018CB SCT019 31/24 Q1009 RMK CB AND RA TO SE=
202310241000 METAR WIHH 241000Z 33010KT 6000 FEW018CB SCT019 31/24 Q1009 RMK CB AND RA TO SE=
202310240930 METAR WIHH 240930Z 34010KT 6000 SCT020 32/24 Q1007 RMK RA TO SE=
202310240900 METAR WIHH 240900Z 34010KT 6000 FEW020 32/24 Q1007 NOSIG=
202310240830 METAR WIHH 240830Z 01010KT 6000 FEW020 33/23 Q1008 NOSIG=
202310240800 METAR WIHH 240800Z 01010KT 6000 SCT020 34/23 Q1008 NOSIG=
202310240730 METAR WIHH 240730Z 01012KT 6000 SCT020 34/23 Q1008 RMK RA TO SW=
202310240700 METAR WIHH 240700Z 01012KT 6000 SCT020 34/23 Q1009 RMK RA TO SW=
202310240630 METAR WIHH NIL=
202310240600 METAR WIHH 240600Z 03012KT 6000 SCT020 35/23 Q1009 NOSIG=
202310240530 METAR WIHH 240530Z 04008KT 5000 HZ SCT020 35/23 Q1010 RMK RA TO NE=
202310240500 METAR WIHH 240500Z 04008KT 5000 HZ SCT020 34/19 Q1011 RMK RA TO NE=
202310240430 METAR WIHH 240430Z 05005KT 6000 SCT020 35/19 Q1011 NOSIG=
202310240400 METAR WIHH 240400Z 13005KT 6000 SCT020 35/19 Q1012 NOSIG=
202310240330 METAR WIHH 240330Z 03008KT 6000 SCT020 34/20 Q1012 NOSIG=
202310240300 METAR WIHH 240300Z 05007KT 5000 HZ SCT020 34/20 Q1013 NOSIG=
202310240230 METAR WIHH 240230Z 27003KT 5000 HZ FEW020 32/21 Q1013 NOSIG=
202310240200 METAR WIHH 240200Z 15003KT 5000 HZ FEW020 31/20 Q1013 NOSIG=
202310240130 METAR WIHH 240130Z 24004KT 5000 HZ FEW020 31/20 Q1013 NOSIG=
202310240100 METAR WIHH 240100Z 19005KT 5000 HZ FEW020 30/21 Q1013 NOSIG=
202310240030 METAR WIHH 240030Z 21003KT 4000 HZ FEW020 29/21 Q1013 NOSIG=
202310240000 METAR WIHH 240000Z 24003KT 4000 HZ FEW020 27/21 Q1013 NOSIG=
202310232330 METAR WIHH 232330Z 22004KT 4000 HZ FEW020 27/21 Q1012 NOSIG=
202310232300 METAR WIHH 232300Z 22003KT 4000 HZ FEW020 26/21 Q1012 NOSIG=
202310232230 METAR WIHH 232230Z 24003KT 4000 HZ FEW020 26/22 Q1012 NOSIG=
202310232200 METAR WIHH 232200Z 23004KT 5000 HZ NSC 26/22 Q1011 NOSIG=
202310232130 METAR WIHH 232130Z 00000KT 5000 HZ NSC 25/22 Q1011 NOSIG=
202310232100 METAR WIHH 232100Z 00000KT 5000 HZ NSC 26/22 Q1011 NOSIG=
202310232030 METAR WIHH NIL=
202310232000 METAR WIHH NIL=
202310231930 METAR WIHH NIL=
202310231900 METAR WIHH NIL=
202310231830 METAR WIHH NIL=
202310231800 METAR WIHH NIL=
202310231730 METAR WIHH NIL=
202310231700 METAR WIHH 231700Z 10003KT 6000 FEW020 28/22 Q1012 NOSIG=
202310231630 METAR WIHH 231630Z 12003KT 6000 FEW020 28/22 Q1012 NOSIG=
202310231600 METAR WIHH 231600Z 12003KT 6000 FEW020 28/21 Q1012 NOSIG=
202310231530 METAR WIHH 231530Z 18003KT 6000 FEW020 28/21 Q1012 NOSIG=
202310231500 METAR WIHH 231500Z 18004KT 6000 FEW020 28/21 Q1012 NOSIG=
202310231430 METAR WIHH 231430Z 09003KT 7000 FEW020 29/21 Q1012 NOSIG=
202310231400 METAR WIHH 231400Z 00000KT 7000 FEW020 28/21 Q1012 NOSIG=
202310231330 METAR WIHH 231330Z 00000KT 7000 FEW020 29/21 Q1012 NOSIG=
202310231300 METAR WIHH 231300Z 09003KT 7000 FEW020 30/20 Q1012 NOSIG=
202310231230 METAR WIHH 231230Z 32003KT 7000 FEW020 29/21 Q1011 NOSIG=
202310231200 METAR WIHH 231200Z 31003KT 7000 FEW020 30/21 Q1011 NOSIG=
202310231130 METAR WIHH 231130Z 33003KT 6000 SCT020 30/21 Q1011 NOSIG=
202310231100 METAR WIHH 231100Z 02003KT 6000 SCT020 31/20 Q1010 NOSIG=
202310231030 METAR WIHH 231030Z 01005KT 6000 FEW020 31/22 Q1010 NOSIG=
202310231000 METAR WIHH 231000Z 02010KT 6000 FEW020 31/22 Q1009 NOSIG=
202310230930 METAR WIHH 230930Z 34010KT 6000 FEW020 31/20 Q1009 NOSIG=
202310230900 METAR WIHH 230900Z 01010KT 6000 FEW020 33/20 Q1008 NOSIG=
202310230830 METAR WIHH 230830Z 03015KT 6000 FEW020 34/19 Q1008 NOSIG=
202310230800 METAR WIHH 230800Z 01010KT 6000 FEW020 35/19 Q1008 NOSIG=
202310230730 METAR WIHH 230730Z 04007KT 6000 SCT020 35/20 Q1008 NOSIG=
202310230700 METAR WIHH 230700Z 04010KT 6000 SCT020 35/21 Q1008 NOSIG=
202310230630 METAR WIHH 230630Z 05012KT 6000 SCT020 36/21 Q1009 NOSIG=
202310230600 METAR WIHH 230600Z 08012KT 6000 SCT020 35/18 Q1010 NOSIG=
202310230530 METAR WIHH 230530Z 10012KT 6000 SCT020 35/18 Q1010 NOSIG=
202310230500 METAR WIHH 230500Z 09010KT 6000 SCT020 35/17 Q1011 NOSIG=
202310230430 METAR WIHH 230430Z 10008KT 6000 SCT020 35/17 Q1011 NOSIG=
202310230400 METAR WIHH 230400Z 08009KT 6000 SCT020 35/19 Q1012 NOSIG=
202310230330 METAR WIHH 230330Z 03005KT 6000 SCT020 34/20 Q1012 NOSIG=
202310230300 METAR WIHH 230300Z 07006KT 6000 SCT020 33/21 Q1013 NOSIG=
202310230230 METAR WIHH 230230Z 05007KT 6000 SCT020 32/21 Q1013 NOSIG=
202310230200 METAR WIHH 230200Z 20004KT 6000 FEW020 31/23 Q1013 NOSIG=
202310230130 METAR WIHH 230130Z 17003KT 6000 FEW020 30/23 Q1013 NOSIG=
202310230100 METAR WIHH 230100Z 13004KT 6000 NSC 30/23 Q1013 NOSIG=
202310230030 METAR WIHH 230030Z 00000KT 5000 HZ NSC 29/22 Q1013 NOSIG=
202310230000 METAR WIHH 230000Z 00000KT 5000 HZ NSC 27/22 Q1013 NOSIG=
202310222330 METAR WIHH 222330Z 24003KT 5000 HZ NSC 26/22 Q1013 NOSIG=
202310222300 METAR WIHH 222300Z 00000KT 5000 HZ NSC 26/23 Q1012 NOSIG=
202310222230 METAR WIHH 222230Z 00000KT 5000 HZ NSC 25/23 Q1012 NOSIG=
202310222200 METAR WIHH 222200Z 00000KT 6000 NSC 26/23 Q1012 NOSIG=
202310222130 METAR WIHH 222130Z 16002KT 6000 NSC 25/23 Q1012 NOSIG=
202310222100 METAR WIHH NIL=
202310222030 METAR WIHH NIL=
202310222000 METAR WIHH NIL=
202310221930 METAR WIHH NIL=
202310221900 METAR WIHH NIL=
202310221830 METAR WIHH NIL=
202310221800 METAR WIHH NIL=
202310221730 METAR WIHH 221730Z 00000KT 5000 HZ FEW020 28/23 Q1012 NOSIG=
202310221700 METAR WIHH 221700Z 00000KT 5000 HZ FEW020 29/23 Q1013 NOSIG=
202310221630 METAR WIHH 221630Z 15002KT 6000 FEW020 29/23 Q1013 NOSIG=
202310221600 METAR WIHH 221600Z 06003KT 7000 FEW020 30/23 Q1013 NOSIG=
202310221530 METAR WIHH 221530Z 04003KT 7000 FEW020 30/23 Q1013 NOSIG=
202310221500 METAR WIHH 221500Z 04003KT 7000 FEW020 30/23 Q1013 NOSIG=
202310221430 METAR WIHH 221430Z 03004KT 7000 FEW020 30/23 Q1013 NOSIG=
202310221400 METAR WIHH 221400Z 05004KT 7000 SCT020 31/23 Q1013 NOSIG=
202310221330 METAR WIHH 221330Z 12004KT 7000 SCT020 30/22 Q1013 NOSIG=
202310221300 METAR WIHH 221300Z 03004KT 7000 SCT020 31/22 Q1012 NOSIG=
202310221230 METAR WIHH 221230Z 04004KT 7000 SCT020 32/21 Q1012 NOSIG=
202310221200 METAR WIHH 221200Z 03004KT 7000 SCT020 31/21 Q1012 NOSIG=
202310221130 METAR WIHH 221130Z 03008KT 6000 SCT020 31/22 Q1011 NOSIG=
202310221100 METAR WIHH 221100Z 04008KT 6000 SCT020 31/22 Q1011 RMK RA TO S=
202310221030 METAR WIHH 221030Z 04008KT 6000 FEW018CB SCT019 31/22 Q1010 RMK CB AND RA TO SE=
202310221000 METAR WIHH 221000Z 02008KT 6000 FEW020 32/22 Q1009 RMK RA TO SE=
202310220930 METAR WIHH NIL=
202310220900 METAR WIHH 220900Z 34008KT 6000 FEW020 34/21 Q1008 NOSIG=
202310220830 METAR WIHH 220830Z 33010KT 6000 FEW020 35/20 Q1009 NOSIG=
202310220800 METAR WIHH 220800Z 03010KT 6000 FEW020 34/20 Q1009 NOSIG=
202310220730 METAR WIHH 220730Z 02010KT 6000 FEW020 35/19 Q1009 NOSIG=
202310220700 METAR WIHH 220700Z 03010KT 6000 FEW020 35/21 Q1009 NOSIG=
202310220630 METAR WIHH 220630Z 02010KT 6000 SCT020 36/21 Q1010 NOSIG=
202310220600 METAR WIHH 220600Z 03010KT 6000 SCT020 36/21 Q1010 NOSIG=
202310220530 METAR WIHH 220530Z 02010KT 6000 SCT020 36/20 Q1010 NOSIG=
202310220500 METAR WIHH 220500Z 06005KT 5000 HZ SCT020 38/17 Q1012 NOSIG=
202310220430 METAR WIHH 220430Z 31008KT 5000 HZ FEW020 37/17 Q1012 NOSIG=
202310220400 METAR WIHH 220400Z 05008KT 5000 HZ FEW020 35/19 Q1012 NOSIG=
202310220330 METAR WIHH 220330Z 10004KT 5000 HZ FEW020 35/19 Q1014 NOSIG=
202310220300 METAR WIHH 220300Z 31004KT 5000 HZ FEW020 34/20 Q1014 NOSIG=
202310220230 METAR WIHH 220230Z 30003KT 5000 HZ FEW020 33/20 Q1014 NOSIG=
202310220200 METAR WIHH 220200Z 36003KT 5000 HZ FEW020 32/22 Q1014 NOSIG=
202310220130 METAR WIHH 220130Z 20003KT 5000 HZ NSC 31/22 Q1014 NOSIG=
202310220100 METAR WIHH 220100Z 19003KT 5000 HZ NSC 30/24 Q1014 NOSIG=
202310220030 METAR WIHH 220030Z 19003KT 4000 HZ NSC 29/23 Q1014 NOSIG=
202310220000 METAR WIHH 220000Z 00000KT 4000 HZ NSC 28/23 Q1013 NOSIG=
202310212330 METAR WIHH 212330Z 00000KT 4000 HZ FEW020 26/23 Q1013 NOSIG=
202310212300 METAR WIHH 212300Z 00000KT 4000 HZ FEW020 26/23 Q1013 NOSIG=
202310212230 METAR WIHH 212230Z 00000KT 4000 HZ FEW020 26/23 Q1012 NOSIG=
202310212200 METAR WIHH 212200Z 00000KT 6000 FEW020 27/23 Q1012 NOSIG=
202310212130 METAR WIHH NIL=
202310212100 METAR WIHH NIL=
202310212030 METAR WIHH NIL=
202310212000 METAR WIHH NIL=
202310211930 METAR WIHH NIL=
202310211900 METAR WIHH NIL=
202310211830 METAR WIHH NIL=
202310211800 METAR WIHH NIL=
202310211730 METAR WIHH NIL=
202310211700 METAR WIHH NIL=
202310211630 METAR WIHH NIL=
202310211600 METAR WIHH NIL=
202310211530 METAR WIHH NIL=
202310211500 METAR WIHH 211500Z 19003KT 6000 FEW020 28/23 Q1013 NOSIG=
202310211430 METAR WIHH 211430Z 00000KT 6000 FEW020 28/23 Q1013 NOSIG=
202310211400 METAR WIHH 211400Z 00000KT 6000 FEW020 28/23 Q1013 NOSIG=
202310211330 METAR WIHH 211330Z 22003KT 6000 FEW020 28/23 Q1013 NOSIG=
202310211300 METAR WIHH 211300Z 02004KT 6000 SCT020 30/24 Q1012 NOSIG=
202310211230 METAR WIHH 211230Z 02004KT 6000 SCT020 30/24 Q1012 NOSIG=
202310211200 METAR WIHH 211200Z 04004KT 6000 SCT020 30/24 Q1011 NOSIG=
202310211130 METAR WIHH 211130Z 36003KT 6000 SCT020 30/24 Q1011 RMK RA TO S=
202310211100 METAR WIHH 211100Z 34005KT 6000 SCT020 31/24 Q1011 RMK RA TO S=
202310211030 METAR WIHH 211030Z 32005KT 6000 FEW018CB SCT020 31/23 Q1009 RMK CB AND RA TO S=
202310211000 METAR WIHH 211000Z 35006KT 7000 FEW018CB SCT020 32/23 Q1009 RMK CB AND RA TO S=
202310210930 METAR WIHH 210930Z 02012KT 7000 FEW018CB FEW020 33/23 Q1009 RMK RA TO S=
202310210900 METAR WIHH 210900Z 35013KT 7000 FEW020 34/23 Q1008 NOSIG=
202310210830 METAR WIHH 210830Z 36013KT 7000 FEW020 34/22 Q1008 NOSIG=
202310210800 METAR WIHH 210800Z 01013KT 7000 FEW020 35/23 Q1009 NOSIG=
202310210730 METAR WIHH 210730Z 01011KT 7000 FEW020 35/23 Q1009 NOSIG=
202310210700 METAR WIHH 210700Z 05015KT 7000 FEW020 36/23 Q1009 NOSIG=
202310210630 METAR WIHH 210630Z 01014KT 7000 FEW020 36/22 Q1009 NOSIG=
202310210600 METAR WIHH 210600Z 03012KT 7000 FEW020 37/20 Q1010 NOSIG=
202310210530 METAR WIHH 210530Z 03014KT 6000 FEW020 36/20 Q1010 NOSIG=
202310210500 METAR WIHH NIL=
202310210430 METAR WIHH 210430Z 04010KT 6000 NSC 36/20 Q1011 NOSIG=
202310210400 METAR WIHH 210400Z 01011KT 6000 NSC 35/17 Q1011 NOSIG=
202310210330 METAR WIHH 210330Z 06004KT 6000 NSC 35/17 Q1012 NOSIG=
202310210300 METAR WIHH 210300Z 09004KT 6000 NSC 35/17 Q1012 NOSIG=
202310210230 METAR WIHH 210230Z 09005KT 6000 NSC 34/19 Q1012 NOSIG=
202310210200 METAR WIHH 210200Z 09008KT 5000 HZ NSC 33/19 Q1013 NOSIG=
202310210130 METAR WIHH 210130Z 11006KT 3000 HZ NSC 32/22 Q1013 NOSIG=
202310210100 METAR WIHH 210100Z 14005KT 3000 HZ NSC 31/23 Q1013 NOSIG=
202310210030 METAR WIHH 210030Z 13003KT 3000 HZ FEW020 29/24 Q1012 NOSIG=
202310210000 METAR WIHH 210000Z 00000KT 3000 HZ FEW020 28/24 Q1012 NOSIG=
202310202330 METAR WIHH 202330Z 18003KT 3000 HZ FEW020 27/24 Q1012 NOSIG=
202310202300 METAR WIHH 202300Z 00000KT 3000 HZ FEW020 27/24 Q1011 NOSIG=
202310202230 METAR WIHH 202230Z 16003KT 3000 HZ FEW020 27/23 Q1011 NOSIG=
202310202200 METAR WIHH 202200Z 15003KT 4000 HZ FEW020 26/24 Q1011 NOSIG=
202310202130 METAR WIHH 202130Z 17003KT 4000 HZ FEW020 26/23 Q1011 NOSIG=
202310202100 METAR WIHH 202100Z 00000KT 4000 HZ FEW020 26/23 Q1011 NOSIG=
202310202030 METAR WIHH NIL=
202310202000 METAR WIHH NIL=
202310201930 METAR WIHH NIL=
202310201900 METAR WIHH NIL=
202310201830 METAR WIHH NIL=
202310201800 METAR WIHH NIL=
202310201730 METAR WIHH NIL=
202310201700 METAR WIHH 201700Z 00000KT 6000 FEW020 27/23 Q1013 NOSIG=
202310201630 METAR WIHH 201630Z 00000KT 6000 FEW020 28/23 Q1013 NOSIG=
202310201600 METAR WIHH 201600Z 00000KT 6000 FEW020 28/23 Q1013 NOSIG=
202310201530 METAR WIHH 201530Z 00000KT 6000 FEW020 28/23 Q1013 NOSIG=
202310201500 METAR WIHH 201500Z 23003KT 6000 FEW020 28/23 Q1013 NOSIG=
202310201430 METAR WIHH 201430Z 22004KT 6000 FEW020 27/22 Q1013 NOSIG=
202310201400 METAR WIHH 201400Z 21004KT 6000 FEW020 27/22 Q1013 NOSIG=
202310201330 METAR WIHH NIL=
202310201300 METAR WIHH 201300Z 21005KT 6000 FEW020 28/22 Q1012 NOSIG=
202310201230 METAR WIHH 201230Z 21007KT 5000 HZ SCT018 29/23 Q1012 RMK RA TO SW=
202310201200 METAR WIHH 201200Z 21006KT 5000 HZ SCT020 29/23 Q1011 RMK RA TO S=
202310201130 METAR WIHH 201130Z 24010KT 5000 HZ SCT018 28/23 Q1011 TEMPO FM1200 4000 -RA BKN018 RMK RA TO S=
202310201100 METAR WIHH 201100Z 24010KT 5000 HZ SCT018 29/23 Q1011 TEMPO FM1130 4000 -RA BKN018 RMK RA TO S=
202310201030 METAR WIHH 201030Z 24008KT 5000 HZ SCT018 31/22 Q1011 RMK RA TO S=
202310201000 METAR WIHH NIL=
202310200930 METAR WIHH 200930Z 03012KT 6000 FEW018CB SCT019 32/22 Q1009 RMK CB AND RA TO S=
202310200900 METAR WIHH 200900Z 03012KT 6000 FEW018CB SCT019 32/21 Q1009 RMK CB AND RA TO S=
202310200830 METAR WIHH 200830Z 02014KT 6000 FEW018CB SCT019 33/21 Q1008 RMK CB AND RA TO S=
202310200800 METAR WIHH 200800Z 02014KT 6000 FEW018CB SCT019 33/21 Q1008 RMK CB AND RA TO S=
202310200730 METAR WIHH 200730Z 03015KT 6000 SCT018 34/21 Q1008 RMK RA TO SW=
202310200700 METAR WIHH 200700Z 03012KT 6000 SCT018 33/25 Q1009 NOSIG=
202310200630 METAR WIHH 200630Z 35012KT 6000 SCT020 34/23 Q1009 NOSIG=
202310200600 METAR WIHH 200600Z 03012KT 6000 FEW020 35/23 Q1009 NOSIG=
202310200530 METAR WIHH 200530Z 04011KT 6000 FEW020 36/20 Q1011 NOSIG=
202310200500 METAR WIHH 200500Z 06010KT 6000 FEW020 36/20 Q1011 NOSIG=
202310200430 METAR WIHH 200430Z 06010KT 6000 FEW020 35/20 Q1011 NOSIG=
202310200400 METAR WIHH 200400Z 06010KT 6000 FEW020 35/21 Q1011 NOSIG=
202310200330 METAR WIHH 200330Z 06010KT 6000 FEW020 35/22 Q1012 NOSIG=
202310200300 METAR WIHH 200300Z 03008KT 6000 NSC 33/21 Q1012 NOSIG=
202310200230 METAR WIHH 200230Z 09005KT 6000 NSC 33/21 Q1012 NOSIG=
202310200200 METAR WIHH 200200Z 12005KT 6000 NSC 32/21 Q1012 NOSIG=
202310200130 METAR WIHH 200130Z 12003KT 6000 NSC 31/22 Q1013 NOSIG=
202310200100 METAR WIHH 200100Z 16003KT 6000 NSC 31/23 Q1013 NOSIG=
202310200030 METAR WIHH 200030Z 16003KT 5000 HZ NSC 30/23 Q1013 NOSIG=
202310200000 METAR WIHH 200000Z 20004KT 5000 HZ NSC 28/23 Q1012 NOSIG=
202310192330 METAR WIHH 192330Z 19002KT 5000 HZ FEW020 27/23 Q1012 NOSIG=
202310192300 METAR WIHH 192300Z 17002KT 5000 HZ FEW020 27/23 Q1011 NOSIG=
202310192230 METAR WIHH 192230Z 14002KT 5000 HZ FEW020 27/23 Q1011 NOSIG=
202310192200 METAR WIHH 192200Z 13002KT 5000 HZ NSC 27/23 Q1011 NOSIG=
202310192130 METAR WIHH 192130Z 05003KT 5000 HZ NSC 27/23 Q1011 NOSIG=
202310192100 METAR WIHH 192100Z 11003KT 5000 HZ NSC 27/23 Q1011 NOSIG=
202310192030 METAR WIHH NIL=
202310192000 METAR WIHH NIL=
202310191930 METAR WIHH NIL=
202310191900 METAR WIHH NIL=
202310191830 METAR WIHH NIL=
202310191800 METAR WIHH NIL=
202310191730 METAR WIHH NIL=
202310191700 METAR WIHH 191700Z 15003KT 7000 FEW020 29/24 Q1013 NOSIG=
202310191630 METAR WIHH 191630Z 15003KT 7000 FEW020 29/24 Q1013 NOSIG=
202310191600 METAR WIHH 191600Z 13005KT 7000 FEW020 29/23 Q1013 NOSIG=
202310191530 METAR WIHH 191530Z 10007KT 7000 FEW020 29/23 Q1013 NOSIG=
202310191500 METAR WIHH 191500Z 07006KT 7000 FEW020 29/23 Q1013 NOSIG=
202310191430 METAR WIHH 191430Z 09005KT 8000 FEW020 29/23 Q1013 NOSIG=
202310191400 METAR WIHH 191400Z 07005KT 8000 FEW020 29/23 Q1013 NOSIG=
202310191330 METAR WIHH 191330Z 08007KT 8000 FEW020 29/23 Q1013 NOSIG=
202310191300 METAR WIHH 191300Z 08010KT 8000 FEW020 30/22 Q1012 NOSIG=
202310191230 METAR WIHH 191230Z 07010KT 8000 FEW020 30/22 Q1012 NOSIG=
202310191200 METAR WIHH 191200Z 05010KT 8000 FEW020 30/23 Q1011 NOSIG=
202310191130 METAR WIHH 191130Z 04016KT 8000 FEW020 30/23 Q1011 NOSIG=
202310191100 METAR WIHH 191100Z 06015KT 8000 FEW020 30/22 Q1011 NOSIG=
202310191030 METAR WIHH 191030Z 05015KT 8000 FEW020 31/22 Q1010 NOSIG=
202310191000 METAR WIHH 191000Z 02015KT 8000 FEW020 32/22 Q1010 NOSIG=
202310190930 METAR WIHH 190930Z 03015KT 8000 FEW020 32/21 Q1009 NOSIG=
202310190900 METAR WIHH 190900Z 04013KT 8000 FEW020 33/22 Q1009 NOSIG=
202310190830 METAR WIHH 190830Z 03017KT 8000 FEW020 34/22 Q1009 NOSIG=
202310190800 METAR WIHH 190800Z 05015KT 8000 FEW020 35/19 Q1009 NOSIG=
202310190730 METAR WIHH 190730Z 06020KT 8000 FEW020 35/20 Q1009 NOSIG=
202310190700 METAR WIHH NIL=
202310190630 METAR WIHH 190630Z 05017KT 8000 FEW020 35/21 Q1010 NOSIG=
202310190600 METAR WIHH 190600Z 05014KT 7000 FEW020 35/20 Q1010 NOSIG=
202310190530 METAR WIHH 190530Z 05017KT 7000 FEW020 35/20 Q1011 NOSIG=
202310190500 METAR WIHH 190500Z 07015KT 6000 SCT020 35/20 Q1011 NOSIG=
202310190430 METAR WIHH 190430Z 04016KT 6000 SCT020 35/21 Q1012 NOSIG=
202310190400 METAR WIHH 190400Z 08014KT 6000 SCT020 34/21 Q1012 NOSIG=
202310190330 METAR WIHH 190330Z 07014KT 6000 SCT020 34/21 Q1012 NOSIG=
202310190300 METAR WIHH 190300Z 09011KT 6000 SCT020 33/21 Q1013 NOSIG=
202310190230 METAR WIHH 190230Z 08013KT 6000 SCT020 32/21 Q1013 NOSIG=
202310190200 METAR WIHH 190200Z 11011KT 6000 FEW020 32/22 Q1013 NOSIG=
202310190130 METAR WIHH 190130Z 12012KT 6000 FEW020 31/22 Q1013 NOSIG=
202310190100 METAR WIHH 190100Z 10005KT 6000 FEW020 30/23 Q1013 NOSIG=
202310190030 METAR WIHH 190030Z 13005KT 4000 HZ NSC 30/22 Q1012 NOSIG=
202310190000 METAR WIHH 190000Z 18003KT 4000 HZ NSC 28/23 Q1012 NOSIG=
202310182330 METAR WIHH 182330Z 00000KT 4000 HZ NSC 25/23 Q1012 NOSIG=
202310182300 METAR WIHH 182300Z 00000KT 5000 HZ NSC 25/23 Q1012 NOSIG=
202310182230 METAR WIHH 182230Z 00000KT 5000 HZ NSC 25/23 Q1012 NOSIG=
202310182200 METAR WIHH 182200Z 00000KT 5000 HZ NSC 25/23 Q1011 NOSIG=
202310182130 METAR WIHH 182130Z 00000KT 6000 NSC 25/23 Q1011 NOSIG=
202310182100 METAR WIHH NIL=
202310182030 METAR WIHH NIL=
202310182000 METAR WIHH NIL=
202310181930 METAR WIHH NIL=
202310181900 METAR WIHH NIL=
202310181830 METAR WIHH NIL=
202310181800 METAR WIHH NIL=
202310181730 METAR WIHH NIL=
202310181700 METAR WIHH NIL=
202310181630 METAR WIHH NIL=
202310181600 METAR WIHH NIL=
202310181530 METAR WIHH NIL=
202310181500 METAR WIHH 181500Z 09006KT 9000 NSC 29/22 Q1013 NOSIG=
202310181430 METAR WIHH 181430Z 04004KT 9000 NSC 29/21 Q1012 NOSIG=
202310181400 METAR WIHH 181400Z 08005KT 9000 NSC 29/21 Q1012 NOSIG=
202310181330 METAR WIHH 181330Z 05005KT 8000 NSC 30/20 Q1012 NOSIG=
202310181300 METAR WIHH 181300Z 05005KT 8000 NSC 30/20 Q1011 NOSIG=
202310181230 METAR WIHH 181230Z 03005KT 8000 NSC 30/20 Q1010 NOSIG=
202310181200 METAR WIHH 181200Z 03012KT 8000 NSC 31/20 Q1010 NOSIG=
202310181130 METAR WIHH 181130Z 06012KT 8000 FEW022 31/19 Q1010 NOSIG=
202310181100 METAR WIHH 181100Z 02010KT 8000 FEW022 32/18 Q1009 NOSIG=
202310181030 METAR WIHH 181030Z 04012KT 8000 FEW020 32/18 Q1009 NOSIG=
202310181000 METAR WIHH 181000Z 04012KT 8000 FEW020 33/18 Q1009 NOSIG=
202310180930 METAR WIHH 180930Z 05012KT 8000 FEW020 35/18 Q1008 NOSIG=
202310180900 METAR WIHH 180900Z 03016KT 8000 FEW020 35/18 Q1008 NOSIG=
202310180830 METAR WIHH 180830Z 06012KT 8000 FEW020 37/21 Q1008 NOSIG=
202310180800 METAR WIHH 180800Z 03012KT 8000 FEW020 37/21 Q1008 NOSIG=
202310180730 METAR WIHH 180730Z 02012KT 8000 FEW020 37/20 Q1008 NOSIG=
202310180700 METAR WIHH 180700Z 03010KT 8000 FEW020 37/20 Q1009 NOSIG=
202310180630 METAR WIHH 180630Z 09015KT 6000 FEW020 37/18 Q1009 NOSIG=
202310180600 METAR WIHH 180600Z 03012KT 6000 FEW020 37/18 Q1009 NOSIG=
202310180530 METAR WIHH 180530Z 03015KT 6000 SCT018 37/18 Q1010 NOSIG=
202310180500 METAR WIHH 180500Z 06015KT 6000 SCT018 36/18 Q1010 NOSIG=
202310180430 METAR WIHH 180430Z 13017KT 6000 SCT020 36/18 Q1011 NOSIG=
202310180400 METAR WIHH 180400Z 12005KT 6000 SCT020 35/21 Q1012 NOSIG=
202310180330 METAR WIHH 180330Z 07003KT 6000 FEW020 35/21 Q1012 NOSIG=
202310180300 METAR WIHH 180300Z 04005KT 6000 NSC 34/21 Q1012 NOSIG=
202310180230 METAR WIHH 180230Z 06004KT 6000 NSC 33/21 Q1012 NOSIG=
202310180200 METAR WIHH 180200Z 02004KT 6000 NSC 32/21 Q1013 NOSIG=
202310180130 METAR WIHH 180130Z 04004KT 6000 NSC 32/21 Q1013 NOSIG=
202310180100 METAR WIHH 180100Z 20004KT 6000 FEW020 30/21 Q1013 NOSIG=
202310180030 METAR WIHH 180030Z 25004KT 5000 HZ FEW020 29/22 Q1013 NOSIG=
202310180000 METAR WIHH 180000Z 24003KT 5000 HZ FEW020 28/21 Q1012 NOSIG=
202310172330 METAR WIHH 172330Z 24003KT 5000 HZ FEW020 27/21 Q1012 NOSIG=
202310172300 METAR WIHH 172300Z 24004KT 4000 HZ FEW020 25/21 Q1012 NOSIG=
202310172230 METAR WIHH 172230Z 24003KT 4000 HZ FEW020 25/21 Q1011 NOSIG=
202310172200 METAR WIHH 172200Z 25003KT 5000 HZ FEW020 26/21 Q1011 NOSIG=
202310172130 METAR WIHH 172130Z 26003KT 5000 HZ FEW020 26/21 Q1011 NOSIG=
202310172100 METAR WIHH 172100Z 24004KT 5000 HZ FEW020 26/20 Q1011 NOSIG=
202310172030 METAR WIHH NIL=
202310172000 METAR WIHH NIL=
202310171930 METAR WIHH NIL=
202310171900 METAR WIHH NIL=
202310171830 METAR WIHH NIL=
202310171800 METAR WIHH NIL=
202310171730 METAR WIHH NIL=
202310171700 METAR WIHH 171700Z 00000KT 6000 FEW020 27/22 Q1012 NOSIG=
202310171630 METAR WIHH 171630Z 00000KT 6000 FEW020 27/22 Q1013 NOSIG=
202310171600 METAR WIHH 171600Z 00000KT 6000 FEW020 27/22 Q1013 NOSIG=
202310171530 METAR WIHH 171530Z 00000KT 6000 FEW020 28/21 Q1012 NOSIG=
202310171500 METAR WIHH 171500Z 00000KT 6000 FEW020 27/21 Q1012 NOSIG=
202310171430 METAR WIHH 171430Z 00000KT 6000 FEW020 28/21 Q1012 NOSIG=
202310171400 METAR WIHH 171400Z 13003KT 6000 FEW020 29/21 Q1012 NOSIG=
202310171330 METAR WIHH 171330Z 12003KT 6000 FEW020 30/21 Q1012 NOSIG=
202310171300 METAR WIHH 171300Z 08004KT 6000 FEW020 30/20 Q1011 NOSIG=
202310171230 METAR WIHH 171230Z 06008KT 6000 FEW020 31/20 Q1011 NOSIG=
202310171200 METAR WIHH 171200Z 05010KT 6000 FEW020 31/19 Q1010 NOSIG=
202310171130 METAR WIHH 171130Z 07010KT 7000 FEW020 31/19 Q1010 NOSIG=
202310171100 METAR WIHH 171100Z 07012KT 7000 FEW020 31/19 Q1009 NOSIG=
202310171030 METAR WIHH 171030Z 08012KT 7000 FEW020 32/17 Q1009 NOSIG=
202310171000 METAR WIHH 171000Z 08015KT 7000 FEW020 33/16 Q1008 NOSIG=
202310170930 METAR WIHH 170930Z 07015KT 7000 FEW020 33/14 Q1008 NOSIG=
202310170900 METAR WIHH 170900Z 07014KT 7000 FEW020 34/13 Q1008 NOSIG=
202310170830 METAR WIHH 170830Z 07020KT 7000 FEW020 35/13 Q1008 NOSIG=
202310170800 METAR WIHH 170800Z 07020KT 7000 FEW020 36/13 Q1008 NOSIG=
202310170730 METAR WIHH 170730Z 06018KT 7000 FEW020 37/15 Q1008 NOSIG=
202310170700 METAR WIHH 170700Z 05016KT 7000 FEW020 37/17 Q1008 NOSIG=
202310170630 METAR WIHH 170630Z 05017KT 6000 FEW020 37/17 Q1008 NOSIG=
202310170600 METAR WIHH 170600Z 06017KT 6000 FEW020 38/16 Q1009 NOSIG=
202310170530 METAR WIHH 170530Z 07015KT 6000 FEW020 38/17 Q1009 NOSIG=
202310170500 METAR WIHH 170500Z 08015KT 6000 FEW020 38/16 Q1010 NOSIG=
202310170430 METAR WIHH 170430Z 08015KT 6000 FEW020 38/17 Q1010 NOSIG=
202310170400 METAR WIHH 170400Z 10015KT 6000 FEW020 37/16 Q1011 NOSIG=
202310170330 METAR WIHH 170330Z 09012KT 6000 FEW020 36/18 Q1011 NOSIG=
202310170300 METAR WIHH 170300Z 09010KT 5000 HZ NSC 34/22 Q1012 NOSIG=
202310170230 METAR WIHH 170230Z 12006KT 5000 HZ NSC 33/22 Q1012 NOSIG=
202310170200 METAR WIHH 170200Z 05005KT 5000 HZ NSC 32/23 Q1012 NOSIG=
202310170130 METAR WIHH 170130Z 17005KT 5000 HZ NSC 32/23 Q1012 NOSIG=
202310170100 METAR WIHH 170100Z 21003KT 3000 HZ NSC 31/24 Q1012 NOSIG=
202310170030 METAR WIHH 170030Z 14003KT 3000 HZ NSC 30/24 Q1012 NOSIG=
202310170000 METAR WIHH 170000Z 16003KT 3000 HZ NSC 29/24 Q1012 NOSIG=
202310162330 METAR WIHH 162330Z 17003KT 4000 HZ FEW020 28/24 Q1011 NOSIG=
202310162300 METAR WIHH 162300Z 00000KT 4000 HZ FEW020 26/23 Q1011 NOSIG=
202310162230 METAR WIHH 162230Z 00000KT 5000 HZ FEW020 26/23 Q1011 NOSIG=
202310162200 METAR WIHH 162200Z 00000KT 6000 NSC 27/24 Q1011 NOSIG=
202310162130 METAR WIHH 162130Z 12003KT 6000 NSC 27/24 Q1010 NOSIG=
202310162100 METAR WIHH 162100Z 13004KT 6000 NSC 27/24 Q1010 NOSIG=
202310162030 METAR WIHH NIL=
202310162000 METAR WIHH NIL=
202310161930 METAR WIHH NIL=
202310161900 METAR WIHH NIL=
202310161830 METAR WIHH NIL=
202310161800 METAR WIHH NIL=
202310161730 METAR WIHH NIL=
202310161700 METAR WIHH 161700Z 00000KT 5000 HZ FEW020 29/24 Q1012 NOSIG=
202310161630 METAR WIHH 161630Z 15003KT 6000 FEW020 29/24 Q1012 NOSIG=
202310161600 METAR WIHH 161600Z 12004KT 6000 FEW020 30/23 Q1012 NOSIG=
202310161530 METAR WIHH 161530Z 06005KT 6000 FEW020 30/23 Q1012 NOSIG=
202310161500 METAR WIHH 161500Z 04005KT 6000 FEW020 30/23 Q1012 NOSIG=
202310161430 METAR WIHH 161430Z 03004KT 6000 FEW020 30/23 Q1012 NOSIG=
202310161400 METAR WIHH 161400Z 03004KT 6000 FEW020 30/24 Q1012 NOSIG=
202310161330 METAR WIHH 161330Z 36004KT 6000 FEW020 30/24 Q1011 NOSIG=
202310161300 METAR WIHH 161300Z 31003KT 6000 FEW020 30/24 Q1011 NOSIG=
202310161230 METAR WIHH 161230Z 33004KT 6000 FEW020 30/24 Q1010 NOSIG=
202310161200 METAR WIHH 161200Z 28004KT 6000 FEW020 30/24 Q1010 NOSIG=
202310161130 METAR WIHH 161130Z 33005KT 6000 FEW020 30/24 Q1010 NOSIG=
202310161100 METAR WIHH 161100Z 34008KT 6000 FEW020 31/24 Q1009 NOSIG=
202310161030 METAR WIHH 161030Z 33008KT 7000 FEW020 31/24 Q1008 NOSIG=
202310161000 METAR WIHH 161000Z 03008KT 7000 FEW020 32/23 Q1008 NOSIG=
202310160930 METAR WIHH 160930Z 36015KT 7000 FEW020 33/23 Q1008 NOSIG=
202310160900 METAR WIHH 160900Z 02015KT 7000 FEW020 33/24 Q1007 NOSIG=
202310160830 METAR WIHH 160830Z 36012KT 7000 FEW020 34/23 Q1007 NOSIG=
202310160800 METAR WIHH 160800Z 36012KT 7000 FEW020 35/23 Q1007 NOSIG=
202310160730 METAR WIHH 160730Z 33012KT 7000 FEW020 36/24 Q1007 NOSIG=
202310160700 METAR WIHH 160700Z 06012KT 7000 FEW020 37/18 Q1007 NOSIG=
202310160630 METAR WIHH 160630Z 09008KT 7000 FEW020 38/18 Q1008 NOSIG=
202310160600 METAR WIHH 160600Z 03012KT 7000 FEW020 38/17 Q1008 NOSIG=
202310160530 METAR WIHH 160530Z 03012KT 7000 FEW020 37/17 Q1009 NOSIG=
202310160500 METAR WIHH 160500Z 03010KT 6000 FEW020 36/19 Q1009 NOSIG=
202310160430 METAR WIHH 160430Z 14005KT 6000 SCT020 36/19 Q1010 NOSIG=
202310160400 METAR WIHH 160400Z 08009KT 6000 SCT020 36/20 Q1010 NOSIG=
202310160330 METAR WIHH 160330Z 12008KT 6000 FEW020 35/21 Q1011 NOSIG=
202310160300 METAR WIHH 160300Z 18008KT 6000 NSC 34/21 Q1011 NOSIG=
202310160230 METAR WIHH 160230Z 12006KT 5000 HZ NSC 33/21 Q1011 NOSIG=
202310160200 METAR WIHH 160200Z 18007KT 5000 HZ NSC 32/21 Q1012 NOSIG=
202310160130 METAR WIHH 160130Z 21006KT 5000 HZ NSC 32/22 Q1012 NOSIG=
202310160100 METAR WIHH 160100Z 19004KT 5000 HZ NSC 31/22 Q1012 NOSIG=
202310160030 METAR WIHH 160030Z 17006KT 5000 HZ NSC 28/22 Q1012 NOSIG=
202310160000 METAR WIHH 160000Z 0000KT 5000 HZ NSC 28/22 Q1012 NOSIG=
202310152330 METAR WIHH 152330Z 23003KT 4000 HZ NSC 27/22 Q1011 NOSIG=
202310152300 METAR WIHH 152300Z 22003KT 4000 HZ NSC 26/23 Q1011 NOSIG=
202310152230 METAR WIHH 152230Z 23004KT 5000 HZ NSC 26/22 Q1011 NOSIG=
202310152200 METAR WIHH 152200Z 22004KT 6000 NSC 26/22 Q1011 NOSIG=
202310152130 METAR WIHH 152130Z 24004KT 6000 NSC 26/22 Q1010 NOSIG=
202310152100 METAR WIHH 152100Z 23003KT 6000 NSC 25/22 Q1010 NOSIG=
202310152030 METAR WIHH NIL=
202310152000 METAR WIHH NIL=
202310151930 METAR WIHH NIL=
202310151900 METAR WIHH NIL=
202310151830 METAR WIHH NIL=
202310151800 METAR WIHH NIL=
202310151730 METAR WIHH NIL=
202310151700 METAR WIHH NIL=
202310151630 METAR WIHH NIL=
202310151600 METAR WIHH NIL=
202310151530 METAR WIHH NIL=
202310151500 METAR WIHH NIL=
202310151430 METAR WIHH 151430Z 08005KT 7000 NSC 29/24 Q1012 NOSIG=
202310151400 METAR WIHH 151400Z 10005KT 7000 NSC 30/24 Q1012 NOSIG=
202310151330 METAR WIHH 151330Z 08005KT 7000 NSC 30/23 Q1011 NOSIG=
202310151300 METAR WIHH 151300Z 04006KT 7000 NSC 30/22 Q1011 NOSIG=
202310151230 METAR WIHH 151230Z 07010KT 7000 NSC 30/22 Q1010 NOSIG=
202310151200 METAR WIHH 151200Z 09010KT 7000 NSC 30/22 Q1010 NOSIG=
202310151130 METAR WIHH 151130Z 03017KT 6000 FEW020 31/19 Q1009 NOSIG=
202310151100 METAR WIHH 151100Z 06017KT 6000 FEW020 31/19 Q1009 NOSIG=
202310151030 METAR WIHH 151030Z 06017KT 6000 FEW020 32/18 Q1009 NOSIG=
202310151000 METAR WIHH 151000Z 03020KT 6000 SCT020 33/17 Q1008 NOSIG=
202310150930 METAR WIHH 150930Z 05020KT 6000 SCT020 33/17 Q1008 NOSIG=
202310150900 METAR WIHH 150900Z 06020KT 6000 SCT020 35/16 Q1008 NOSIG=
202310150830 METAR WIHH 150830Z 03020KT 6000 SCT020 35/18 Q1008 NOSIG=
202310150800 METAR WIHH 150800Z 08020KT 6000 SCT020 36/17 Q1008 NOSIG=
202310150730 METAR WIHH 150730Z 06020KT 6000 SCT020 37/17 Q1008 NOSIG=
202310150700 METAR WIHH 150700Z 08020KT 6000 SCT020 37/17 Q1008 NOSIG=
202310150630 METAR WIHH 150630Z 06015KT 5000 HZ SCT020 37/18 Q1009 NOSIG=
202310150600 METAR WIHH NIL=
202310150530 METAR WIHH 150530Z 03013KT 5000 HZ SCT020 36/18 Q1011 NOSIG=
202310150500 METAR WIHH 150500Z 01012KT 5000 HZ SCT020 36/18 Q1011 NOSIG=
202310150430 METAR WIHH 150430Z 06012KT 5000 HZ SCT020 36/18 Q1011 NOSIG=
202310150400 METAR WIHH 150400Z 10010KT 5000 HZ SCT020 36/19 Q1011 NOSIG=
202310150330 METAR WIHH 150330Z 10005KT 5000 HZ SCT020 35/21 Q1012 NOSIG=
202310150300 METAR WIHH 150300Z 14008KT 5000 HZ SCT020 34/22 Q1012 NOSIG=
202310150230 METAR WIHH 150230Z 07008KT 5000 HZ FEW020 33/22 Q1012 NOSIG=
202310150200 METAR WIHH 150200Z 08008KT 5000 HZ FEW020 32/22 Q1012 NOSIG=
202310150130 METAR WIHH 150130Z 12005KT 5000 HZ FEW020 31/23 Q1012 NOSIG=
202310150100 METAR WIHH 150100Z 08003KT 5000 HZ FEW020 29/23 Q1012 NOSIG=
202310150030 METAR WIHH 150030Z 16003KT 5000 HZ FEW020 29/23 Q1012 NOSIG=
202310150000 METAR WIHH 150000Z 19003KT 5000 HZ SCT020 28/23 Q1012 NOSIG=
202310142330 METAR WIHH 142330Z 18003KT 5000 HZ SCT020 28/23 Q1012 NOSIG=
202310142300 METAR WIHH 142300Z 23002KT 5000 HZ SCT020 27/23 Q1011 NOSIG=
202310142230 METAR WIHH 142230Z 23002KT 5000 HZ SCT020 26/22 Q1011 NOSIG=
202310142200 METAR WIHH 142200Z 23002KT 5000 HZ SCT020 26/22 Q1011 NOSIG=
202310142130 METAR WIHH 142130Z 21003KT 5000 HZ FEW020 26/22 Q1011 NOSIG=
202310142100 METAR WIHH 142100Z 24003KT 5000 HZ FEW020 26/22 Q1011 NOSIG=
202310142030 METAR WIHH NIL=
202310142000 METAR WIHH NIL=
202310141930 METAR WIHH NIL=
202310141900 METAR WIHH NIL=
202310141830 METAR WIHH NIL=
202310141800 METAR WIHH NIL=
202310141730 METAR WIHH NIL=
202310141700 METAR WIHH 141700Z 00000KT 6000 FEW020 29/23 Q1012 NOSIG=
202310141630 METAR WIHH 141630Z 09002KT 6000 FEW020 29/23 Q1012 NOSIG=
202310141600 METAR WIHH 141600Z 00000KT 6000 FEW020 29/23 Q1011 NOSIG=
202310141530 METAR WIHH 141530Z 00000KT 6000 SCT020 29/23 Q1012 NOSIG=
202310141500 METAR WIHH 141500Z 00000KT 6000 SCT020 29/23 Q1011 NOSIG=
202310141430 METAR WIHH 141430Z 00000KT 6000 SCT020 29/23 Q1011 NOSIG=
202310141400 METAR WIHH 141400Z 15003KT 7000 SCT020 30/22 Q1011 NOSIG=
202310141330 METAR WIHH 141330Z 06003KT 7000 FEW020 29/23 Q1011 NOSIG=
202310141300 METAR WIHH 141300Z 33003KT 7000 SCT020 30/21 Q1011 NOSIG=
202310141230 METAR WIHH 141230Z 00000KT 7000 SCT020 30/22 Q1010 NOSIG=
202310141200 METAR WIHH 141200Z 36005KT 7000 SCT020 31/22 Q1010 NOSIG=
202310141130 METAR WIHH 141130Z 02005KT 7000 SCT020 31/21 Q1009 NOSIG=
202310141100 METAR WIHH 141100Z 08008KT 7000 SCT020 32/21 Q1009 NOSIG=
202310141030 METAR WIHH 141030Z 03006KT 7000 SCT020 32/21 Q1009 NOSIG=
202310141000 METAR WIHH 141000Z 06009KT 7000 FEW020 32/21 Q1008 NOSIG=
202310140930 METAR WIHH 140930Z 08007KT 7000 FEW020 33/21 Q1008 NOSIG=
202310140900 METAR WIHH 140900Z 01007KT 6000 FEW020 33/22 Q1008 NOSIG=
202310140830 METAR WIHH 140830Z 06015KT 6000 SCT020 34/22 Q1008 NOSIG=
202310140800 METAR WIHH 140800Z 05015KT 6000 SCT020 34/22 Q1008 NOSIG=
202310140730 METAR WIHH 140730Z 05009KT 6000 SCT020 35/22 Q1008 NOSIG=
202310140700 METAR WIHH 140700Z 34009KT 6000 SCT020 34/23 Q1008 NOSIG=
202310140630 METAR WIHH 140630Z 34010KT 6000 SCT020 34/23 Q1008 NOSIG=
202310140600 METAR WIHH 140600Z 07007KT 6000 SCT020 36/20 Q1009 NOSIG=
202310140530 METAR WIHH 140530Z 15005KT 6000 SCT020 34/19 Q1009 NOSIG=
202310140500 METAR WIHH 140500Z 29005KT 6000 SCT020 34/20 Q1010 NOSIG=
202310140430 METAR WIHH 140430Z 11007KT 5000 HZ SCT020 34/21 Q1011 NOSIG=
202310140400 METAR WIHH 140400Z 05008KT 5000 HZ SCT020 34/22 Q1011 NOSIG=
202310140330 METAR WIHH 140330Z 09008KT 4000 HZ SCT020 33/22 Q1012 NOSIG=
202310140300 METAR WIHH 140300Z 07007KT 4000 HZ SCT020 33/23 Q1012 NOSIG=
202310140230 METAR WIHH 140230Z 04005KT 4000 HZ SCT020 32/23 Q1012 NOSIG=
202310140200 METAR WIHH 140200Z 09010KT 4000 HZ SCT020 32/23 Q1012 NOSIG=
202310140130 METAR WIHH 140130Z 06007KT 4000 HZ SCT020 31/23 Q1012 NOSIG=
202310140100 METAR WIHH 140100Z 09005KT 4000 HZ NSC 30/23 Q1012 NOSIG=
202310140030 METAR WIHH 140030Z 14003KT 5000 HZ NSC 29/23 Q1012 NOSIG=
202310140000 METAR WIHH 140000Z 20003KT 6000 NSC 28/22 Q1012 NOSIG=
202310132330 METAR WIHH 132330Z 24003KT 6000 NSC 27/22 Q1012 NOSIG=
202310132300 METAR WIHH 132300Z 25003KT 6000 NSC 26/22 Q1011 NOSIG=
202310132230 METAR WIHH 132230Z 14003KT 6000 NSC 26/21 Q1011 NOSIG=
202310132200 METAR WIHH 132200Z 18003KT 6000 NSC 26/21 Q1011 NOSIG=
202310132130 METAR WIHH 132130Z 00000KT 6000 NSC 26/22 Q1011 NOSIG=
202310132100 METAR WIHH 132100Z 22003KT 7000 NSC 27/22 Q1011 NOSIG=
202310132030 METAR WIHH NIL=
202310132000 METAR WIHH NIL=
202310131930 METAR WIHH NIL=
202310131900 METAR WIHH NIL=
202310131830 METAR WIHH NIL=
202310131800 METAR WIHH NIL=
202310131730 METAR WIHH NIL=
202310131700 METAR WIHH 131700Z 00000KT 5000 HZ FEW020 27/24 Q1012 NOSIG=
202310131630 METAR WIHH 131630Z 15003KT 5000 HZ FEW020 27/24 Q1012 NOSIG=
202310131600 METAR WIHH 131600Z 15003KT 6000 FEW020 28/24 Q1012 NOSIG=
202310131530 METAR WIHH 131530Z 21004KT 6000 FEW020 28/23 Q1012 NOSIG=
202310131500 METAR WIHH 131500Z 24004KT 6000 FEW020 28/23 Q1012 NOSIG=
202310131430 METAR WIHH 131430Z 23005KT 6000 SCT020 28/23 Q1012 NOSIG=
202310131400 METAR WIHH 131400Z 24006KT 6000 SCT020 28/23 Q1012 NOSIG=
202310131330 METAR WIHH 131330Z 25006KT 6000 SCT020 29/23 Q1012 NOSIG=
202310131300 METAR WIHH 131300Z 31003KT 6000 FEW020 30/24 Q1011 NOSIG=
202310131230 METAR WIHH 131230Z 34004KT 6000 SCT020 30/24 Q1011 NOSIG=
202310131200 METAR WIHH 131200Z 01004KT 6000 SCT020 30/24 Q1011 NOSIG=
202310131130 METAR WIHH 131130Z 33004KT 6000 SCT020 30/24 Q1010 NOSIG=
202310131100 METAR WIHH 131100Z 31006KT 6000 SCT020 31/24 Q1010 NOSIG=
202310131030 METAR WIHH 131030Z 33008KT 7000 FEW020 31/23 Q1009 NOSIG=
202310131000 METAR WIHH 131000Z 36012KT 7000 FEW020 32/22 Q1009 NOSIG=
202310130930 METAR WIHH 130930Z 02012KT 7000 FEW020 33/22 Q1008 NOSIG=
202310130900 METAR WIHH 130900Z 03010KT 7000 FEW020 34/22 Q1008 NOSIG=
202310130830 METAR WIHH 130830Z 02013KT 7000 FEW020 34/21 Q1008 NOSIG=
202310130800 METAR WIHH 130800Z 35014KT 6000 SCT020 35/22 Q1008 NOSIG=
202310130730 METAR WIHH 130730Z 36016KT 6000 SCT020 36/22 Q1009 NOSIG=
202310130700 METAR WIHH 130700Z 36014KT 6000 SCT020 36/21 Q1009 NOSIG=
202310130630 METAR WIHH 130630Z 06014KT 6000 SCT020 37/18 Q1010 NOSIG=
202310130600 METAR WIHH 130600Z 04010KT 6000 SCT020 36/18 Q1010 NOSIG=
202310130530 METAR WIHH 130530Z 09004KT 6000 SCT020 35/19 Q1010 NOSIG=
202310130500 METAR WIHH 130500Z 35004KT 6000 SCT020 35/20 Q1011 NOSIG=
202310130430 METAR WIHH 130430Z 02005KT 5000 HZ SCT020 34/21 Q1012 NOSIG=
202310130400 METAR WIHH 130400Z 07009KT 5000 HZ SCT020 35/22 Q1012 NOSIG=
202310130330 METAR WIHH 130330Z 35004KT 5000 HZ SCT020 33/23 Q1013 NOSIG=
202310130300 METAR WIHH 130300Z 04006KT 5000 HZ SCT020 33/23 Q1013 NOSIG=
202310130230 METAR WIHH 130230Z 08005KT 5000 HZ SCT020 32/23 Q1014 NOSIG=
202310130200 METAR WIHH 130200Z 14006KT 4000 HZ SCT020 32/24 Q1014 NOSIG=
202310130130 METAR WIHH 130130Z 08004KT 4000 HZ FEW020 31/23 Q1014 NOSIG=
202310130100 METAR WIHH 130100Z 16004KT 3000 HZ FEW020 30/24 Q1014 NOSIG=
202310130030 METAR WIHH 130030Z 19003KT 3000 HZ FEW020 29/24 Q1014 NOSIG=
202310130000 METAR WIHH 130000Z 00000KT 3000 HZ FEW020 28/24 Q1013 NOSIG=
202310122330 METAR WIHH 122330Z 22003KT 3000 HZ FEW020 28/24 Q1013 NOSIG=
202310122300 METAR WIHH 122300Z 22003KT 3000 HZ FEW020 27/23 Q1013 NOSIG=
202310122230 METAR WIHH 122230Z 24003KT 3000 HZ FEW020 27/24 Q1012 NOSIG=
202310122200 METAR WIHH 122200Z 21003KT 4000 HZ FEW020 28/24 Q1012 NOSIG=
202310122130 METAR WIHH 122130Z 22003KT 4000 HZ FEW020 28/24 Q1012 NOSIG=
202310122100 METAR WIHH 122100Z 23003KT 4000 HZ FEW020 28/24 Q1012 NOSIG=
202310122030 METAR WIHH NIL=
202310122000 METAR WIHH NIL=
202310121930 METAR WIHH NIL=
202310121900 METAR WIHH NIL=
202310121830 METAR WIHH NIL=
202310121800 METAR WIHH NIL=
202310121730 METAR WIHH NIL=
202310121700 METAR WIHH 121700Z 00000KT 6000 FEW020 29/24 Q1013 NOSIG=
202310121630 METAR WIHH 121630Z 06002KT 6000 SCT020 29/24 Q1013 NOSIG=
202310121600 METAR WIHH 121600Z 09003KT 6000 SCT020 29/24 Q1013 NOSIG=
202310121530 METAR WIHH 121530Z 03003KT 6000 SCT020 29/24 Q1013 NOSIG=
202310121500 METAR WIHH 121500Z 03005KT 6000 SCT020 30/24 Q1013 NOSIG=
202310121430 METAR WIHH 121430Z 03003KT 6000 FEW020 29/24 Q1013 NOSIG=
202310121400 METAR WIHH 121400Z 03004KT 6000 FEW020 30/24 Q1013 NOSIG=
202310121330 METAR WIHH 121330Z 03004KT 6000 FEW020 30/24 Q1012 NOSIG=
202310121300 METAR WIHH 121300Z 01005KT 6000 FEW020 30/24 Q1012 NOSIG=
202310121230 METAR WIHH NIL=
202310121200 METAR WIHH 121200Z 03008KT 6000 FEW020 30/24 Q1011 NOSIG=
202310121130 METAR WIHH 121130Z 04010KT 6000 SCT020 30/24 Q1010 NOSIG=
202310121100 METAR WIHH 121100Z 02010KT 6000 FEW020 31/23 Q1010 NOSIG=
202310121030 METAR WIHH 121030Z 02010KT 7000 FEW020 31/23 Q1010 NOSIG=
202310121000 METAR WIHH 121000Z 02012KT 7000 FEW020 32/23 Q1009 NOSIG=
202310120930 METAR WIHH 120930Z 03015KT 7000 SCT020 32/22 Q1009 NOSIG=
202310120900 METAR WIHH 120900Z 03015KT 7000 SCT020 33/22 Q1009 NOSIG=
202310120830 METAR WIHH 120830Z 06015KT 6000 SCT020 33/23 Q1009 NOSIG=
202310120800 METAR WIHH 120800Z 03015KT 6000 SCT020 35/22 Q1009 NOSIG=
202310120730 METAR WIHH 120730Z 03015KT 6000 SCT020 35/21 Q1009 NOSIG=
202310120700 METAR WIHH 120700Z 36013KT 6000 SCT020 35/20 Q1009 NOSIG=
202310120630 METAR WIHH 120630Z 03018KT 6000 SCT020 36/20 Q1009 NOSIG=
202310120600 METAR WIHH 120600Z 03015KT 6000 SCT020 37/21 Q1010 NOSIG=
202310120530 METAR WIHH 120530Z 06011KT 6000 SCT020 36/19 Q1010 NOSIG=
202310120500 METAR WIHH 120500Z 03010KT 6000 SCT020 36/19 Q1011 NOSIG=
202310120430 METAR WIHH 120430Z 03010KT 6000 SCT020 35/20 Q1011 NOSIG=
202310120400 METAR WIHH 120400Z 15010KT 6000 SCT020 35/20 Q1012 NOSIG=
202310120330 METAR WIHH 120330Z 12008KT 6000 FEW020 34/21 Q1012 NOSIG=
202310120300 METAR WIHH 120300Z 06008KT 6000 FEW020 34/21 Q1013 NOSIG=
202310120230 METAR WIHH NIL=
202310120200 METAR WIHH NIL=
202310120100 METAR WIHH NIL=
202310120030 METAR WIHH 120030Z 09002KT 4000 HZ NSC 30/24 Q1013 NOSIG=
202310120000 METAR WIHH 120000Z 12003KT 4000 HZ FEW020 28/24 Q1013 NOSIG=
202310112330 METAR WIHH 112330Z 12003KT 4000 HZ FEW020 27/24 Q1013 NOSIG=
202310112300 METAR WIHH 112300Z 13004KT 4000 HZ FEW020 26/24 Q1012 NOSIG=
202310112230 METAR WIHH 112230Z 00000KT 3000 HZ FEW020 26/24 Q1012 NOSIG=
202310112200 METAR WIHH 112200Z 00000KT 4000 HZ FEW020 26/24 Q1012 NOSIG=
202310112130 METAR WIHH 112130Z 14003KT 4000 HZ FEW020 27/24 Q1011 NOSIG=
202310112100 METAR WIHH 112100Z 16003KT 5000 HZ FEW020 27/24 Q1011 NOSIG=
202310112030 METAR WIHH NIL=
202310112000 METAR WIHH NIL=
202310111930 METAR WIHH NIL=
202310111900 METAR WIHH NIL=
202310111830 METAR WIHH NIL=
202310111800 METAR WIHH NIL=
202310111730 METAR WIHH NIL=
202310111700 METAR WIHH 111700Z 00000KT 5000 HZ FEW020 27/24 Q1012 NOSIG=
202310111630 METAR WIHH 111630Z 00000KT 5000 HZ FEW020 27/24 Q1012 NOSIG=
202310111600 METAR WIHH 111600Z 00000KT 5000 HZ FEW020 28/24 Q1012 NOSIG=
202310111530 METAR WIHH 111530Z 19003KT 6000 SCT020 29/24 Q1012 NOSIG=
202310111500 METAR WIHH 111500Z 20004KT 6000 SCT020 29/24 Q1012 NOSIG=
202310111430 METAR WIHH 111430Z 06003KT 6000 SCT020 30/23 Q1012 NOSIG=
202310111400 METAR WIHH 111400Z 07004KT 6000 SCT020 30/23 Q1012 NOSIG=
202310111330 METAR WIHH 111330Z 06004KT 6000 SCT020 30/23 Q1012 NOSIG=
202310111300 METAR WIHH 111300Z 01003KT 6000 SCT020 30/23 Q1012 NOSIG=
202310111230 METAR WIHH 111230Z 02003KT 6000 SCT020 30/23 Q1011 NOSIG=
202310111200 METAR WIHH 111200Z 02004KT 6000 SCT020 30/23 Q1011 NOSIG=
202310111130 METAR WIHH 111130Z 03006KT 6000 SCT020 31/23 Q1010 NOSIG=
202310111100 METAR WIHH 111100Z 01006KT 6000 SCT020 31/23 Q1010 RMK RA TO SW=
202310111030 METAR WIHH 111030Z 35007KT 6000 FEW018CB SCT020 31/23 Q1009 RMK CB AND RA TO S=
202310111000 METAR WIHH 111000Z 03006KT 6000 FEW018CB SCT020 31/23 Q1009 RMK CB AND RA TO S=
202310110930 METAR WIHH NIL=
202310110900 METAR WIHH NIL=
202310110830 METAR WIHH 110830Z 02010KT 6000 FEW020 35/21 Q1007 NOSIG=
202310110800 METAR WIHH 110800Z 02013KT 6000 FEW020 35/22 Q1007 NOSIG=
202310110730 METAR WIHH 110730Z 34008KT 6000 SCT020 35/22 Q1008 NOSIG=
202310110700 METAR WIHH 110700Z 04012KT 6000 SCT020 35/21 Q1008 NOSIG=
202310110630 METAR WIHH 110630Z 04010KT 6000 SCT020 36/22 Q1009 NOSIG=
202310110600 METAR WIHH 110600Z 06010KT 6000 SCT020 36/22 Q1009 NOSIG=
202310110530 METAR WIHH 110530Z 05010KT 6000 SCT020 35/22 Q1010 NOSIG=
202310110500 METAR WIHH 110500Z 03010KT 6000 SCT020 35/22 Q1010 NOSIG=
202310110430 METAR WIHH 110430Z 09005KT 6000 SCT020 34/22 Q1011 NOSIG=
202310110400 METAR WIHH 110400Z 10006KT 6000 SCT020 34/22 Q1011 NOSIG=
202310110330 METAR WIHH 110330Z 01005KT 6000 FEW020 33/23 Q1012 NOSIG=
202310110300 METAR WIHH 110300Z 12005KT 5000 HZ FEW020 33/23 Q1012 NOSIG=
202310110230 METAR WIHH 110230Z 11006KT 6000 FEW020 32/23 Q1012 NOSIG=
202310110200 METAR WIHH 110200Z 11006KT 6000 FEW020 31/23 Q1012 NOSIG=
202310110130 METAR WIHH 110130Z 08005KT 5000 HZ FEW020 31/24 Q1012 NOSIG=
202310110100 METAR WIHH 110100Z 12006KT 5000 HZ FEW020 30/24 Q1012 NOSIG=
202310110030 METAR WIHH 110030Z 13004KT 4000 HZ FEW020 29/24 Q1012 NOSIG=
202310110000 METAR WIHH 110000Z 14003KT 5000 HZ FEW020 28/24 Q1012 NOSIG=
202310102330 METAR WIHH 102330Z 13003KT 5000 HZ FEW020 28/24 Q1012 NOSIG=
202310102300 METAR WIHH 102300Z 15003KT 5000 HZ FEW020 27/24 Q1011 NOSIG=
202310102230 METAR WIHH 102230Z 15003KT 4000 HZ FEW020 27/24 Q1011 NOSIG=
202310102200 METAR WIHH 102200Z 14003KT 4000 HZ FEW020 27/24 Q1011 NOSIG=
202310102130 METAR WIHH 102130Z 16003KT 4000 HZ FEW020 27/24 Q1011 NOSIG=
202310102100 METAR WIHH 102100Z 14002KT 4000 HZ FEW020 27/24 Q1010 NOSIG=
202310102030 METAR WIHH NIL=
202310102000 METAR WIHH NIL=
202310101930 METAR WIHH NIL=
202310101900 METAR WIHH NIL=
202310101830 METAR WIHH NIL=
202310101800 METAR WIHH NIL=
202310101730 METAR WIHH 101730Z 06005KT 7000 FEW020 28/24 Q1012 NOSIG=
202310101700 METAR WIHH 101700Z 05006KT 7000 FEW020 29/24 Q1012 NOSIG=
202310101630 METAR WIHH 101630Z 05006KT 7000 FEW020 29/24 Q1012 NOSIG=
202310101600 METAR WIHH 101600Z 05003KT 7000 SCT020 28/23 Q1012 NOSIG=
202310101530 METAR WIHH 101530Z 00000KT 7000 SCT020 29/22 Q1012 NOSIG=
202310101500 METAR WIHH 101500Z 14003KT 7000 FEW020 29/22 Q1013 NOSIG=
202310101430 METAR WIHH 101430Z 14004KT 7000 FEW020 29/22 Q1012 NOSIG=
202310101400 METAR WIHH 101400Z 16004KT 7000 SCT020 29/22 Q1011 NOSIG=
202310101330 METAR WIHH 101330Z 18006KT 7000 SCT018 29/22 Q1011 NOSIG=
202310101300 METAR WIHH 101300Z 09005KT 7000 SCT018 30/23 Q1011 RMK RA TO SW=
202310101230 METAR WIHH 101230Z 07007KT 7000 SCT018 30/23 Q1011 RMK RA TO S=
202310101200 METAR WIHH 101200Z 07005KT 7000 SCT018 30/23 Q1011 TEMPO FM1230 14008KT 3000 RA RMK RA TO S=
202310101130 METAR WIHH 101130Z 06005KT 7000 BKN018 31/23 Q1011 TEMPO FM1230 14008KT 3000 RA RMK RA TO S=
202310101100 METAR WIHH 101100Z 06006KT 7000 BKN020 31/23 Q1010 NOSIG=
202310101030 METAR WIHH 101030Z 04012KT 7000 FEW020 31/23 Q1009 NOSIG=
202310101000 METAR WIHH 101000Z 06012KT 7000 FEW020 32/22 Q1009 NOSIG=
202310100930 METAR WIHH 100930Z 04015KT 7000 FEW020 33/22 Q1008 NOSIG=
202310100900 METAR WIHH 100900Z 02011KT 7000 FEW020 34/22 Q1008 NOSIG=
202310100830 METAR WIHH 100830Z 05015KT 7000 FEW020 35/20 Q1007 NOSIG=
202310100800 METAR WIHH 100800Z 07015KT 7000 FEW020 35/20 Q1007 NOSIG=
202310100730 METAR WIHH 100730Z 02015KT 7000 FEW020 36/21 Q1008 NOSIG=
202310100700 METAR WIHH 100700Z 03015KT 7000 FEW020 36/21 Q1008 NOSIG=
202310100630 METAR WIHH 100630Z 03015KT 7000 SCT020 35/21 Q1009 NOSIG=
202310100600 METAR WIHH 100600Z 03014KT 7000 FEW020 36/20 Q1009 NOSIG=
202310100530 METAR WIHH 100530Z 01015KT 6000 SCT020 36/22 Q1010 NOSIG=
202310100500 METAR WIHH 100500Z 05015KT 6000 SCT020 35/20 Q1011 NOSIG=
202310100430 METAR WIHH 100430Z 04015KT 6000 SCT020 35/22 Q1011 NOSIG=
202310100400 METAR WIHH 100400Z 05007KT 6000 SCT020 35/22 Q1012 NOSIG=
202310100330 METAR WIHH 100330Z 07007KT 6000 FEW020 34/22 Q1012 NOSIG=
202310100300 METAR WIHH 100300Z 11011KT 6000 FEW020 33/22 Q1013 NOSIG=
202310100230 METAR WIHH 100230Z 08010KT 6000 FEW020 32/22 Q1013 NOSIG=
202310100200 METAR WIHH 100200Z 10010KT 6000 FEW020 32/22 Q1013 NOSIG=
202310100130 METAR WIHH NIL=
202310100100 METAR WIHH 100100Z 13005KT 5000 HZ SCT020 30/23 Q1013 NOSIG=
202310100030 METAR WIHH 100030Z 11004KT 5000 HZ SCT020 29/23 Q1013 NOSIG=
202310100000 METAR WIHH 100000Z 13005KT 5000 HZ SCT020 28/24 Q1013 NOSIG=
202310092330 METAR WIHH 092330Z 14005KT 5000 HZ SCT020 28/24 Q1012 NOSIG=
202310092300 METAR WIHH 092300Z 10005KT 5000 HZ SCT020 28/24 Q1012 NOSIG=
202310092230 METAR WIHH 092230Z 08005KT 5000 HZ SCT020 28/24 Q1012 NOSIG=
202310092200 METAR WIHH 092200Z 12005KT 5000 HZ SCT020 28/26 Q1011 NOSIG=
202310092130 METAR WIHH 092130Z 00000KT 5000 HZ NSC 28/25 Q1011 NOSIG=
202310092100 METAR WIHH NIL=
202310092030 METAR WIHH NIL=
202310092000 METAR WIHH NIL=
202310091930 METAR WIHH NIL=
202310091900 METAR WIHH NIL=
202310091830 METAR WIHH NIL=
202310091800 METAR WIHH NIL=
202310091730 METAR WIHH NIL=
202310091700 METAR WIHH NIL=
202310091630 METAR WIHH NIL=
202310091600 METAR WIHH NIL=
202310091530 METAR WIHH NIL=
202310091500 METAR WIHH 091500Z 08005KT 8000 NSC 29/25 Q1014 NOSIG=
202310091430 METAR WIHH 091430Z 04005KT 8000 NSC 29/24 Q1014 NOSIG=
202310091400 METAR WIHH 091400Z 07005KT 8000 NSC 29/24 Q1014 NOSIG=
202310091330 METAR WIHH 091330Z 07005KT 8000 NSC 29/24 Q1013 NOSIG=
202310091300 METAR WIHH 091300Z 05005KT 8000 NSC 29/24 Q1013 NOSIG=
202310091230 METAR WIHH 091230Z 09012KT 8000 NSC 29/25 Q1013 NOSIG=
202310091200 METAR WIHH 091200Z 07012KT 8000 FEW020 29/25 Q1012 NOSIG=
202310091130 METAR WIHH 091130Z 04012KT 7000 FEW020 30/24 Q1011 NOSIG=
202310091100 METAR WIHH 091100Z 04013KT 7000 FEW020 30/24 Q1011 NOSIG=
202310091030 METAR WIHH 091030Z 05020KT 7000 FEW020 31/22 Q1011 NOSIG=
202310091000 METAR WIHH 091000Z 05020KT 7000 FEW020 33/21 Q1010 NOSIG=
202310090930 METAR WIHH 090930Z 05020KT 7000 FEW020 33/20 Q1010 NOSIG=
202310090900 METAR WIHH 090900Z 05020KT 7000 FEW020 33/20 Q1009 NOSIG=
202310090830 METAR WIHH 090830Z 05020KT 7000 FEW020 34/20 Q1009 NOSIG=
202310090800 METAR WIHH 090800Z 03012KT 7000 FEW020 36/19 Q1009 NOSIG=
202310090730 METAR WIHH 090730Z 07018KT 6000 SCT020 36/19 Q1009 NOSIG=
202310090700 METAR WIHH 090700Z 04015KT 6000 SCT020 37/19 Q1009 NOSIG=
202310090630 METAR WIHH 090630Z 06015KT 6000 SCT020 36/20 Q1010 NOSIG=
202310090600 METAR WIHH 090600Z 05015KT 6000 SCT020 36/20 Q1010 NOSIG=
202310090530 METAR WIHH 090530Z 05018KT 6000 SCT020 37/20 Q1011 NOSIG=
202310090500 METAR WIHH 090500Z 04012KT 6000 SCT020 36/20 Q1011 NOSIG=
202310090430 METAR WIHH 090430Z 04012KT 6000 FEW020 36/20 Q1012 NOSIG=
202310090400 METAR WIHH 090400Z 06012KT 6000 FEW020 36/20 Q1013 N0SIG=
202310090330 METAR WIHH 090330Z 09007KT 6000 FEW020 34/20 Q1013 N0SIG=
202310090300 METAR WIHH 090300Z 05013KT 6000 FEW020 34/21 Q1013 NOSIG=
202310090230 METAR WIHH 090230Z 03008KT 6000 FEW020 32/21 Q1013 NOSIG=
202310090200 METAR WIHH 090200Z 12005KT 6000 FEW020 32/21 Q1013 NOSIG=
202310090130 METAR WIHH 090130Z 09006KT 6000 FEW020 31/22 Q1013 NOSIG=
202310090100 METAR WIHH 090100Z 00000KT 6000 NSC 30/22 Q1013 NOSIG=
202310090030 METAR WIHH 090030Z 20003KT 6000 NSC 29/23 Q1013 NOSIG=
202310090000 METAR WIHH 090000Z 23003KT 6000 NSC 28/23 Q1013 NOSIG=
202310082330 METAR WIHH 082330Z 22003KT 5000 HZ NSC 26/23 Q1012 NOSIG=
202310082300 METAR WIHH 082300Z 00000KT 5000 HZ NSC 25/22 Q1012 NOSIG=
202310082230 METAR WIHH 082230Z 00000KT 6000 NSC 25/22 Q1012 NOSIG=
202310082200 METAR WIHH 082200Z 00000KT 6000 NSC 26/22 Q1011 NOSIG=
202310082130 METAR WIHH NIL=
202310082100 METAR WIHH NIL=
202310082030 METAR WIHH NIL=
202310082000 METAR WIHH NIL=
202310081930 METAR WIHH NIL=
202310081900 METAR WIHH NIL=
202310081830 METAR WIHH NIL=
202310081800 METAR WIHH NIL=
202310081730 METAR WIHH NIL=
202310081700 METAR WIHH NIL=
202310081630 METAR WIHH NIL=
202310081600 METAR WIHH NIL=
202310081530 METAR WIHH NIL=
202310081500 METAR WIHH 081500Z 15003KT 6000 FEW020 28/22 Q1013 NOSIG=
202310081430 METAR WIHH 081430Z 12004KT 7000 FEW020 29/22 Q1012 NOSIG=
202310081400 METAR WIHH 081400Z 12004KT 7000 FEW020 29/22 Q1012 NOSIG=
202310081330 METAR WIHH 081330Z 08004KT 7000 FEW020 29/22 Q1012 NOSIG=
202310081300 METAR WIHH 081300Z 10005KT 7000 FEW020 29/22 Q1012 NOSIG=
202310081230 METAR WIHH 081230Z 09007KT 7000 FEW020 29/22 Q1012 NOSIG=
202310081200 METAR WIHH 081200Z 07008KT 7000 FEW020 30/22 Q1011 NOSIG=
202310081130 METAR WIHH 081130Z 06009KT 7000 FEW020 30/22 Q1011 NOSIG=
202310081100 METAR WIHH 081100Z 06011KT 7000 FEW020 31/21 Q1010 NOSIG=
202310081030 METAR WIHH 081030Z 05015KT 7000 FEW020 32/18 Q1009 NOSIG=
202310081000 METAR WIHH 081000Z 05015KT 7000 FEW020 32/18 Q1009 NOSIG=
202310080930 METAR WIHH 080930Z 05015KT 7000 FEW020 33/20 Q1009 NOSIG=
202310080900 METAR WIHH 080900Z 06016KT 7000 FEW020 34/20 Q1009 NOSIG=
202310080830 METAR WIHH 080830Z 05016KT 6000 FEW020 34/20 Q1009 NOSIG=
202310080800 METAR WIHH 080800Z 04016KT 6000 SCT020 35/21 Q1009 NOSIG=
202310080730 METAR WIHH 080730Z 05016KT 6000 SCT020 35/21 Q1009 NOSIG=
202310080700 METAR WIHH 080700Z 07015KT 6000 SCT020 35/20 Q1009 NOSIG=
202310080630 METAR WIHH 080630Z 04015KT 6000 SCT020 36/20 Q1009 NOSIG=
202310080600 METAR WIHH 080600Z 02011KT 6000 SCT020 36/20 Q1010 NOSIG=
202310080530 METAR WIHH 080530Z 04011KT 6000 SCT020 35/20 Q1010 NOSIG=
202310080500 METAR WIHH 080500Z 07011KT 6000 SCT020 35/21 Q1011 NOSIG=
202310080430 METAR WIHH 080430Z 03005KT 6000 SCT020 34/21 Q1011 NOSIG=
202310080400 METAR WIHH 080400Z 08006KT 6000 SCT020 34/21 Q1012 NOSIG=
202310080330 METAR WIHH 080330Z 01004KT 6000 FEW020 34/21 Q1013 NOSIG=
202310080300 METAR WIHH 080300Z 04007KT 6000 FEW020 33/21 Q1013 NOSIG=
202310080230 METAR WIHH 080230Z 07008KT 6000 FEW020 32/22 Q1013 NOSIG=
202310080200 METAR WIHH 080200Z 08007KT 6000 NSC 32/22 Q1013 NOSIG=
202310080130 METAR WIHH 080130Z 13003KT 5000 HZ NSC 31/23 Q1014 NOSIG=
202310080100 METAR WIHH 080100Z 14004KT 4000 HZ NSC 30/23 Q1013 NOSIG=
202310080030 METAR WIHH 080030Z 00000KT 4000 HZ NSC 29/23 Q1013 NOSIG=
202310080000 METAR WIHH 080000Z 00000KT 4000 HZ NSC 28/23 Q1013 NOSIG=
202310072330 METAR WIHH 072330Z 00000KT 4000 HZ NSC 26/22 Q1012 NOSIG=
202310072300 METAR WIHH 072300Z 00000KT 4000 HZ NSC 26/22 Q1012 NOSIG=
202310072230 METAR WIHH 072230Z 00000KT 5000 HZ NSC 26/23 Q1012 NOSIG=
202310072200 METAR WIHH 072200Z 00000KT 5000 HZ NSC 26/23 Q1011 NOSIG=
202310072130 METAR WIHH 072130Z 00000KT 5000 HZ NSC 26/23 Q1011 NOSIG=
202310072100 METAR WIHH NIL=
202310072030 METAR WIHH NIL=
202310072000 METAR WIHH NIL=
202310071930 METAR WIHH NIL=
202310071900 METAR WIHH NIL=
202310071830 METAR WIHH NIL=
202310071800 METAR WIHH NIL=
202310071730 METAR WIHH NIL=
202310071700 METAR WIHH NIL=
202310071630 METAR WIHH 071630Z 05006KT 8000 NSC 29/23 Q1012 NOSIG=
202310071600 METAR WIHH 071600Z 08002KT 8000 NSC 28/22 Q1012 NOSIG=
202310071530 METAR WIHH 071530Z 06004KT 8000 NSC 29/22 Q1012 NOSIG=
202310071500 METAR WIHH 071500Z 07004KT 8000 NSC 29/22 Q1012 NOSIG=
202310071430 METAR WIHH 071430Z 03003KT 8000 NSC 29/22 Q1012 NOSIG=
202310071400 METAR WIHH 071400Z 05003KT 8000 NSC 30/22 Q1012 NOSIG=
202310071330 METAR WIHH 071330Z 16003KT 8000 NSC 30/22 Q1012 NOSIG=
202310071300 METAR WIHH 071300Z 12004KT 8000 NSC 30/22 Q1011 NOSIG=
202310071230 METAR WIHH NIL=
202310071200 METAR WIHH 071200Z 04008KT 8000 NSC 31/21 Q1010 NOSIG=
202310071130 METAR WIHH 071130Z 04007KT 7000 NSC 31/21 Q1010 NOSIG=
202310071100 METAR WIHH 071100Z 02008KT 7000 NSC 31/20 Q1010 NOSIG=
202310071030 METAR WIHH 071030Z 04015KT 7000 NSC 32/20 Q1009 NOSIG=
202310071000 METAR WIHH 071000Z 04015KT 7000 FEW020 32/20 Q1009 NOSIG=
202310070930 METAR WIHH 070930Z 04015KT 5000 HZ SCT020 34/20 Q1008 NOSIG=
202310070900 METAR WIHH 070900Z 01015KT 5000 HZ SCT020 34/23 Q1008 NOSIG=
202310070830 METAR WIHH 070830Z 02013KT 5000 HZ SCT020 35/23 Q1008 NOSIG=
202310070800 METAR WIHH 070800Z 04013KT 5000 HZ SCT020 35/23 Q1008 NOSIG=
202310070730 METAR WIHH 070730Z 28013KT 5000 HZ SCT020 35/23 Q1008 NOSIG=
202310070700 METAR WIHH 070700Z 34012KT 5000 HZ SCT020 35/23 Q1009 NOSIG=
202310070630 METAR WIHH 070630Z 33012KT 5000 HZ SCT020 35/22 Q1009 NOSIG=
202310070600 METAR WIHH 070600Z 35010KT 5000 HZ SCT020 35/22 Q1009 NOSIG=
202310070530 METAR WIHH 070530Z 06005KT 5000 HZ SCT020 35/21 Q1010 NOSIG=
202310070500 METAR WIHH 070500Z 04006KT 5000 HZ SCT020 35/21 Q1010 NOSIG=
202310070430 METAR WIHH 070430Z 09003KT 5000 HZ SCT020 34/22 Q1012 NOSIG=
202310070400 METAR WIHH 070400Z 30003KT 5000 HZ SCT020 33/22 Q1011 NOSIG=
202310070330 METAR WIHH 070330Z 20003KT 5000 HZ SCT020 33/23 Q1012 NOSIG=
202310070300 METAR WIHH 070300Z 17004KT 5000 HZ FEW020 32/23 Q1012 NOSIG=
202310070230 METAR WIHH 070230Z 08004KT 5000 HZ NSC 31/24 Q1013 NOSIG=
202310070200 METAR WIHH 070200Z 06004KT 5000 HZ NSC 31/23 Q1013 NOSIG=
202310070130 METAR WIHH 070130Z 09004KT 4000 HZ NSC 30/23 Q1013 NOSIG=
202310070100 METAR WIHH 070100Z 06002KT 4000 HZ NSC 30/23 Q1013 NOSIG=
202310070030 METAR WIHH 070030Z 00000KT 4000 HZ NSC 29/24 Q1013 NOSIG=
202310070000 METAR WIHH 070000Z 15002KT 4000 HZ NSC 28/24 Q1012 NOSIG=
202310062330 METAR WIHH 062330Z 00000KT 4000 HZ FEW020 26/23 Q1012 NOSIG=
202310062300 METAR WIHH 062300Z 00000KT 4000 HZ FEW020 26/23 Q1011 NOSIG=
202310062230 METAR WIHH 062230Z 00000KT 4000 HZ FEW020 25/23 Q1011 NOSIG=
202310062200 METAR WIHH 062200Z 00000KT 5000 HZ FEW020 25/23 Q1011 NOSIG=
202310062130 METAR WIHH 062130Z 18002KT 5000 HZ FEW020 25/23 Q1011 NOSIG=
202310062100 METAR WIHH 062100Z 00000KT 5000 HZ FEW020 25/23 Q1011 NOSIG=
202310062030 METAR WIHH NIL=
202310062000 METAR WIHH NIL=
202310061930 METAR WIHH NIL=
202310061900 METAR WIHH NIL=
202310061830 METAR WIHH NIL=
202310061800 METAR WIHH NIL=
202310061730 METAR WIHH NIL=
202310061700 METAR WIHH 061700Z 00000KT 6000 FEW020 26/22 Q1011 NOSIG=
202310061630 METAR WIHH 061630Z 00000KT 6000 FEW020 26/22 Q1011 NOSIG=
202310061600 METAR WIHH 061600Z 00000KT 6000 FEW020 26/22 Q1011 NOSIG=
202310061530 METAR WIHH NIL=
202310061500 METAR WIHH 061500Z 00000KT 6000 FEW020 27/22 Q1011 NOSIG=
202310061430 METAR WIHH 061430Z 00000KT 6000 FEW020 28/22 Q1011 NOSIG=
202310061400 METAR WIHH 061400Z 21003KT 6000 FEW020 28/22 Q1011 NOSIG=
202310061330 METAR WIHH 061330Z 12003KT 6000 FEW020 28/22 Q1011 NOSIG=
202310061300 METAR WIHH 061300Z 18003KT 6000 FEW020 28/23 Q1011 NOSIG=
202310061230 METAR WIHH 061230Z 24003KT 6000 FEW020 29/24 Q1011 NOSIG=
202310061200 METAR WIHH 061200Z 34004KT 6000 FEW020 29/24 Q1010 NOSIG=
202310061130 METAR WIHH 061130Z 27005KT 6000 FEW020 30/24 Q1010 NOSIG=
202310061100 METAR WIHH 061100Z 33006KT 6000 FEW020 31/23 Q1010 NOSIG=
202310061030 METAR WIHH 061030Z 03008KT 6000 FEW020 32/23 Q1009 NOSIG=
202310061000 METAR WIHH 061000Z 03008KT 6000 FEW020 33/23 Q1008 NOSIG=
202310060930 METAR WIHH 060930Z 36008KT 6000 FEW020 33/23 Q1008 NOSIG=
202310060900 METAR WIHH 060900Z 03008KT 6000 FEW020 33/23 Q1008 NOSIG=
202310060830 METAR WIHH 060830Z 06010KT 6000 FEW020 34/23 Q1008 NOSIG=
202310060800 METAR WIHH 060800Z 03012KT 6000 FEW020 34/23 Q1008 NOSIG=
202310060730 METAR WIHH 060730Z 03010KT 6000 FEW020 34/23 Q1008 NOSIG=
202310060700 METAR WIHH 060700Z 03012KT 6000 SCT020 35/23 Q1009 NOSIG=
202310060630 METAR WIHH 060630Z 36010KT 5000 HZ SCT020 35/23 Q1009 NOSIG=
202310060600 METAR WIHH 060600Z 03010KT 5000 HZ SCT020 34/23 Q1009 NOSIG=
202310060530 METAR WIHH 060530Z 35007KT 5000 HZ SCT020 35/23 Q1010 NOSIG=
202310060500 METAR WIHH 060500Z 03008KT 5000 HZ SCT020 35/23 Q1011 NOSIG=
202310060430 METAR WIHH 060430Z 27008KT 5000 HZ SCT020 33/23 Q1011 NOSIG=
202310060400 METAR WIHH 060400Z 02010KT 5000 HZ SCT020 34/22 Q1012 NOSIG=
202310060330 METAR WIHH 060330Z 03010KT 5000 HZ SCT020 34/22 Q1012 NOSIG=
202310060300 METAR WIHH 060300Z 12003KT 5000 HZ FEW020 33/22 Q1012 NOSIG=
202310060230 METAR WIHH 060230Z 12003KT 5000 HZ FEW020 32/22 Q1013 NOSIG=
202310060200 METAR WIHH 060200Z 18004KT 5000 HZ NSC 31/23 Q1013 NOSIG=
202310060130 METAR WIHH 060130Z 22004KT 4000 HZ NSC 29/23 Q1013 NOSIG=
202310060100 METAR WIHH 060100Z 25003KT 4000 HZ NSC 29/24 Q1013 NOSIG=
202310060030 METAR WIHH 060030Z 22005KT 4000 HZ NSC 28/24 Q1012 NOSIG=
202310060000 METAR WIHH 060000Z 22004KT 4000 HZ NSC 27/24 Q1012 NOSIG=
202310052330 METAR WIHH 052330Z 24004KT 4000 HZ NSC 26/22 Q1012 NOSIG=
202310052300 METAR WIHH 052300Z 24004KT 4000 HZ NSC 25/22 Q1012 NOSIG=
202310052230 METAR WIHH 052230Z 00000KT 5000 HZ NSC 25/23 Q1011 NOSIG=
202310052200 METAR WIHH 052200Z 00000KT 5000 HZ NSC 25/23 Q1011 NOSIG=
202310052130 METAR WIHH 052130Z 00000KT 5000 HZ NSC 25/23 Q1010 NOSIG=
202310052100 METAR WIHH 052100Z 00000KT 5000 HZ NSC 26/23 Q1010 NOSIG=
202310052030 METAR WIHH NIL=
202310052000 METAR WIHH NIL=
202310051930 METAR WIHH NIL=
202310051900 METAR WIHH NIL=
202310051830 METAR WIHH NIL=
202310051800 METAR WIHH NIL=
202310051730 METAR WIHH NIL=
202310051700 METAR WIHH 051700Z 00000KT 6000 FEW020 28/24 Q1011 NOSIG=
202310051630 METAR WIHH 051630Z 00000KT 6000 FEW020 28/24 Q1011 NOSIG=
202310051600 METAR WIHH 051600Z 11002KT 6000 FEW020 28/24 Q1011 NOSIG=
202310051530 METAR WIHH 051530Z 10004KT 7000 NSC 28/24 Q1011 NOSIG=
202310051500 METAR WIHH 051500Z 09004KT 7000 NSC 29/24 Q1011 NOSIG=
202310051430 METAR WIHH 051430Z 08006KT 7000 NSC 29/24 Q1011 NOSIG=
202310051400 METAR WIHH 051400Z 07004KT 7000 NSC 29/23 Q1011 NOSIG=
202310051330 METAR WIHH 051330Z 05004KT 7000 NSC 29/24 Q1011 NOSIG=
202310051300 METAR WIHH 051300Z 08008KT 7000 NSC 29/23 Q1011 NOSIG=
202310051230 METAR WIHH 051230Z 06010KT 7000 FEW020 30/21 Q1010 NOSIG=
202310051200 METAR WIHH 051200Z 09008KT 7000 FEW020 30/22 Q1010 NOSIG=
202310051130 METAR WIHH 051130Z 07012KT 7000 FEW020 30/21 Q1009 NOSIG=
202310051100 METAR WIHH 051100Z 06012KT 7000 FEW020 32/19 Q1008 NOSIG=
202310051030 METAR WIHH 051030Z 06015KT 7000 FEW020 32/19 Q1008 NOSIG=
202310051000 METAR WIHH 051000Z 07015KT 7000 FEW020 33/21 Q1008 NOSIG=
202310050930 METAR WIHH 050930Z 05015KT 7000 FEW020 34/22 Q1008 NOSIG=
202310050900 METAR WIHH 050900Z 03015KT 7000 FEW020 34/22 Q1008 NOSIG=
202310050830 METAR WIHH 050830Z 04015KT 6000 FEW020 34/22 Q1008 NOSIG=
202310050800 METAR WIHH 050800Z 06015KT 6000 FEW020 34/22 Q1008 NOSIG=
202310050730 METAR WIHH 050730Z 05015KT 6000 SCT020 36/19 Q1008 NOSIG=
202310050700 METAR WIHH 050700Z 06017KT 6000 SCT020 35/21 Q1008 NOSIG=
202310050630 METAR WIHH 050630Z 06015KT 6000 SCT020 35/21 Q1009 NOSIG=
202310050600 METAR WIHH 050600Z 04015KT 6000 SCT020 35/22 Q1009 NOSIG=
202310050530 METAR WIHH 050530Z 01015KT 6000 SCT020 35/21 Q1010 NOSIG=
202310050500 METAR WIHH 050500Z 04015KT 6000 SCT020 35/21 Q1010 NOSIG=
202310050430 METAR WIHH 050430Z 12012KT 5000 HZ SCT020 35/21 Q1011 NOSIG=
202310050400 METAR WIHH 050400Z 10015KT 5000 HZ SCT020 34/21 Q1012 NOSIG=
202310050330 METAR WIHH 050330Z 06012KT 5000 HZ FEW020 34/21 Q1012 NOSIG=
202310050300 METAR WIHH 050300Z 11012KT 5000 HZ FEW020 33/22 Q1012 NOSIG=
202310050230 METAR WIHH 050230Z 15005KT 5000 HZ FEW020 32/22 Q1013 NOSIG=
202310050200 METAR WIHH 050200Z 04005KT 5000 HZ NSC 31/22 Q1013 NOSIG=
202310050130 METAR WIHH 050130Z 08006KT 5000 HZ NSC 30/22 Q1013 NOSIG=
202310050100 METAR WIHH 050100Z 11005KT 5000 HZ NSC 29/23 Q1013 NOSIG=
202310050030 METAR WIHH 050030Z 00000KT 4000 HZ NSC 28/23 Q1013 NOSIG=
202310050000 METAR WIHH 050000Z 17003KT 4000 HZ NSC 27/23 Q1012 NOSIG=
202310042330 METAR WIHH 042330Z 00000KT 4000 HZ NSC 26/24 Q1012 NOSIG=
202310042300 METAR WIHH 042300Z 16003KT 4000 HZ NSC 25/23 Q1012 NOSIG=
202310042230 METAR WIHH 042230Z 17003KT 5000 HZ NSC 25/23 Q1012 NOSIG=
202310042200 METAR WIHH 042200Z 00000KT 5000 HZ NSC 25/24 Q1011 NOSIG=
202310042130 METAR WIHH 042130Z 00000KT 4000 HZ NSC 25/23 Q1011 NOSIG=
202310042100 METAR WIHH NIL=
202310042030 METAR WIHH NIL=
202310042000 METAR WIHH NIL=
202310041930 METAR WIHH NIL=
202310041900 METAR WIHH NIL=
202310041830 METAR WIHH NIL=
202310041800 METAR WIHH NIL=
202310041730 METAR WIHH NIL=
202310041700 METAR WIHH NIL=
202310041630 METAR WIHH NIL=
202310041600 METAR WIHH 041600Z 13003KT 6000 FEW020 28/23 Q1012 NOSIG=
202310041530 METAR WIHH NIL=
202310041500 METAR WIHH 041500Z 06005KT 6000 NSC 28/23 Q1012 NOSIG=
202310041430 METAR WIHH 041430Z 07005KT 6000 FEW020 29/23 Q1012 NOSIG=
202310041400 METAR WIHH 041400Z 05003KT 6000 FEW020 29/23 Q1012 NOSIG=
202310041330 METAR WIHH 041330Z 06005KT 7000 FEW020 29/23 Q1012 NOSIG=
202310041300 METAR WIHH NIL=
202310041230 METAR WIHH 041230Z 02006KT 8000 FEW020 30/24 Q1011 NOSIG=
202310041200 METAR WIHH 041200Z 03006KT 6000 FEW020 30/23 Q1011 NOSIG=
202310041130 METAR WIHH 041130Z 04008KT 6000 FEW020 30/22 Q1010 NOSIG=
202310041100 METAR WIHH 041100Z 03012KT 6000 FEW020 31/22 Q1010 NOSIG=
202310041030 METAR WIHH 041030Z 05012KT 6000 FEW020 31/22 Q1010 NOSIG=
202310041000 METAR WIHH 041000Z 04012KT 6000 FEW020 32/21 Q1009 NOSIG=
202310040930 METAR WIHH 040930Z 02009KT 6000 FEW020 33/20 Q1009 NOSIG=
202310040900 METAR WIHH 040900Z 03012KT 6000 FEW020 34/21 Q1009 NOSIG=
202310040830 METAR WIHH 040830Z 04013KT 6000 FEW020 35/20 Q1008 NOSIG=
202310040800 METAR WIHH 040800Z 04014KT 6000 FEW020 35/21 Q1008 NOSIG=
202310040730 METAR WIHH 040730Z 04012KT 6000 FEW020 35/20 Q1009 NOSIG=
202310040700 METAR WIHH 040700Z 35011KT 6000 SCT020 35/21 Q1009 NOSIG=
202310040630 METAR WIHH NIL=
202310040600 METAR WIHH 040600Z 03011KT 6000 SCT020 35/22 Q1010 NOSIG=
202310040530 METAR WIHH 040530Z 05005KT 6000 SCT020 35/19 Q1010 NOSIG=
202310040500 METAR WIHH 040500Z 35006KT 6000 SCT020 34/20 Q1011 NOSIG=
202310040430 METAR WIHH 040430Z 03006KT 6000 SCT020 34/20 Q1011 NOSIG=
202310040400 METAR WIHH 040400Z 03003KT 5000 HZ SCT020 34/21 Q1012 NOSIG=
202310040330 METAR WIHH 040330Z 11003KT 5000 HZ SCT020 32/21 Q1012 NOSIG=
202310040300 METAR WIHH 040300Z 14007KT 6000 SCT020 33/21 Q1013 NOSIG=
202310040230 METAR WIHH 040230Z 13004KT 6000 FEW020 32/21 Q1013 NOSIG=
202310040200 METAR WIHH 040200Z 10008KT 6000 NSC 31/21 Q1013 NOSIG=
202310040130 METAR WIHH 040130Z 06003KT 6000 NSC 30/22 Q1014 NOSIG=
202310040100 METAR WIHH 040100Z 18003KT 5000 HZ NSC 29/22 Q1014 NOSIG=
202310040030 METAR WIHH 040030Z 15003KT 5000 HZ NSC 29/22 Q1014 NOSIG=
202310040000 METAR WIHH 040000Z 21004KT 5000 HZ NSC 27/22 Q1013 NOSIG=
202310032330 METAR WIHH 032330Z 00000KT 5000 HZ FEW020 26/22 Q1013 NOSIG=
202310032300 METAR WIHH 032300Z 00000KT 5000 HZ FEW020 25/22 Q1013 NOSIG=
202310032230 METAR WIHH 032230Z 00000KT 5000 HZ FEW020 25/22 Q1012 NOSIG=
202310032200 METAR WIHH 032200Z 00000KT 5000 HZ FEW020 25/22 Q1012 NOSIG=
202310032130 METAR WIHH 032130Z 00000KT 5000 HZ FEW020 25/22 Q1012 NOSIG=
202310032100 METAR WIHH NIL=
202310032030 METAR WIHH NIL=
202310032000 METAR WIHH NIL=
202310031930 METAR WIHH NIL=
202310031900 METAR WIHH NIL=
202310031830 METAR WIHH NIL=
202310031800 METAR WIHH NIL=
202310031730 METAR WIHH NIL=
202310031700 METAR WIHH NIL=
202310031630 METAR WIHH NIL=
202310031600 METAR WIHH NIL=
202310031530 METAR WIHH 031530Z 00000KT 6000 FEW020 28/23 Q1013 NOSIG=
202310031500 METAR WIHH 031500Z 00000KT 6000 FEW020 28/23 Q1013 NOSIG=
202310031430 METAR WIHH 031430Z 00000KT 6000 FEW020 29/23 Q1013 NOSIG=
202310031400 METAR WIHH 031400Z 00000KT 6000 FEW020 29/23 Q1013 NOSIG=
202310031330 METAR WIHH 031330Z 31003KT 6000 FEW020 29/23 Q1013 NOSIG=
202310031300 METAR WIHH 031300Z 33004KT 6000 FEW020 29/23 Q1012 NOSIG=
202310031230 METAR WIHH 031230Z 33005KT 6000 FEW020 29/23 Q1012 NOSIG=
202310031200 METAR WIHH 031200Z 33006KT 6000 FEW020 29/22 Q1012 NOSIG=
202310031130 METAR WIHH 031130Z 33005KT 5000 HZ FEW020 29/23 Q1011 NOSIG=
202310031100 METAR WIHH 031100Z 36005KT 5000 HZ FEW020 30/22 Q1011 NOSIG=
202310031030 METAR WIHH 031030Z 03006KT 6000 FEW020 30/23 Q1011 NOSIG=
202310031000 METAR WIHH 031000Z 33005KT 5000 HZ FEW020 31/23 Q1010 NOSIG=
202310030930 METAR WIHH 030930Z 33008KT 5000 HZ SCT020 31/23 Q1010 NOSIG=
202310030900 METAR WIHH 030900Z 33010KT 5000 HZ SCT020 32/23 Q1009 NOSIG=
202310030830 METAR WIHH 030830Z 03010KT 5000 HZ SCT020 32/23 Q1009 NOSIG=
202310030800 METAR WIHH 030800Z 01010KT 5000 HZ SCT020 34/23 Q1009 NOSIG=
202310030730 METAR WIHH 030730Z 01015KT 5000 HZ SCT020 34/21 Q1010 NOSIG=
202310030700 METAR WIHH 030700Z 03015KT 5000 HZ SCT020 34/22 Q1010 NOSIG=
202310030630 METAR WIHH 030630Z 03013KT 5000 HZ SCT018 34/21 Q1010 NOSIG=
202310030600 METAR WIHH 030600Z 33010KT 5000 HZ SCT018 34/20 Q1010 NOSIG=
202310030530 METAR WIHH 030530Z 15005KT 6000 SCT020 36/18 Q1011 NOSIG=
202310030500 METAR WIHH 030500Z 13004KT 7000 SCT020 34/19 Q1011 NOSIG=
202310030430 METAR WIHH 030430Z 27005KT 7000 SCT020 33/19 Q1012 NOSIG=
202310030400 METAR WIHH 030400Z 19005KT 7000 SCT020 33/19 Q1013 NOSIG=
202310030330 METAR WIHH 030330Z 09010KT 7000 SCT020 33/19 Q1013 NOSIG=
202310030300 METAR WIHH 030300Z 23010KT 7000 SCT020 33/19 Q1014 NOSIG=
202310030230 METAR WIHH 030230Z 30004KT 7000 FEW020 32/19 Q1014 NOSIG=
202310030200 METAR WIHH 030200Z 21005KT 7000 FEW020 31/19 Q1014 NOSIG=
202310030130 METAR WIHH 030130Z 21010KT 7000 NSC 31/19 Q1014 NOSIG=
202310030100 METAR WIHH 030100Z 22007KT 7000 NSC 29/19 Q1014 NOSIG=
202310030030 METAR WIHH 030030Z 22006KT 7000 NSC 28/19 Q1014 NOSIG=
202310030000 METAR WIHH 030000Z 23004KT 6000 NSC 27/20 Q1014 NOSIG=
202310022330 METAR WIHH 022330Z 23003KT 6000 NSC 25/20 Q1013 NOSIG=
202310022300 METAR WIHH 022300Z 24005KT 6000 NSC 27/21 Q1013 NOSIG=
202310022230 METAR WIHH 022230Z 24004KT 6000 NSC 25/20 Q1013 NOSIG=
202310022200 METAR WIHH 022200Z 24003KT 6000 NSC 25/20 Q1012 NOSIG=
202310022130 METAR WIHH 022130Z 25002KT 6000 NSC 25/20 Q1012 NOSIG=
202310022100 METAR WIHH 022100Z 25002KT 6000 FEW020 25/20 Q1012 NOSIG=
202310022030 METAR WIHH NIL=
202310022000 METAR WIHH NIL=
202310021930 METAR WIHH NIL=
202310021900 METAR WIHH NIL=
202310021830 METAR WIHH NIL=
202310021800 METAR WIHH NIL=
202310021730 METAR WIHH NIL=
202310021700 METAR WIHH 021700Z 10003KT 6000 SCT020 28/22 Q1013 NOSIG=
202310021630 METAR WIHH 021630Z 02003KT 6000 SCT020 28/22 Q1013 NOSIG=
202310021600 METAR WIHH 021600Z 02003KT 6000 SCT020 29/22 Q1013 NOSIG=
202310021530 METAR WIHH 021530Z 34003KT 6000 SCT020 29/22 Q1013 NOSIG=
202310021500 METAR WIHH 021500Z 33003KT 6000 SCT020 29/22 Q1013 NOSIG=
202310021430 METAR WIHH 021430Z 36003KT 6000 SCT020 28/22 Q1013 NOSIG=
202310021400 METAR WIHH NIL=
202310021330 METAR WIHH 021330Z 02004KT 6000 SCT020 29/21 Q1013 NOSIG=
202310021300 METAR WIHH 021300Z 03004KT 6000 SCT020 29/21 Q1012 NOSIG=
202310021230 METAR WIHH 021230Z 03003KT 6000 SCT020 29/21 Q1012 NOSIG=
202310021200 METAR WIHH 021200Z 35003KT 6000 SCT020 29/21 Q1011 NOSIG=
202310021130 METAR WIHH 021130Z 36003KT 6000 SCT020 29/21 Q1011 NOSIG=
202310021100 METAR WIHH 021100Z 01006KT 6000 SCT020 30/21 Q1010 NOSIG=
202310021030 METAR WIHH 021030Z 35006KT 6000 SCT020 30/21 Q1010 NOSIG=
202310021000 METAR WIHH 021000Z 36005KT 6000 SCT020 31/21 Q1009 NOSIG=
202310020930 METAR WIHH 020930Z 34007KT 6000 FEW020 32/20 Q1009 NOSIG=
202310020900 METAR WIHH 020900Z 03007KT 6000 FEW020 33/20 Q1009 NOSIG=
202310020830 METAR WIHH 020830Z 35011KT 6000 FEW020 33/20 Q1009 NOSIG=
202310020800 METAR WIHH 020800Z 02011KT 6000 SCT020 33/21 Q1009 NOSIG=
202310020730 METAR WIHH 020730Z 34010KT 6000 SCT020 34/21 Q1009 NOSIG=
202310020700 METAR WIHH 020700Z 35006KT 6000 SCT020 35/19 Q1009 NOSIG=
202310020630 METAR WIHH 020630Z 36006KT 6000 SCT020 35/18 Q1010 NOSIG=
202310020600 METAR WIHH 020600Z 27003KT 6000 SCT020 36/13 Q1010 NOSIG=
202310020530 METAR WIHH NIL=
202310020500 METAR WIHH 020500Z 17003KT 6000 FEW020 35/14 Q1011 NOSIG=
202310020430 METAR WIHH 020430Z 12004KT 6000 FEW020 34/17 Q1012 NOSIG=
202310020400 METAR WIHH 020400Z 14005KT 5000 HZ SCT020 33/18 Q1012 NOSIG=
202310020330 METAR WIHH 020330Z 23004KT 5000 HZ SCT020 33/20 Q1013 NOSIG=
202310020300 METAR WIHH 020300Z 13005KT 5000 HZ SCT020 31/21 Q1013 NOSIG=
202310020230 METAR WIHH 020230Z 19003KT 4000 HZ SCT020 31/21 Q1014 NOSIG=
202310020200 METAR WIHH 020200Z 10003KT 4000 HZ SCT020 30/22 Q1014 NOSIG=
202310020130 METAR WIHH 020130Z 22003KT 5000 HZ FEW020 29/22 Q1014 NOSIG=
202310020100 METAR WIHH 020100Z 18003KT 4000 HZ FEW020 28/23 Q1013 NOSIG=
202310020030 METAR WIHH 020030Z 14003KT 4000 HZ NSC 28/24 Q1013 NOSIG=
202310020000 METAR WIHH 020000Z 17003KT 4000 HZ NSC 26/23 Q1013 NOSIG=
202310012330 METAR WIHH 012330Z 00000KT 4000 HZ NSC 25/23 Q1012 NOSIG=
202310012300 METAR WIHH 012300Z 00000KT 4000 HZ NSC 25/23 Q1012 NOSIG=
202310012230 METAR WIHH 012230Z 00000KT 4000 HZ NSC 25/23 Q1012 NOSIG=
202310012200 METAR WIHH 012200Z 00000KT 5000 HZ NSC 25/23 Q1012 NOSIG=
202310012130 METAR WIHH 012130Z 00000KT 5000 HZ NSC 25/23 Q1011 NOSIG=
202310012100 METAR WIHH 012100Z 16002KT 5000 HZ NSC 25/22 Q1011 NOSIG=
202310012030 METAR WIHH NIL=
202310012000 METAR WIHH NIL=
202310011930 METAR WIHH NIL=
202310011900 METAR WIHH NIL=
202310011830 METAR WIHH NIL=
202310011800 METAR WIHH NIL=
202310011730 METAR WIHH NIL=
202310011700 METAR WIHH 011700Z 15003KT 6000 FEW020 28/22 Q1012 NOSIG=
202310011630 METAR WIHH 011630Z 00000KT 6000 FEW020 29/22 Q1012 NOSIG=
202310011600 METAR WIHH 011600Z 05003KT 6000 FEW020 29/22 Q1012 NOSIG=
202310011530 METAR WIHH 011530Z 06003KT 6000 FEW020 29/22 Q1012 NOSIG=
202310011500 METAR WIHH 011500Z 07003KT 6000 FEW020 28/22 Q1012 NOSIG=
202310011430 METAR WIHH 011430Z 04003KT 6000 FEW020 29/22 Q1012 NOSIG=
202310011400 METAR WIHH 011400Z 01003KT 6000 FEW020 29/22 Q1012 NOSIG=
202310011330 METAR WIHH 011330Z 02003KT 6000 FEW020 29/22 Q1012 NOSIG=
202310011300 METAR WIHH 011300Z 01003KT 6000 SCT020 29/21 Q1011 NOSIG=
202310011230 METAR WIHH 011230Z 04005KT 6000 SCT020 29/21 Q1011 NOSIG=
202310011200 METAR WIHH 011200Z 03005KT 6000 SCT020 30/21 Q1010 NOSIG=
202310011130 METAR WIHH 011130Z 36005KT 6000 SCT020 30/21 Q1009 RMK RA TO S=
202310011100 METAR WIHH 011100Z 28005KT 6000 FEW020 31/20 Q1009 NOSIG=
202310011030 METAR WIHH 011030Z 01005KT 6000 FEW020 31/20 Q1009 NOSIG=
202310011000 METAR WIHH 011000Z 02007KT 6000 FEW020 32/19 Q1009 NOSIG=
202310010930 METAR WIHH 010930Z 04007KT 6000 FEW020 33/19 Q1009 NOSIG=
202310010900 METAR WIHH 010900Z 31005KT 6000 FEW020 33/20 Q1009 NOSIG=
202310010830 METAR WIHH 010830Z 32008KT 6000 FEW020 33/21 Q1009 NOSIG=
202310010800 METAR WIHH 010800Z 01008KT 6000 FEW020 34/21 Q1009 NOSIG=
202310010730 METAR WIHH 010730Z 02012KT 6000 FEW020 34/21 Q1009 NOSIG=
202310010700 METAR WIHH 010700Z 35013KT 6000 FEW020 34/22 Q1009 NOSIG=
202310010630 METAR WIHH 010630Z 02013KT 5000 HZ FEW020 34/22 Q1009 NOSIG=
202310010600 METAR WIHH 010600Z 03010KT 6000 SCT020 33/22 Q1010 NOSIG=
202310010530 METAR WIHH 010530Z 04007KT 5000 HZ SCT020 34/22 Q1010 NOSIG=
202310010500 METAR WIHH 010500Z 05004KT 5000 HZ SCT020 33/22 Q1011 NOSIG=
202310010430 METAR WIHH 010430Z 11004KT 5000 HZ SCT020 33/21 Q1011 NOSIG=
202310010400 METAR WIHH 010400Z 13005KT 5000 HZ SCT020 33/21 Q1012 NOSIG=
202310010330 METAR WIHH 010330Z 08005KT 5000 HZ SCT020 33/20 Q1012 NOSIG=
202310010300 METAR WIHH 010300Z 10007KT 4000 HZ SCT020 32/21 Q1013 NOSIG=
202310010230 METAR WIHH 010230Z 14004KT 4000 HZ SCT020 31/22 Q1013 NOSIG=
202310010200 METAR WIHH 010200Z 09003KT 4000 HZ SCT020 31/24 Q1013 NOSIG=
202310010130 METAR WIHH 010130Z 09006KT 3000 HZ FEW020 29/23 Q1013 NOSIG=
202310010100 METAR WIHH 010100Z 010100Z 15003KT 3000 HZ FEW020 29/23 Q1013 NOSIG=
202310010030 METAR WIHH 010030Z 17003KT 4000 HZ FEW020 26/23 Q1013 NOSIG=
202310010000 METAR WIHH NIL=

# No short TAF reports from WIHH in databse.

###################################
#  large TAF from WIHH
###################################
202310312300 TAF WIHH 312300Z 0100/0200 15005KT 8000 SCT020
                      TEMPO 0108/0111 09015KT 4000 -TSRA FEW018CB
                       BECMG 0114/0116 00000KT 4000 HZ=
202310311700 TAF WIHH 311700Z 3118/0118 15003KT 4000 HZ SCT020
                      BECMG 0102/0104 03015KT 8000 NSW=
202310311100 TAF WIHH 311100Z 3112/0112 34007KT 6000 SCT018
                      TEMPO 3112/3114 4000 SHRA
                      BECMG 3115/3117 00000KT=
202310310500 TAF WIHH 310500Z 3106/0106 03006KT 8000 SCT018
                      TEMPO 3110/3113 12016KT 3000 SHRA FEW017CB
                       BECMG 3114/3116 00000KT 4000 HZ=
202310302300 TAF WIHH 302300Z 3100/0100 12005KT 5000 HZ FEW022
                      BECMG 3102/3104 03012KT 7000 SCT020
                      BECMG 3114/3116 15003KT=
202310301700 TAF WIHH 301700Z 3018/3118 16003KT 5000 HZ FEW022
                      BECMG 3102/3104 03010KT 7000 SCT020=
202310301100 TAF WIHH 301100Z 3012/3112 15006KT 7000 FEW022
                      BECMG 3015/3017 21003KT 5000 HZ=
202310300500 TAF WIHH 300500Z 3006/3106 35012KT 7000 SCT020
                      BECMG 3012/3014 04006KT FEW020=
202310292300 TAF WIHH 292300Z 3000/3100 12010KT 6000 SCT020
                      BECMG 3012/3014 03010KT 5000 HZ FEW020=
202310291700 TAF WIHH 291700Z 2918/3018 15006KT 6000 FEW020
                      BECMG 3003/3005 03010KT SCT020=
202310291100 TAF WIHH 291100Z 2912/3012 06008KT 6000 FEW020
                      BECMG 2920/2922 00000KT 5000 HZ=
202310290500 TAF WIHH 290500Z 2906/3006 10014KT 6000 SCT020
                      BECMG 2915/2917 03003KT 5000 HZ FEW020=
202310282300 TAF WIHH 282300Z 2900/3000 06015KT 7000 SCT020
                      BECMG 2914/2916 15003KT=
202310281700 TAF WIHH 281700Z 2818/2918 15003KT 6000 FEW020
                      BECMG 2902/2904 06015KT=
202310281100 TAF WIHH 281100Z 2812/2912 05013KT 8000 FEW020
                      BECMG 2815/2817 15003KT 4000 HZ=
202310280500 TAF WIHH 280500Z 2806/2906 02015KT 8000 SCT020
                      BECMG 2815/2817 15004KT 4000 HZ=
202310272300 TAF WIHH 272300Z 2800/2900 20006KT 5000 HZ FEW022
                      BECMG 2802/2804 04014KT 7000 SCT020
                      BECMG 2814/2816 18004KT=
202310271700 TAF WIHH 271700Z 2718/2818 21004KT 5000 HZ FEW022
                      BECMG 2801/2803 08010KT 7000 SCT020=
202310271100 TAF WIHH 271100Z 2712/2812 02007KT 7000 FEW022
                      BECMG 2715/2717 21004KT 5000 HZ=
202310270500 TAF WIHH 270500Z 2706/2806 03014KT 7000 SCT020
                      BECMG 2714/2716 20004KT 5000 HZ=
202310262300 TAF WIHH 262300Z 2700/2800 15010KT 6000 SCT020
                      BECMG 2713/2715 06005KT FEW020=
202310261700 TAF WIHH 261700Z 2618/2718 21005KT 6000 FEW020
                      BECMG 2703/2705 10010KT SCT020=
202310261100 TAF WIHH 261100Z 2612/2712 03006KT 6000 FEW020
                      BECMG 2620/2622 00000KT 5000 HZ=
202310260500 TAF WIHH 260500Z 2606/2706 15008KT 6000 SCT020
                      BECMG 2615/2617 06003KT 5000 HZ FEW020=
202310252300 TAF WIHH 252300Z 2600/2700 15003KT 4000 HZ SCT018
                      BECMG 2603/2605 06015KT 8000 NSW
                      BECMG 2614/2616 15004KT 4000 HZ=
202310251700 TAF WIHH 251700Z 2518/2618 15003KT 4000 HZ SCT020
                      BECMG 2603/2605 06015KT 8000 NSW=
202310251100 TAF WIHH 251100Z 2512/2612 22015KT 7000 SCT018
                      TEMPO 2512/2515 4000 SHRA FEW017CB
                      BECMG 2516/2518 15003KT 3000 HZ=
202310250800 TAF AMD WIHH 250800Z 2508/2606 03006KT 7000 SCT018
                      TEMPO 2512/2515 15016KT 3000 TSRA BKN016
                       FEW017CB
                      BECMG 2516/2518 00000KT 4000 HZ=
202310250500 TAF WIHH 250500Z 2506/2606 03007KT 6000 SCT018
                      TEMPO 2507/2511 15017KT 3000 TSRA BKN016
                       FEW017CB
                      BECMG 2512/2514 00000KT 4000 HZ=
202310242300 TAF WIHH 242300Z 2500/2600 08006KT 5000 HZ FEW022
                      BECMG 2502/2504 35012KT 7000 SCT020
                      TEMPO 2509/2512 23010KT 3000 -TSRA FEW018CB
                       BECMG 2513/2515 15004KT=
202310241700 TAF WIHH 241700Z 2418/2518 18004KT 5000 HZ SCT020
                      BECMG 2501/2503 35010KT 7000=
202310241100 TAF WIHH 241100Z 2412/2512 15005KT 6000 SCT020
                      TEMPO 2412/2414 4000 -RA FEW018CB
                      BECMG 2415/2417 VRB03KT 5000 HZ=
202310240500 TAF WIHH 240500Z 2406/2506 03014KT 6000 SCT020
                      BECMG 2412/2414 15005KT FEW022=
202310232300 TAF WIHH 232300Z 2400/2500 12010KT 6000 SCT020
                      BECMG 2413/2415 02006KT 5000 HZ FEW020=
202310231700 TAF WIHH 231700Z 2318/2418 12006KT 6000 FEW020
                      BECMG 2402/2404 03010KT SCT020=
202310231100 TAF WIHH 231100Z 2312/2412 06008KT 6000 SCT020
                      BECMG 2320/2322 00000KT 5000 HZ=
202310230500 TAF WIHH 230500Z 2306/2406 10010KT 6000 SCT020
                      BECMG 2316/2318 03004KT 5000 HZ FEW020=
202310222300 TAF WIHH 222300Z 2300/2400 02010KT 7000 SCT020
                      TEMPO 2311/2314 15012KT 4000 SHRA FEW018CB
                       BECMG 2315/2317 00000KT=
202310221700 TAF WIHH 221700Z 2218/2318 15003KT 4000 HZ FEW020
                      BECMG 2303/2305 03015KT 8000 NSW=
202310221100 TAF WIHH 221100Z 2212/2312 02006KT 7000 SCT018
                      TEMPO 2212/2214 15010KT 4000 SHRA
                      BECMG 2215/2217 00000KT 4000 HZ=
202310220500 TAF WIHH 220500Z 2206/2306 03007KT 7000 SCT020
                      TEMPO 2208/2211 4000 SHRA FEW017CB BKN018
                       BECMG 2215/2217 00000KT=
202310212300 TAF WIHH 212300Z 2200/2300 03014KT 7000 FEW020
                      TEMPO 2209/2212 18010KT 4000 -RA SCT018
                      BECMG 2214/2216 VRB03KT 5000 HZ=
202310211700 TAF WIHH 211700Z 2118/2218 21003KT 5000 HZ FEW022
                      BECMG 2201/2203 03012KT 7000=
202310211100 TAF WIHH 211100Z 2112/2212 04006KT 7000 SCT020
                      BECMG 2115/2117 15003KT 5000 HZ FEW022=
202310210500 TAF WIHH 210500Z 2106/2206 02015KT 7000 FEW020
                      TEMPO 2109/2112 30010KT 4000 -RA SCT018
                      BECMG 2113/2115 15004KT 5000 HZ=
202310202300 TAF WIHH 202300Z 2100/2200 09006KT 6000 FEW020
                      TEMPO 2108/2111 15013KT 4000 RA BKN018
                      BECMG 2113/2115 5000 HZ=
202310201700 TAF WIHH 201700Z 2018/2118 12005KT 6000 FEW020
                      BECMG 2105/2107 06012KT SCT020=
202310201100 TAF WIHH 201100Z 2012/2112 09008KT 5000 HZ SCT020
                      TEMPO 2012/2014 21012KT 4000 RA BKN018
                      BECMG 2015/2017 00000KT
                      BECMG 2101/2103 06005KT FEW020=
202310200500 TAF WIHH 200500Z 2006/2106 09012KT 6000 SCT020
                      TEMPO 2009/2012 03014KT 4000 RA BKN018
                      BECMG 2013/2015 18003KT 5000 HZ
                      BECMG 2020/2022 00000KT 3000 BR FEW020=
202310192300 TAF WIHH 192300Z 2000/2100 06013KT 7000 SCT020
                      TEMPO 2008/2011 3000 TSRA FEW017CB
                      BECMG 2014/2016 15003KT 4000 HZ=
202310191700 TAF WIHH 191700Z 1918/2018 15004KT 6000 FEW020
                      BECMG 2003/2005 06015KT=
202310191100 TAF WIHH 191100Z 1912/2012 06015KT 8000 FEW020
                      BECMG 1915/1917 18004KT 4000 HZ=
202310190500 TAF WIHH 190500Z 1906/2006 08017KT 8000 SCT020
                      BECMG 1915/1917 15004KT 4000 HZ=
202310182300 TAF WIHH 182300Z 1900/2000 12010KT 7000 FEW020
                      BECMG 1904/1906 04015KT SCT018
                      BECMG 1916/1918 15003KT=
202310181700 TAF WIHH 181700Z 1818/1918 14003KT 5000 HZ FEW022
                      BECMG 1901/1903 08010KT 7000=
202310181100 TAF WIHH 181100Z 1812/1912 04008KT 7000 FEW022
                      BECMG 1816/1818 13004KT 5000 HZ=
202310180500 TAF WIHH 180500Z 1806/1906 03015KT 7000 SCT020
                      BECMG 1816/1818 10004KT 5000 HZ=
202310172300 TAF WIHH 172300Z 1800/1900 10012KT 7000 FEW020
                      BECMG 1815/1817 03004KT 5000 HZ=
202310171700 TAF WIHH 171700Z 1718/1818 06005KT 6000 FEW020
                      BECMG 1802/1804 12010KT=
202310171100 TAF WIHH 171100Z 1712/1812 09010KT 7000 FEW020
                      BECMG 1720/1722 00000KT 5000 HZ=
202310170500 TAF WIHH 170500Z 1706/1806 12015KT 7000 FEW020
                      BECMG 1716/1718 03003KT 5000 HZ=
202310162300 TAF WIHH 162300Z 1700/1800 15003KT 8000 SCT020
                      BECMG 1703/1705 07015KT
                      BECMG 1715/1717 00000KT 4000 HZ=
202310161700 TAF WIHH 161700Z 1618/1718 15003KT 4000 HZ SCT020
                      BECMG 1702/1704 06015KT 8000 NSW=
202310161100 TAF WIHH 161100Z 1612/1712 34010KT 8000 FEW020
                      BECMG 1615/1617 00000KT 4000 HZ=
202310160500 TAF WIHH 160500Z 1606/1706 07015KT 8000 SCT020
                      BECMG 1615/1617 15004KT 4000 HZ=
202310152300 TAF WIHH 152300Z 1600/1700 08010KT 5000 HZ FEW022
                      BECMG 1604/1606 03015KT 7000 SCT020
                      BECMG 1615/1617 21004KT=
202310151700 TAF WIHH 151700Z 1518/1618 18004KT 6000 FEW022
                      BECMG 1600/1602 09012KT=
202310151100 TAF WIHH 151100Z 1512/1612 09008KT 7000 FEW020
                      BECMG 1516/1518 15004KT 5000 HZ=
202310150500 TAF WIHH 150500Z 1506/1606 04014KT 7000 SCT020
                      BECMG 1516/1518 15003KT 5000 HZ FEW022=
202310142300 TAF WIHH 142300Z 1500/1600 12008KT 7000 FEW020
                      BECMG 1513/1515 03004KT 5000 HZ=
202310141700 TAF WIHH 141700Z 1418/1518 09004KT 6000 FEW020
                      BECMG 1502/1504 03008KT=
202310141100 TAF WIHH 141100Z 1412/1512 03008KT 6000 SCT020
                      BECMG 1419/1421 00000KT 5000 HZ FEW020=
202310140500 TAF WIHH 140500Z 1406/1506 09010KT 5000 HZ SCT020
                      BECMG 1415/1417 06004KT 6000 FEW020=
202310132300 TAF WIHH 132300Z 1400/1500 15004KT 8000 SCT020
                      BECMG 1404/1406 06015KT
                      BECMG 1414/1416 00000KT 4000 HZ=
202310131700 TAF WIHH 131700Z 1318/1418 15003KT 4000 HZ SCT020
                      BECMG 1402/1404 06015KT 7000 NSW=
202310131100 TAF WIHH 131100Z 1312/1412 02010KT 7000 SCT020
                      BECMG 1314/1316 00000KT 4000 HZ=
202310130500 TAF WIHH 130500Z 1306/1406 06013KT 7000 SCT020
                      BECMG 1314/1316 15003KT 4000 HZ=
202310122300 TAF WIHH 122300Z 1300/1400 06010KT 6000 FEW020
                      BECMG 1314/1316 15005KT 5000 HZ=
202310121700 TAF WIHH 121700Z 1218/1318 03005KT 6000 FEW020
                      BECMG 1302/1304 15008KT=
202310121100 TAF WIHH 121100Z 1212/1312 09008KT 6000 FEW020
                      BECMG 1220/1222 00000KT 5000 HZ=
202310120500 TAF WIHH 120500Z 1206/1306 12010KT 6000 SCT020
                      BECMG 1216/1218 06003KT 5000 HZ FEW020=
202310112300 TAF WIHH 112300Z 1200/1300 11008KT 4000 HZ FEW022
                      BECMG 1204/1206 02012KT 7000 SCT020
                      BECMG 1215/1217 21003KT=
202310111700 TAF WIHH 111700Z 1118/1218 18003KT 5000 HZ FEW022
                      BECMG 1202/1204 10008KT 7000 SCT020=
202310111100 TAF WIHH 111100Z 1112/1212 01008KT 7000 SCT020
                      BECMG 1116/1118 21003KT 5000 HZ FEW022=
202310110500 TAF WIHH 110500Z 1106/1206 03014KT 7000 SCT020
                      TEMPO 1112/1115 21010KT 4000 SHRA
                      BECMG 1116/1118 15003KT 5000 HZ FEW022=
202310102300 TAF WIHH 102300Z 1100/1200 06007KT 7000 SCT020
                      TEMPO 1112/1115 20017KT 4000 SHRA FEW017CB
                       BECMG 1116/1118 00000KT=
202310101700 TAF WIHH 101700Z 1018/1118 09006KT 6000 SCT020
                      TEMPO 1110/1113 21016KT 3000 RA FEW017CB
                       BECMG 1116/1118 00000KT=
202310101100 TAF WIHH 101100Z 1012/1112 06007KT 7000 FEW020
                      TEMPO 1013/1016 15017KT 4000 RA FEW016CB
                       BKN017
                      BECMG 1018/1020 00000KT 4000 HZ=
202310100500 TAF WIHH 100500Z 1006/1106 05008KT 8000 SCT020
                      TEMPO 1012/1015 15012G23KT 3000 TSRA FEW016CB
                       BKN017
                      BECMG 1018/1020 00000KT 4000 HZ=
202310092300 TAF WIHH 092300Z 1000/1100 03008KT 6000 FEW020
                      TEMPO 1009/1012 33014KT 4000 RA SCT018
                      BECMG 1014/1016 00000KT 5000 HZ=
202310091700 TAF WIHH 091700Z 0918/1018 15006KT 7000 FEW020
                      BECMG 1002/1004 06010KT=
202310091100 TAF WIHH 091100Z 0912/1012 09010KT 7000 FEW020
                      BECMG 0920/0922 18003KT 5000 HZ=
202310090500 TAF WIHH 090500Z 0906/1006 12010KT 7000 FEW020
                      BECMG 0916/0918 21004KT=
202310082300 TAF WIHH 082300Z 0900/1000 08008KT 7000 FEW022
                      BECMG 0904/0906 02015KT SCT020
                      BECMG 0915/0917 16003KT=
202310081700 TAF WIHH 081700Z 0818/0918 15003KT 5000 HZ FEW022
                      BECMG 0902/0904 09010KT 7000 SCT020=
202310081100 TAF WIHH 081100Z 0812/0912 05008KT 7000 FEW022
                      BECMG 0815/0817 16003KT=
202310080500 TAF WIHH 080500Z 0806/0906 03015KT 7000 SCT020
                      BECMG 0814/0816 15004KT FEW022=
202310072300 TAF WIHH 072300Z 0800/0900 08008KT 5000 HZ FEW022
                      BECMG 0803/0805 03015KT 7000 SCT020
                      BECMG 0814/0816 15003KT=
202310071700 TAF WIHH 071700Z 0718/0818 12003KT 6000 FEW022
                      BECMG 0802/0804 06012KT=
202310071100 TAF WIHH 071100Z 0712/0812 04008KT 6000 FEW022
                      BECMG 0715/0717 15003KT=
202310070500 TAF WIHH 070500Z 0706/0806 03014KT 7000 SCT020
                      BECMG 0712/0714 12005KT FEW022=
202310062300 TAF WIHH 062300Z 0700/0800 15004KT 4000 HZ SCT020
                      BECMG 0703/0705 06015KT 8000 NSW
                      BECMG 0715/0717 00000KT=
202310061700 TAF WIHH 061700Z 0618/0718 15003KT 6000 FEW020
                      BECMG 0702/0704 06015KT=
202310061100 TAF WIHH 061100Z 0612/0712 05008KT 6000 SCT020
                      BECMG 0615/0617 00000KT=
202310060500 TAF WIHH 060500Z 0606/0706 07006KT 6000 SCT018
                      TEMPO 0609/0612 21016KT 3000 SHRA
                      BECMG 0614/0616 00000KT=
202310052300 TAF WIHH 052300Z 0600/0700 15004KT 7000 SCT020
                      BECMG 0603/0605 06015KT
                      BECMG 0615/0617 00000KT=
202310051700 TAF WIHH 051700Z 0518/0618 15003KT 6000 FEW020
                      BECMG 0603/0605 06015KT=
202310051100 TAF WIHH 051100Z 0512/0612 09013KT 7000 SCT020
                      BECMG 0515/0517 15003KT=
202310050500 TAF WIHH 050500Z 0506/0606 06015KT 7000 SCT020
                      BECMG 0515/0517 15004KT=
202310042300 TAF WIHH 042300Z 0500/0600 21006KT 5000 HZ FEW022
                      BECMG 0502/0504 03014KT 7000 SCT020
                      BECMG 0513/0515 12004KT=
202310041700 TAF WIHH 041700Z 0418/0518 22004KT 6000 FEW022
                      BECMG 0502/0504 06012KT SCT020=
202310041100 TAF WIHH 041100Z 0412/0512 33008KT 6000 FEW022
                      BECMG 0414/0416 21003KT=
202310040500 TAF WIHH 040500Z 0406/0506 03014KT 7000 SCT020
                      BECMG 0414/0416 23003KT FEW022=
202310032300 TAF WIHH 032300Z 0400/0500 14005KT 7000 FEW022
                      BECMG 0404/0406 03014KT SCT020
                      BECMG 0414/0416 23003KT=
202310031700 TAF WIHH 031700Z 0318/0418 15003KT 6000 FEW022
                      BECMG 0400/0402 09008KT=
202310031100 TAF WIHH 031100Z 0312/0412 03006KT 7000 SCT020
                      BECMG 0314/0316 18004KT FEW022=
202310030500 TAF WIHH 030500Z 0306/0406 01012KT 7000 SCT020
                      BECMG 0314/0316 18004KT=
202310022300 TAF WIHH 022300Z 0300/0400 17004KT 7000 SCT020
                      BECMG 0304/0306 03015KT
                      BECMG 0315/0317 00000KT=
202310021700 TAF WIHH 021700Z 0218/0318 15003KT 6000 SCT020
                      BECMG 0303/0305 05015KT=
202310021100 TAF WIHH 021100Z 0212/0312 36008KT 6000 SCT020
                      BECMG 0215/0217 00000KT=
202310020500 TAF WIHH 020500Z 0206/0306 03013KT 7000 SCT020
                      BECMG 0214/0216 12003KT=
202310012300 TAF WIHH 012300Z 0200/0300 15004KT 7000 FEW020
                      BECMG 0203/0205 03015KT
                      BECMG 0214/0216 00000KT=
202310011700 TAF WIHH 011700Z 0118/0218 15003KT 6000 FEW020
                      BECMG 0203/0205 05015KT=
202310011100 TAF WIHH 011100Z 0112/0212 36008KT 6000 SCT020
                      BECMG 0115/0117 00000KT=
202310010500 TAF WIHH 010500Z 0106/0206 02016KT 7000 SCT020
                      BECMG 0115/0117 15004KT=
