##########################################################
# Query made at 05/05/2026 03:22:09 UTC
# Time interval: from 07/01/2023 00:00  to 07/31/2023 23:59  UTC
##########################################################

##########################################################
# WIHH, Jakarta Halim Perdanakusuma (Indonesia)
# WMO index: 96747. WIGOS ID: Unknown
# Latitude 06-15S. Longitude 106-54E. Altitude 30 m.
##########################################################

###################################
#  METAR/SPECI from WIHH
###################################
202307312330 METAR WIHH 312330Z 00000KT 5000 HZ NSC 24/21 Q1011 NOSIG=
202307312300 METAR WIHH 312300Z 10003KT 5000 HZ NSC 24/21 Q1011 NOSIG=
202307312230 METAR WIHH 312230Z 12003KT 5000 HZ NSC 24/21 Q1011 NOSIG=
202307312200 METAR WIHH 312200Z 00000KT 5000 HZ NSC 23/21 Q1011 NOSIG=
202307312130 METAR WIHH 312130Z 00000KT 5000 HZ NSC 24/21 Q1011 NOSIG=
202307312100 METAR WIHH 312100Z 12002KT 5000 HZ NSC 24/21 Q1011 NOSIG=
202307312030 METAR WIHH NIL=
202307312000 METAR WIHH NIL=
202307311930 METAR WIHH NIL=
202307311900 METAR WIHH NIL=
202307311830 METAR WIHH NIL=
202307311800 METAR WIHH NIL=
202307311730 METAR WIHH NIL=
202307311700 METAR WIHH 311700Z 15003KT 6000 NSC 25/21 Q1012 NOSIG=
202307311630 METAR WIHH 311630Z 15003KT 6000 NSC 25/21 Q1012 NOSIG=
202307311600 METAR WIHH 311600Z 12003KT 6000 NSC 26/21 Q1012 NOSIG=
202307311530 METAR WIHH 311530Z 12004KT 7000 NSC 26/21 Q1012 NOSIG=
202307311500 METAR WIHH 311500Z 12003KT 7000 NSC 27/21 Q1012 NOSIG=
202307311430 METAR WIHH 311430Z 12004KT 7000 NSC 27/22 Q1012 NOSIG=
202307311400 METAR WIHH 311400Z 09004KT 7000 NSC 27/22 Q1012 NOSIG=
202307311330 METAR WIHH 311330Z 06006KT 7000 NSC 27/22 Q1011 NOSIG=
202307311300 METAR WIHH 311300Z 06006KT 7000 NSC 27/22 Q1011 NOSIG=
202307311230 METAR WIHH 311230Z 06008KT 7000 NSC 28/21 Q1010 NOSIG=
202307311200 METAR WIHH 311200Z 06011KT 7000 NSC 28/20 Q1010 NOSIG=
202307311130 METAR WIHH 311130Z 06010KT 7000 FEW020 29/20 Q1010 NOSIG=
202307311100 METAR WIHH 311100Z 07010KT 7000 FEW020 30/18 Q1009 NOSIG=
202307311030 METAR WIHH 311030Z 04015KT 7000 FEW020 30/20 Q1009 NOSIG=
202307311000 METAR WIHH 311000Z 07015KT 7000 FEW020 30/21 Q1009 NOSIG=
202307310930 METAR WIHH 310930Z 03012KT 7000 FEW020 31/20 Q1008 NOSIG=
202307310900 METAR WIHH NIL=
202307310830 METAR WIHH 310830Z 06012KT 7000 FEW020 32/21 Q1008 NOSIG=
202307310800 METAR WIHH 310800Z 06015KT 7000 FEW020 32/21 Q1008 NOSIG=
202307310730 METAR WIHH 310730Z 09015KT 7000 FEW020 32/20 Q1008 NOSIG=
202307310700 METAR WIHH 310700Z 09015KT 7000 FEW020 32/20 Q1009 NOSIG=
202307310630 METAR WIHH 310630Z 06015KT 7000 FEW020 32/20 Q1009 NOSIG=
202307310600 METAR WIHH 310600Z 06018KT 6000 FEW020 32/20 Q1010 NOSIG=
202307310530 METAR WIHH 310530Z 03015KT 6000 FEW020 32/19 Q1010 NOSIG=
202307310500 METAR WIHH 310500Z 09015KT 6000 FEW020 32/19 Q1010 NOSIG=
202307310430 METAR WIHH 310430Z 06015KT 6000 FEW020 32/19 Q1011 NOSIG=
202307310400 METAR WIHH 310400Z 06015KT 6000 FEW020 32/19 Q1011 NOSIG=
202307310330 METAR WIHH 310330Z 09010KT 5000 HZ NSC 31/18 Q1012 NOSIG=
202307310300 METAR WIHH 310300Z 09008KT 5000 HZ NSC 30/18 Q1012 NOSIG=
202307310230 METAR WIHH 310230Z 09004KT 5000 HZ NSC 30/18 Q1012 NOSIG=
202307310200 METAR WIHH 310200Z 18005KT 5000 HZ NSC 29/19 Q1012 NOSIG=
202307310130 METAR WIHH 310130Z 12004KT 4000 HZ NSC 28/22 Q1012 NOSIG=
202307310100 METAR WIHH 310100Z 19003KT 4000 HZ NSC 26/22 Q1012 NOSIG=
202307310030 METAR WIHH 310030Z 00000KT 3000 HZ NSC 25/21 Q1012 NOSIG=
202307310000 METAR WIHH 310000Z 00000KT 3000 HZ NSC 23/21 Q1012 NOSIG=
202307302330 METAR WIHH 302330Z 00000KT 3000 HZ FEW020 23/21 Q1011 NOSIG=
202307302300 METAR WIHH 302300Z 00000KT 4000 HZ FEW020 23/21 Q1011 NOSIG=
202307302230 METAR WIHH 302230Z 20003KT 5000 HZ FEW020 23/21 Q1011 NOSIG=
202307302200 METAR WIHH 302200Z 00000KT 5000 HZ FEW020 23/21 Q1011 NOSIG=
202307302130 METAR WIHH 302130Z 00000KT 5000 HZ FEW018 23/21 Q1011 NOSIG=
202307302100 METAR WIHH 302100Z 14003KT 5000 HZ FEW018 24/20 Q1011 NOSIG=
202307302030 METAR WIHH NIL=
202307302000 METAR WIHH NIL=
202307301930 METAR WIHH NIL=
202307301900 METAR WIHH NIL=
202307301830 METAR WIHH NIL=
202307301800 METAR WIHH NIL=
202307301730 METAR WIHH NIL=
202307301700 METAR WIHH NIL=
202307301630 METAR WIHH NIL=
202307301600 METAR WIHH NIL=
202307301530 METAR WIHH NIL=
202307301500 METAR WIHH 301500Z 10004KT 6000 FEW018 27/22 Q1012 NOSIG=
202307301430 METAR WIHH 301430Z 08007KT 6000 FEW018 27/22 Q1012 NOSIG=
202307301400 METAR WIHH 301400Z 07006KT 6000 SCT018 28/22 Q1012 NOSIG=
202307301330 METAR WIHH 301330Z 06008KT 6000 SCT018 28/22 Q1012 NOSIG=
202307301300 METAR WIHH 301300Z 07009KT 6000 SCT018 28/22 Q1011 NOSIG=
202307301230 METAR WIHH 301230Z 06010KT 6000 SCT018 28/22 Q1011 NOSIG=
202307301200 METAR WIHH 301200Z 08010KT 6000 SCT020 28/22 Q1010 NOSIG=
202307301130 METAR WIHH 301130Z 06010KT 6000 FEW020 29/20 Q1010 NOSIG=
202307301100 METAR WIHH 301100Z 05012KT 6000 FEW020 29/20 Q1009 NOSIG=
202307301030 METAR WIHH 301030Z 05012KT 6000 FEW020 30/19 Q1009 NOSIG=
202307301000 METAR WIHH 301000Z 05014KT 6000 FEW020 30/20 Q1009 NOSIG=
202307300930 METAR WIHH 300930Z 05014KT 6000 FEW020 31/19 Q1008 NOSIG=
202307300900 METAR WIHH 300900Z 09013KT 6000 FEW020 32/20 Q1008 NOSIG=
202307300830 METAR WIHH 300830Z 06011KT 6000 FEW020 32/20 Q1008 NOSIG=
202307300800 METAR WIHH 300800Z 07014KT 6000 FEW020 33/20 Q1008 NOSIG=
202307300730 METAR WIHH 300730Z 05014KT 6000 SCT020 33/19 Q1008 NOSIG=
202307300700 METAR WIHH 300700Z 07009KT 5000 HZ SCT020 33/19 Q1009 NOSIG=
202307300630 METAR WIHH 300630Z 07008KT 6000 SCT020 33/19 Q1009 NOSIG=
202307300600 METAR WIHH 300600Z 03007KT 6000 SCT020 33/20 Q1010 NOSIG=
202307300530 METAR WIHH 300530Z 03006KT 6000 SCT020 33/19 Q1010 NOSIG=
202307300500 METAR WIHH 300500Z 11011KT 6000 FEW020 33/19 Q1011 NOSIG=
202307300430 METAR WIHH 300430Z 10007KT 5000 HZ FEW020 32/19 Q1011 NOSIG=
202307300400 METAR WIHH 300400Z 10007KT 5000 HZ FEW020 32/19 Q1011 NOSIG=
202307300330 METAR WIHH 300330Z 14008KT 5000 HZ FEW020 31/19 Q1012 NOSIG=
202307300300 METAR WIHH 300300Z 12005KT 5000 HZ FEW020 30/20 Q1012 NOSIG=
202307300230 METAR WIHH 300230Z 12003KT 4000 HZ FEW020 30/21 Q1012 NOSIG=
202307300200 METAR WIHH 300200Z 16003KT 4000 HZ FEW020 29/22 Q1013 NOSIG=
202307300130 METAR WIHH 300130Z 18003KT 4000 HZ FEW020 27/22 Q1013 NOSIG=
202307300100 METAR WIHH 300100Z 20004KT 4000 HZ SCT020 27/22 Q1013 NOSIG=
202307300030 METAR WIHH 300030Z 00000KT 5000 HZ SCT020 26/22 Q1013 NOSIG=
202307300000 METAR WIHH 300000Z 00000KT 5000 HZ SCT020 24/22 Q1012 NOSIG=
202307292330 METAR WIHH 292330Z 00000KT 5000 HZ NSC 24/22 Q1012 NOSIG=
202307292300 METAR WIHH 292300Z 00000KT 5000 HZ NSC 23/22 Q1011 NOSIG=
202307292230 METAR WIHH 292230Z 00000KT 6000 FEW020 24/22 Q1011 NOSIG=
202307292200 METAR WIHH 292200Z 25003KT 6000 FEW020 24/22 Q1011 NOSIG=
202307292130 METAR WIHH NIL=
202307292100 METAR WIHH 292100Z 00000KT 6000 FEW020 24/22 Q1011 NOSIG=
202307292030 METAR WIHH NIL=
202307292000 METAR WIHH NIL=
202307291930 METAR WIHH NIL=
202307291900 METAR WIHH NIL=
202307291830 METAR WIHH NIL=
202307291800 METAR WIHH NIL=
202307291730 METAR WIHH NIL=
202307291700 METAR WIHH NIL=
202307291630 METAR WIHH NIL=
202307291600 METAR WIHH NIL=
202307291530 METAR WIHH NIL=
202307291500 METAR WIHH 291500Z 13003KT 6000 FEW020 27/22 Q1013 NOSIG=
202307291430 METAR WIHH 291430Z 10005KT 7000 FEW020 28/22 Q1012 NOSIG=
202307291400 METAR WIHH 291400Z 07007KT 6000 SCT020 28/22 Q1012 NOSIG=
202307291330 METAR WIHH 291330Z 07006KT 6000 SCT020 28/22 Q1012 NOSIG=
202307291300 METAR WIHH 291300Z 05008KT 6000 SCT020 28/23 Q1012 NOSIG=
202307291230 METAR WIHH 291230Z 05010KT 6000 FEW020 28/22 Q1011 NOSIG=
202307291200 METAR WIHH 291200Z 05007KT 6000 FEW020 28/22 Q1010 NOSIG=
202307291130 METAR WIHH 291130Z 05010KT 7000 FEW020 28/22 Q1010 NOSIG=
202307291100 METAR WIHH NIL=
202307291030 METAR WIHH 291030Z 05012KT 6000 FEW020 30/21 Q1009 NOSIG=
202307291000 METAR WIHH 291000Z 05015KT 6000 FEW020 30/21 Q1009 NOSIG=
202307290930 METAR WIHH 290930Z 04012KT 6000 FEW020 31/21 Q1009 NOSIG=
202307290900 METAR WIHH 290900Z 05012KT 6000 SCT020 32/21 Q1008 NOSIG=
202307290830 METAR WIHH 290830Z 09012KT 6000 SCT020 32/20 Q1008 NOSIG=
202307290800 METAR WIHH 290800Z 08012KT 6000 SCT020 32/20 Q1008 NOSIG=
202307290730 METAR WIHH 290730Z 03012KT 6000 FEW020 32/20 Q1008 NOSIG=
202307290700 METAR WIHH 290700Z 03010KT 6000 FEW020 32/20 Q1009 NOSIG=
202307290630 METAR WIHH 290630Z 04010KT 6000 FEW020 32/20 Q1009 NOSIG=
202307290600 METAR WIHH 290600Z 09012KT 6000 FEW020 31/19 Q1011 NOSIG=
202307290530 METAR WIHH NIL=
202307290500 METAR WIHH 290500Z 09012KT 6000 FEW020 31/19 Q1011 NOSIG=
202307290430 METAR WIHH 290430Z 09012KT 6000 FEW020 31/19 Q1011 NOSIG=
202307290400 METAR WIHH 290400Z 02012KT 6000 FEW020 31/19 Q1012 NOSIG=
202307290330 METAR WIHH 290330Z 12010KT 6000 FEW020 30/19 Q1012 NOSIG=
202307290300 METAR WIHH 290300Z 14005KT 5000 HZ SCT020 30/19 Q1013 NOSIG=
202307290230 METAR WIHH 290230Z 14005KT 5000 HZ SCT020 30/20 Q1013 NOSIG=
202307290200 METAR WIHH 290200Z 18002KT 5000 HZ SCT020 28/22 Q1013 NOSIG=
202307290130 METAR WIHH 290130Z 14003KT 5000 HZ SCT020 28/22 Q1013 NOSIG=
202307290100 METAR WIHH 290100Z 18003KT 5000 HZ FEW020 27/22 Q1013 NOSIG=
202307290030 METAR WIHH 290030Z 21003KT 5000 HZ NSC 24/21 Q1012 NOSIG=
202307290000 METAR WIHH 290000Z 21003KT 5000 HZ NSC 24/22 Q1012 NOSIG=
202307282330 METAR WIHH 282330Z 15004KT 5000 HZ NSC 24/21 Q1012 NOSIG=
202307282300 METAR WIHH 282300Z 21003KT 5000 HZ NSC 23/21 Q1011 NOSIG=
202307282230 METAR WIHH 282230Z 24003KT 6000 NSC 23/21 Q1011 NOSIG=
202307282200 METAR WIHH 282200Z 00000KT 6000 NSC 23/21 Q1011 NOSIG=
202307282130 METAR WIHH 282130Z 00000KT 6000 NSC 24/22 Q1011 NOSIG=
202307282100 METAR WIHH 282100Z 00000KT 6000 NSC 24/21 Q1011 NOSIG=
202307282030 METAR WIHH 282030Z 00000KT 6000 NSC 24/21 Q1011 NOSIG=
202307282000 METAR WIHH 282000Z 00000KT 6000 NSC 25/21 Q1011 NOSIG=
202307281930 METAR WIHH 281930Z 13003KT 6000 FEW020 26/21 Q1011 NOSIG=
202307281900 METAR WIHH NIL=
202307281830 METAR WIHH NIL=
202307281800 METAR WIHH NIL=
202307281730 METAR WIHH 281730Z 00000KT 6000 NSC 26/22 Q1012 NOSIG=
202307281700 METAR WIHH 281700Z 00000KT 6000 NSC 26/22 Q1012 NOSIG=
202307281630 METAR WIHH 281630Z 00000KT 6000 NSC 26/22 Q1012 NOSIG=
202307281600 METAR WIHH 281600Z 09003KT 7000 NSC 27/22 Q1012 NOSIG=
202307281530 METAR WIHH 281530Z 09003KT 7000 NSC 27/22 Q1012 NOSIG=
202307281500 METAR WIHH 281500Z 12003KT 7000 NSC 27/22 Q1012 NOSIG=
202307281430 METAR WIHH 281430Z 08002KT 7000 NSC 28/21 Q1012 NOSIG=
202307281400 METAR WIHH 281400Z 08004KT 7000 NSC 28/21 Q1012 NOSIG=
202307281330 METAR WIHH NIL=
202307281300 METAR WIHH 281300Z 03006KT 7000 NSC 28/21 Q1011 NOSIG=
202307281230 METAR WIHH 281230Z 05007KT 7000 NSC 29/21 Q1011 NOSIG=
202307281200 METAR WIHH 281200Z 06008KT 7000 NSC 29/20 Q1010 NOSIG=
202307281130 METAR WIHH 281130Z 05008KT 7000 NSC 30/21 Q1010 NOSIG=
202307281100 METAR WIHH 281100Z 07008KT 7000 NSC 30/21 Q1009 NOSIG=
202307281030 METAR WIHH 281030Z 06010KT 7000 NSC 31/21 Q1009 NOSIG=
202307281000 METAR WIHH 281000Z 06012KT 7000 NSC 31/20 Q1009 NOSIG=
202307280930 METAR WIHH 280930Z 06010KT 6000 FEW020 33/20 Q1008 NOSIG=
202307280900 METAR WIHH 280900Z 06008KT 6000 FEW020 32/18 Q1008 NOSIG=
202307280830 METAR WIHH 280830Z 06008KT 6000 FEW020 33/19 Q1008 NOSIG=
202307280800 METAR WIHH 280800Z 06008KT 6000 FEW020 33/19 Q1008 NOSIG=
202307280730 METAR WIHH 280730Z 03008KT 6000 FEW020 33/19 Q1008 NOSIG=
202307280700 METAR WIHH 280700Z 06008KT 6000 FEW020 33/19 Q1009 NOSIG=
202307280630 METAR WIHH 280630Z 06010KT 6000 FEW020 33/19 Q1009 NOSIG=
202307280600 METAR WIHH 280600Z 06010KT 6000 FEW020 33/19 Q1010 NOSIG=
202307280530 METAR WIHH 280530Z 03006KT 6000 FEW020 32/19 Q1010 NOSIG=
202307280500 METAR WIHH 280500Z 09008KT 6000 FEW020 32/19 Q1013 NOSIG=
202307280430 METAR WIHH 280430Z 08008KT 6000 FEW020 32/19 Q1012 NOSIG=
202307280400 METAR WIHH 280400Z 09010KT 6000 FEW020 31/19 Q1012 NOSIG=
202307280330 METAR WIHH 280330Z 12010KT 5000 HZ FEW020 31/20 Q1012 NOSIG=
202307280300 METAR WIHH 280300Z 09005KT 5000 HZ FEW020 30/20 Q1012 NOSIG=
202307280230 METAR WIHH 280230Z 13008KT 4000 HZ NSC 29/22 Q1013 NOSIG=
202307280200 METAR WIHH 280200Z 12006KT 4000 HZ NSC 28/22 Q1013 NOSIG=
202307280130 METAR WIHH 280130Z 10004KT 4000 HZ NSC 27/22 Q1013 NOSIG=
202307280100 METAR WIHH 280100Z 10006KT 4000 HZ NSC 26/22 Q1013 NOSIG=
202307280030 METAR WIHH 280030Z 120005KT 4000 HZ NSC 26/22 Q1013 NOSIG=
202307280000 METAR WIHH 280000Z 00000KT 4000 HZ NSC 25/22 Q1012 NOSIG=
202307272330 METAR WIHH 272330Z 09003KT 4000 HZ FEW020 25/22 Q1012 NOSIGDUPE=
202307272300 METAR WIHH 272300Z 00000KT 3000 HZ FEW020 25/22 Q1012 NOSIG=
202307272230 METAR WIHH 272230Z 00000KT 4000 HZ FEW020 25/22 Q1011 NOSIG=
202307272200 METAR WIHH 272200Z 14003KT 5000 HZ FEW020 25/22 Q1011 NOSIG=
202307272130 METAR WIHH 272130Z 00000KT 5000 HZ FEW020 25/22 Q1011 NOSIG=
202307272100 METAR WIHH 272100Z 00000KT 5000 HZ FEW020 26/23 Q1011 NOSIG=
202307272030 METAR WIHH NIL=
202307272000 METAR WIHH NIL=
202307271930 METAR WIHH NIL=
202307271900 METAR WIHH NIL=
202307271830 METAR WIHH NIL=
202307271800 METAR WIHH NIL=
202307271730 METAR WIHH NIL=
202307271700 METAR WIHH 271700Z 00000KT 5000 HZ FEW020 26/23 Q1012 NOSIG=
202307271630 METAR WIHH 271630Z 00000KT 6000 FEW020 26/23 Q1012 NOSIG=
202307271600 METAR WIHH 271600Z 00000KT 6000 FEW020 26/23 Q1012 NOSIG=
202307271530 METAR WIHH 271530Z 00000KT 6000 FEW020 26/22 Q1012 NOSIG=
202307271500 METAR WIHH 271500Z 00000KT 6000 FEW020 26/22 Q1012 NOSIG=
202307271430 METAR WIHH 271430Z 00000KT 6000 FEW020 27/22 Q1012 NOSIG=
202307271400 METAR WIHH 271400Z 10003KT 6000 FEW020 28/21 Q1012 NOSIG=
202307271330 METAR WIHH 271330Z 11003KT 6000 FEW020 28/21 Q1011 NOSIG=
202307271300 METAR WIHH 271300Z 09005KT 6000 SCT020 29/21 Q1011 NOSIG=
202307271230 METAR WIHH 271230Z 06004KT 6000 FEW020 29/21 Q1011 NOSIG=
202307271200 METAR WIHH 271200Z 04005KT 6000 FEW020 29/21 Q1010 NOSIG=
202307271130 METAR WIHH 271130Z 03005KT 5000 HZ SCT020 29/21 Q1010 NOSIG=
202307271100 METAR WIHH 271100Z 03006KT 5000 HZ SCT020 30/21 Q1010 NOSIG=
202307271030 METAR WIHH 271030Z 35006KT 5000 HZ SCT020 30/22 Q1009 NOSIG=
202307271000 METAR WIHH 271000Z 34004KT 5000 HZ SCT020 31/22 Q1009 NOSIG=
202307270930 METAR WIHH 270930Z 35004KT 5000 HZ SCT020 31/23 Q1009 NOSIG=
202307270900 METAR WIHH 270900Z 33005KT 5000 HZ SCT018 32/23 Q1009 NOSIG=
202307270830 METAR WIHH 270830Z 33005KT 4000 HZ SCT018 32/24 Q1009 RMK RA TO S=
202307270800 METAR WIHH 270800Z 34005KT 4000 HZ SCT018 33/24 Q1009 NOSIG=
202307270730 METAR WIHH 270730Z 03005KT 4000 HZ SCT018 33/23 Q1009 NOSIG=
202307270700 METAR WIHH 270700Z 02008KT 4000 HZ SCT018 32/23 Q1009 NOSIG=
202307270630 METAR WIHH 270630Z 01004KT 4000 HZ SCT018 32/23 Q1010 NOSIG=
202307270600 METAR WIHH 270600Z 05003KT 4000 HZ SCT020 32/22 Q1010 NOSIG=
202307270530 METAR WIHH 270530Z 16005KT 4000 HZ SCT020 32/22 Q1011 NOSIG=
202307270500 METAR WIHH 270500Z 13004KT 5000 HZ SCT020 32/22 Q1011 NOSIG=
202307270430 METAR WIHH 270430Z 03004KT 5000 HZ SCT020 32/22 Q1012 NOSIG=
202307270400 METAR WIHH 270400Z 11003KT 4000 HZ SCT020 31/23 Q1012 NOSIG=
202307270330 METAR WIHH 270330Z 13004KT 4000 HZ FEW020 31/23 Q1013 NOSIG=
202307270300 METAR WIHH 270300Z 13003KT 4000 HZ FEW020 30/23 Q1013 NOSIG=
202307270230 METAR WIHH 270230Z 14003KT 4000 HZ FEW020 30/23 Q1014 NOSIG=
202307270200 METAR WIHH 270200Z 23004KT 4000 HZ FEW020 29/23 Q1014 NOSIG=
202307270130 METAR WIHH 270130Z 00000KT 4000 HZ FEW020 27/23 Q1014 NOSIG=
202307270100 METAR WIHH 270100Z 00000KT 5000 HZ FEW020 27/22 Q1014 NOSIG=
202307270030 METAR WIHH 270030Z 14003KT 5000 HZ SCT020 26/23 Q1014 NOSIG=
202307270000 METAR WIHH 270000Z 20002KT 5000 HZ SCT020 25/22 Q1013 NOSIG=
202307262330 METAR WIHH 262330Z 20003KT 5000 HZ SCT020 25/22 Q1013 NOSIG=
202307262300 METAR WIHH 262300Z 00000KT 6000 SCT020 25/22 Q1013 NOSIG=
202307262230 METAR WIHH 262230Z 00000KT 6000 SCT020 25/22 Q1013 NOSIG=
202307262200 METAR WIHH 262200Z 00000KT 6000 FEW020 25/22 Q1012 NOSIG=
202307262130 METAR WIHH 262130Z 19002KT 6000 FEW020 25/22 Q1012 NOSIG=
202307262100 METAR WIHH 262100Z 22002KT 6000 FEW020 25/23 Q1012 NOSIG=
202307262030 METAR WIHH NIL=
202307262000 METAR WIHH NIL=
202307261930 METAR WIHH NIL=
202307261900 METAR WIHH NIL=
202307261830 METAR WIHH NIL=
202307261800 METAR WIHH NIL=
202307261730 METAR WIHH NIL=
202307261700 METAR WIHH NIL=
202307261630 METAR WIHH NIL=
202307261600 METAR WIHH NIL=
202307261530 METAR WIHH NIL=
202307261500 METAR WIHH 261500Z 00000KT 5000 HZ SCT020 26/23 Q1013 NOSIG=
202307261430 METAR WIHH 261430Z 30002KT 6000 SCT020 26/23 Q1012 NOSIG=
202307261400 METAR WIHH 261400Z 00000KT 6000 FEW020 27/22 Q1012 NOSIG=
202307261330 METAR WIHH 261330Z 07002KT 6000 FEW020 27/22 Q1012 NOSIG=
202307261300 METAR WIHH 261300Z 03002KT 6000 FEW020 27/23 Q1011 NOSIG=
202307261230 METAR WIHH 261230Z 00000KT 6000 FEW020 28/24 Q1011 NOSIG=
202307261200 METAR WIHH 261200Z 34004KT 6000 FEW020 28/24 Q1011 NOSIG=
202307261130 METAR WIHH 261130Z 36004KT 6000 FEW020 29/23 Q1011 NOSIG=
202307261100 METAR WIHH 261100Z 04006KT 6000 FEW020 30/23 Q1011 NOSIG=
202307261030 METAR WIHH 261030Z 03005KT 6000 SCT020 30/23 Q1010 NOSIG=
202307261000 METAR WIHH 261000Z 03006KT 6000 SCT020 31/23 Q1010 NOSIG=
202307260930 METAR WIHH 260930Z 05004KT 6000 SCT020 31/22 Q1010 NOSIG=
202307260900 METAR WIHH 260900Z 36004KT 5000 HZ SCT020 31/22 Q1010 NOSIG=
202307260830 METAR WIHH 260830Z 36005KT 5000 HZ SCT020 31/22 Q1010 NOSIG=
202307260800 METAR WIHH 260800Z 01003KT 5000 HZ SCT020 31/22 Q1010 NOSIG=
202307260730 METAR WIHH 260730Z 06008KT 5000 HZ SCT020 31/23 Q1010 NOSIG=
202307260700 METAR WIHH 260700Z 07004KT 5000 HZ SCT020 31/22 Q1011 RMK RA TO SW=
202307260630 METAR WIHH 260630Z 02006KT 5000 HZ SCT020 31/23 Q1011 NOSIG=
202307260600 METAR WIHH 260600Z 36004KT 5000 HZ SCT020 31/22 Q1011 NOSIG=
202307260530 METAR WIHH 260530Z 00000KT 5000 HZ SCT020 31/22 Q1012 NOSIG=
202307260500 METAR WIHH 260500Z 00000KT 5000 HZ SCT020 30/22 Q1012 NOSIG=
202307260430 METAR WIHH 260430Z 32003KT 5000 HZ SCT020 30/22 Q1013 NOSIG=
202307260400 METAR WIHH 260400Z 01003KT 5000 HZ SCT020 30/22 Q1013 NOSIG=
202307260330 METAR WIHH 260330Z 05005KT 5000 HZ SCT020 30/22 Q1013 NOSIG=
202307260300 METAR WIHH NIL=
202307260230 METAR WIHH 260230Z 25003KT 5000 HZ SCT020 29/22 Q1013 NOSIG=
202307260200 METAR WIHH 260200Z 27003KT 5000 HZ SCT020 28/22 Q1014 NOSIG=
202307260130 METAR WIHH 260130Z 24003KT 5000 HZ SCT020 27/22 Q1014 NOSIG=
202307260100 METAR WIHH 260100Z 00000KT 5000 HZ SCT020 27/23 Q1013 NOSIG=
202307260030 METAR WIHH 260030Z 00000KT 5000 HZ SCT020 26/23 Q1012 NOSIG=
202307260000 METAR WIHH 260000Z 00000KT 5000 HZ SCT020 25/22 Q1012 NOSIG=
202307252330 METAR WIHH 252330Z 00000KT 5000 HZ SCT020 25/22 Q1012 NOSIG=
202307252300 METAR WIHH 252300Z 00000KT 5000 HZ SCT020 25/21 Q1012 RMK RA TO N=
202307252230 METAR WIHH 252230Z 00000KT 5000 HZ SCT020 25/21 Q1012 RMK RA TO N=
202307252200 METAR WIHH 252200Z 00000KT 5000 HZ SCT020 25/21 Q1012 RMK RA TO N=
202307252130 METAR WIHH 252130Z 12003KT 5000 HZ SCT020 25/21 Q1012 RMK RA TO N=
202307252100 METAR WIHH 252100Z 15003KT 5000 HZ SCT020 25/20 Q1011 RMK RA TO NE=
202307252030 METAR WIHH NIL=
202307252000 METAR WIHH NIL=
202307251930 METAR WIHH NIL=
202307251900 METAR WIHH NIL=
202307251830 METAR WIHH NIL=
202307251800 METAR WIHH NIL=
202307251730 METAR WIHH NIL=
202307251700 METAR WIHH NIL=
202307251630 METAR WIHH NIL=
202307251600 METAR WIHH NIL=
202307251530 METAR WIHH 251530Z 12003KT 4000 HZ SCT018 27/24 Q1012 RMK RA TO N=
202307251500 METAR WIHH 251500Z 15004KT 4000 HZ SCT018 27/24 Q1012 RMK RA TO N AND W=
202307251430 METAR WIHH 251430Z 21005KT 4000 HZ SCT018 27/24 Q1012 RMK RA TO W=
202307251400 METAR WIHH 251400Z 21005KT 4000 HZ SCT018 27/24 Q1012 RMK RA TO W=
202307251330 METAR WIHH 251330Z 04003KT 5000 HZ SCT018 28/25 Q1012 RMK RA TO S=
202307251300 METAR WIHH 251300Z 06003KT 5000 HZ SCT018 28/24 Q1012 RMK RA TO S-W=
202307251230 METAR WIHH 251230Z 08005KT 5000 HZ SCT018 28/25 Q1011 RMK RA TO S-W=
202307251200 METAR WIHH 251200Z 03005KT 5000 HZ SCT018 29/24 Q1011 RMK RA TO W=
202307251130 METAR WIHH 251130Z 03005KT 5000 HZ SCT018 28/24 Q1010 RMK RA TO SW=
202307251100 METAR WIHH 251100Z 03004KT 4000 HZ SCT018 29/24 Q1010 RMK RA TO SW=
202307251030 METAR WIHH 251030Z 03006KT 4000 HZ SCT018 29/24 Q1009 RMK RA TO SW=
202307251000 METAR WIHH 251000Z 36003KT 3000 HZ SCT018 29/25 Q1009 RMK RA TO SW=
202307250930 METAR WIHH 250930Z 36005KT 3000 HZ SCT018 29/24 Q1009 RMK RA TO SW=
202307250900 METAR WIHH 250900Z 35005KT 3000 -RA BKN018 28/25 Q1009 NOSIG=
202307250830 METAR WIHH 250830Z 03007KT 3000 -RA BKN018 28/25 Q1009 NOSIG=
202307250800 METAR WIHH NIL=
202307250730 METAR WIHH 250730Z 03004KT 4000 -RA BKN018 31/23 Q1009 NOSIG=
202307250700 METAR WIHH 250700Z 03005KT 4000 HZ SCT018 32/23 Q1009 RMK RA TO E=
202307250630 METAR WIHH 250630Z 34003KT 4000 HZ SCT018 32/23 Q1010 RMK RA TO SE=
202307250600 METAR WIHH 250600Z 34003KT 5000 HZ SCT018 33/22 Q1010 RMK RA TO SE=
202307250530 METAR WIHH 250530Z 34003KT 5000 HZ SCT018 32/23 Q1011 NOSIG=
202307250500 METAR WIHH 250500Z 09003KT 5000 HZ SCT018 32/22 Q1011 NOSIG=
202307250430 METAR WIHH 250430Z 00000KT 5000 HZ SCT018 31/22 Q1011 NOSIG=
202307250400 METAR WIHH 250400Z 15005KT 4000 HZ FEW020 31/23 Q1012 NOSIG=
202307250330 METAR WIHH 250330Z 24004KT 4000 HZ FEW020 30/23 Q1012 NOSIG=
202307250300 METAR WIHH 250300Z 24003KT 4000 HZ FEW020 29/23 Q1013 NOSIG=
202307250230 METAR WIHH 250230Z 21003KT 4000 HZ FEW020 29/24 Q1013 NOSIG=
202307250200 METAR WIHH 250200Z 19003KT 4000 HZ FEW020 28/23 Q1013 NOSIG=
202307250130 METAR WIHH 250130Z 19003KT 3500 HZ FEW020 27/24 Q1013 NOSIG=
202307250100 METAR WIHH 250100Z 24004KT 4000 HZ FEW018 26/23 Q1013 NOSIG=
202307250030 METAR WIHH 250030Z 22005KT 3000 HZ FEW018 25/23 Q1012 NOSIG=
202307250000 METAR WIHH 250000Z 23005KT 3000 HZ SCT018 24/23 Q1012 NOSIG=
202307242330 METAR WIHH 242330Z 23004KT 3000 HZ FEW020 24/23 Q1012 NOSIG=
202307242300 METAR WIHH 242300Z 24003KT 3000 BR FEW020 24/23 Q1012 NOSIG=
202307242230 METAR WIHH 242230Z 27003KT 3000 BR FEW020 24/23 Q1011 NOSIG=
202307242200 METAR WIHH 242200Z 00000KT 2000 BR FEW020 24/23 Q1011 NOSIG=
202307242130 METAR WIHH 242130Z 00000KT 2000 BR FEW020 24/23 Q1011 NOSIG=
202307242100 METAR WIHH NIL=
202307242030 METAR WIHH NIL=
202307242000 METAR WIHH NIL=
202307241930 METAR WIHH NIL=
202307241900 METAR WIHH NIL=
202307241830 METAR WIHH NIL=
202307241800 METAR WIHH NIL=
202307241730 METAR WIHH NIL=
202307241700 METAR WIHH 241700Z 00000KT 4000 HZ FEW020 26/24 Q1012 NOSIG=
202307241630 METAR WIHH 241630Z 00000KT 4000 HZ FEW020 26/24 Q1012 NOSIG=
202307241600 METAR WIHH 241600Z 11002KT 4000 HZ FEW020 26/24 Q1012 NOSIG=
202307241530 METAR WIHH 241530Z 13003KT 4000 HZ FEW020 26/24 Q1012 NOSIG=
202307241500 METAR WIHH 241500Z 13003KT 4000 HZ FEW020 26/24 Q1012 NOSIG=
202307241430 METAR WIHH 241430Z 12003KT 4000 HZ FEW020 26/24 Q1012 NOSIG=
202307241400 METAR WIHH 241400Z 13003KT 5000 HZ FEW020 26/24 Q1012 NOSIG=
202307241330 METAR WIHH 241330Z 00000KT 5000 HZ FEW020 27/25 Q1012 NOSIG=
202307241300 METAR WIHH 241300Z 00000KT 5000 HZ SCT020 27/24 Q1011 NOSIG=
202307241230 METAR WIHH 241230Z 00000KT 5000 HZ SCT020 27/24 Q1011 NOSIG=
202307241200 METAR WIHH 241200Z 00000KT 5000 HZ FEW020 26/24 Q1011 NOSIG=
202307241130 METAR WIHH 241130Z 00000KT 5000 HZ SCT020 27/24 Q1010 NOSIG=
202307241100 METAR WIHH 241100Z 00000KT 5000 HZ SCT018 27/24 Q1010 NOSIG=
202307241030 METAR WIHH 241030Z 00000KT 5000 HZ SCT018 28/25 Q1010 NOSIG=
202307241000 METAR WIHH 241000Z 00000KT 5000 HZ SCT018 28/24 Q1010 NOSIG=
202307240930 METAR WIHH 240930Z 00000KT 5000 HZ SCT018 27/24 Q1010 RMK RA TO E=
202307240900 METAR WIHH 240900Z 34004KT 5000 HZ SCT018 28/25 Q1009 RMK RA TO SE=
202307240830 METAR WIHH NIL=
202307240800 METAR WIHH NIL=
202307240730 METAR WIHH 240730Z 34009KT 5000 HZ SCT018 30/24 Q1010 RMK RA TO E=
202307240700 METAR WIHH 240700Z 36006KT 5000 HZ SCT018 30/24 Q1010 RMK RA TO NE=
202307240630 METAR WIHH 240630Z 34006KT 5000 HZ SCT018 29/25 Q1010 RMK RA TO E AND NW=
202307240600 METAR WIHH 240600Z 02007KT 5000 HZ SCT018 30/24 Q1011 RMK RA TO E AND W=
202307240530 METAR WIHH 240530Z 03007KT 5000 HZ FEW018CB SCT018 29/23 Q1011 RMK CB AND RA TO E=
202307240500 METAR WIHH 240500Z 34005KT 5000 -RA SCT018 29/24 Q1011 NOSIG=
202307240430 METAR WIHH 240430Z 34007KT 5000 HZ SCT020 31/24 Q1012 RMK RA TO N-NE=
202307240400 METAR WIHH 240400Z 07003KT 5000 HZ SCT020 31/24 Q1012 RMK RA TO N=
202307240330 METAR WIHH 240330Z 07003KT 5000 HZ SCT020 30/23 Q1012 NOSIG=
202307240300 METAR WIHH 240300Z 13004KT 5000 HZ SCT020 31/24 Q1013 NOSIG=
202307240230 METAR WIHH 240230Z 08003KT 5000 HZ SCT020 30/23 Q1013 NOSIG=
202307240200 METAR WIHH 240200Z 04003KT 5000 HZ FEW020 29/24 Q1013 NOSIG=
202307240130 METAR WIHH 240130Z 09003KT 5000 HZ NSC 29/24 Q1013 NOSIG=
202307240100 METAR WIHH 240100Z 13004KT 5000 HZ NSC 28/24 Q1012 NOSIG=
202307240030 METAR WIHH 240030Z 20002KT 4000 HZ NSC 27/24 Q1012 NOSIG=
202307240000 METAR WIHH 240000Z 00000KT 4000 HZ NSC 26/24 Q1012 NOSIG=
202307232330 METAR WIHH 232330Z 23002KT 4000 HZ NSC 25/23 Q1011 NOSIG=
202307232300 METAR WIHH 232300Z 18002KT 4000 HZ NSC 25/23 Q1011 NOSIG=
202307232230 METAR WIHH 232230Z 17002KT 4000 HZ NSC 25/23 Q1011 NOSIG=
202307232200 METAR WIHH 232200Z 16002KT 4000 HZ NSC 25/24 Q1010 NOSIG=
202307232130 METAR WIHH 232130Z 17002KT 4000 HZ NSC 25/24 Q1010 NOSIG=
202307232100 METAR WIHH 232100Z 00000KT 4000 HZ NSC 25/24 Q1010 NOSIG=
202307232030 METAR WIHH NIL=
202307232000 METAR WIHH NIL=
202307231930 METAR WIHH NIL=
202307231900 METAR WIHH NIL=
202307231830 METAR WIHH NIL=
202307231800 METAR WIHH NIL=
202307231730 METAR WIHH NIL=
202307231700 METAR WIHH 231700Z 08002KT 6000 SCT020 28/25 Q1012 NOSIG=
202307231630 METAR WIHH 231630Z 09003KT 6000 SCT020 28/24 Q1012 NOSIG=
202307231600 METAR WIHH 231600Z 09003KT 6000 SCT020 28/24 Q1012 NOSIG=
202307231530 METAR WIHH 231530Z 10003KT 6000 SCT020 28/24 Q1012 NOSIG=
202307231500 METAR WIHH 231500Z 09003KT 6000 SCT020 28/24 Q1012 NOSIG=
202307231430 METAR WIHH 231430Z 09007KT 6000 SCT020 28/24 Q1011 NOSIG=
202307231400 METAR WIHH 231400Z 06007KT 6000 SCT020 28/24 Q1011 NOSIG=
202307231330 METAR WIHH 231330Z 05008KT 6000 SCT020 28/24 Q1011 NOSIG=
202307231300 METAR WIHH 231300Z 06005KT 6000 FEW020 28/24 Q1011 NOSIG=
202307231230 METAR WIHH 231230Z 06007KT 6000 SCT020 29/24 Q1010 NOSIG=
202307231200 METAR WIHH 231200Z 06006KT 6000 SCT020 29/23 Q1010 NOSIG=
202307231130 METAR WIHH 231130Z 07010KT 6000 FEW020 29/22 Q1010 NOSIG=
202307231100 METAR WIHH 231100Z 04008KT 6000 SCT020 30/23 Q1009 RMK RA TO S=
202307231030 METAR WIHH 231030Z 06008KT 6000 SCT020 30/22 Q1009 RMK RA TO S=
202307231000 METAR WIHH 231000Z 06008KT 6000 SCT020 30/22 Q1009 RMK RA TO S=
202307230930 METAR WIHH 230930Z 04012KT 6000 SCT020 31/22 Q1009 RMK RA TO SW=
202307230900 METAR WIHH 230900Z 04009KT 6000 BKN020 32/23 Q1008 NOSIG=
202307230830 METAR WIHH 230830Z 03013KT 6000 BKN020 32/22 Q1008 NOSIG=
202307230800 METAR WIHH 230800Z 05008KT 6000 BKN020 32/22 Q1008 NOSIG=
202307230730 METAR WIHH 230730Z 06008KT 6000 SCT020 33/21 Q1008 NOSIG=
202307230700 METAR WIHH 230700Z 07007KT 6000 SCT020 33/21 Q1008 NOSIG=
202307230630 METAR WIHH 230630Z 06008KT 6000 SCT020 33/21 Q1009 NOSIG=
202307230600 METAR WIHH 230600Z 06005KT 6000 SCT020 33/21 Q1009 NOSIG=
202307230530 METAR WIHH 230530Z 06006KT 6000 SCT020 32/21 Q1010 NOSIG=
202307230500 METAR WIHH 230500Z 16010KT 6000 SCT020 32/21 Q1010 NOSIG=
202307230430 METAR WIHH 230430Z 04010KT 6000 FEW020 32/20 Q1011 NOSIG=
202307230400 METAR WIHH 230400Z 16006KT 6000 NSC 32/20 Q1011 NOSIG=
202307230330 METAR WIHH 230330Z 07010KT 6000 NSC 31/20 Q1012 NOSIG=
202307230300 METAR WIHH 230300Z 07003KT 6000 NSC 31/20 Q1012 NOSIG=
202307230230 METAR WIHH 230230Z 09005KT 6000 NSC 30/20 Q1012 NOSIG=
202307230200 METAR WIHH 230200Z 09006KT 5000 HZ NSC 29/20 Q1013 NOSIG=
202307230130 METAR WIHH 230130Z 15003KT 5000 HZ NSC 29/21 Q1013 NOSIG=
202307230100 METAR WIHH 230100Z 00000KT 4000 HZ NSC 27/22 Q1013 NOSIG=
202307230030 METAR WIHH 230030Z 00000KT 4000 HZ NSC 27/22 Q1013 NOSIG=
202307230000 METAR WIHH 230000Z 00000KT 4000 HZ NSC 24/22 Q1012 NOSIG=
202307222330 METAR WIHH 222330Z 00000KT 4000 HZ NSC 24/22 Q1012 NOSIG=
202307222300 METAR WIHH 222300Z 00000KT 4000 HZ NSC 24/22 Q1012 NOSIG=
202307222230 METAR WIHH 222230Z 00000KT 5000 HZ FEW020 24/22 Q1012 NOSIG=
202307222200 METAR WIHH 222200Z 00000KT 5000 HZ FEW020 25/22 Q1012=
202307222130 METAR WIHH 222130Z 00000KT 5000 HZ FEW020 25/22 Q1012 NOSIG=
202307222100 METAR WIHH 222100Z 12003KT 5000 HZ FEW020 25/22 Q1012=
202307222030 METAR WIHH NIL=
202307222000 METAR WIHH NIL=
202307221930 METAR WIHH NIL=
202307221900 METAR WIHH NIL=
202307221830 METAR WIHH NIL=
202307221800 METAR WIHH NIL=
202307221730 METAR WIHH NIL=
202307221700 METAR WIHH NIL=
202307221630 METAR WIHH NIL=
202307221600 METAR WIHH NIL=
202307221530 METAR WIHH NIL=
202307221500 METAR WIHH 221500Z 09003KT 6000 SCT020 29/21 Q1013 NOSIG=
202307221430 METAR WIHH 221430Z 09003KT 6000 SCT020 28/21 Q1013 NOSIG=
202307221400 METAR WIHH 221400Z 12003KT 6000 SCT020 28/21 Q1013 NOSIG=
202307221330 METAR WIHH 221330Z 03005KT 6000 SCT020 29/21 Q1013 NOSIG=
202307221300 METAR WIHH 221300Z 06004KT 6000 FEW022 29/21 Q1013 NOSIG=
202307221230 METAR WIHH 221230Z 06005KT 6000 FEW022 29/21 Q1012 NOSIG=
202307221200 METAR WIHH 221200Z 06006KT 6000 FEW022 29/21 Q1011 NOSIG=
202307221130 METAR WIHH 221130Z 06006KT 6000 FEW020 30/20 Q1011 NOSIG=
202307221100 METAR WIHH 221100Z 03006KT 6000 FEW020 30/21 Q1011 NOSIG=
202307221030 METAR WIHH 221030Z 06006KT 6000 FEW020 30/22 Q1010 NOSIG=
202307221000 METAR WIHH 221000Z 03010KT 6000 FEW020 31/22 Q1010 NOSIG=
202307220930 METAR WIHH 220930Z 03010KT 6000 SCT020 31/21 Q1010 NOSIG=
202307220900 METAR WIHH 220900Z 03008KT 6000 SCT020 32/21 Q1010 NOSIG=
202307220830 METAR WIHH 220830Z 03008KT 6000 SCT020 33/20 Q1009=
202307220800 METAR WIHH NIL=
202307220730 METAR WIHH NIL=
202307220700 METAR WIHH NIL=
202307220630 METAR WIHH 220630Z 09005KT 6000 FEW020 33/20 Q1010 NOSIG=
202307220600 METAR WIHH 220600Z 18006KT 6000 FEW020 33/19 Q1010 NOSIG=
202307220530 METAR WIHH 220530Z 03008KT 6000 FEW022 33/20 Q1010 NOSIG=
202307220500 METAR WIHH 220500Z 03005KT 5000 HZ FEW022 32/20 Q1011 NOSIG=
202307220430 METAR WIHH 220430Z 03005KT 5000 HZ FEW022 32/21 Q1011 NOSIG=
202307220400 METAR WIHH 220400Z 03008KT 5000 HZ FEW022 31/21 Q1012 NOSIG=
202307220330 METAR WIHH 220330Z 09008KT 5000 HZ 31/20 Q1012 NOSIG=
202307220300 METAR WIHH 220300Z 18003KT 4000 HZ 30/22 Q1012 NOSIG=
202307220230 METAR WIHH 220230Z 12004KT 4000 HZ NSC 30/22 Q1012 NOSIG=
202307220200 METAR WIHH 220200Z 12004KT 5000 HZ NSC 29/22 Q1013 NOSIG=
202307220130 METAR WIHH 220130Z 15004KT 5000 HZ NSC 28/22 Q1013=
202307220100 METAR WIHH 220100Z 11003KT 5000 HZ NSC 28/22 Q1012 NOSIG=
202307220030 METAR WIHH NIL=
202307220000 METAR WIHH NIL=
202307212330 METAR WIHH 212330Z 00000KT 5000 HZ FEW020 26/22 Q1012 NOSIG=
202307212300 METAR WIHH 212300Z 00000KT 5000 HZ SCT020 26/23 Q1012 NOSIG=
202307212230 METAR WIHH 212230Z 00000KT 5000 HZ FEW020 26/23 Q1011 NOSIG=
202307212200 METAR WIHH 212200Z 00000KT 5000 HZ FEW020 26/23 Q1011 NOSIG=
202307212130 METAR WIHH 212130Z 22003KT 5000 HZ FEW020 26/23 Q1011 NOSIG=
202307212100 METAR WIHH 212100Z 25004KT 5000 HZ FEW020 26/23 Q1011=
202307212030 METAR WIHH NIL=
202307212000 METAR WIHH NIL=
202307211930 METAR WIHH NIL=
202307211900 METAR WIHH NIL=
202307211830 METAR WIHH NIL=
202307211800 METAR WIHH NIL=
202307211730 METAR WIHH NIL=
202307211700 METAR WIHH NIL=
202307211630 METAR WIHH NIL=
202307211600 METAR WIHH NIL=
202307211530 METAR WIHH NIL=
202307211500 METAR WIHH 211500Z 00000KT 5000 HZ FEW020 26/23 Q1012 NOSIG=
202307211430 METAR WIHH 211430Z 00000KT 5000 HZ FEW020 27/23 Q1012 NOSIG=
202307211400 METAR WIHH 211400Z 07004KT 5000 HZ SCT020 28/22 Q1012 NOSIG=
202307211330 METAR WIHH 211330Z 03004KT 5000 HZ SCT020 28/22 Q1012 NOSIG=
202307211300 METAR WIHH NIL=
202307211230 METAR WIHH 211230Z 03005KT 5000 HZ FEW020 29/22 Q1011 NOSIG=
202307211200 METAR WIHH 211200Z 35005KT 5000 HZ FEW020 29/22 Q1010 NOSIG=
202307211130 METAR WIHH NIL=
202307211100 METAR WIHH NIL=
202307211030 METAR WIHH 211030Z 03007KT 5000 HZ FEW020 30/21 Q1009 NOSIG=
202307211000 METAR WIHH 211000Z 03012KT 5000 HZ SCT020 31/22 Q1009 NOSIG=
202307210930 METAR WIHH 210930Z 02012KT 5000 HZ SCT020 32/22 Q1009 NOSIG=
202307210900 METAR WIHH 210900Z 04012KT 5000 HZ SCT020 33/21 Q1008 NOSIG=
202307210830 METAR WIHH 210830Z 06012KT 5000 HZ SCT020 33/19 Q1008 NOSIG=
202307210800 METAR WIHH 210800Z 05011KT 5000 HZ FEW020 34/19 Q1008 NOSIG=
202307210730 METAR WIHH 210730Z 09005KT 6000 FEW020 34/18 Q1008 NOSIG=
202307210700 METAR WIHH 210700Z 04005KT 6000 FEW020 34/18 Q1009 NOSIG=
202307210630 METAR WIHH NIL=
202307210600 METAR WIHH 210600Z 04003KT 6000 FEW020 33/18 Q1011 NOSIG=
202307210530 METAR WIHH 210530Z 04003KT 6000 FEW020 33/18 Q1011 NOSIG=
202307210500 METAR WIHH 210500Z 03003KT 6000 FEW020 33/20 Q1011 NOSIG=
202307210430 METAR WIHH 210430Z 08006KT 6000 FEW020 32/20 Q1012 NOSIG=
202307210400 METAR WIHH 210400Z 06003KT 6000 FEW020 31/19 Q1012 NOSIG=
202307210330 METAR WIHH 210330Z 14005KT 6000 FEW020 31/19 Q1012 NOSIG=
202307210300 METAR WIHH 210300Z 09004KT 6000 FEW020 30/19 Q1012 NOSIG=
202307210230 METAR WIHH 210230Z 17005KT 6000 FEW020 30/19 Q1012 NOSIG=
202307210200 METAR WIHH 210200Z 20005KT 6000 FEW020 29/19 Q1012 NOSIG=
202307210130 METAR WIHH 210130Z 18010KT 6000 FEW020 29/20 Q1012 NOSIG=
202307210100 METAR WIHH 210100Z 19006KT 6000 FEW020 27/20 Q1012 NOSIG=
202307210030 METAR WIHH 210030Z 24003KT 6000 FEW020 26/21 Q1012 NOSIG=
202307210000 METAR WIHH 210000Z 27002KT 6000 FEW020 25/21 Q1012 NOSIG=
202307202330 METAR WIHH 202330Z 22003KT 6000 FEW020 25/21 Q1012 NOSIG=
202307202300 METAR WIHH 202300Z 24003KT 6000 SCT020 25/21 Q1011 NOSIG=
202307202230 METAR WIHH 202230Z 20003KT 6000 NSC 25/20 Q1011 NOSIG=
202307202200 METAR WIHH 202200Z 21004KT 6000 NSC 25/21 Q1011 NOSIG=
202307202130 METAR WIHH 202130Z 21003KT 6000 NSC 25/21 Q1011 NOSIG=
202307202100 METAR WIHH NIL=
202307202030 METAR WIHH NIL=
202307202000 METAR WIHH NIL=
202307201930 METAR WIHH NIL=
202307201900 METAR WIHH NIL=
202307201830 METAR WIHH 201830Z 22003KT 6000 NSC 25/21 Q1011 NOSIG=
202307201800 METAR WIHH 201800Z 24004KT 6000 NSC 26/21 Q1012 NOSIG=
202307201730 METAR WIHH 201730Z 25004KT 6000 NSC 25/21 Q1012 NOSIG=
202307201700 METAR WIHH 201700Z 24002KT 6000 NSC 25/21 Q1012 NOSIG=
202307201630 METAR WIHH 201630Z 23002KT 6000 NSC 25/21 Q1012 NOSIG=
202307201600 METAR WIHH 201600Z 00000KT 6000 FEW020 25/21 Q1012 NOSIG=
202307201530 METAR WIHH 201530Z 00000KT 6000 FEW020 25/21 Q1011 NOSIG=
202307201500 METAR WIHH 201500Z 00000KT 6000 FEW020 26/20 Q1011 NOSIG=
202307201430 METAR WIHH 201430Z 00000KT 6000 FEW020 26/21 Q1011 NOSIG=
202307201400 METAR WIHH NIL=
202307201330 METAR WIHH NIL=
202307201300 METAR WIHH 201300Z 24002KT 7000 FEW020 27/21 Q1010 NOSIG=
202307201230 METAR WIHH 201230Z 07005KT 7000 FEW020 29/20 Q1010 NOSIG=
202307201200 METAR WIHH 201200Z 04003KT 6000 FEW020 29/20 Q1010 NOSIG=
202307201130 METAR WIHH 201130Z 07005KT 6000 FEW020 30/19 Q1009 NOSIG=
202307201100 METAR WIHH 201100Z 02005KT 6000 FEW020 30/18 Q1009 NOSIG=
202307201030 METAR WIHH 201030Z 01003KT 6000 FEW020 30/19 Q1009 NOSIG=
202307201000 METAR WIHH 201000Z 02010KT 6000 FEW020 31/17 Q1008 NOSIG=
202307200930 METAR WIHH 200930Z 04010KT 6000 FEW020 32/17 Q1008 NOSIG=
202307200900 METAR WIHH 200900Z 03009KT 6000 FEW020 32/17 Q1008 NOSIG=
202307200830 METAR WIHH 200830Z 03010KT 6000 FEW020 33/17 Q1008 NOSIG=
202307200800 METAR WIHH NIL=
202307200730 METAR WIHH NIL=
202307200700 METAR WIHH 200700Z 06010KT 6000 FEW020 33/15 Q1008 NOSIG=
202307200630 METAR WIHH 200630Z 03010KT 6000 FEW020 34/16 Q1008 NOSIG=
202307200600 METAR WIHH 200600Z 03007KT 6000 FEW020 34/17 Q1009 NOSIG=
202307200530 METAR WIHH 200530Z 01006KT 6000 FEW020 34/17 Q1009 NOSIG=
202307200500 METAR WIHH 200500Z 17004KT 6000 FEW020 34/15 Q1009 NOSIG=
202307200430 METAR WIHH 200430Z 05007KT 6000 FEW020 33/14 Q1010 NOSIG=
202307200400 METAR WIHH 200400Z 36003KT 6000 FEW020 33/15 Q1010 NOSIG=
202307200330 METAR WIHH 200330Z 19002KT 6000 NSC 32/15 Q1010 NOSIG=
202307200300 METAR WIHH 200300Z 29003KT 6000 NSC 32/17 Q1010 NOSIG=
202307200230 METAR WIHH 200230Z 18003KT 6000 NSC 30/18 Q1010 NOSIG=
202307200200 METAR WIHH 200200Z 26004KT 6000 NSC 28/17 Q1010 NOSIG=
202307200130 METAR WIHH 200130Z 22006KT 6000 NSC 28/18 Q1010 NOSIG=
202307200100 METAR WIHH NIL=
202307200030 METAR WIHH 200030Z 21005KT 6000 NSC 26/18 Q1010 NOSIG=
202307200000 METAR WIHH 200000Z 00000KT 6000 NSC 24/19 Q1009 NOSIG=
202307192330 METAR WIHH 192330Z 21004KT 6000 FEW022 23/18 Q1009 NOSIG=
202307192300 METAR WIHH 192300Z 00000KT 6000 FEW022 23/20 Q1009 NOSIG=
202307192230 METAR WIHH 192230Z 00000KT 6000 FEW020 23/19 Q1009 NOSIG=
202307192200 METAR WIHH 192200Z 00000KT 6000 FEW020 23/20 Q1008 NOSIG=
202307192130 METAR WIHH 192130Z 00000KT 6000 FEW020 23/20 Q1008 NOSIG=
202307192100 METAR WIHH 192100Z 00000KT 6000 FEW020 24/20 Q1008 NOSIG=
202307192030 METAR WIHH NIL=
202307192000 METAR WIHH NIL=
202307191930 METAR WIHH NIL=
202307191900 METAR WIHH NIL=
202307191830 METAR WIHH NIL=
202307191800 METAR WIHH NIL=
202307191730 METAR WIHH NIL=
202307191700 METAR WIHH NIL=
202307191630 METAR WIHH NIL=
202307191600 METAR WIHH NIL=
202307191530 METAR WIHH NIL=
202307191500 METAR WIHH 191500Z 21006KT 6000 FEW020 26/20 Q1010 NOSIG=
202307191430 METAR WIHH 191430Z 21003KT 6000 FEW020 26/22 Q1010 NOSIG=
202307191400 METAR WIHH 191400Z 00000KT 6000 FEW020 26/21 Q1010 NOSIG=
202307191330 METAR WIHH 191330Z 24003KT 6000 FEW020 27/22 Q1009 NOSIG=
202307191300 METAR WIHH 191300Z 19003KT 6000 FEW020 28/21 Q1009 NOSIG=
202307191230 METAR WIHH 191230Z 06006KT 6000 FEW020 29/20 Q1009 NOSIG=
202307191200 METAR WIHH 191200Z 03006KT 6000 FEW020 30/20 Q1008 NOSIG=
202307191130 METAR WIHH 191130Z 03012KT 6000 FEW022 30/21 Q1008 NOSIG=
202307191100 METAR WIHH 191100Z 03010KT 6000 FEW022 30/20 Q1008 NOSIG=
202307191030 METAR WIHH 191030Z 06010KT 7000 FEW022 31/20 Q1007 NOSIG=
202307191000 METAR WIHH 191000Z 06010KT 7000 FEW020 32/20 Q1007 NOSIG=
202307190930 METAR WIHH 190930Z 06010KT 7000 NSC 33/18 Q1007 NOSIG=
202307190900 METAR WIHH 190900Z 06008KT 7000 NSC 34/17 Q1007 NOSIG=
202307190830 METAR WIHH 190830Z 06010KT 7000 NSC 34/17 Q1006 NOSIG=
202307190800 METAR WIHH 190800Z 06010KT 7000 NSC 34/16 Q1007 NOSIG=
202307190730 METAR WIHH 190730Z 06010KT 7000 FEW022 34/15 Q1007 NOSIG=
202307190700 METAR WIHH 190700Z 06015KT 7000 FEW022 34/15 Q1008 NOSIG=
202307190630 METAR WIHH 190630Z 09015KT 7000 FEW022 34/15 Q1008 NOSIG=
202307190600 METAR WIHH 190600Z 09015KT 7000 FEW022 34/16 Q1008 NOSIG=
202307190530 METAR WIHH 190530Z 06010KT 6000 FEW022 33/15 Q1009 NOSIG=
202307190500 METAR WIHH NIL=
202307190430 METAR WIHH 190430Z 12010KT 6000 FEW022 33/17 Q1010 NOSIG=
202307190400 METAR WIHH 190400Z 09010KT 6000 FEW022 32/18 Q1011 NOSIG=
202307190330 METAR WIHH 190330Z 09008KT 6000 FEW022 32/18 Q1011 NOSIG=
202307190300 METAR WIHH 190300Z 12005KT 6000 NSC 31/20 Q1011 NOSIG=
202307190230 METAR WIHH 190230Z 18005KT 5000 HZ NSC 30/21 Q1011 NOSIG=
202307190200 METAR WIHH 190200Z 18005KT 5000 HZ NSC 29/21 Q1011 NOSIG=
202307190130 METAR WIHH 190130Z 18005KT 5000 HZ NSC 28/21 Q1011 NOSIG=
202307190100 METAR WIHH 190100Z 22005KT 5000 HZ NSC 27/21 Q1011 NOSIG=
202307190030 METAR WIHH 190030Z 22006KT 5000 HZ NSC 26/21 Q1010 NOSIG=
202307190000 METAR WIHH 190000Z 21006KT 5000 HZ FEW020 25/21 Q1010 NOSIG=
202307182330 METAR WIHH 182330Z 22006KT 5000 HZ FEW020 24/21 Q1010 NOSIG=
202307182300 METAR WIHH 182300Z 23005KT 5000 HZ FEW020 24/21 Q1010 NOSIG=
202307182230 METAR WIHH 182230Z 22004KT 5000 HZ FEW020 24/21 Q1010 NOSIG=
202307182200 METAR WIHH 182200Z 19003KT 6000 FEW020 24/21 Q1009 NOSIG=
202307182130 METAR WIHH 182130Z 21005KT 5000 HZ FEW020 24/21 Q1009 NOSIG=
202307182100 METAR WIHH NIL=
202307182030 METAR WIHH NIL=
202307182000 METAR WIHH NIL=
202307181930 METAR WIHH NIL=
202307181900 METAR WIHH NIL=
202307181830 METAR WIHH NIL=
202307181800 METAR WIHH NIL=
202307181730 METAR WIHH NIL=
202307181700 METAR WIHH NIL=
202307181630 METAR WIHH NIL=
202307181600 METAR WIHH 181600Z 00000KT 5000 HZ FEW020 26/21 Q1011 NOSIG=
202307181530 METAR WIHH NIL=
202307181500 METAR WIHH 181500Z 00000KT 5000 HZ FEW020 26/21 Q1011 NOSIG=
202307181430 METAR WIHH 181430Z 12004KT 5000 HZ FEW020 27/22 Q1011 NOSIG=
202307181400 METAR WIHH 181400Z 17003KT 5000 HZ FEW020 27/21 Q1011 NOSIG=
202307181330 METAR WIHH 181330Z 09005KT 5000 HZ FEW020 28/21 Q1010 NOSIG=
202307181300 METAR WIHH 181300Z 09006KT 6000 FEW020 28/21 Q1010 NOSIG=
202307181230 METAR WIHH 181230Z 07007KT 6000 FEW020 28/21 Q1010 NOSIG=
202307181200 METAR WIHH 181200Z 05007KT 6000 FEW020 29/20 Q1010 NOSIG=
202307181130 METAR WIHH 181130Z 07006KT 6000 FEW020 29/20 Q1009 NOSIG=
202307181100 METAR WIHH 181100Z 04008KT 6000 FEW020 30/20 Q1009 NOSIG=
202307181030 METAR WIHH 181030Z 04011KT 6000 FEW020 31/20 Q1009 NOSIG=
202307181000 METAR WIHH 181000Z 04012KT 6000 FEW020 32/20 Q1009 NOSIG=
202307180930 METAR WIHH 180930Z 03012KT 6000 FEW020 32/20 Q1008 NOSIG=
202307180900 METAR WIHH 180900Z 07014KT 6000 FEW020 32/20 Q1008 NOSIG=
202307180830 METAR WIHH NIL=
202307180800 METAR WIHH NIL=
202307180730 METAR WIHH 180730Z 08013KT 6000 FEW020 33/20 Q1008 NOSIG=
202307180700 METAR WIHH 180700Z 08014KT 6000 FEW020 33/19 Q1008 NOSIG=
202307180630 METAR WIHH 180630Z 06014KT 6000 FEW020 33/18 Q1009 NOSIG=
202307180600 METAR WIHH 180600Z 04015KT 6000 FEW020 33/20 Q1009 NOSIG=
202307180530 METAR WIHH 180530Z 09014KT 6000 FEW020 32/19 Q1009 NOSIG=
202307180500 METAR WIHH 180500Z 08012KT 6000 FEW020 32/19 Q1009 NOSIG=
202307180430 METAR WIHH 180430Z 08012KT 6000 FEW020 32/20 Q1010 NOSIG=
202307180400 METAR WIHH 180400Z 07011KT 6000 FEW020 32/20 Q1010 NOSIG=
202307180330 METAR WIHH 180330Z 12008KT 6000 FEW020 31/21 Q1011 NOSIG=
202307180300 METAR WIHH 180300Z 12012KT 5000 HZ NSC 31/21 Q1011 NOSIG=
202307180230 METAR WIHH 180230Z 11007KT 5000 HZ NSC 30/21 Q1011 NOSIG=
202307180200 METAR WIHH 180200Z 11006KT 5000 HZ NSC 29/21 Q1011 NOSIG=
202307180130 METAR WIHH 180130Z 12003KT 4000 HZ NSC 28/22 Q1011 NOSIG=
202307180100 METAR WIHH 180100Z 14003KT 4000 HZ NSC 27/22 Q1011 NOSIG=
202307180030 METAR WIHH 180030Z 00000KT 4000 HZ NSC 26/22 Q1011 NOSIG=
202307180000 METAR WIHH 180000Z 00000KT 5000 HZ NSC 25/22 Q1011 NOSIG=
202307172330 METAR WIHH 172330Z 00000KT 5000 HZ NSC 23/22 Q1010 NOSIG=
202307172300 METAR WIHH 172300Z 00000KT 5000 HZ NSC 23/21 Q1010 NOSIG=
202307172230 METAR WIHH 172230Z 00000KT 5000 HZ NSC 23/22 Q1010 NOSIG=
202307172200 METAR WIHH 172200Z 00000KT 6000 FEW020 23/22 Q1010 NOSIG=
202307172130 METAR WIHH 172130Z 00000KT 6000 FEW020 23/22 Q1010 NOSIG=
202307172100 METAR WIHH NIL=
202307172030 METAR WIHH NIL=
202307172000 METAR WIHH NIL=
202307171930 METAR WIHH NIL=
202307171900 METAR WIHH NIL=
202307171830 METAR WIHH NIL=
202307171800 METAR WIHH NIL=
202307171730 METAR WIHH NIL=
202307171700 METAR WIHH NIL=
202307171630 METAR WIHH NIL=
202307171600 METAR WIHH NIL=
202307171530 METAR WIHH NIL=
202307171500 METAR WIHH 171500Z 09003KT 6000 FEW020 28/23 Q1011 NOSIG=
202307171430 METAR WIHH 171430Z 09004KT 6000 SCT020 28/23 Q1011 NOSIG=
202307171400 METAR WIHH 171400Z 05004KT 6000 FEW020 28/23 Q1010 NOSIG=
202307171330 METAR WIHH 171330Z 07005KT 6000 SCT020 28/23 Q1010 NOSIG=
202307171300 METAR WIHH 171300Z 07008KT 6000 FEW020 29/22 Q1010 NOSIG=
202307171230 METAR WIHH 171230Z 06007KT 6000 NSC 29/22 Q1009 NOSIG=
202307171200 METAR WIHH 171200Z 06008KT 6000 NSC 29/22 Q1009 NOSIG=
202307171130 METAR WIHH 171130Z 04007KT 6000 NSC 30/22 Q1008 NOSIG=
202307171100 METAR WIHH 171100Z 06007KT 6000 NSC 30/22 Q1007 NOSIG=
202307171030 METAR WIHH 171030Z 06010KT 6000 NSC 31/21 Q1007 NOSIG=
202307171000 METAR WIHH 171000Z 06010KT 6000 NSC 32/21 Q1006 NOSIG=
202307170930 METAR WIHH 170930Z 06010KT 6000 FEW020 32/21 Q1006 NOSIG=
202307170900 METAR WIHH 170900Z 05013KT 6000 FEW020 33/21 Q1006 NOSIG=
202307170830 METAR WIHH 170830Z 12007KT 6000 SCT020 33/21 Q1006 NOSIG=
202307170800 METAR WIHH 170800Z 09011KT 6000 SCT020 33/20 Q1006 NOSIG=
202307170730 METAR WIHH 170730Z 04008KT 6000 SCT020 34/20 Q1006 NOSIG=
202307170700 METAR WIHH 170700Z 06013KT 6000 SCT020 34/20 Q1007 NOSIG=
202307170630 METAR WIHH 170630Z 06013KT 6000 SCT020 34/21 Q1007 NOSIG=
202307170600 METAR WIHH NIL=
202307170530 METAR WIHH NIL=
202307170500 METAR WIHH 170500Z 06012KT 6000 SCT020 33/20 Q1009 NOSIG=
202307170430 METAR WIHH 170430Z 12005KT 5000 HZ SCT020 32/20 Q1009 NOSIG=
202307170400 METAR WIHH 170400Z 05007KT 5000 HZ FEW020 33/21 Q1009 NOSIG=
202307170330 METAR WIHH 170330Z 05003KT 5000 HZ FEW020 32/20 Q1010 NOSIG=
202307170300 METAR WIHH 170300Z 22003KT 5000 HZ NSC 31/22 Q1010 NOSIG=
202307170230 METAR WIHH 170230Z 12005KT 5000 HZ FEW020 30/22 Q1010 NOSIG=
202307170200 METAR WIHH 170200Z 12003KT 5000 HZ FEW020 29/22 Q1011 NOSIG=
202307170130 METAR WIHH 170130Z 11003KT 5000 HZ FEW020 28/22 Q1011 NOSIG=
202307170100 METAR WIHH 170100Z 09004KT 6000 NSC 27/21 Q1011 NOSIG=
202307170030 METAR WIHH 170030Z 13003KT 6000 NSC 27/22 Q1011 NOSIG=
202307170000 METAR WIHH 170000Z 21003KT 6000 NSC 25/22 Q1010 NOSIG=
202307162330 METAR WIHH 162330Z 19003KT 6000 NSC 24/21 Q1010 NOSIG=
202307162300 METAR WIHH 162300Z 18003KT 6000 NSC 24/21 Q1010 NOSIG=
202307162230 METAR WIHH 162230Z 21003KT 6000 FEW020 24/21 Q1010 NOSIG=
202307162200 METAR WIHH 162200Z 29003KT 6000 FEW020 25/21 Q1009 NOSIG=
202307162130 METAR WIHH 162130Z 25003KT 6000 FEW020 25/21 Q1009 NOSIG=
202307162100 METAR WIHH NIL=
202307162030 METAR WIHH NIL=
202307162000 METAR WIHH NIL=
202307161930 METAR WIHH NIL=
202307161900 METAR WIHH NIL=
202307161830 METAR WIHH NIL=
202307161800 METAR WIHH NIL=
202307161730 METAR WIHH NIL=
202307161700 METAR WIHH 161700Z 00000KT 5000 HZ SCT020 25/22 Q1011 NOSIG=
202307161630 METAR WIHH 161630Z 15003KT 5000 HZ SCT020 26/22 Q1011 NOSIG=
202307161600 METAR WIHH 161600Z 16004KT 5000 HZ SCT020 26/22 Q1011 NOSIG=
202307161530 METAR WIHH 161530Z 21005KT 6000 SCT020 27/22 Q1011 NOSIG=
202307161500 METAR WIHH 161500Z 21005KT 6000 SCT020 27/22 Q1011 NOSIG=
202307161430 METAR WIHH 161430Z 21004KT 6000 SCT020 27/23 Q1010 NOSIG=
202307161400 METAR WIHH 161400Z 21003KT 6000 SCT020 28/22 Q1010 NOSIG=
202307161330 METAR WIHH 161330Z 18003KT 6000 SCT020 29/22 Q1010 NOSIG=
202307161300 METAR WIHH 161300Z 18003KT 6000 SCT020 29/23 Q1010 NOSIG=
202307161230 METAR WIHH 161230Z 01003KT 6000 SCT020 29/23 Q1009 NOSIG=
202307161200 METAR WIHH 161200Z 03005KT 6000 SCT020 30/24 Q1008 NOSIG=
202307161130 METAR WIHH 161130Z 34004KT 5000 HZ SCT018 30/24 Q1008 NOSIG=
202307161100 METAR WIHH 161100Z 34004KT 5000 HZ SCT018 30/23 Q1007 NOSIG=
202307161030 METAR WIHH 161030Z 30003KT 5000 HZ SCT018 30/24 Q1007 NOSIG=
202307161000 METAR WIHH 161000Z 34003KT 5000 HZ SCT018 31/24 Q1007 NOSIG=
202307160930 METAR WIHH 160930Z 34006KT 5000 HZ SCT018 31/24 Q1007 NOSIG=
202307160900 METAR WIHH 160900Z 03008KT 5000 HZ SCT018 32/24 Q1007 NOSIG=
202307160830 METAR WIHH 160830Z 33005KT 6000 SCT018 32/24 Q1007 RMK RA TO SW=
202307160800 METAR WIHH 160800Z 05007KT 6000 SCT018 33/24 Q1007 RMK RA TO SW=
202307160730 METAR WIHH 160730Z 27003KT 6000 SCT020 33/23 Q1008 RMK RA TO NW=
202307160700 METAR WIHH 160700Z 30003KT 6000 SCT020 33/23 Q1008 NOSIG=
202307160630 METAR WIHH 160630Z 06006KT 6000 SCT020 32/22 Q1008 NOSIG=
202307160600 METAR WIHH 160600Z 03006KT 6000 SCT020 33/22 Q1009 NOSIG=
202307160530 METAR WIHH 160530Z 06004KT 6000 SCT020 33/22 Q1010 NOSIG=
202307160500 METAR WIHH 160500Z 00000KT 6000 SCT020 32/22 Q1010 NOSIG=
202307160430 METAR WIHH 160430Z 18005KT 6000 SCT020 32/22 Q1010 NOSIG=
202307160400 METAR WIHH 160400Z 24003KT 6000 FEW020 32/22 Q1011 NOSIG=
202307160330 METAR WIHH NIL=
202307160300 METAR WIHH 160300Z 03003KT 6000 NSC 31/22 Q1012 NOSIG=
202307160230 METAR WIHH 160230Z 00000KT 5000 HZ NSC 30/22 Q1012 NOSIG=
202307160200 METAR WIHH 160200Z 24003KT 5000 HZ NSC 30/23 Q1012 NOSIG=
202307160130 METAR WIHH 160130Z 27003KT 5000 HZ NSC 29/23 Q1012 NOSIG=
202307160100 METAR WIHH 160100Z 22003KT 5000 HZ NSC 28/23 Q1012 NOSIG=
202307160030 METAR WIHH 160030Z 00000KT 4000 HZ NSC 26/23 Q1012 NOSIG=
202307160000 METAR WIHH 160000Z 00000KT 4000 HZ FEW022 25/23 Q1011 NOSIG=
202307152330 METAR WIHH 152330Z 00000KT 4000 HZ FEW020 25/23 Q1011 NOSIG=
202307152300 METAR WIHH 152300Z 00000KT 5000 HZ FEW020 25/24 Q1011 NOSIG=
202307152230 METAR WIHH 152230Z 00000KT 5000 HZ FEW020 25/23 Q1010 NOSIG=
202307152200 METAR WIHH 152200Z 00000KT 5000 HZ FEW020 25/23 Q1010 NOSIG=
202307152130 METAR WIHH 152130Z 00000KT 6000 FEW020 25/23 Q1010 NOSIG=
202307152100 METAR WIHH 152100Z 16003KT 6000 FEW020 25/23 Q1010 NOSIG=
202307152030 METAR WIHH NIL=
202307152000 METAR WIHH NIL=
202307151930 METAR WIHH NIL=
202307151900 METAR WIHH NIL=
202307151830 METAR WIHH NIL=
202307151800 METAR WIHH NIL=
202307151730 METAR WIHH NIL=
202307151700 METAR WIHH 151700Z 00000KT 5000 HZ SCT020 27/23 Q1011 NOSIG=
202307151630 METAR WIHH 151630Z 00000KT 5000 HZ SCT020 27/23 Q1011 NOSIG=
202307151600 METAR WIHH 151600Z 10003KT 6000 SCT020 28/23 Q1011 RMK RA TO SW=
202307151530 METAR WIHH 151530Z 07003KT 6000 SCT020 29/23 Q1011 RMK RA TO SW=
202307151500 METAR WIHH 151500Z 07003KT 6000 SCT020 29/23 Q1011 RMK RA TO SW=
202307151430 METAR WIHH 151430Z 10003KT 6000 SCT020 29/23 Q1011 RMK RA TO SW=
202307151400 METAR WIHH 151400Z 08003KT 6000 SCT020 29/23 Q1011 RMK RA TO S=
202307151330 METAR WIHH 151330Z 05004KT 6000 SCT020 29/24 Q1011 NOSIG=
202307151300 METAR WIHH 151300Z 00000KT 6000 SCT020 28/24 Q1011 NOSIG=
202307151230 METAR WIHH 151230Z 00000KT 6000 SCT020 28/24 Q1010 NOSIG=
202307151200 METAR WIHH 151200Z 32003KT 6000 SCT020 29/23 Q1010 NOSIG=
202307151130 METAR WIHH 151130Z 36003KT 6000 SCT020 29/23 Q1010 NOSIG=
202307151100 METAR WIHH 151100Z 33003KT 6000 SCT020 30/23 Q1009 NOSIG=
202307151030 METAR WIHH 151030Z 03004KT 6000 SCT020 30/23 Q1009 NOSIG=
202307151000 METAR WIHH 151000Z 02004KT 5000 HZ SCT020 31/22 Q1009 RMK RA TO S=
202307150930 METAR WIHH 150930Z 32006KT 5000 HZ SCT020 31/23 Q1008 NOSIG=
202307150900 METAR WIHH 150900Z 34004KT 5000 HZ SCT020 31/23 Q1008 RMK RA TO S=
202307150830 METAR WIHH 150830Z 32006KT 5000 HZ SCT020 31/23 Q1008 RMK RA TO S=
202307150800 METAR WIHH 150800Z 33006KT 5000 HZ SCT020 32/23 Q1008 RMK RA TO S=
202307150730 METAR WIHH 150730Z 34004KT 5000 HZ SCT020 31/23 Q1008 RMK RA TO SW=
202307150700 METAR WIHH 150700Z 35004KT 5000 HZ SCT020 32/23 Q1009 NOSIG=
202307150630 METAR WIHH 150630Z 03008KT 6000 SCT020 33/23 Q1009 NOSIG=
202307150600 METAR WIHH 150600Z 05008KT 6000 SCT020 33/21 Q1010 NOSIG=
202307150530 METAR WIHH 150530Z 06004KT 6000 SCT020 33/21 Q1010 NOSIG=
202307150500 METAR WIHH 150500Z 06004KT 6000 SCT020 32/21 Q1010 NOSIG=
202307150430 METAR WIHH 150430Z 04004KT 6000 SCT020 32/21 Q1011 NOSIG=
202307150400 METAR WIHH 150400Z 36003KT 6000 FEW020 32/21 Q1011 NOSIG=
202307150330 METAR WIHH 150330Z 01003KT 6000 FEW020 32/22 Q1012 NOSIG=
202307150300 METAR WIHH 150300Z 10004KT 6000 FEW020 31/22 Q1012 NOSIG=
202307150230 METAR WIHH 150230Z 13003KT 6000 FEW020 31/23 Q1012 NOSIG=
202307150200 METAR WIHH 150200Z 20004KT 6000 FEW020 30/23 Q1012 NOSIG=
202307150130 METAR WIHH 150130Z 19004KT 6000 FEW020 29/22 Q1012 NOSIG=
202307150100 METAR WIHH 150100Z 21005KT 6000 FEW020 28/22 Q1012 NOSIG=
202307150030 METAR WIHH 150030Z 21005KT 6000 FEW020 27/22 Q1011 NOSIG=
202307150000 METAR WIHH 150000Z 25002KT 6000 FEW020 26/22 Q1011 NOSIG=
202307142330 METAR WIHH 142330Z 22004KT 7000 FEW020 25/22 Q1011 NOSIG=
202307142300 METAR WIHH 142300Z 25003KT 7000 FEW020 26/22 Q1010 NOSIG=
202307142230 METAR WIHH 142230Z 24003KT 7000 HZ FEW020 26/23 Q1010 NOSIG=
202307142200 METAR WIHH 142200Z 00000KT 5000 HZ FEW020 26/23 Q1010 NOSIG=
202307142130 METAR WIHH 142130Z 24003KT 5000 HZ SCT020 26/24 Q1010 NOSIG=
202307142100 METAR WIHH NIL=
202307142030 METAR WIHH NIL=
202307142000 METAR WIHH NIL=
202307141930 METAR WIHH NIL=
202307141900 METAR WIHH NIL=
202307141830 METAR WIHH NIL=
202307141800 METAR WIHH NIL=
202307141730 METAR WIHH NIL=
202307141700 METAR WIHH NIL=
202307141630 METAR WIHH NIL=
202307141600 METAR WIHH NIL=
202307141530 METAR WIHH 141530Z 00000KT 4000 HZ SCT018 26/24 Q1012 NOSIG=
202307141500 METAR WIHH 141500Z 15003KT 5000 HZ SCT018 26/24 Q1012 NOSIG=
202307141430 METAR WIHH 141430Z 18003KT 6000 SCT018 27/24 Q1012 RMK RA TO NE AND SE=
202307141400 METAR WIHH 141400Z 19005KT 6000 BKN018 27/23 Q1012 RMK RA TO SE=
202307141330 METAR WIHH 141330Z 22005KT 6000 BKN018 27/23 Q1011 RMK RA TO NE=
202307141300 METAR WIHH 141300Z 27007KT 5000 HZ BKN018 28/23 Q1011 RMK RA TO E AND W=
202307141230 METAR WIHH 141230Z 21005KT 5000 -RA BKN018 28/24 Q1010 NOSIG=
202307141200 METAR WIHH 141200Z 21005KT 5000 -RA BKN018 28/23 Q1010 NOSIG=
202307141130 METAR WIHH 141130Z 21003KT 4000 HZ BKN018 28/23 Q1009 RMK RA TO SE=
202307141100 METAR WIHH 141100Z 24003KT 4000 -RA BKN018 28/24 Q1009 NOSIG=
202307141030 METAR WIHH 141030Z 24006KT 4000 HZ BKN018 28/24 Q1008 RMK RA TO SE AND SW=
202307141000 METAR WIHH 141000Z 24003KT 5000 -RA BKN018 30/24 Q1008 NOSIG=
202307140930 METAR WIHH 140930Z 35003KT 4000 HZ SCT018 31/22 Q1008 RMK RA TO S-SW=
202307140900 METAR WIHH 140900Z 32007KT 4000 HZ SCT018 31/23 Q1008 RMK RA TO S-SW=
202307140830 METAR WIHH 140830Z 33007KT 4000 HZ SCT018 32/23 Q1008 RMK RA TO SW=
202307140800 METAR WIHH 140800Z 02008KT 4000 HZ SCT018 32/22 Q1008 RMK RA TO SW=
202307140730 METAR WIHH 140730Z 34006KT 5000 HZ SCT018 33/23 Q1008 RMK RA TO S=
202307140700 METAR WIHH 140700Z 36006KT 5000 HZ SCT018 33/23 Q1009 RMK RA TO SE=
202307140630 METAR WIHH 140630Z 06008KT 5000 HZ SCT018 33/21 Q1009 NOSIG=
202307140600 METAR WIHH 140600Z 04004KT 5000 HZ SCT018 33/21 Q1010 NOSIG=
202307140530 METAR WIHH 140530Z 04007KT 5000 HZ SCT018 33/22 Q1010 NOSIG=
202307140500 METAR WIHH 140500Z 06006KT 6000 SCT018 33/21 Q1011 NOSIG=
202307140430 METAR WIHH 140430Z 15007KT 6000 SCT018 33/22 Q1012 NOSIG=
202307140400 METAR WIHH 140400Z 29003KT 6000 SCT018 32/22 Q1012 NOSIG=
202307140330 METAR WIHH 140330Z 03002KT 6000 FEW020 32/22 Q1012 NOSIG=
202307140300 METAR WIHH 140300Z 19004KT 6000 NSC 31/23 Q1012 NOSIG=
202307140230 METAR WIHH 140230Z 20007KT 6000 NSC 31/22 Q1012 NOSIG=
202307140200 METAR WIHH 140200Z 21010KT 6000 NSC 30/22 Q1012 NOSIG=
202307140130 METAR WIHH 140130Z 24008KT 6000 NSC 29/22 Q1012 NOSIG=
202307140100 METAR WIHH 140100Z 21008KT 6000 NSC 28/22 Q1012 NOSIG=
202307140030 METAR WIHH 140030Z 24006KT 6000 NSC 27/23 Q1012 NOSIG=
202307140000 METAR WIHH 140000Z 21005KT 6000 NSC 26/22 Q1011 NOSIG=
202307132330 METAR WIHH 132330Z 24005KT 6000 NSC 26/22 Q1011 NOSIG=
202307132300 METAR WIHH 132300Z 24007KT 6000 NSC 26/22 Q1011 NOSIG=
202307132230 METAR WIHH 132230Z 22006KT 6000 FEW020 26/22 Q1010 NOSIG=
202307132200 METAR WIHH 132200Z 21005KT 6000 FEW020 26/22 Q1010 NOSIG=
202307132130 METAR WIHH 132130Z 21004KT 5000 HZ FEW020 25/22 Q1010 NOSIG=
202307132100 METAR WIHH 132100Z 00000KT 5000 HZ FEW020 27/24 Q1013 NOSIG=
202307132030 METAR WIHH NIL=
202307132000 METAR WIHH NIL=
202307131930 METAR WIHH NIL=
202307131900 METAR WIHH NIL=
202307131830 METAR WIHH NIL=
202307131800 METAR WIHH NIL=
202307131730 METAR WIHH NIL=
202307131700 METAR WIHH NIL=
202307131630 METAR WIHH NIL=
202307131600 METAR WIHH NIL=
202307131530 METAR WIHH NIL=
202307131500 METAR WIHH 131500Z 00000KT 6000 FEW020 27/24 Q1013 NOSIG=
202307131430 METAR WIHH 131430Z 00000KT 6000 FEW020 28/24 Q1012 NOSIG=
202307131400 METAR WIHH 131400Z 00000KT 6000 SCT020 28/24 Q1012 NOSIG=
202307131330 METAR WIHH 131330Z 03003KT 6000 SCT020 28/23 Q1011 NOSIG=
202307131300 METAR WIHH 131300Z 00000KT 6000 SCT020 28/23 Q1011 NOSIG=
202307131230 METAR WIHH 131230Z 00000KT 6000 SCT020 29/23 Q1011 NOSIG=
202307131200 METAR WIHH 131200Z 00000KT 6000 SCT020 29/23 Q1010 NOSIG=
202307131130 METAR WIHH 131130Z 00000KT 5000 HZ SCT020 29/23 Q1010 NOSIG=
202307131100 METAR WIHH 131100Z 30004KT 5000 HZ SCT020 29/22 Q1009 NOSIG=
202307131030 METAR WIHH 131030Z 34005KT 5000 HZ SCT020 30/21 Q1009 NOSIG=
202307131000 METAR WIHH 131000Z 33006KT 5000 HZ SCT020 30/22 Q1009 NOSIG=
202307130930 METAR WIHH 130930Z 02006KT 5000 HZ SCT020 31/23 Q1008 NOSIG=
202307130900 METAR WIHH 130900Z 34006KT 5000 HZ SCT020 31/23 Q1008 NOSIG=
202307130830 METAR WIHH 130830Z 36008KT 5000 HZ SCT020 32/23 Q1008 NOSIG=
202307130800 METAR WIHH 130800Z 36005KT 6000 SCT020 32/23 Q1008 NOSIG=
202307130730 METAR WIHH 130730Z 03008KT 6000 SCT020 33/23 Q1008 NOSIG=
202307130700 METAR WIHH 130700Z 03010KT 6000 SCT020 33/22 Q1009 NOSIG=
202307130630 METAR WIHH 130630Z 03005KT 6000 SCT020 34/21 Q1009 NOSIG=
202307130600 METAR WIHH 130600Z 15003KT 6000 SCT020 33/21 Q1009 NOSIG=
202307130530 METAR WIHH 130530Z 25006KT 6000 SCT020 33/22 Q1009 NOSIG=
202307130500 METAR WIHH 130500Z 26005KT 6000 SCT020 32/22 Q1010 NOSIG=
202307130430 METAR WIHH 130430Z 24003KT 6000 FEW020 32/21 Q1010 NOSIG=
202307130400 METAR WIHH 130400Z 21003KT 6000 FEW020 32/21 Q1011 NOSIG=
202307130330 METAR WIHH 130330Z 03003KT 6000 FEW020 31/21 Q1011 NOSIG=
202307130300 METAR WIHH 130300Z 21003KT 6000 FEW022 31/22 Q1012 NOSIG=
202307130230 METAR WIHH 130230Z 15003KT 6000 FEW020 30/21 Q1011 NOSIG=
202307130200 METAR WIHH 130200Z 14003KT 5000 HZ NSC 29/22 Q1012 NOSIG=
202307130130 METAR WIHH 130130Z 15005KT 5000 HZ FEW020 29/22 Q1012 NOSIG=
202307130100 METAR WIHH 130100Z 21005KT 4000 HZ FEW020 28/23 Q1012 NOSIG=
202307130030 METAR WIHH 130030Z 18003KT 4000 HZ FEW020 26/23 Q1012 NOSIG=
202307130000 METAR WIHH 130000Z 19003KT 4000 HZ FEW020 26/23 Q1012 NOSIG=
202307122330 METAR WIHH 122330Z 00000KT 5000 HZ FEW020 25/23 Q1011 NOSIG=
202307122300 METAR WIHH 122300Z 00000KT 5000 HZ FEW020 25/23 Q1011 NOSIG=
202307122230 METAR WIHH 122230Z 22003KT 5000 HZ FEW020 25/23 Q1011 NOSIG=
202307122200 METAR WIHH 122200Z 00000KT 5000 HZ FEW020 25/23 Q1011 NOSIG=
202307122130 METAR WIHH 122130Z 19002KT 5000 HZ FEW020 25/23 Q1011 NOSIG=
202307122100 METAR WIHH NIL=
202307122030 METAR WIHH NIL=
202307122000 METAR WIHH NIL=
202307121930 METAR WIHH NIL=
202307121900 METAR WIHH NIL=
202307121830 METAR WIHH NIL=
202307121800 METAR WIHH NIL=
202307121730 METAR WIHH NIL=
202307121700 METAR WIHH 121700Z 14004KT 5000 HZ SCT020 28/23 Q1010 NOSIG=
202307121630 METAR WIHH 121630Z 14004KT 5000 HZ SCT020 29/23 Q1011 NOSIG=
202307121600 METAR WIHH 121600Z 12003KT 5000 HZ SCT020 29/23 Q1012 NOSIG=
202307121530 METAR WIHH 121530Z 06003KT 5000 HZ SCT020 29/22 Q1012 NOSIG=
202307121500 METAR WIHH 121500Z 07003KT 5000 HZ SCT020 29/22 Q1012 NOSIG=
202307121430 METAR WIHH 121430Z 06004KT 5000 HZ SCT020 29/22 Q1012 NOSIG=
202307121400 METAR WIHH 121400Z 03004KT 5000 HZ SCT020 29/23 Q1012 NOSIG=
202307121330 METAR WIHH 121330Z 00000KT 5000 HZ SCT020 29/23 Q1011 NOSIG=
202307121300 METAR WIHH 121300Z 00000KT 5000 HZ SCT020 29/23 Q1011 NOSIG=
202307121230 METAR WIHH 121230Z 36003KT 5000 HZ SCT020 29/23 Q1011 NOSIG=
202307121200 METAR WIHH 121200Z 36003KT 5000 HZ SCT020 29/23 Q1010 NOSIG=
202307121130 METAR WIHH 121130Z 03004KT 5000 HZ SCT020 29/23 Q1010 NOSIG=
202307121100 METAR WIHH 121100Z 36005KT 5000 HZ SCT020 29/23 Q1009 NOSIG=
202307121030 METAR WIHH 121030Z 34004KT 5000 HZ FEW020 30/23 Q1009 NOSIG=
202307121000 METAR WIHH 121000Z 31004KT 5000 HZ FEW020 31/23 Q1009 NOSIG=
202307120930 METAR WIHH 120930Z 33005KT 5000 HZ SCT020 31/23 Q1008 NOSIG=
202307120900 METAR WIHH 120900Z 35004KT 5000 HZ SCT020 32/24 Q1008 NOSIG=
202307120830 METAR WIHH 120830Z 35004KT 5000 HZ SCT020 32/24 Q1008 NOSIG=
202307120800 METAR WIHH 120800Z 35008KT 5000 HZ SCT020 33/24 Q1008 NOSIG=
202307120730 METAR WIHH 120730Z 32006KT 5000 HZ SCT020 33/24 Q1008 NOSIG=
202307120700 METAR WIHH 120700Z 34006KT 5000 HZ SCT020 33/24 Q1008 NOSIG=
202307120630 METAR WIHH 120630Z 36006KT 5000 HZ SCT020 34/23 Q1009 NOSIG=
202307120600 METAR WIHH 120600Z 14003KT 5000 HZ SCT020 34/20 Q1009 NOSIG=
202307120530 METAR WIHH 120530Z 09003KT 5000 HZ SCT020 33/21 Q1009 NOSIG=
202307120500 METAR WIHH 120500Z 22003KT 5000 HZ SCT020 33/21 Q1010 NOSIG=
202307120430 METAR WIHH 120430Z 03003KT 5000 HZ SCT020 32/21 Q1010 NOSIG=
202307120400 METAR WIHH 120400Z 34003KT 5000 HZ FEW020 32/22 Q1011 NOSIG=
202307120330 METAR WIHH 120330Z 31003KT 5000 HZ FEW020 31/22 Q1011 NOSIG=
202307120300 METAR WIHH 120300Z 22003KT 5000 HZ FEW020 31/23 Q1011 NOSIG=
202307120230 METAR WIHH 120230Z 15003KT 5000 HZ FEW020 30/22 Q1012 NOSIG=
202307120200 METAR WIHH 120200Z 21003KT 5000 HZ FEW020 29/23 Q1012 NOSIG=
202307120130 METAR WIHH 120130Z 21004KT 5000 HZ FEW022 29/24 Q1011 NOSIG=
202307120100 METAR WIHH 120100Z 24003KT 4000 HZ FEW022 28/24 Q1012 NOSIG=
202307120030 METAR WIHH 120030Z 23003KT 4000 HZ FEW022 27/24 Q1011 NOSIG=
202307120000 METAR WIHH 120000Z 24003KT 4000 HZ FEW022 26/24 Q1011 NOSIG=
202307112330 METAR WIHH 112330Z 00000KT 3000 HZ FEW022 25/23 Q1011 NOSIG=
202307112300 METAR WIHH 112300Z 19003KT 3000 HZ FEW022 25/23 Q1011 NOSIG=
202307112230 METAR WIHH 112230Z 20003KT 3000 HZ FEW022 25/24 Q1010 NOSIG=
202307112200 METAR WIHH 112200Z 00000KT 3000 HZ FEW020 25/24 Q1010 NOSIG=
202307112130 METAR WIHH 112130Z 00000KT 3000 HZ FEW020 25/24 Q1010 NOSIG=
202307112100 METAR WIHH 112100Z 00000KT 3000 HZ FEW020 25/24 Q1010 NOSIG=
202307112030 METAR WIHH NIL=
202307112000 METAR WIHH NIL=
202307111930 METAR WIHH NIL=
202307111900 METAR WIHH NIL=
202307111830 METAR WIHH NIL=
202307111800 METAR WIHH NIL=
202307111730 METAR WIHH NIL=
202307111700 METAR WIHH 111700Z 15003KT 6000 FEW020 27/24 Q1012 NOSIG=
202307111630 METAR WIHH 111630Z 15003KT 6000 FEW020 27/24 Q1012 NOSIG=
202307111600 METAR WIHH 111600Z 17003KT 6000 FEW020 27/24 Q1012 NOSIG=
202307111530 METAR WIHH 111530Z 17002KT 6000 FEW020 28/24 Q1012 NOSIG=
202307111500 METAR WIHH 111500Z 05005KT 6000 SCT020 28/24 Q1012 NOSIG=
202307111430 METAR WIHH NIL=
202307111400 METAR WIHH 111400Z 06004KT 6000 FEW020 29/24 Q1012 NOSIG=
202307111330 METAR WIHH 111330Z 06004KT 7000 NSC 29/24 Q1012 NOSIG=
202307111300 METAR WIHH 111300Z 04005KT 7000 NSC 29/24 Q1011 NOSIG=
202307111230 METAR WIHH 111230Z 03007KT 7000 NSC 29/24 Q1011 NOSIG=
202307111200 METAR WIHH 111200Z 04005KT 7000 NSC 29/23 Q1010 NOSIG=
202307111130 METAR WIHH 111130Z 03008KT 7000 FEW020 30/23 Q1010 NOSIG=
202307111100 METAR WIHH 111100Z 03012KT 7000 FEW020 30/23 Q1010 NOSIG=
202307111030 METAR WIHH 111030Z 03008KT 7000 FEW020 31/22 Q1009 NOSIG=
202307111000 METAR WIHH 111000Z 02007KT 7000 FEW020 32/22 Q1009 NOSIG=
202307110930 METAR WIHH 110930Z 03007KT 7000 FEW020 32/23 Q1008 NOSIG=
202307110900 METAR WIHH 110900Z 04007KT 6000 FEW020 33/23 Q1008 NOSIG=
202307110830 METAR WIHH 110830Z 08010KT 6000 SCT020 32/21 Q1008 NOSIG=
202307110800 METAR WIHH 110800Z 03007KT 6000 SCT020 33/22 Q1008 NOSIG=
202307110730 METAR WIHH 110730Z 00000KT 6000 SCT020 33/22 Q1008 NOSIG=
202307110700 METAR WIHH 110700Z 05006KT 6000 SCT020 33/22 Q1008 NOSIG=
202307110630 METAR WIHH 110630Z 08006KT 6000 SCT020 33/22 Q1009 NOSIG=
202307110600 METAR WIHH 110600Z 03008KT 6000 SCT020 33/22 Q1009 NOSIG=
202307110530 METAR WIHH 110530Z 06006KT 6000 SCT020 33/22 Q1009 NOSIG=
202307110500 METAR WIHH 110500Z 35005KT 6000 SCT020 32/22 Q1010 NOSIG=
202307110430 METAR WIHH 110430Z 03003KT 6000 FEW020 32/21 Q1010 NOSIG=
202307110400 METAR WIHH 110400Z 04003KT 6000 FEW022 32/23 Q1011 NOSIG=
202307110330 METAR WIHH 110330Z 03005KT 6000 FEW022 31/22 Q1011 NOSIG=
202307110300 METAR WIHH 110300Z 08003KT 6000 FEW022 31/22 Q1011 NOSIG=
202307110230 METAR WIHH 110230Z 10005KT 6000 HZ NSC 30/22 Q1012 NOSIG=
202307110200 METAR WIHH 110200Z 07005KT 5000 HZ NSC 30/21 Q1012 NOSIG=
202307110130 METAR WIHH 110130Z 120023T 5000 HZ NSC 29/22 Q1012 NOSIG=
202307110100 METAR WIHH 110100Z 15002KT 4000 HZ NSC 27/23 Q1012 NOSIG=
202307110030 METAR WIHH 110030Z 16003KT 4000 HZ NSC 26/22 Q1012 NOSIG=
202307110000 METAR WIHH 110000Z 15003KT 4000 HZ NSC 25/22 Q1011 NOSIG=
202307102330 METAR WIHH 102330Z 00000KT 5000 HZ FEW022 24/22 Q1011 NOSIG=
202307102300 METAR WIHH 102300Z 15003KT 5000 HZ FEW020 24/22 Q1011 NOSIG=
202307102230 METAR WIHH 102230Z 15003KT 5000 HZ FEW020 24/23 Q1010 NOSIG=
202307102200 METAR WIHH 102200Z 00000KT 5000 HZ FEW020 24/23 Q1010 NOSIG=
202307102130 METAR WIHH 102130Z 00000KT 5000 HZ FEW020 24/23 Q1010 NOSIG=
202307102100 METAR WIHH 102100Z 00000KT 5000 HZ FEW020 24/23 Q1010 NOSIG=
202307102030 METAR WIHH NIL=
202307102000 METAR WIHH NIL=
202307101930 METAR WIHH NIL=
202307101900 METAR WIHH NIL=
202307101830 METAR WIHH NIL=
202307101800 METAR WIHH NIL=
202307101730 METAR WIHH NIL=
202307101700 METAR WIHH NIL=
202307101630 METAR WIHH NIL=
202307101600 METAR WIHH NIL=
202307101530 METAR WIHH NIL=
202307101500 METAR WIHH 101500Z 24003KT 7000 FEW020 27/25 Q1012 NOSIG=
202307101430 METAR WIHH 101430Z 10003KT 8000 FEW020 28/24 Q1011 NOSIG=
202307101400 METAR WIHH 101400Z 09002KT 8000 SCT020 28/24 Q1011 NOSIG=
202307101330 METAR WIHH 101330Z 09005KT 8000 SCT020 28/25 Q1011 NOSIG=
202307101300 METAR WIHH 101300Z 09008KT 6000 SCT020 28/23 Q1011 NOSIG=
202307101230 METAR WIHH 101230Z 06008KT 6000 SCT020 29/23 Q1011 NOSIG=
202307101200 METAR WIHH 101200Z 06008KT 6000 SCT020 29/23 Q1010 NOSIG=
202307101130 METAR WIHH 101130Z 06010KT 6000 SCT020 29/23 Q1010 NOSIG=
202307101100 METAR WIHH 101100Z 04013KT 6000 SCT020 30/22 Q1009 NOSIG=
202307101030 METAR WIHH 101030Z 03010KT 6000 SCT020 30/22 Q1009 NOSIG=
202307101000 METAR WIHH 101000Z 03013KT 6000 SCT020 31/22 Q1008 NOSIG=
202307100930 METAR WIHH 100930Z 06013KT 6000 SCT020 31/21 Q1008 RMK RA TO W=
202307100900 METAR WIHH 100900Z 06013KT 6000 SCT020 33/23 Q1008 RMK RA TO W=
202307100830 METAR WIHH 100830Z 06013KT 6000 SCT020 33/22 Q1008 NOSIG=
202307100800 METAR WIHH 100800Z 06013KT 6000 SCT020 33/22 Q1007 NOSIG=
202307100730 METAR WIHH 100730Z 09013KT 6000 SCT020 33/22 Q1007 NOSIG=
202307100700 METAR WIHH 100700Z 07015KT 6000 SCT020 33/22 Q1008 NOSIG=
202307100630 METAR WIHH 100630Z 09008KT 6000 SCT020 32/23 Q1008 NOSIG=
202307100600 METAR WIHH 100600Z 07010KT 6000 SCT020 32/23 Q1008 NOSIG=
202307100530 METAR WIHH 100530Z 09015KT 6000 SCT020 31/23 Q1009 NOSIG=
202307100500 METAR WIHH 100500Z 07015KT 6000 SCT020 31/23 Q1010 NOSIG=
202307100430 METAR WIHH 100430Z 07015KT 6000 SCT020 31/23 Q1010 NOSIG=
202307100400 METAR WIHH 100400Z 09015KT 6000 SCT020 31/23 Q1010 NOSIG=
202307100330 METAR WIHH 100330Z 08015KT 6000 SCT020 31/23 Q1011 NOSIG=
202307100300 METAR WIHH 100300Z 09012KT 6000 FEW020 31/23 Q1011 NOSIG=
202307100230 METAR WIHH 100230Z 09010KT 6000 FEW020 30/23 Q1011 NOSIG=
202307100200 METAR WIHH 100200Z 06010KT 6000 FEW020 30/24 Q1011 NOSIG=
202307100130 METAR WIHH 100130Z 07008KT 5000 HZ FEW020 29/23 Q1011 NOSIG=
202307100100 METAR WIHH 100100Z 14004KT 5000 HZ FEW020 28/23 Q1011 NOSIG=
202307100030 METAR WIHH 100030Z 12003KT 5000 HZ FEW020 27/23 Q1011 NOSIG=
202307100000 METAR WIHH 100000Z 00000KT 5000 HZ FEW020 26/22 Q1010 NOSIG=
202307092330 METAR WIHH 092330Z 18003KT 5000 HZ FEW020 26/23 Q1010 NOSIG=
202307092300 METAR WIHH 092300Z 15003KT 5000 HZ SCT020 26/23 Q1010 NOSIG=
202307092230 METAR WIHH 092230Z 00000KT 5000 HZ SCT020 26/23 Q1010 NOSIG=
202307092200 METAR WIHH 092200Z 14003KT 5000 HZ FEW020 26/23 Q1009 NOSIG=
202307092130 METAR WIHH 092130Z 11003KT 5000 HZ FEW019 26/23 Q1009 NOSIG=
202307092100 METAR WIHH 092100Z 10003KT 6000 SCT019 26/23 Q1009 NOSIG=
202307092030 METAR WIHH NIL=
202307092000 METAR WIHH NIL=
202307091930 METAR WIHH NIL=
202307091900 METAR WIHH NIL=
202307091830 METAR WIHH NIL=
202307091800 METAR WIHH NIL=
202307091730 METAR WIHH NIL=
202307091700 METAR WIHH NIL=
202307091630 METAR WIHH 091630Z 15004KT 6000 FEW020 27/24 Q1011 NOSIG=
202307091600 METAR WIHH 091600Z 15004KT 6000 FEW020 28/24 Q1011 NOSIG=
202307091530 METAR WIHH 091530Z 10006KT 6000 FEW020 28/24 Q1011 NOSIG=
202307091500 METAR WIHH 091500Z 11006KT 6000 FEW020 28/24 Q1011 NOSIG=
202307091430 METAR WIHH 091430Z 09006KT 6000 FEW020 29/24 Q1011 NOSIG=
202307091400 METAR WIHH 091400Z 07006KT 6000 FEW020 29/24 Q1011 NOSIG=
202307091330 METAR WIHH 091330Z 05007KT 6000 FEW020 29/24 Q1010 NOSIG=
202307091300 METAR WIHH 091300Z 08011KT 6000 FEW020 29/24 Q1010 NOSIG=
202307091230 METAR WIHH 091230Z 06010KT 6000 SCT020 29/24 Q1009 NOSIG=
202307091200 METAR WIHH 091200Z 08010KT 6000 SCT020 30/23 Q1009 NOSIG=
202307091130 METAR WIHH 091130Z 08008KT 6000 SCT020 30/23 Q1009 NOSIG=
202307091100 METAR WIHH 091100Z 06012KT 6000 SCT020 30/23 Q1008 NOSIG=
202307091030 METAR WIHH 091030Z 05013KT 6000 SCT020 31/23 Q1008 NOSIG=
202307091000 METAR WIHH 091000Z 06014KT 6000 SCT020 31/23 Q1007 NOSIG=
202307090930 METAR WIHH 090930Z 06013KT 7000 FEW020 32/22 Q1007 NOSIG=
202307090900 METAR WIHH 090900Z 07011KT 7000 FEW020 32/22 Q1007 NOSIG=
202307090830 METAR WIHH 090830Z 06013KT 7000 FEW018 32/22 Q1007 NOSIG=
202307090800 METAR WIHH 090800Z 07014KT 7000 FEW018 33/22 Q1007 NOSIG=
202307090730 METAR WIHH 090730Z 06015KT 7000 FEW018 33/22 Q1007 NOSIG=
202307090700 METAR WIHH 090700Z 09015KT 7000 FEW018 33/22 Q1007 NOSIG=
202307090630 METAR WIHH 090630Z 10015KT 7000 FEW018 33/22 Q1007 NOSIG=
202307090600 METAR WIHH 090600Z 10011KT 6000 FEW018 32/23 Q1008 NOSIG=
202307090530 METAR WIHH 090530Z 09014KT 6000 SCT018 32/23 Q1009 NOSIG=
202307090500 METAR WIHH 090500Z 10015KT 6000 SCT018 31/23 Q1009 NOSIG=
202307090430 METAR WIHH 090430Z 10013KT 6000 SCT018 31/24 Q1010 NOSIG=
202307090400 METAR WIHH 090400Z 08015KT 6000 FEW020 31/24 Q1010 NOSIG=
202307090330 METAR WIHH 090330Z 10010KT 5000 HZ FEW020 30/24 Q1011 NOSIG=
202307090300 METAR WIHH 090300Z 12007KT 5000 HZ FEW020 29/23 Q1011 NOSIG=
202307090230 METAR WIHH 090230Z 00000KT 4000 HZ FEW020 27/24 Q1011 NOSIG=
202307090200 METAR WIHH 090200Z 00000KT 4000 HZ FEW020 27/24 Q1011 NOSIG=
202307090130 METAR WIHH 090130Z 00000KT 3000 HZ FEW020 26/24 Q1011 NOSIG=
202307090100 METAR WIHH 090100Z 00000KT 3000 HZ FEW020 25/24 Q1011 NOSIG=
202307090030 METAR WIHH 090030Z 00000KT 4000 BR FEW020 25/24 Q1011 NOSIG=
202307090000 METAR WIHH 090000Z 00000KT 4000 BR FEW020 24/24 Q1011 NOSIG=
202307082330 METAR WIHH 082330Z 00000KT 4000 BR FEW020 24/24 Q1010 NOSIG=
202307082300 METAR WIHH 082300Z 00000KT 4000 BR FEW020 24/24 Q1010 NOSIG=
202307082230 METAR WIHH 082230Z 00000KT 4000 BR FEW020 24/24 Q1010 NOSIG=
202307082200 METAR WIHH 082200Z 00000KT 3000 BR FEW020 24/24 Q1010 NOSIG=
202307082130 METAR WIHH 082130Z 00000KT 3000 BR FEW020 24/24 Q1010 NOSIG=
202307082100 METAR WIHH 082100Z 00000KT 3000 BR FEW020 24/24 Q1010 NOSIG=
202307082030 METAR WIHH NIL=
202307082000 METAR WIHH NIL=
202307081930 METAR WIHH NIL=
202307081900 METAR WIHH NIL=
202307081830 METAR WIHH NIL=
202307081800 METAR WIHH NIL=
202307081730 METAR WIHH NIL=
202307081700 METAR WIHH NIL=
202307081630 METAR WIHH NIL=
202307081600 METAR WIHH NIL=
202307081530 METAR WIHH NIL=
202307081500 METAR WIHH 081500Z 20003KT 5000 HZ SCT020 25/24 Q1012 NOSIG=
202307081430 METAR WIHH 081430Z 09003KT 6000 SCT020 25/24 Q1012 NOSIG=
202307081400 METAR WIHH 081400Z 15003KT 5000 -RA SCT018 25/24 Q1012 NOSIG=
202307081330 METAR WIHH 081330Z 16004KT 5000 HZ SCT018 25/24 Q1012 RMK RA TO SE AND W=
202307081300 METAR WIHH 081300Z 09005KT 4000 -RA BKN018 26/24 Q1013 NOSIG=
202307081230 METAR WIHH 081230Z 09005KT 5000 -RA SCT018 27/25 Q1012 NOSIG=
202307081200 METAR WIHH 081200Z 06008KT 5000 HZ SCT018 28/24 Q1011 RMK RA TO E AND S=
202307081130 METAR WIHH 081130Z 09008KT 5000 HZ FEW017CB SCT018 29/24 Q1011 RMK CB AND RA TO E AND W=
202307081100 METAR WIHH 081100Z 06010KT 5000 HZ FEW017CB SCT018 29/23 Q1011 RMK CB AND RA TO W=
202307081030 METAR WIHH 081030Z 06013KT 5000 HZ SCT016 FEW017CB 29/24 Q1011 RMK CB AND RA TO SW=
202307081000 METAR WIHH 081000Z 06013KT 6000 SCT016 FEW017CB 30/23 Q1010 RMK CB AND RA TO SW=
202307080930 METAR WIHH 080930Z 07012KT 6000 SCT016 FEW017CB 30/24 Q1009 RMK CB AND RA TO SW=
202307080900 METAR WIHH 080900Z 07014KT 6000 SCT016 31/23 Q1009 RMK RA TO S=
202307080830 METAR WIHH 080830Z 07011KT 6000 SCT020 32/23 Q1009 RMK RA TO S=
202307080800 METAR WIHH 080800Z 03009KT 6000 SCT020 32/23 Q1009 NOSIG=
202307080730 METAR WIHH 080730Z 06006KT 6000 SCT020 31/22 Q1010 NOSIG=
202307080700 METAR WIHH 080700Z 06010KT 5000 HZ SCT018 31/23 Q1010 NOSIG=
202307080630 METAR WIHH NIL=
202307080600 METAR WIHH 080600Z 06010KT 5000 HZ SCT018 31/23 Q1011 RMK RA TO E AND NW=
202307080530 METAR WIHH 080530Z 03010KT 5000 HZ SCT018 31/23 Q1012 RMK RA TO NE=
202307080500 METAR WIHH 080500Z 09006KT 5000 HZ SCT020 31/23 Q1012 NOSIG=
202307080430 METAR WIHH 080430Z 09006KT 6000 SCT020 31/24 Q1012 NOSIG=
202307080400 METAR WIHH 080400Z 06006KT 6000 FEW020 30/23 Q1012 NOSIG=
202307080330 METAR WIHH 080330Z 09006KT 6000 FEW020 30/23 Q1013 NOSIG=
202307080300 METAR WIHH 080300Z 15005KT 6000 FEW020 30/23 Q1013 NOSIG=
202307080230 METAR WIHH 080230Z 00000KT 6000 FEW022 29/23 Q1013 NOSIG=
202307080200 METAR WIHH 080200Z 00000KT 5000 HZ FEW022 28/24 Q1013 NOSIG=
202307080130 METAR WIHH 080130Z 09003KT 5000 HZ FEW020 28/24 Q1013 NOSIG=
202307080100 METAR WIHH 080100Z 00000KT 5000 HZ FEW020 26/23 Q1013 NOSIG=
202307080030 METAR WIHH 080030Z 00000KT 3000 HZ FEW020 25/24 Q1013 NOSIG=
202307080000 METAR WIHH 080000Z 00000KT 3000 HZ FEW020 25/24 Q1012 NOSIG=
202307072330 METAR WIHH 072330Z 00000KT 3000 BR FEW020 24/23 Q1012 NOSIG=
202307072300 METAR WIHH 072300Z 00000KT 3000 BR FEW020 24/23 Q1012 NOSIG=
202307072230 METAR WIHH 072230Z 19003KT 3000 BR SCT020 24/24 Q1011 NOSIG=
202307072200 METAR WIHH 072200Z 24003KT 3000 BR SCT020 24/24 Q1011 NOSIG=
202307072130 METAR WIHH 072130Z 24003KT 3000 BR SCT020 24/24 Q1011 NOSIG=
202307072100 METAR WIHH 072100Z 24003KT 3000 BR SCT020 24/24 Q1011 NOSIG=
202307072030 METAR WIHH NIL=
202307072000 METAR WIHH NIL=
202307071930 METAR WIHH NIL=
202307071900 METAR WIHH NIL=
202307071830 METAR WIHH NIL=
202307071800 METAR WIHH NIL=
202307071730 METAR WIHH NIL=
202307071700 METAR WIHH NIL=
202307071630 METAR WIHH NIL=
202307071600 METAR WIHH NIL=
202307071530 METAR WIHH 071530Z 26004KT 5000 HZ SCT020 25/23 Q1012 NOSIG=
202307071500 METAR WIHH 071500Z 27003KT 5000 HZ SCT020 25/23 Q1012 NOSIG=
202307071430 METAR WIHH 071430Z 24003KT 5000 HZ SCT020 24/23 Q1012 NOSIG=
202307071400 METAR WIHH 071400Z 00000KT 6000 FEW020 24/23 Q1012 NOSIG=
202307071330 METAR WIHH 071330Z 16003KT 6000 FEW020 25/23 Q1011 NOSIG=
202307071300 METAR WIHH 071300Z 12003KT 6000 SCT020 25/23 Q1011 NOSIG=
202307071230 METAR WIHH 071230Z 12003KT 6000 SCT020 25/23 Q1012 NOSIG=
202307071200 METAR WIHH 071200Z 10003KT 6000 SCT020 25/23 Q1011 NOSIG=
202307071130 METAR WIHH 071130Z 15004KT 4000 HZ SCT018 25/23 Q1011 NOSIG=
202307071100 METAR WIHH 071100Z 11008KT 4000 HZ SCT018 25/23 Q1011 RMK RA TO W=
202307071030 METAR WIHH 071030Z 10006KT 4000 HZ SCT018 25/24 Q1011 RMK RA TO W=
202307071000 METAR WIHH 071000Z 14006KT 4000 -RA FSCT018 25/24 Q1012 NOSIG=
202307070930 METAR WIHH 070930Z 12008KT 4000 -RA FEW018CB SCT019 25/23 Q1011 RMK CB TO W=
202307070900 METAR WIHH 070900Z 12008KT 4000 -RA FEW018CB SCT019 25/23 Q1011 RMK CB TO W=
202307070830 METAR WIHH 070830Z 12005KT 4000 -RA FEW018CB SCT019 25/23 Q1011 RMK CB TO NW=
202307070800 METAR WIHH 070800Z 15005KT 4000 -RA SCT017 FEW018CB 25/24 Q1011 RMK CB TO NW=
202307070730 METAR WIHH 070730Z 07010KT 4000 -RA SCT017 FEW018CB 26/24 Q1011 RMK CB TO NW-N=
202307070700 METAR WIHH 070700Z 09010KT 4000 -RA SCT017 FEW018CB 27/24 Q1011 RMK CB TO N=
202307070630 METAR WIHH 070630Z 08012KT 4000 TS FEW018CB SCT019 29/23 Q1011 RMK CB TO SE AND RA TO SE-SW=
202307070600 METAR WIHH 070600Z 03010KT 4000 TS FEW018CB SCT019 30/24 Q1011 RMK CB AND RA TO E-SE=
202307070530 METAR WIHH 070530Z 07007KT 3000 TS FEW018CB SCT019 28/25 Q1011 RMK CB AND RA TO E-SE=
202307070500 METAR WIHH 070500Z 01010KT 3000 TS FEW018CB SCT019 30/23 Q1012 RMK CB AND RA TO E-SE=
202307070430 METAR WIHH 070430Z 36006KT 3000 HZ FEW018CB SCT019 30/24 Q1012 RMK CB TO E AND RA TO NE-E=
202307070400 METAR WIHH 070400Z 36006KT 3000 HZ SCT020 30/25 Q1012 RMK RA TO NE=
202307070330 METAR WIHH 070330Z 00000KT 3000 HZ FEW020 30/25 Q1013 RMK RA TO NE-E=
202307070300 METAR WIHH 070300Z 00000KT 3000 HZ FEW020 29/25 Q1013 RMK RA TO NE-E=
202307070230 METAR WIHH 070230Z 13003KT 3000 HZ FEW020 29/25 Q1013 NOSIG=
202307070200 METAR WIHH 070200Z 15003KT 4000 HZ FEW020 28/25 Q1013 NOSIG=
202307070130 METAR WIHH 070130Z 17003KT 5000 HZ FEW020 27/24 Q1013 NOSIG=
202307070100 METAR WIHH 070100Z 24003KT 5000 HZ FEW020 26/24 Q1012 NOSIG=
202307070030 METAR WIHH 070030Z 00000KT 5000 HZ FEW020 25/24 Q1012 NOSIG=
202307070000 METAR WIHH 070000Z 00000KT 5000 HZ FEW020 25/23 Q1012 NOSIG=
202307062330 METAR WIHH 062330Z 00000KT 5000 HZ FEW020 24/23 Q1011 NOSIG=
202307062300 METAR WIHH 062300Z 00000KT 5000 HZ FEW020 24/23 Q1011 NOSIG=
202307062230 METAR WIHH 062230Z 00000KT 3000 BR FEW020 24/24 Q1011 NOSIG=
202307062200 METAR WIHH 062200Z 00000KT 2000 BR FEW020 25/24 Q1011 NOSIG=
202307062130 METAR WIHH 062130Z 27003KT 2000 BR NSC 25/24 Q1011 NOSIG=
202307062100 METAR WIHH 062100Z 18004KT 2000 BR NSC 24/24 Q1011 NOSIG=
202307062030 METAR WIHH NIL=
202307062000 METAR WIHH NIL=
202307061930 METAR WIHH NIL=
202307061900 METAR WIHH NIL=
202307061830 METAR WIHH NIL=
202307061800 METAR WIHH NIL=
202307061730 METAR WIHH NIL=
202307061700 METAR WIHH NIL=
202307061630 METAR WIHH 061630Z 11003KT 3000 -RA SCT018 27/24 Q1012 NOSIG=
202307061600 METAR WIHH 061600Z 11003KT 4000 -RA SCT018 27/24 Q1012 TEMPO TL1630 3000 -RA SCT018 NOSIG=
202307061530 METAR WIHH 061530Z 10003KT 4000 HZ SCT018 27/25 Q1012 TEMPO FM1600 3000 -RA SCT018 RMK RA TO S=
202307061500 METAR WIHH 061500Z 00000KT 4000 HZ SCT018 27/25 Q1012 TEMPO FM1530 3000 -RA SCT018 RMK RA TO S=
202307061430 METAR WIHH 061430Z 15003KT 4000 -RA SCT018 27/25 Q1012 TEMPO TL1500 3000 -RA SCT018 NOSIG=
202307061400 METAR WIHH 061400Z 15003KT 5000 HZ SCT018 27/25 Q1012 NOSIG=
202307061330 METAR WIHH 061330Z 04003KT 5000 HZ SCT018 27/25 Q1011 NOSIG=
202307061300 METAR WIHH 061300Z 08003KT 4000 HZ SCT018 28/25 Q1011 NOSIG=
202307061230 METAR WIHH 061230Z 00000KT 4000 HZ FEW020 27/25 Q1010 NOSIG=
202307061200 METAR WIHH 061200Z 00000KT 4000 HZ FEW020 27/25 Q1010 NOSIG=
202307061130 METAR WIHH 061130Z 00000KT 5000 HZ FEW020 28/25 Q1009 NOSIG=
202307061100 METAR WIHH 061100Z 00000KT 5000 HZ FEW020 28/25 Q1009 NOSIG=
202307061030 METAR WIHH 061030Z 00000KT 5000 HZ FEW020 28/24 Q1009 NOSIG=
202307061000 METAR WIHH 061000Z 00000KT 5000 HZ FEW020 29/25 Q1009 NOSIG=
202307060930 METAR WIHH 060930Z 00000KT 5000 HZ SCT020 29/24 Q1009 NOSIG=
202307060900 METAR WIHH 060900Z 27003KT 5000 HZ SCT020 30/24 Q1009 NOSIG=
202307060830 METAR WIHH 060830Z 29003KT 5000 HZ SCT020 30/24 Q1009 NOSIG=
202307060800 METAR WIHH 060800Z 22003KT 5000 HZ SCT020 30/24 Q1009 NOSIG=
202307060730 METAR WIHH 060730Z 23003KT 5000 HZ SCT020 29/24 Q1009 NOSIG=
202307060700 METAR WIHH 060700Z 27003KT 4000 HZ SCT019 29/24 Q1010 NOSIG=
202307060630 METAR WIHH 060630Z 33003KT 4000 HZ SCT019 29/24 Q1010 NOSIG=
202307060600 METAR WIHH 060600Z 30003KT 4000 HZ SCT018 28/25 Q1011 NOSIG=
202307060530 METAR WIHH 060530Z 00000KT 4000 HZ SCT018 28/25 Q1011 RMK RA TO S=
202307060500 METAR WIHH 060500Z 00000KT 4000 HZ SCT018 28/25 Q1011 RMK RA TO S=
202307060430 METAR WIHH 060430Z 31003KT 4000 -RA SCT016 26/25 Q1012 NOSIG=
202307060400 METAR WIHH 060400Z 01005KT 3000 -RA BKN016 26/25 Q1012 TEMPO TL0430 4000 -RA SCT016 NOSIG=
202307060330 METAR WIHH 060330Z 03012KT 4000 -RA BKN016 27/25 Q1012 TEMPO TL0430 4000 -RA SCT016 NOSIG=
202307060300 METAR WIHH 060300Z 34003KT 4000 HZ BKN018 28/24 Q1012 TEMPO FM0310 2000 RA BKN016 RMK RA TO N=
202307060230 METAR WIHH 060230Z 26003KT 5000 HZ SCT018 28/24 Q1012 TEMPO FM0300 2000 RA BKN016 RMK RA TO N=
202307060200 METAR WIHH 060200Z 25003KT 5000 HZ SCT020 28/24 Q1012 NOSIG=
202307060130 METAR WIHH 060130Z 24003KT 5000 HZ SCT020 27/24 Q1012 NOSIG=
202307060100 METAR WIHH 060100Z 22003KT 5000 HZ SCT020 26/24 Q1012 NOSIG=
202307060030 METAR WIHH 060030Z 26003KT 5000 HZ SCT020 26/24 Q1011 NOSIG=
202307060000 METAR WIHH 060000Z 23003KT 5000 HZ SCT020 25/24 Q1011 NOSIG=
202307052330 METAR WIHH 052330Z 25002KT 5000 HZ FEW020 25/23 Q1011 NOSIG=
202307052300 METAR WIHH 052300Z 00000KT 5000 HZ FEW020 25/23 Q1010 NOSIG=
202307052230 METAR WIHH 052230Z 25004KT 5000 HZ FEW020 25/23 Q1010 NOSIG=
202307052200 METAR WIHH 052200Z 27003KT 5000 HZ FEW020 25/23 Q1009 NOSIG=
202307052130 METAR WIHH 052130Z 25005KT 5000 HZ SCT020 25/23 Q1010 NOSIG=
202307052100 METAR WIHH NIL=
202307052030 METAR WIHH NIL=
202307052000 METAR WIHH NIL=
202307051930 METAR WIHH NIL=
202307051900 METAR WIHH NIL=
202307051830 METAR WIHH NIL=
202307051800 METAR WIHH NIL=
202307051730 METAR WIHH NIL=
202307051700 METAR WIHH NIL=
202307051630 METAR WIHH NIL=
202307051600 METAR WIHH NIL=
202307051530 METAR WIHH 051530Z 00000KT 2000 BR SCT020 26/25 Q1011 NOSIG=
202307051500 METAR WIHH 051500Z 25002KT 3000 HZ SCT020 26/25 Q1010 NOSIG=
202307051430 METAR WIHH 051430Z 00000KT 4000 HZ SCT020 26/25 Q1010 NOSIG=
202307051400 METAR WIHH 051400Z 00000KT 4000 HZ SCT020 27/26 Q1010 NOSIG=
202307051330 METAR WIHH 051330Z 00000KT 4000 HZ FEW020 27/26 Q1009 NOSIG=
202307051300 METAR WIHH 051300Z 06003KT 6000 FEW020 28/23 Q1009 NOSIG=
202307051230 METAR WIHH 051230Z 00000KT 4000 HZ SCT020 27/26 Q1009 NOSIG=
202307051200 METAR WIHH 051200Z 23002KT 4000 HZ FEW020 27/25 Q1009 NOSIG=
202307051130 METAR WIHH 051130Z 23003KT 4000 BR FEW020 26/26 Q1009 NOSIG=
202307051100 METAR WIHH 051100Z 14003KT 4000 HZ SCT020 26/25 Q1008 NOSIG=
202307051030 METAR WIHH 051030Z 30003KT 5000 HZ SCT018 26/25 Q1008 NOSIG=
202307051000 METAR WIHH 051000Z 00000KT 5000 HZ SCT018 26/24 Q1007 NOSIG=
202307050930 METAR WIHH 050930Z 08004KT 4000 -RA BKN016 26/25 Q1007 NOSIG=
202307050900 METAR WIHH 050900Z 21006KT 2500 RA BKN017 FEW018CB 25/25 Q1008 RMK CB TO N=
202307050830 METAR WIHH 050830Z 28007KT 3000 RA BKN017 FEW018CB 26/24 Q1008 RMK CB TO W-NW=
202307050800 METAR WIHH 050800Z 35013KT 4000 RA BKN017 FEW018CB 30/26 Q1007 RMK CB TO W-NW=
202307050730 METAR WIHH 050730Z 06007KT 5000 HZ SCT018 33/22 Q1007 RMK RA TO W-NW=
202307050700 METAR WIHH 050700Z 02005KT 5000 HZ SCT018 33/24 Q1007 RMK RA TO E=
202307050630 METAR WIHH 050630Z 29003KT 5000 HZ SCT018 33/23 Q1008 RMK RA TO NE=
202307050600 METAR WIHH NIL=
202307050530 METAR WIHH 050530Z 03003KT 6000 SCT018 33/22 Q1008 NOSIG=
202307050500 METAR WIHH 050500Z 09005KT 6000 SCT020 33/22 Q1008 NOSIG=
202307050430 METAR WIHH 050430Z 14007KT 5000 HZ FEW022 33/21 Q1009 NOSIG=
202307050400 METAR WIHH 050400Z 17005KT 5000 HZ FEW022 32/22 Q1009 NOSIG=
202307050330 METAR WIHH 050330Z 14007KT 5000 HZ FEW022 32/22 Q1010 NOSIG=
202307050300 METAR WIHH 050300Z 08003KT 5000 HZ FEW022 31/23 Q1010 NOSIG=
202307050230 METAR WIHH 050230Z 17003KT 5000 HZ FEW022 30/24 Q1010 NOSIG=
202307050200 METAR WIHH 050200Z 00000KT 5000 HZ NSC 30/24 Q1010 NOSIG=
202307050130 METAR WIHH 050130Z 00000KT 5000 HZ NSC 29/24 Q1010 NOSIG=
202307050100 METAR WIHH 050100Z 21003KT 4000 HZ NSC 27/23 Q1010 NOSIG=
202307050030 METAR WIHH 050030Z 21003KT 4000 HZ NSC 26/24 Q1010 NOSIG=
202307050000 METAR WIHH 050000Z 24003KT 3000 HZ NSC 25/23 Q1009 NOSIG=
202307042330 METAR WIHH 042330Z 21003KT 3000 HZ NSC 24/23 Q1009 NOSIG=
202307042300 METAR WIHH 042300Z 26003KT 3000 HZ NSC 24/23 Q1009 NOSIG=
202307042230 METAR WIHH 042230Z 22003KT 4000 HZ NSC 24/23 Q1009 NOSIG=
202307042200 METAR WIHH 042200Z 22003KT 4000 HZ NSC 24/23 Q1009 NOSIG=
202307042130 METAR WIHH 042130Z 21003KT 4000 BR NSC 24/24 Q1009 NOSIG=
202307042100 METAR WIHH 042100Z 23003KT 4000 BR NSC 24/24 Q1009 NOSIG=
202307042030 METAR WIHH NIL=
202307042000 METAR WIHH NIL=
202307041930 METAR WIHH NIL=
202307041900 METAR WIHH NIL=
202307041830 METAR WIHH NIL=
202307041800 METAR WIHH NIL=
202307041730 METAR WIHH NIL=
202307041700 METAR WIHH NIL=
202307041630 METAR WIHH NIL=
202307041600 METAR WIHH NIL=
202307041530 METAR WIHH NIL=
202307041500 METAR WIHH 041500Z 24003KT 6000 FEW020 26/24 Q1011 NOSIG=
202307041430 METAR WIHH 041430Z 07003KT 6000 FEW020 26/24 Q1010 NOSIG=
202307041400 METAR WIHH 041400Z 07003KT 6000 FEW020 28/23 Q1010 NOSIG=
202307041330 METAR WIHH 041330Z 08003KT 6000 FEW020 28/23 Q1010 NOSIG=
202307041300 METAR WIHH 041300Z 06003KT 6000 FEW020 28/23 Q1009 NOSIG=
202307041230 METAR WIHH 041230Z 06005KT 6000 SCT018 28/23 Q1009 NOSIG=
202307041200 METAR WIHH 041200Z 06008KT 6000 SCT018 29/23 Q1009 NOSIG=
202307041130 METAR WIHH 041130Z 05008KT 6000 SCT018 29/23 Q1008 NOSIG=
202307041100 METAR WIHH 041100Z 36006KT 6000 SCT018 29/23 Q1008 NOSIG=
202307041030 METAR WIHH 041030Z 03006KT 6000 SCT018 30/23 Q1008 RMK RA TO SW=
202307041000 METAR WIHH 041000Z 02006KT 5000 HZ SCT018 29/24 Q1007 RMK RA TO SW=
202307040930 METAR WIHH 040930Z 27003KT 3000 HZ SCT018 28/26 Q1007 RMK RA TO SW=
202307040900 METAR WIHH 040900Z 23008KT 3000 HZ SCT018 28/25 Q1007 RMK RA TO SW=
202307040830 METAR WIHH 040830Z 24005KT 4000 -RA SCT017 FEW018CB 27/25 Q1007 RMK CB TO SW=
202307040800 METAR WIHH 040800Z 24008KT 4000 -RA SCT017 FEW018CB 27/25 Q1007 RMK CB TO SW=
202307040730 METAR WIHH 040730Z 33003KT 6000 SCT017 FEW018CB 28/25 Q1007 RMK CB TO NW=
202307040700 METAR WIHH 040700Z 33003KT 6000 SCT020 31/24 Q1007 RMK RA TO SE=
202307040630 METAR WIHH 040630Z 28003KT 6000 SCT020 32/24 Q1008 RMK RA TO NE=
202307040600 METAR WIHH 040600Z 03003KT 6000 SCT020 32/22 Q1008 RMK RA TO NW AND E=
202307040530 METAR WIHH 040530Z 29003KT 6000 SCT020 32/21 Q1009 NOSIG=
202307040500 METAR WIHH 040500Z 21003KT 6000 SCT020 31/22 Q1009 NOSIG=
202307040430 METAR WIHH 040430Z 24003KT 6000 SCT020 31/23 Q1010 NOSIG=
202307040400 METAR WIHH 040400Z 17003KT 6000 SCT020 31/23 Q1010 NOSIG=
202307040330 METAR WIHH 040330Z 24003KT 6000 SCT020 31/23 Q1010 NOSIG=
202307040300 METAR WIHH 040300Z 24003KT 6000 FEW020 31/24 Q1010 NOSIG=
202307040230 METAR WIHH 040230Z 24004KT 6000 FEW022 30/23 Q1011 NOSIG=
202307040200 METAR WIHH 040200Z 21003KT 6000 NSC 29/23 Q1011 NOSIG=
202307040130 METAR WIHH 040130Z 21005KT 6000 NSC 29/22 Q1011 NOSIG=
202307040100 METAR WIHH 040100Z 21003KT 6000 NSC 28/22 Q1011 NOSIG=
202307040030 METAR WIHH 040030Z 24003KT 6000 NSC 25/22 Q1011 NOSIG=
202307040000 METAR WIHH 040000Z 22003KT 6000 NSC 25/22 Q1010 NOSIG=
202307032330 METAR WIHH 032330Z 25003KT 6000 FEW022 25/22 Q1010 NOSIG=
202307032300 METAR WIHH 032300Z 23003KT 6000 FEW020 25/22 Q1009 NOSIG=
202307032230 METAR WIHH 032230Z 23003KT 6000 FEW020 25/22 Q1009 NOSIG=
202307032200 METAR WIHH 032200Z 24003KT 6000 FEW020 25/22 Q1009 NOSIG=
202307032130 METAR WIHH 032130Z 00000KT 6000 FEW020 25/22 Q1009 NOSIG=
202307032100 METAR WIHH 032100Z 22003KT 6000 FEW020 25/22 Q1009 NOSIG=
202307032030 METAR WIHH NIL=
202307032000 METAR WIHH NIL=
202307031930 METAR WIHH NIL=
202307031900 METAR WIHH NIL=
202307031830 METAR WIHH NIL=
202307031800 METAR WIHH NIL=
202307031730 METAR WIHH NIL=
202307031700 METAR WIHH NIL=
202307031630 METAR WIHH 031630Z 16004KT 6000 FEW020 26/23 Q1011 NOSIG=
202307031600 METAR WIHH 031600Z 20004KT 6000 FEW020 26/23 Q1011 NOSIG=
202307031530 METAR WIHH 031530Z 21004KT 6000 FEW020 26/22 Q1011 NOSIG=
202307031500 METAR WIHH 031500Z 21006KT 6000 FEW020 27/23 Q1011 NOSIG=
202307031430 METAR WIHH 031430Z 21005KT 6000 SCT020 27/24 Q1011 NOSIG=
202307031400 METAR WIHH 031400Z 24002KT 6000 SCT020 27/24 Q1011 NOSIG=
202307031330 METAR WIHH 031330Z 00000KT 6000 SCT020 28/23 Q1011 NOSIG=
202307031300 METAR WIHH 031300Z 00000KT 6000 SCT020 29/24 Q1010 NOSIG=
202307031230 METAR WIHH 031230Z 00000KT 6000 SCT020 28/24 Q1010 NOSIG=
202307031200 METAR WIHH 031200Z 32002KT 6000 SCT020 29/23 Q1010 NOSIG=
202307031130 METAR WIHH 031130Z 00000KT 5000 HZ SCT020 30/23 Q1010 NOSIG=
202307031100 METAR WIHH 031100Z 34005KT 5000 HZ SCT018 30/23 Q1009 NOSIG=
202307031030 METAR WIHH 031030Z 03005KT 5000 HZ SCT018 30/23 Q1009 NOSIG=
202307031000 METAR WIHH 031000Z 35005KT 5000 HZ SCT018 30/24 Q1008 RMK RA TO NW=
202307030930 METAR WIHH 030930Z 35007KT 5000 HZ SCT018 31/23 Q1008 RMK RA TO S=
202307030900 METAR WIHH 030900Z 33008KT 5000 HZ SCT018 32/23 Q1008 RMK RA TO S=
202307030830 METAR WIHH 030830Z 33004KT 5000 HZ SCT018 32/23 Q1008 RMK RA TO S=
202307030800 METAR WIHH 030800Z 01005KT 5000 HZ SCT020 33/23 Q1008 NOSIG=
202307030730 METAR WIHH 030730Z 02004KT 5000 HZ SCT020 33/23 Q1008 NOSIG=
202307030700 METAR WIHH 030700Z 35005KT 5000 HZ SCT020 33/23 Q1009 NOSIG=
202307030630 METAR WIHH 030630Z 06005KT 5000 HZ SCT020 32/23 Q1009 NOSIG=
202307030600 METAR WIHH 030600Z 02005KT 5000 HZ SCT020 33/23 Q1009 NOSIG=
202307030530 METAR WIHH 030530Z 07003KT 5000 HZ SCT020 32/23 Q1010 NOSIG=
202307030500 METAR WIHH 030500Z 32004KT 5000 HZ SCT020 32/23 Q1010 NOSIG=
202307030430 METAR WIHH 030430Z 02004KT 5000 HZ SCT020 32/22 Q1011 NOSIG=
202307030400 METAR WIHH 030400Z 07007KT 5000 HZ FEW020 31/23 Q1011 NOSIG=
202307030330 METAR WIHH 030330Z 10005KT 5000 HZ FEW020 32/23 Q1011 NOSIG=
202307030300 METAR WIHH 030300Z 31003KT 5000 HZ FEW020 29/23 Q1012 NOSIG=
202307030230 METAR WIHH 030230Z 06004KT 4000 HZ FEW020 29/23 Q1012 NOSIG=
202307030200 METAR WIHH 030200Z 02006KT 4000 HZ FEW020 28/24 Q1012 NOSIG=
202307030130 METAR WIHH 030130Z 08003KT 4000 HZ FEW022 27/24 Q1012 NOSIG=
202307030100 METAR WIHH 030100Z 00000KT 5000 HZ FEW022 27/24 Q1012 NOSIG=
202307030030 METAR WIHH 030030Z 00000KT 6000 FEW022 26/23 Q1011 NOSIG=
202307030000 METAR WIHH 030000Z 14003KT 6000 FEW022 26/22 Q1011 NOSIG=
202307022330 METAR WIHH 022330Z 14003KT 6000 FEW022 26/22 Q1010 NOSIG=
202307022300 METAR WIHH 022300Z 23003KT 6000 FEW022 26/23 Q1010 NOSIG=
202307022230 METAR WIHH 022230Z 23004KT 6000 FEW022 26/23 Q1010 NOSIG=
202307022200 METAR WIHH 022200Z 28004KT 7000 NSC 26/23 Q1010 NOSIG=
202307022130 METAR WIHH 022130Z 24005KT 7000 NSC 26/22 Q1010 NOSIG=
202307022100 METAR WIHH 022100Z 21008KT 7000 NSC 26/22 Q1010 NOSIG=
202307022030 METAR WIHH NIL=
202307022000 METAR WIHH NIL=
202307021930 METAR WIHH NIL=
202307021900 METAR WIHH NIL=
202307021830 METAR WIHH NIL=
202307021800 METAR WIHH NIL=
202307021730 METAR WIHH NIL=
202307021700 METAR WIHH 021700Z 15003KT 5000 HZ FEW022 26/24 Q1011 NOSIG=
202307021630 METAR WIHH 021630Z 15003KT 6000 FEW022 27/24 Q1012 NOSIG=
202307021600 METAR WIHH 021600Z 18003KT 6000 FEW022 27/24 Q1012 NOSIG=
202307021530 METAR WIHH 021530Z 18003KT 6000 FEW022 27/24 Q1012 NOSIG=
202307021500 METAR WIHH 021500Z 16003KT 6000 FEW022 27/24 Q1012 NOSIG=
202307021430 METAR WIHH 021430Z 17003KT 6000 SCT018 27/25 Q1012 RMK RA TO SW=
202307021400 METAR WIHH 021400Z 11003KT 6000 SCT018 28/25 Q1012 RMK RA TO SW=
202307021330 METAR WIHH 021330Z 07008KT 6000 SCT018 28/25 Q1012 RMK RA TO SW-W=
202307021300 METAR WIHH 021300Z 07010KT 6000 SCT018 28/24 Q1012 RMK RA TO W=
202307021230 METAR WIHH 021230Z 08008KT 6000 SCT018 28/24 Q1012 RMK RA TO NW AND S=
202307021200 METAR WIHH 021200Z 06010KT 6000 SCT018 29/24 Q1012 RMK RA TO S=
202307021130 METAR WIHH 021130Z 06010KT 6000 SCT020 29/25 Q1011 NOSIG=
202307021100 METAR WIHH 021100Z 03010KT 6000 SCT020 29/24 Q1011 NOSIG=
202307021030 METAR WIHH 021030Z 03012KT 6000 SCT020 29/24 Q1011 NOSIG=
202307021000 METAR WIHH 021000Z 02012KT 6000 SCT020 30/24 Q1011 RMK RA TO S=
202307020930 METAR WIHH 020930Z 02010KT 6000 SCT020 31/24 Q1010 RMK RA TO SE AND SW=
202307020900 METAR WIHH 020900Z 03010KT 6000 FEW018CB SCT020 31/23 Q1010 RMK CB AND RA TO SE=
202307020830 METAR WIHH 020830Z 36010KT 6000 FEW018CB SCT020 31/23 Q1010 RMK CB AND RA TO SE=
202307020800 METAR WIHH 020800Z 36010KT 6000 FEW018CB SCT020 32/24 Q1010 RMK CB AND RA TO SE=
202307020730 METAR WIHH 020730Z 02010KT 5000 HZ SCT018 32/24 Q1010 RMK RA TO SE=
202307020700 METAR WIHH 020700Z 34010KT 5000 HZ SCT018 32/24 Q1010 NOSIG=
202307020630 METAR WIHH 020630Z 35008KT 6000 SCT018 33/24 Q1010 NOSIG=
202307020600 METAR WIHH 020600Z 12004KT 6000 SCT020 33/22 Q1010 NOSIG=
202307020530 METAR WIHH 020530Z 09004KT 6000 SCT020 33/22 Q1011 NOSIG=
202307020500 METAR WIHH 020500Z 04003KT 6000 SCT020 33/22 Q1011 NOSIG=
202307020430 METAR WIHH 020430Z 29003KT 6000 SCT020 32/24 Q1011 NOSIG=
202307020400 METAR WIHH 020400Z 24003KT 6000 SCT020 32/24 Q1012 NOSIG=
202307020330 METAR WIHH 020330Z 21003KT 6000 SCT020 31/23 Q1012 NOSIG=
202307020300 METAR WIHH 020300Z 20003KT 6000 SCT020 29/23 Q1012 NOSIG=
202307020230 METAR WIHH 020230Z 21003KT 6000 SCT020 30/23 Q1012 NOSIG=
202307020200 METAR WIHH 020200Z 21003KT 6000 FEW020 29/24 Q1012 NOSIG=
202307020130 METAR WIHH 020130Z 21004KT 6000 SCT020 28/24 Q1012 NOSIG=
202307020100 METAR WIHH 020100Z 24004KT 6000 SCT020 27/23 Q1012 NOSIG=
202307020030 METAR WIHH 020030Z 22004KT 6000 SCT020 26/23 Q1012 NOSIG=
202307020000 METAR WIHH 020000Z 22003KT 6000 SCT020 26/23 Q1011 NOSIG=
202307012330 METAR WIHH 012330Z 24003KT 5000 HZ SCT018 25/24 Q1011 NOSIG=
202307012300 METAR WIHH 012300Z 23003KT 5000 HZ SCT018 25/23 Q1011 NOSIG=
202307012230 METAR WIHH 012230Z 00000KT 5000 HZ SCT020 25/23 Q1011 NOSIG=
202307012200 METAR WIHH 012200Z 00000KT 5000 HZ SCT020 25/24 Q1011 NOSIG=
202307012130 METAR WIHH 012130Z 21003KT 5000 HZ FEW020 25/24 Q1011 NOSIG=
202307012100 METAR WIHH 012100Z 00000KT 4000 HZ SCT020 25/24 Q1011 NOSIG=
202307012030 METAR WIHH NIL=
202307012000 METAR WIHH NIL=
202307011930 METAR WIHH NIL=
202307011900 METAR WIHH NIL=
202307011830 METAR WIHH NIL=
202307011800 METAR WIHH NIL=
202307011730 METAR WIHH NIL=
202307011700 METAR WIHH NIL=
202307011630 METAR WIHH NIL=
202307011600 METAR WIHH 011600Z 00000KT 4000 HZ SCT018 26/24 Q1012 NOSIG=
202307011530 METAR WIHH NIL=
202307011500 METAR WIHH 011500Z 18003KT 4000 HZ SCT018 26/25 Q1012 NOSIG=
202307011430 METAR WIHH NIL=
202307011400 METAR WIHH 011400Z 22003KT 4000 -RA SCT016 25/24 Q1012 NOSIG=
202307011330 METAR WIHH 011330Z 26003KT 3000 -RA BKN015 26/24 Q1012 NOSIG=
202307011300 METAR WIHH 011300Z 25006KT 3000 -RA BKN015 26/24 Q1011 NOSIG=
202307011230 METAR WIHH 011230Z 21006KT 3000 -RA BKN015 26/25 Q1011 NOSIG=
202307011200 METAR WIHH 011200Z 25003KT 5000 HZ SCT018 26/24 Q1010 RMK RA TO S=
202307011130 METAR WIHH 011130Z 16005KT 5000 HZ SCT018 26/24 Q1010 RMK RA TO S=
202307011100 METAR WIHH 011100Z 00000KT 5000 HZ SCT018 26/24 Q1009 NOSIG=
202307011030 METAR WIHH 011030Z 34003KT 5000 HZ SCT018 26/24 Q1009 NOSIG=
202307011000 METAR WIHH 011000Z 34003KT 5000 -RA SCT017 27/24 Q1009 NOSIG=
202307010930 METAR WIHH NIL=
202307010900 METAR WIHH NIL=
202307010830 METAR WIHH 010830Z 08008KT 2000 -RA BKN018 27/25 Q1009 NOSIG=
202307010800 METAR WIHH 010800Z 03007KT 4000 HZ SCT018 32/24 Q1009 RMK RA TO NE-SE=
202307010730 METAR WIHH 010730Z 01006KT 5000 HZ SCT018 33/24 Q1009 RMK RA TO NE-E=
202307010700 METAR WIHH 010700Z 34005KT 5000 HZ SCT018 33/24 Q1009 RMK RA TO NE=
202307010630 METAR WIHH 010630Z 34003KT 5000 HZ SCT018 32/23 Q1009 NOSIG=
202307010600 METAR WIHH 010600Z 11003KT 5000 HZ SCT018 32/23 Q1010 NOSIG=
202307010530 METAR WIHH 010530Z 21003KT 5000 HZ SCT018 32/23 Q1009 NOSIG=
202307010500 METAR WIHH 010500Z 22003KT 5000 HZ SCT018 31/24 Q1011 NOSIG=
202307010430 METAR WIHH 010430Z 22003KT 5000 HZ SCT018 31/24 Q1011 NOSIG=
202307010400 METAR WIHH 010400Z 05003KT 5000 HZ SCT018 31/23 Q1011 NOSIG=
202307010330 METAR WIHH 010330Z 14003KT 5000 HZ SCT018 30/24 Q1012 NOSIG=
202307010300 METAR WIHH 010300Z 20003KT 5000 HZ SCT018 30/24 Q1012 NOSIG=
202307010230 METAR WIHH 010230Z 22004KT 5000 HZ FEW022 30/24 Q1012 NOSIG=
202307010200 METAR WIHH 010200Z 19004KT 5000 HZ NSC 29/24 Q1012 NOSIG=
202307010130 METAR WIHH 010130Z 24004KT 5000 HZ NSC 29/24 Q1012 NOSIG=
202307010100 METAR WIHH NIL=
202307010030 METAR WIHH 010030Z 24003KT 4000 HZ FEW022 27/25 Q1011 NOSIG=
202307010000 METAR WIHH 010000Z 00000KT 3000 HZ FEW022 26/25 Q1010 NOSIG=

# No short TAF reports from WIHH in databse.

###################################
#  large TAF from WIHH
###################################
202307312300 TAF WIHH 312300Z 0100/0200 08012KT 7000 SCT020
                      BECMG 0116/0118 00000KT 5000 HZ=
202307311700 TAF WIHH 311700Z 3118/0118 15003KT 5000 HZ FEW020
                      BECMG 0102/0104 06015KT 7000 NSW=
202307311100 TAF WIHH 311100Z 3112/0112 08013KT 7000 FEW020
                      BECMG 3117/3119 15003KT 5000 HZ=
202307310500 TAF WIHH 310500Z 3106/0106 06015KT 7000 SCT020
                      BECMG 3115/3117 15003KT 5000 HZ=
202307302300 TAF WIHH 302300Z 3100/0100 10008KT 5000 HZ FEW022
                      BECMG 3104/3106 04012KT 6000 SCT020=
202307301700 TAF WIHH 301700Z 3018/3118 15004KT 5000 HZ FEW022
                      BECMG 3102/3104 06012KT 7000=
202307301100 TAF WIHH 301100Z 3012/3112 06010KT 7000 FEW022
                      BECMG 3016/3018 14004KT 5000 HZ=
202307300500 TAF WIHH 300500Z 3006/3106 36012KT 7000 SCT020
                      BECMG 3015/3017 06004KT 5000 HZ FEW022=
202307292300 TAF WIHH 292300Z 3000/3100 12008KT 7000 FEW022
                      BECMG 3004/3006 36012KT SCT020
                      BECMG 3015/3017 00000KT 5000 HZ=
202307291700 TAF WIHH 291700Z 2918/3018 16003KT 5000 HZ FEW022
                      BECMG 3001/3003 11008KT 6000=
202307291100 TAF WIHH 291100Z 2912/3012 06010KT 7000 FEW022
                      BECMG 2914/2916 12005KT 5000 HZ=
202307290500 TAF WIHH 290500Z 2906/3006 06012KT 7000 SCT020
                      BECMG 2914/2916 15004KT 5000 HZ FEW022=
202307282300 TAF WIHH 282300Z 2900/3000 12013KT 7000 SCT020
                      BECMG 2913/2915 05003KT 5000 HZ=
202307281700 TAF WIHH 281700Z 2818/2918 15003KT 6000 FEW020
                      BECMG 2902/2904 06013KT=
202307281100 TAF WIHH 281100Z 2812/2912 05013KT 7000 FEW020
                      BECMG 2817/2819 15003KT 5000 HZ=
202307280500 TAF WIHH 280500Z 2806/2906 09013KT 7000 SCT020
                      BECMG 2814/2816 15003KT 5000 HZ=
202307272300 TAF WIHH 272300Z 2800/2900 15010KT 6000 SCT020
                      BECMG 2814/2816 00000KT 4000 HZ=
202307271700 TAF WIHH 271700Z 2718/2818 00000KT 5000 HZ SCT020
                      BECMG 2801/2803 15010KT 7000 NSW=
202307271100 TAF WIHH 271100Z 2712/2812 02010KT 5000 HZ SCT018
                      TEMPO 2714/2718 3000 RA
                      BECMG 2719/2721 00000KT=
202307270500 TAF WIHH 270500Z 2706/2806 15010KT 6000 SCT020
                      TEMPO 2709/2713 34012KT 4000 RA
                      BECMG 2714/2716 03003KT 5000 HZ=
202307262300 TAF WIHH 262300Z 2700/2800 08006KT 7000 FEW022
                      BECMG 2705/2707 35010KT SCT020
                      BECMG 2714/2716 15003KT 5000 HZ=
202307261700 TAF WIHH 261700Z 2618/2718 23003KT 4000 HZ FEW022
                      BECMG 2702/2704 35008KT 6000 SCT020=
202307261100 TAF WIHH 261100Z 2612/2712 24005KT 6000 FEW022
                      BECMG 2616/2618 15003KT 4000 HZ=
202307260500 TAF WIHH 260500Z 2606/2706 36010KT 6000 SCT020
                      TEMPO 2607/2610 3000 RA BKN018
                      BECMG 2614/2616 23003KT 4000 HZ=
202307252300 TAF WIHH 252300Z 2600/2700 06008KT 6000 SCT020
                      TEMPO 2606/2609 36010KT 3000 RA BKN018
                      BECMG 2614/2616 22003KT 4000 HZ=
202307251700 TAF WIHH 251700Z 2518/2618 VRB03KT 4000 HZ SCT020
                      BECMG 2520/2522 12006KT 3000 BR=
202307251100 TAF WIHH 251100Z 2512/2612 15005KT 4000 HZ SCT018
                      BECMG 2516/2518 VRB03KT 3000 BR=
202307250500 TAF WIHH 250500Z 2506/2606 03008KT 6000 SCT020
                      TEMPO 2507/2510 34012KT 3000 RA FEW017CB
                       BKN018
                      BECMG 2514/2516 VRB03KT 4000 HZ=
202307242300 TAF WIHH 242300Z 2500/2600 09010KT 6000 SCT020
                      TEMPO 2507/2510 36012KT 3000 RA FEW017CB
                       BKN018
                      BECMG 2515/2517 00000KT 4000 HZ=
202307241700 TAF WIHH 241700Z 2418/2518 00000KT 4000 HZ FEW020
                      BECMG 2501/2503 09010KT 7000 NSW
                      TEMPO 2508/2511 02012KT 4000 RA BKN018=
202307241100 TAF WIHH 241100Z 2412/2512 09008KT 6000 SCT018
                      BECMG 2415/2417 15003KT 4000 HZ=
202307240500 TAF WIHH 240500Z 2406/2506 06012KT 6000 SCT018
                      TEMPO 2406/2409 34010KT 3000 RA FEW017CB
                       BKN018
                      BECMG 2414/2416 00000KT 5000 HZ=
202307232300 TAF WIHH 232300Z 2400/2500 09010KT 7000 FEW020
                      TEMPO 2407/2411 23012KT 4000 RA BKN017
                      BECMG 2415/2417 00000KT 5000 HZ=
202307231700 TAF WIHH 231700Z 2318/2418 00000KT 5000 HZ SCT020
                      BECMG 2400/2402 09008KT 6000 NSW
                      TEMPO 2409/2412 23012KT 3000 RA FEW017CB
                       BKN018=
202307231100 TAF WIHH 231100Z 2312/2412 06010KT 6000 SCT020
                      TEMPO 2314/2317 21007KT 4000 RA
                      BECMG 2318/2320 00000KT 5000 HZ=
202307230500 TAF WIHH 230500Z 2306/2406 09012KT 7000 FEW020
                      BECMG 2314/2316 00000KT 5000 HZ=
202307222300 TAF WIHH 222300Z 2300/2400 09008KT 7000 FEW022
                      BECMG 2304/2306 03012KT SCT020
                      BECMG 2314/2316 22004KT 5000 HZ=
202307221700 TAF WIHH 221700Z 2218/2318 22003KT 5000 HZ FEW022
                      BECMG 2302/2304 06008KT 7000=
202307221100 TAF WIHH 221100Z 2212/2312 06008KT 6000 FEW020
                      BECMG 2215/2217 15003KT 4000 HZ=
202307220500 TAF WIHH 220500Z 2206/2306 04012KT 6000 SCT020
                      BECMG 2215/2217 12005KT 4000 HZ FEW022=
202307212300 TAF WIHH 212300Z 2200/2300 12006KT 7000 FEW022
                      BECMG 2205/2207 36012KT SCT020
                      BECMG 2214/2216 06003KT 5000 HZ=
202307211700 TAF WIHH 211700Z 2118/2218 VRB03KT 4000 HZ FEW022
                      BECMG 2201/2203 12008KT 6000=
202307211100 TAF WIHH 211100Z 2112/2212 03008KT 6000 FEW020
                      BECMG 2115/2117 20004KT 4000 HZ=
202307210500 TAF WIHH 210500Z 2106/2206 04012KT 7000 FEW020
                      BECMG 2115/2117 20004KT 5000 HZ=
202307202300 TAF WIHH 202300Z 2100/2200 06012KT 7000 FEW020
                      BECMG 2114/2116 15003KT=
202307201700 TAF WIHH 201700Z 2018/2118 15003KT 6000 FEW020
                      BECMG 2103/2105 06012KT=
202307201100 TAF WIHH 201100Z 2012/2112 03008KT 7000 FEW020
                      BECMG 2015/2017 00000KT 5000 HZ=
202307200500 TAF WIHH 200500Z 2006/2106 06013KT 7000 FEW020
                      BECMG 2015/2017 15003KT 5000 HZ=
202307192300 TAF WIHH 192300Z 2000/2100 06012KT 7000 FEW020
                      BECMG 2015/2017 00000KT 5000 HZ=
202307191700 TAF WIHH 191700Z 1918/2018 15003KT 5000 HZ FEW020
                      BECMG 2000/2002 03012KT 7000 NSW=
202307191100 TAF WIHH 191100Z 1912/2012 06010KT 7000 FEW020
                      BECMG 1916/1918 15003KT 5000 HZ=
202307190500 TAF WIHH 190500Z 1906/2006 06012KT 7000 FEW022
                      BECMG 1915/1917 15003KT 5000 HZ=
202307182300 TAF WIHH 182300Z 1900/2000 22008KT 7000 FEW022
                      BECMG 1904/1906 04012KT SCT020
                      BECMG 1915/1917 5000 HZ=
202307181700 TAF WIHH 181700Z 1818/1918 20005KT 5000 HZ FEW022
                      BECMG 1901/1903 09010KT 6000=
202307181100 TAF WIHH 181100Z 1812/1912 04010KT 6000 FEW022
                      BECMG 1815/1817 15005KT 5000 HZ=
202307180500 TAF WIHH 180500Z 1806/1906 08012KT 7000 SCT020
                      BECMG 1814/1816 15004KT 5000 HZ=
202307172300 TAF WIHH 172300Z 1800/1900 09010KT 7000 FEW020
                      BECMG 1813/1815 15006KT 5000 HZ SCT020=
202307171700 TAF WIHH 171700Z 1718/1818 14003KT 5000 HZ FEW022
                      BECMG 1801/1803 09008KT 6000=
202307171100 TAF WIHH 171100Z 1712/1812 06008KT 6000 FEW022
                      BECMG 1715/1717 18004KT 5000 HZ=
202307170500 TAF WIHH 170500Z 1706/1806 05012KT 7000 SCT020
                      BECMG 1715/1717 16004KT 5000 HZ FEW022=
202307162300 TAF WIHH 162300Z 1700/1800 15008KT 7000 SCT020
                      BECMG 1715/1717 09004KT 5000 HZ=
202307161700 TAF WIHH 161700Z 1618/1718 00000KT 5000 HZ SCT020
                      BECMG 1700/1702 15008KT 7000 NSW
                      TEMPO 1708/1711 24012KT 4000 RA FEW018CB=
202307161100 TAF WIHH 161100Z 1612/1712 35007KT 6000 SCT020
                      BECMG 1615/1617 15003KT 5000 HZ=
202307160500 TAF WIHH 160500Z 1606/1706 03010KT 7000 SCT020
                      BECMG 1615/1617 15004KT 5000 HZ=
202307152300 TAF WIHH 152300Z 1600/1700 15010KT 7000 SCT020
                      TEMPO 1608/1611 24008KT 4000 RA FEW018CB
                       BECMG 1616/1618 09003KT 5000 HZ=
202307151700 TAF WIHH 151700Z 1518/1618 15003KT 5000 HZ SCT020
                      BECMG 1601/1603 03010KT 7000 NSW=
202307151100 TAF WIHH 151100Z 1512/1612 03007KT 6000 SCT020
                      TEMPO 1513/1516 24006KT 4000 RA
                      BECMG 1517/1519 15004KT 5000 HZ=
202307150500 TAF WIHH 150500Z 1506/1606 02008KT 6000 SCT020
                      TEMPO 1509/1512 24012KT 3000 RA FEW018CB
                       BECMG 1515/1517 15004KT 5000 HZ=
202307142300 TAF WIHH 142300Z 1500/1600 30008KT 7000 FEW022
                      TEMPO 1509/1513 26012KT 3000 RA BKN017 FEW018CB
                       BECMG 1515/1517 21004KT 5000 HZ SCT020=
202307141700 TAF WIHH 141700Z 1418/1518 22003KT 4000 HZ FEW022
                      BECMG 1502/1504 34007KT 6000 SCT020=
202307141100 TAF WIHH 141100Z 1412/1512 06008KT 4000 -RA BKN018
                      BECMG 1414/1416 22004KT 5000 HZ SCT020=
202307140500 TAF WIHH 140500Z 1406/1506 35010KT 6000 SCT018
                      TEMPO 1409/1413 31012KT 3000 RA BKN016 FEW017CB
                       BECMG 1417/1419 20005KT 5000 HZ=
202307132300 TAF WIHH 132300Z 1400/1500 12006KT 6000 FEW022
                      BECMG 1404/1406 35008KT SCT020
                      TEMPO 1409/1413 16012KT 4000 -TSRA BKN017
                       FEW018CB
                      BECMG 1414/1416 00000KT 5000 HZ=
202307131700 TAF WIHH 131700Z 1318/1418 VRB03KT 5000 HZ FEW022
                      BECMG 1401/1403 20006KT 6000 SCT020=
202307131100 TAF WIHH 131100Z 1312/1412 34006KT 6000 SCT020
                      BECMG 1314/1316 22004KT 5000 HZ FEW022=
202307130500 TAF WIHH 130500Z 1306/1406 35010KT 6000 SCT020
                      BECMG 1315/1317 23004KT 5000 HZ FEW022=
202307122300 TAF WIHH 122300Z 1300/1400 15010KT 7000 SCT020
                      BECMG 1309/1311 35008KT=
202307121700 TAF WIHH 121700Z 1218/1318 15005KT 5000 HZ SCT020
                      BECMG 1301/1303 09012KT 7000 NSW=
202307121100 TAF WIHH 121100Z 1212/1312 35008KT 7000 SCT020
                      BECMG 1216/1218 15003KT 5000 HZ=
202307120500 TAF WIHH 120500Z 1206/1306 03010KT 7000 SCT020
                      BECMG 1217/1219 15005KT 5000 HZ=
202307112300 TAF WIHH 112300Z 1200/1300 09010KT 7000 SCT020
                      BECMG 1214/1216 15004KT 5000 HZ=
202307111700 TAF WIHH 111700Z 1118/1218 00000KT 5000 HZ FEW020
                      BECMG 1200/1202 15008KT 7000 NSW=
202307111100 TAF WIHH 111100Z 1112/1212 06010KT 7000 FEW020
                      BECMG 1117/1119 15005KT 5000 HZ=
202307110500 TAF WIHH 110500Z 1106/1206 06010KT 7000 SCT020
                      TEMPO 1107/1109 4000 SHRA
                      TEMPO 1113/1116 15007KT 3000 RA FEW018CB
                       BECMG 1118/1120 00000KT 5000 HZ=
202307102300 TAF WIHH 102300Z 1100/1200 06010KT 6000 FEW022
                      TEMPO 1109/1112 02012KT 4000 -RA SCT017 FEW018CB
                       BECMG 1113/1115 18005KT 5000 HZ=
202307101700 TAF WIHH 101700Z 1018/1118 23003KT 5000 HZ FEW022
                      BECMG 1101/1103 09010KT 6000 SCT020=
202307101100 TAF WIHH 101100Z 1012/1112 03008KT 6000 SCT020
                      BECMG 1015/1017 22004KT 5000 HZ FEW022=
202307100500 TAF WIHH 100500Z 1006/1106 08012KT 6000 SCT020
                      TEMPO 1008/1011 34015KT 3000 -TSRA BKN016
                       FEW017CB
                      BECMG 1014/1016 23005KT 5000 HZ=
202307092300 TAF WIHH 092300Z 1000/1100 09010KT 7000 FEW020
                      TEMPO 1008/1011 15012KT 4000 TSRA FEW017CB
                       SCT018
                      BECMG 1014/1016 00000KT 5000 HZ=
202307091700 TAF WIHH 091700Z 0918/1018 15004KT 5000 HZ SCT020
                      BECMG 1001/1003 09010KT 7000 NSW=
202307091100 TAF WIHH 091100Z 0912/1012 08010KT 7000 SCT020
                      BECMG 0916/0918 15004KT 5000 HZ=
202307090500 TAF WIHH 090500Z 0906/1006 15010KT 6000 SCT018
                      TEMPO 0909/0913 06012KT 3000 TSRA FEW017CB
                       BKN018
                      BECMG 0914/0916 00000KT 5000 HZ=
202307082300 TAF WIHH 082300Z 0900/1000 20005KT 4000 HZ FEW022
                      BECMG 0902/0904 09008KT 6000 SCT020
                      TEMPO 0909/0912 06012KT 3000 RA BKN017 FEW018CB
                       BECMG 0914/0916 00000KT 5000 HZ=
202307081700 TAF WIHH 081700Z 0818/0918 22004KT 4000 HZ FEW022
                      BECMG 0901/0903 08008KT 6000 SCT020=
202307081230 TAF AMD WIHH 081230Z 0813/0912 12008KT 4000 -RA SCT020
                      BECMG 0815/0817 19003KT 5000 HZ=
202307081100 TAF WIHH 081100Z 0812/0912 12008KT 6000 SCT020
                      BECMG 0815/0817 19003KT 5000 HZ=
202307080500 TAF WIHH 080500Z 0806/0906 27006KT 6000 SCT020
                      TEMPO 0807/0811 08012KT 3000 TSRA BKN016
                       FEW017CB
                      BECMG 0813/0815 18003KT 5000 HZ=
202307072300 TAF WIHH 072300Z 0800/0900 27006KT 4000 HZ FEW022
                      BECMG 0802/0804 6000 SCT020
                      TEMPO 0808/0812 09010KT 3000 -TSRA BKN017
                       FEW018CB
                      BECMG 0815/0817 18003KT 5000 HZ=
202307071700 TAF WIHH 071700Z 0718/0818 24003KT 4000 HZ SCT020
                      BECMG 0802/0804 11006KT 6000=
202307071100 TAF WIHH 071100Z 0712/0812 15005KT 4000 HZ SCT020
                      BECMG 0714/0716 22003KT 3000 BR=
202307070500 TAF WIHH 070500Z 0706/0806 06010KT 5000 HZ SCT018
                      TEMPO 0706/0710 2000 -TSRA BKN017 FEW018CB
                       BECMG 0713/0715 27004KT 4000 HZ
                      TEMPO 0718/0721 3000 RA BKN018=
202307062300 TAF WIHH 062300Z 0700/0800 15008KT 6000 SCT020
                      TEMPO 0707/0711 22012KT 2000 TSRA BKN016
                       FEW017CB
                      BECMG 0712/0714 02006KT 5000 HZ
                      TEMPO 0717/0720 3000 RA BKN018=
202307061700 TAF WIHH 061700Z 0618/0718 15005KT 4000 RA SCT018
                      BECMG 0619/0621 HZ
                      BECMG 0702/0704 09008KT 6000 NSW
                      TEMPO 0711/0714 4000 RA=
202307061100 TAF WIHH 061100Z 0612/0712 15006KT 6000 SCT020
                      BECMG 0616/0618 00000KT 5000 HZ=
202307060500 TAF WIHH 060500Z 0606/0706 35008KT 4000 RA BKN016
                      BECMG 0611/0613 20007KT 5000 HZ SCT018
                      BECMG 0617/0619 00000KT 4000 BR=
202307052300 TAF WIHH 052300Z 0600/0700 24006KT 5000 HZ FEW022
                      BECMG 0602/0604 35008KT 6000 SCT020
                      TEMPO 0607/0611 27010KT 3000 RA BKN017 FEW018CB
                       BECMG 0615/0617 02003KT 4000 HZ=
202307051700 TAF WIHH 051700Z 0518/0618 VRB03KT 3000 BR SCT020
                      BECMG 0603/0605 35008KT 6000=
202307051100 TAF WIHH 051100Z 0512/0612 21004KT 4000 HZ SCT020
                      BECMG 0516/0518 00000KT 3000 BR=
202307050500 TAF WIHH 050500Z 0506/0606 02008KT 6000 SCT018
                      TEMPO 0508/0512 30010KT 3000 -RA FEW017CB
                       BECMG 0515/0517 21003KT 5000 HZ FEW022=
202307042300 TAF WIHH 042300Z 0500/0600 27005KT 4000 HZ FEW022
                      BECMG 0502/0504 02008KT 6000 SCT020
                      TEMPO 0508/0512 30010KT 3000 -TSRA BKN017
                       FEW018CB
                      BECMG 0515/0517 5000 HZ=
202307041700 TAF WIHH 041700Z 0418/0518 24005KT 4000 HZ FEW022
                      BECMG 0502/0504 30008KT 6000 SCT020=
202307041100 TAF WIHH 041100Z 0412/0512 16004KT 6000 SCT020
                      BECMG 0416/0418 20006KT 5000 HZ FEW022=
202307040500 TAF WIHH 040500Z 0406/0506 02008KT 6000 SCT018
                      TEMPO 0407/0410 28010KT 3000 -TSRA BKN017
                       FEW018CB
                      BECMG 0414/0416 20004KT 5000 HZ=
202307032300 TAF WIHH 032300Z 0400/0500 15010KT 7000 FEW020
                      TEMPO 0408/0411 33012KT 4000 RA SCT018
                      BECMG 0416/0418 22006KT 5000 HZ=
202307031700 TAF WIHH 031700Z 0318/0418 09006KT 6000 FEW020
                      BECMG 0401/0403 15010KT
                      TEMPO 0408/0411 34010KT 4000 RA FEW018CB
                       SCT020=
202307031100 TAF WIHH 031100Z 0312/0412 05008KT 5000 HZ SCT018
                      TEMPO 0314/0317 20010KT 3000 RA FEW017CB
                       BECMG 0319/0321 12004KT=
202307030500 TAF WIHH 030500Z 0306/0406 05008KT 7000 SCT020
                      TEMPO 0314/0317 21007KT 4000 RA FEW018CB
                       BECMG 0318/0320 15004KT 5000 HZ=
202307022300 TAF WIHH 022300Z 0300/0400 17010KT 7000 FEW020
                      TEMPO 0307/0310 03012KT 3000 RA FEW017CB
                       SCT018
                      BECMG 0314/0316 10004KT 5000 HZ=
202307021700 TAF WIHH 021700Z 0218/0318 15004KT 5000 HZ FEW022
                      BECMG 0301/0303 21010KT 7000 NSW=
202307021100 TAF WIHH 021100Z 0212/0312 03010KT 6000 SCT018
                      TEMPO 0214/0217 20008KT 3000 RA FEW017CB
                       BECMG 0219/0221 12004KT 5000 HZ=
202307020500 TAF WIHH 020500Z 0206/0306 09008KT 7000 SCT020
                      TEMPO 0209/0212 02010G25KT 3000 TSRA BKN016
                       FEW017CB
                      BECMG 0218/0220 15005KT 5000 HZ=
202307012300 TAF WIHH 012300Z 0200/0300 09006KT 6000 SCT020
                      TEMPO 0208/0211 02010KT 4000 -RA FEW018CB
                       BECMG 0212/0214 36004KT 5000 HZ=
202307011700 TAF WIHH 011700Z 0118/0218 14003KT 4000 HZ FEW022
                      BECMG 0202/0204 10008KT 6000 SCT020=
202307011100 TAF WIHH 011100Z 0112/0212 11005KT 5000 HZ SCT018
                      TEMPO 0114/0117 19008KT 3000 RA BKN017 FEW018CB
                       BECMG 0118/0120 00000KT 4000 HZ=
202307010500 TAF WIHH 010500Z 0106/0206 33008KT 6000 SCT018
                      TEMPO 0108/0110 4000 -RA FEW018CB
                      TEMPO 0114/0117 09010KT 3000 RA BKN017
                      BECMG 0118/0120 00000KT 4000 HZ=
