##########################################################
# Query made at 05/05/2026 03:37:50 UTC
# Time interval: from 12/01/2025 00:00  to 12/31/2025 23:59  UTC
##########################################################

##########################################################
# WIHH, Jakarta Halim Perdanakusuma (Indonesia)
# WMO index: 96747. WIGOS ID: Unknown
# Latitude 06-15S. Longitude 106-54E. Altitude 30 m.
##########################################################

###################################
#  METAR/SPECI from WIHH
###################################
202512312330 METAR WIHH 312330Z 22003KT 5000 BR SCT017 25/25 Q1008 NOSIG=
202512312300 METAR WIHH 312300Z 23003KT 5000 BR SCT017 25/25 Q1007 NOSIG=
202512312230 METAR WIHH 312230Z 22003KT 5000 -RA SCT017 25/24 Q1007 NOSIG=
202512312200 METAR WIHH 312200Z 21003KT 6000 -RA SCT017 24/24 Q1007 NOSIG=
202512312130 METAR WIHH 312130Z 27003KT 6000 SCT017 25/24 Q1006 RMK RA TO N=
202512312100 METAR WIHH 312100Z 27003KT 6000 SCT017 24/24 Q1006 RMK RA TO W=
202512312030 METAR WIHH 312030Z 00000KT 5000 BR SCT018 24/24 Q1008 NOSIG=
202512312000 METAR WIHH NIL=
202512311930 METAR WIHH 311930Z 00000KT 6000 SCT018 24/24 Q1008 NOSIG=
202512311900 METAR WIHH 311900Z 00000KT 6000 SCT018 24/24 Q1008 RMK RA TO W=
202512311830 METAR WIHH 311830Z 00000KT 6000 SCT018 24/24 Q1008 RMK RA TO NW=
202512311800 METAR WIHH 311800Z 00000KT 6000 SCT018 24/24 Q1008 RMK RA TO N=
202512311730 METAR WIHH 311730Z 31004KT 7000 SCT018 24/24 Q1008 RMK RA TO N=
202512311700 METAR WIHH 311700Z 35003KT 7000 SCT017 24/24 Q1008 RMK RA TO N=
202512311630 METAR WIHH 311630Z 18003KT 7000 SCT017 24/24 Q1009 RMK RA TO SE=
202512311600 METAR WIHH 311600Z 30003KT 7000 SCT017 25/24 Q1009 RMK RA TO S=
202512311530 METAR WIHH 311530Z 26003KT 7000 -RA SCT017 25/24 Q1009 NOSIG=
202512311500 METAR WIHH 311500Z 27003KT 7000 -RA SCT017 25/23 Q1009 NOSIG=
202512311430 METAR WIHH 311430Z 27005KT 7000 -RA SCT017 26/23 Q1009 NOSIG=
202512311415 SPECI WIHH 311415Z 25010KT 6000 -RA SCT017 26/23 Q1009=
202512311400 METAR WIHH 311400Z 24010KT 7000 SCT018 26/25 Q1009 TEMPO FM1420 3000 -RA RMK RA TO NW=
202512311330 METAR WIHH 311330Z 24003KT 7000 SCT020 25/25 Q1009 NOSIG=
202512311300 METAR WIHH 311300Z 18003KT 7000 SCT020 25/25 Q1008 NOSIG=
202512311230 METAR WIHH 311230Z 22003KT 7000 SCT020 25/25 Q1008 RMK RA TO E=
202512311200 METAR WIHH 311200Z 21003KT 7000 SCT020 25/25 Q1008 RMK RA TO E=
202512311130 METAR WIHH 311130Z 18003KT 7000 SCT020 26/25 Q1008 TEMPO FM1200 3000 -RA RMK RA TO NW=
202512311100 METAR WIHH 311100Z 20003KT 7000 SCT020 26/25 Q1007 NOSIG=
202512311030 METAR WIHH 311030Z 27004KT 7000 SCT018 26/25 Q1007 NOSIG=
202512311000 METAR WIHH 311000Z 22004KT 6000 SCT018 26/25 Q1007 RMK RA TO E-SE=
202512310930 METAR WIHH 310930Z 28004KT 6000 -RA SCT016 25/25 Q1007 NOSIG=
202512310900 METAR WIHH 310900Z 26015KT 3000 -RA SCT016 27/23 Q1006 TEMPO TL1000 4000 -RA=
202512310830 METAR WIHH 310830Z 24013KT 6000 SCT016 27/23 Q1006 TEMPO FM0845 3000 -RA RMK RA TO SE AND NW=
202512310800 METAR WIHH 310800Z 27004KT 6000 SCT017 29/24 Q1006 RMK RA TO S-W=
202512310730 METAR WIHH 310730Z 26005KT 7000 SCT017 29/23 Q1006 RMK RA TO SW=
202512310700 METAR WIHH 310700Z 28007KT 7000 SCT016 29/25 Q1007 RMK RA TO N AND SE=
202512310630 METAR WIHH 310630Z 35003KT 6000 SCT016 29/25 Q1007 RMK RA TO NW AND S E=
202512310605 SPECI WIHH 310605Z 31006KT 4000 -RA SCT016 28/25 Q1008=
202512310600 METAR WIHH 310600Z 31003KT 6000 SCT016 28/25 Q1008 RMK RA TO NW AND SE=
202512310530 METAR WIHH 310530Z 28004KT 5000 -RA SCT015 28/24 Q1008 TEMPO TL0600 4000 -RA RMK RA T NW=
202512310500 METAR WIHH 310500Z 26004KT 5000 HZ FEW016 28/25 Q1008 RMK RA TO SE=
202512310430 METAR WIHH 310430Z 30005KT 5000 -RA SCT016 28/25 Q1009 NOSIG=
202512310400 METAR WIHH 310400Z 35006KT 6000 SCT016 28/26 Q1009 RMK RA TO S=
202512310330 METAR WIHH 310330Z 27005KT 4000 -RA SCT016 28/26 Q1009 NOSIG=
202512310300 METAR WIHH 310300Z 30004KT 4000 HZ SCT016 27/26 Q1009 RMK RA TO N-SE=
202512310230 METAR WIHH 310230Z 26003KT 4000 HZ SCT016 27/26 Q1009 RMK RA TO N-E=
202512310200 METAR WIHH 310200Z 29003KT 5000 HZ SCT016 26/25 Q1009 RMK RA TO SE=
202512310130 METAR WIHH 310130Z 26005KT 4000 -RA SCT015 25/25 Q1009 TEMPO TL0200 4000 -RA=
202512310100 METAR WIHH 310100Z 24006KT 4000 -RA SCT015 25/25 Q1009 TEMPO TL0130 4000 -RA RMK RA TO NW=
202512310030 METAR WIHH 310030Z 25005KT 4000 -RA SCT015 25/25 Q1009 NOSIG=
202512310000 METAR WIHH 310000Z 23008KT 4000 -RA SCT015 25/25 Q1008 TEMPO TL0030 4000 -RA=
202512302340 SPECI WIHH 302340Z 25003KT 3000 -RA SCT016 25/24 Q1008=
202512302330 METAR WIHH 302330Z 24003KT 5000 HZ SCT016 25/24 Q1008 RMK RA TO NW=
202512302300 METAR WIHH 302300Z 24003KT 5000 -RA SCT016 24/24 Q1008 NOSIG=
202512302230 METAR WIHH 302230Z 26005KT 6000 SCT018 24/24 Q1007 RMK RA TO NE=
202512302200 METAR WIHH 302200Z 22005KT 6000 SCT018 24/24 Q1007 RMK RA TO N=
202512302130 METAR WIHH 302130Z 15003KT 6000 FEW020 24/24 Q1010 NOSIG=
202512302100 METAR WIHH 302100Z 25002KT 6000 SCT020 24/24 Q1010 NOSIG=
202512302030 METAR WIHH 302030Z 19003KT 6000 SCT020 24/24 Q1010 NOSIG=
202512302000 METAR WIHH 302000Z 21004KT 6000 BKN018 24/24 Q1007=
202512301930 METAR WIHH 301930Z 00000KT 6000 FEW020 24/24 Q1012=
202512301900 METAR WIHH 301900Z 00000KT 6000 FEW020 24/23 Q1010=
202512301830 METAR WIHH 301830Z 00000KT 7000 FEW020 24/24 Q1012=
202512301800 METAR WIHH 301800Z 00000KT 7000 FEW020 24/23 Q1011 NOSIG=
202512301730 METAR WIHH 301730Z 00000KT 7000 FEW020 24/23 Q1011=
202512301700 METAR WIHH 301700Z 22003KT 5000 -RA SCT016 24/24 Q1009 NOSIG=
202512301630 METAR WIHH 301630Z 00000KT 4000 -TSRA FEW016CB SCT017 24/24 Q1009 RMK CB TO E=
202512301600 METAR WIHH 301600Z 26005KT 2000 -TSRA FEW016CB SCT018 24/24 Q1009 RMK CB TO E=
202512301530 METAR WIHH 301530Z 25008KT 2000 -TSRA FEW016CB SCT018 24/24 Q1009 RMK CB TO NE=
202512301500 METAR WIHH 301500Z 28008KT 7000 -TSRA FEW016CB SCT018 26/25 Q1009 RMK CB TO NE=
202512301430 METAR WIHH 301430Z 30008KT 7000 TS FEW016CB SCT018 26/25 Q1009 RMK CB AND RA TO N=
202512301400 METAR WIHH 301400Z 00000KT 7000 SCT018 26/25 Q1009 RMK RA TO N=
202512301330 METAR WIHH 301330Z 14003KT 7000 SCT018 27/24 Q1008 RMK RA TO N=
202512301300 METAR WIHH 301300Z 10003KT 7000 SCT018 27/24 Q1008 RMK RA TO SW=
202512301230 METAR WIHH 301230Z 09003KT 7000 SCT018 27/24 Q1008 RMK RA TO SW=
202512301200 METAR WIHH 301200Z 20003KT 8000 SCT018 27/24 Q1008 NOSIG=
202512301130 METAR WIHH 301130Z 22004KT 6000 SCT016 28/24 Q1007 NOSIG=
202512301100 METAR WIHH 301100Z 18004KT 6000 SCT016 28/24 Q1007 NOSIG=
202512301030 METAR WIHH 301030Z 20006KT 6000 SCT016 28/24 Q1006 NOSIG=
202512301000 METAR WIHH 301000Z 22005KT 6000 SCT016 29/24 Q1006 NOSIG=
202512300930 METAR WIHH 300930Z 26005KT 6000 SCT016 29/24 Q1006 NOSIG=
202512300900 METAR WIHH 300900Z 23007KT 5000 HZ SCT016 28/25 Q1006 NOSIG=
202512300830 METAR WIHH 300830Z 21003KT 7000 SCT017 27/25 Q1008 RMK RA TO NW=
202512300800 METAR WIHH 300800Z 24003KT 7000 SCT017 26/24 Q1008 RMK RA TO NW - N=
202512300740 SPECI WIHH 300740Z 30004KT 5000 -TSRA SCT016 FEW018CB 27/24 Q1006 RMK CB TO NW=
202512300730 METAR WIHH 300730Z 33004KT 6000 TS SCT016 FEW018CB 28/24 Q1006 RMK CB AND RA TO NW=
202512300700 METAR WIHH 300700Z 28005KT 6000 SCT016 FEW018CB 29/25 Q1006 RMK CB AND RA TO NW=
202512300630 METAR WIHH 300630Z 30008KT 5000 TS SCT016 29/26 Q1007 TEMPO TL0700 3000 -TSRA BKN016 RMK CB AND RA TO NE=
202512300600 METAR WIHH 300600Z 33005KT 5000 -RA SCT016 25/23 Q1007 TEMPO TL0700 3000 -RA BKN016=
202512300533 SPECI WIHH 300533Z 25015KT 4000 -RA SCT018 31/23 Q1007=
202512300530 METAR WIHH 300530Z 29010KT 8000 SCT018 32/23 Q1007 TEMPO FM0600 5000 -RA SCT016 RMK RA TO NW=
202512300500 METAR WIHH 300500Z 25008KT 9999 SCT018 33/22 Q1007 RMK RA TO NW=
202512300430 METAR WIHH 300430Z 32008KT 9999 SCT020 32/23 Q1008 RMK RA TO NW=
202512300400 METAR WIHH 300400Z 25008KT 9999 SCT020 31/23 Q1008 NOSIG=
202512300330 METAR WIHH 300330Z 26008KT 9999 SCT020 31/24 Q1009 NOSIG=
202512300300 METAR WIHH 300300Z 03005KT 7000 SCT018 32/25 Q1011 RMK RA TO SE=
202512300230 METAR WIHH 300230Z 24010KT 9999 FEW020 30/23 Q1009 NOSIG=
202512300200 METAR WIHH 300200Z 15004KT 7000 SCT018 31/24 Q1011 NOSIG=
202512300130 METAR WIHH 300130Z 25005KT 9999 FEW020 29/24 Q1009 NOSIG=
202512300100 METAR WIHH 300100Z 24004KT 8000 FEW020 27/23 Q1009 NOSIG=
202512300030 METAR WIHH 300030Z 25005KT 7000 FEW020 27/23 Q1009 NOSIG=
202512300000 METAR WIHH 300000Z 21004KT 7000 FEW020 27/23 Q1011 NOSIG=
202512292330 METAR WIHH 292330Z 27003KT 6000 FEW020 26/24 Q1010 NOSIG=
202512292300 METAR WIHH 292300Z 27003KT 6000 FEW020 24/24 Q1008 NOSIG=
202512292230 METAR WIHH 292230Z 18003KT 6000 FEW020 26/24 Q1010 NOSIG=
202512292200 METAR WIHH 292200Z 24002KT 8000 FEW020 24/24 Q1008 NOSIG=
202512292130 METAR WIHH 292130Z 25003KT 9999 FEW200 24/24 Q1008 NOSIG=
202512292100 METAR WIHH 292100Z 18004KT 6000 FEW020 26/24 Q1009 NOSIG=
202512292030 METAR WIHH 292030Z 25005KT 9999 FEW200 25/24 Q1007 NOSIG=
202512292000 METAR WIHH 292000Z 27005KT 9999 FEW020 25/24 Q1007 NOSIG=
202512291930 METAR WIHH 291930Z 28004KT 9999 25/24 Q1007 NOSIG=
202512291900 METAR WIHH 291900Z 27004KT 9999 FEW020 25/24 Q1007 NOSIG=
202512291830 METAR WIHH 291830Z 25006KT 9999 FEW020 26/24 Q1008 NOSIG=
202512291800 METAR WIHH 291800Z 24005KT 9999 FEW020 26/24 Q1008 NOSIG=
202512291730 METAR WIHH 291730Z 27004KT 9999 FEW020 26/24 Q1009 NOSIG=
202512291700 METAR WIHH 291700Z 24006KT 9999 FEW020 26/24 Q1009 NOSIG=
202512291630 METAR WIHH 291630Z 25005KT 9999 FEW020 26/24 Q1010 NOSIG=
202512291600 METAR WIHH 291600Z 24005KT 9999 FEW020 26/24 Q1010 NOSIG=
202512291530 METAR WIHH 291530Z 24003KT 9999 FEW020 26/24 Q1010 NOSIG=
202512291500 METAR WIHH 291500Z 26006KT 9999 FEW020 26/24 Q1010 NOSIG=
202512291430 METAR WIHH 291430Z 10007KT 6000 SCT017 26/23 Q1011 NOSIG=
202512291400 METAR WIHH 291400Z 12007KT 6000 SCT017 26/24 Q1011 NOSIG=
202512291330 METAR WIHH 291330Z 09007KT 6000 SCT017 27/25 Q1011 NOSIG=
202512291300 METAR WIHH 291300Z 24005KT 7000 SCT020 26/23 Q1009 NOSIG=
202512291230 METAR WIHH 291230Z 24005KT 7000 SCT020 25/24 Q1009 NOSIG=
202512291200 METAR WIHH 291200Z 24005KT 7000 SCT020 25/24 Q1008 NOSIG=
202512291130 METAR WIHH 291130Z 24003KT 6000 SCT018 25/23 Q1008 NOSIG=
202512291100 METAR WIHH 291100Z 21007KT 6000 SCT018 25/23 Q1008 NOSIG=
202512291030 METAR WIHH 291030Z 24004KT 6000 SCT018 25/23 Q1008 RMK RA TO SW=
202512291000 METAR WIHH 291000Z 18006KT 5000 -RA FEW017CB SCT018 25/23 Q1007 RMK CB TO SW=
202512290930 METAR WIHH 290930Z 21006KT 5000 -RA FEW017CB SCT018 25/23 Q1007 RMK CB TO SW=
202512290900 METAR WIHH 290900Z 18006KT 5000 -TSRA FEW017CB SCT018 25/22 Q1007 RMK CB TO S=
202512290830 METAR WIHH 290830Z 18012KT 5000 -TSRA FEW017CB SCT018 27/22 Q1007 RMK CB TO S=
202512290800 METAR WIHH 290800Z 24006KT 6000 TS FEW017CB SCT018 30/24 Q1006 RMK CB AND RA TO S=
202512290730 METAR WIHH 290730Z 27006KT 7000 TS FEW017CB SCT018 31/24 Q1006 RMK CB AND RA TO S=
202512290700 METAR WIHH 290700Z 36006KT 8000 SCT017 33/23 Q1007 NOSIG=
202512290630 METAR WIHH 290630Z 34006KT 7000 SCT018 32/24 Q1007 RMK RA TO E AND W=
202512290600 METAR WIHH 290600Z 35007KT 8000 SCT017 33/23 Q1008 NOSIG=
202512290530 METAR WIHH 290530Z 34005KT 7000 SCT018 32/24 Q1008 RMK RA TO NW=
202512290500 METAR WIHH 290500Z 33005KT 7000 SCT018 32/23 Q1008 NOSIG=
202512290430 METAR WIHH 290430Z 30004KT 8000 SCT018 32/23 Q1009 NOSIG=
202512290400 METAR WIHH 290400Z 27005KT 8000 SCT018 32/23 Q1009 NOSIG=
202512290330 METAR WIHH 290330Z 15006KT 8000 FEW020 33/21 Q1010 NOSIG=
202512290300 METAR WIHH 290300Z 24006KT 8000 SCT020 31/24 Q1009 NOSIG=
202512290230 METAR WIHH 290230Z 18004KT 8000 FEW020 32/22 Q1010 NOSIG=
202512290200 METAR WIHH 290200Z 24004KT 9999 FEW020 30/24 Q1010 NOSIG=
202512290130 METAR WIHH 290130Z 26003KT 9999 SCT020 28/24 Q1010 NOSIG=
202512290100 METAR WIHH 290100Z 28004KT 8000 SCT020 27/24 Q1009 NOSIG=
202512290030 METAR WIHH 290030Z 26005KT 8000 SCT020 26/24 Q1009 NOSIG=
202512290000 METAR WIHH 290000Z 28003KT 7000 SCT020 26/24 Q1009 NOSIG=
202512282330 METAR WIHH 282330Z 26007KT 7000 SCT020 25/24 Q1009 NOSIG=
202512282300 METAR WIHH 282300Z 25006KT 7000 SCT020 25/24 Q1008 NOSIG=
202512282230 METAR WIHH 282230Z 23003KT 6000 SCT018 25/23 Q1008 NOSIG=
202512282200 METAR WIHH 282200Z 24004KT 7000 SCT018 25/23 Q1008 NOSIG=
202512282130 METAR WIHH 282130Z 29004KT 7000 SCT018 25/23 Q1008 NOSIG=
202512282100 METAR WIHH 282100Z 24007KT 8000 FEW020 26/22 Q1008 RMK NOSIG=
202512282030 METAR WIHH 282030Z 24006KT 8000 FEW020 26/21 Q1008=
202512282000 METAR WIHH 282000Z 24006KT 8000 26/22 Q1008=
202512281930 METAR WIHH 281930Z 22006KT 8000 26/21 Q1008=
202512281900 METAR WIHH 281900Z 21004KT 8000 26/21 Q1008=
202512281830 METAR WIHH 281830Z 22003KT 7000 FEW020 25/24 Q1009 NOSIG=
202512281800 METAR WIHH 281800Z 25004KT 6000 SCT018 26/25 Q1009 NOSIG=
202512281730 METAR WIHH 281730Z 23008KT 7000 FEW020 27/22 Q1009 NOSIG=
202512281700 METAR WIHH 281700Z 22005KT 8000 FEW020 26/22 Q1009 NOSIG=
202512281630 METAR WIHH 281630Z 26003KT 8000 FEW020 27/23 Q1009 NOSIG=
202512281600 METAR WIHH 281600Z 22006KT 7000 SCT018 26/25 Q1010 NOSIG=
202512281530 METAR WIHH 281530Z 24003KT 7000 FEW018 26/25 Q1010 NOSIG=
202512281500 METAR WIHH 281500Z 28004KT 7000 SCT018 26/25 Q1010 RMK RA TO SW=
202512281430 METAR WIHH 281430Z 24008KT 7000 SCT017 26/25 Q1011 RMK RA TO NW=
202512281400 METAR WIHH 281400Z 24004KT 7000 -RA SCT017 26/25 Q1011 NOSIG=
202512281330 METAR WIHH 281330Z 24003KT 6000 -RA SCT017 25/25 Q1011 NOSIG=
202512281300 METAR WIHH 281300Z 18003KT 6000 -RA SCT017 25/25 Q1011 NOSIG=
202512281230 METAR WIHH 281230Z 10003KT 6000 -RA SCT016 25/25 Q1010 NOSIG=
202512281200 METAR WIHH 281200Z 24003KT 5000 -RA SCT016 25/24 Q1010 NOSIG=
202512281130 METAR WIHH 281130Z 21008KT 3000 -TSRA SCT016 FEW017CB 25/25 Q1010 RMK CB TO SW=
202512281100 METAR WIHH 281100Z 22006KT 5000 -RA SCT016 FEW017CB 26/25 Q1009 RMK C B TO SW=
202512281030 METAR WIHH 281030Z 31005KT 7000 SCT018 30/24 Q1007 NOSIG=
202512281000 METAR WIHH 281000Z 24003KT 6000 SCT016 FEW017CB 27/24 Q1007 RMK CB AND RA TO E-SE=
202512280930 METAR WIHH 280930Z 25003KT 6000 SCT016 FEW017CB 26/25 Q1007 RMK CB AND RA TO NE-SE=
202512280900 METAR WIHH 280900Z 25003KT 6000 -TSRA SCT016 FEW017CB 25/24 Q1007 RMK CB TO E=
202512280830 METAR WIHH 280830Z 21005KT 1000 -TSRA BKN016 FEW017CB 26/25 Q1007 RMK CB OVER THE FIELD=
202512280800 METAR WIHH 280800Z 18015KT 3000 TSRA BKN016 FEW017CB 27/25 Q1006 RMK CB OVER THE FIELD=
202512280730 METAR WIHH 280730Z 20015KT 5000 FEW010CB SCT016 32/24 Q1006 RMK CB TO S=
202512280700 METAR WIHH 280700Z 33006KT 7000 FEW017CB SCT018 33/25 Q1006 RMK CB AN D RA TO S-SW=
202512280630 METAR WIHH 280630Z 04005KT 5000 HZ SCT017 32/23 Q1007 RMK RA TO E=
202512280600 METAR WIHH 280600Z 30003KT 7000 SCT018 33/23 Q1007 NOSIG=
202512280530 METAR WIHH 280530Z 23006KT 7000 SCT018 34/24 Q1008 NOSIG=
202512280500 METAR WIHH 280500Z 32005KT 7000 SCT018 34/23 Q1008 RMK RA TO SW=
202512280430 METAR WIHH 280430Z 26008KT 7000 SCT018 33/23 Q1009 NOSIG=
202512280400 METAR WIHH 280400Z 20005KT 7000 SCT018 33/24 Q1009 NOSIG=
202512280330 METAR WIHH 280330Z 22005KT 7000 SCT018 33/23 Q1009 NOSIG=
202512280300 METAR WIHH 280300Z 24004KT 7000 SCT018 32/23 Q1010 NOSIG=
202512280230 METAR WIHH 280230Z 24006KT 7000 SCT020 32/24 Q1010 NOSIG=
202512280200 METAR WIHH 280200Z 22007KT 7000 SCT020 31/24 Q1010 NOSIG=
202512280130 METAR WIHH 280130Z 22005KT 7000 FEW020 29/24 Q1010 NOSIG=
202512280100 METAR WIHH 280100Z 27007KT 7000 FEW020 28/24 Q1010 NOSIG=
202512280030 METAR WIHH 280030Z 22010KT 7000 FEW020 28/24 Q1010 NOSIG=
202512280000 METAR WIHH 280000Z 24006KT 7000 FEW020 27/24 Q1010 NOSIG=
202512272330 METAR WIHH 272330Z 22004KT 7000 FEW020 27/24 Q1010 NOSIG=
202512272300 METAR WIHH 272300Z 24006KT 7000 FEW020 26/24 Q1010 NOSIG=
202512272230 METAR WIHH 272230Z 24004KT 7000 FEW020 26/24 Q1009 NOSIG=
202512272200 METAR WIHH 272200Z 18004KT 6000 FEW020 25/22 Q1008 NOSIG=
202512272130 METAR WIHH 272130Z 25004KT 7000 FEW020 27/23 Q1008 NOSIG=
202512272100 METAR WIHH 272100Z 24004KT 6000 26/22 Q1008 NOSIG=
202512272030 METAR WIHH 272030Z 20005KT 6000 FEW020 26/23 Q1008 NOSIG=
202512272000 METAR WIHH 272000Z 18005KT 6000 FEW020 26/22 Q1006 NOSIG=
202512271930 METAR WIHH 271930Z 25004KT 6000 FEW020 26/22 Q1006 NOSIG=
202512271900 METAR WIHH 271900Z 26003KT 6000 FEW020 26/22 Q1006 NOSIG=
202512271830 METAR WIHH 271830Z 16005KT 6000 FEW020 26/23 Q1008 NOSIG=
202512271800 METAR WIHH 271800Z 21005KT 6000 FEW020 26/23 Q1009 NOSIG=
202512271730 METAR WIHH 271730Z 24005KT 9999 FEW020 27/23 Q1009 NOSIG=
202512271700 METAR WIHH 271700Z 18005KT 6000 FEW020 26/24 Q1009 NOSIG=
202512271630 METAR WIHH 271630Z 27005KT 9999 FEW020 27/24 Q1010 NOSIG=
202512271600 METAR WIHH 271600Z 26007KT 9999 FEW020 27/24 Q1010 NOSIG=
202512271530 METAR WIHH 271530Z 27006KT 9999 FEW020 27/24 Q1010 NOSIG=
202512271500 METAR WIHH 271500Z 24011KT 9999 FEW020 27/24 Q1010 NOSIG=
202512271430 METAR WIHH 271430Z 12003KT 6000 FEW017 28/24 Q1010 NOSIG=
202512271400 METAR WIHH 271400Z 22008KT 9999 SCT018 28/24 Q1010 NOSIG=
202512271330 METAR WIHH 271330Z 25007KT 9999 SCT018 28/23 Q1010 NOSIG=
202512271300 METAR WIHH 271300Z 24008KT 9999 SCT018 28/23 Q1010 NOSIG=
202512271230 METAR WIHH 271230Z 23010KT 9999 SCT016 28/23 Q1009 NOSIG=
202512271200 METAR WIHH 271200Z 27008KT 9999 SCT016 29/23 Q1009 NOSIG=
202512271130 METAR WIHH 271130Z 25012KT 9999 SCT016 29/24 Q1009 NOSIG=
202512271100 METAR WIHH 271100Z 24010KT 9999 SCT016 29/24 Q1008 NOSIG=
202512271030 METAR WIHH 271030Z 24015KT 9999 SCT016 29/24 Q1007 NOSIG=
202512271000 METAR WIHH 271000Z 24015KT 9999 SCT016 29/24 Q1007 NOSIG=
202512270930 METAR WIHH 270930Z 25015KT 9999 SCT016 29/23 Q1007 NOSIG=
202512270900 METAR WIHH 270900Z 26015KT 7000 SCT016 29/23 Q1007 NOSIG=
202512270830 METAR WIHH 270830Z 25015KT 7000 SCT016 29/23 Q1007 NOSIG=
202512270800 METAR WIHH 270800Z 24015KT 7000 TS SCT016 FEW017CB 29/22 Q1007 RMK CB AND RA TO SE=
202512270730 METAR WIHH 270730Z 25015KT 7000 TS SCT016 FEW017CB 31/22 Q1007 RMK CB AND RA TO SE-S=
202512270700 METAR WIHH 270700Z 24015KT 7000 SCT016 FEW017CB 33/23 Q1007 RMK CB AND RA TO S-SW=
202512270630 METAR WIHH 270630Z 28008KT 7000 SCT017 33/23 Q1008 RMK RA TO SW=
202512270600 METAR WIHH 270600Z 24010KT 8000 SCT017 33/24 Q1008 NOSIG=
202512270530 METAR WIHH 270530Z 27010KT 8000 SCT017 33/24 Q1008 NOSIG=
202512270500 METAR WIHH 270500Z 30011KT 8000 SCT017 32/23 Q1009 NOSIG=
202512270430 METAR WIHH 270430Z 26014KT 9999 SCT018 32/23 Q1009 NOSIG=
202512270400 METAR WIHH 270400Z 24015KT 9999 SCT018 32/23 Q1010 NOSIG=
202512270330 METAR WIHH 270330Z 25012KT 9999 SCT018 31/23 Q1010 NOSIG=
202512270300 METAR WIHH 270300Z 24017KT 9999 SCT018 31/23 Q1010 NOSIG=
202512270230 METAR WIHH 270230Z 26014KT 9999 SCT018 30/23 Q1010 NOSIG=
202512270200 METAR WIHH 270200Z 22012KT 9999 SCT018 30/23 Q1010 NOSIG=
202512270130 METAR WIHH 270130Z 26012KT 9999 FEW020 30/24 Q1010 NOSIG=
202512270100 METAR WIHH 270100Z 24016KT 9999 FEW020 29/24 Q1010 NOSIG=
202512270030 METAR WIHH 270030Z 28010KT 9999 FEW020 29/24 Q1010 NOSIG=
202512270000 METAR WIHH 270000Z 24008KT 9999 FEW020 28/23 Q1009 NOSIG=
202512262330 METAR WIHH 262330Z 24010KT 9999 FEW020 27/23 Q1009 NOSIG=
202512262300 METAR WIHH 262300Z 24006KT 9999 FEW022 26/23 Q1009 NOSIG=
202512262230 METAR WIHH 262230Z 26006KT 9999 NSC 26/23 Q1008 NOSIG=
202512262200 METAR WIHH 262200Z 25006KT 9999 NSC 26/23 Q1008 NOSIG=
202512262130 METAR WIHH 262130Z 25007KT 9999 FEW022 27/23 Q1007 NOSIG=
202512262100 METAR WIHH 262100Z 24004KT 8000 FEW020 25/23 Q1008 NOSIG=
202512262030 METAR WIHH 262030Z 25008KT 9999 FEW020 26/22 Q1007 NOSIG=
202512262000 METAR WIHH 262000Z 24006KT 9999 FEW020 26/22 Q1007 NOSIG=
202512261930 METAR WIHH 261930Z 27003KT 8000 FEW020 26/23 Q1008 NOSIG=
202512261900 METAR WIHH 261900Z 25009KT 9999 FEW020 26/23 Q1007 NOSIG=
202512261830 METAR WIHH 261830Z 27008KT 9999 FEW020 27/22 Q1007 NOSIG=
202512261800 METAR WIHH 261800Z 24008KT 9999 FEW020 27/23 Q1008 NOSIG=
202512261730 METAR WIHH 261730Z 27009KT 9999 FEW020 27/23 Q1009 NOSIG=
202512261700 METAR WIHH 261700Z 25010KT 9999 FEW022 28/23 Q1009 NOSIG=
202512261630 METAR WIHH 261630Z 24012KT 9999 FEW022 28/23 Q1009 NOSIG=
202512261600 METAR WIHH 261600Z 25010KT 9999 FEW020 28/23 Q1009 NOSIG=
202512261530 METAR WIHH 261530Z 25010KT 9999 FEW020 28/22 Q1009 NOSIG=
202512261500 METAR WIHH 261500Z 25008KT 9999 FEW020 28/22 Q1009 NOSIG=
202512261430 METAR WIHH 261430Z 24011KT 9999 FEW020 28/22 Q1009 NOSIG=
202512261400 METAR WIHH 261400Z 26007KT 9999 FEW020 28/23 Q1009 NOSIG=
202512261330 METAR WIHH 261330Z 24010KT 9999 SCT020 28/23 Q1009 NOSIG=
202512261300 METAR WIHH 261300Z 26011KT 9999 SCT020 28/23 Q1009 NOSIG=
202512261230 METAR WIHH 261230Z 25004KT 9999 FEW022 29/23 Q1007 NOSIG=
202512261200 METAR WIHH 261200Z 28009KT 9999 SCT020 29/23 Q1009 NOSIG=
202512261130 METAR WIHH 261130Z 25007KT 9999 SCT020 29/23 Q1008 NOSIG=
202512261100 METAR WIHH 261100Z 27008KT 9999 SCT020 29/22 Q1007 NOSIG=
202512261030 METAR WIHH 261030Z 25007KT 9999 SCT020 30/22 Q1007 NOSIG=
202512261000 METAR WIHH 261000Z 25012KT 9999 SCT020 30/23 Q1007 NOSIG=
202512260930 METAR WIHH 260930Z 24013KT 9999 SCT020 30/23 Q1006 NOSIG=
202512260900 METAR WIHH 260900Z 25011KT 9999 SCT020 31/24 Q1006 NOSIG=
202512260830 METAR WIHH 260830Z 24010KT 8000 SCT018 31/24 Q1006 NOSIG=
202512260800 METAR WIHH 260800Z 23009KT 8000 SCT018 31/24 Q1006 NOSIG=
202512260730 METAR WIHH 260730Z 24009KT 8000 SCT017 31/24 Q1006 NOSIG=
202512260700 METAR WIHH 260700Z 26007KT 8000 SCT017 31/24 Q1006 RMK RA TO SE=
202512260630 METAR WIHH 260630Z 32005KT 8000 SCT017 31/24 Q1007 NOSIG RMK RA TO SE=
202512260600 METAR WIHH 260600Z 27007KT 8000 SCT017 31/23 Q1007 NOSIG=
202512260530 METAR WIHH 260530Z 30006KT 8000 SCT018 31/22 Q1008 NOSIG=
202512260500 METAR WIHH 260500Z 27007KT 8000 SCT018 32/22 Q1008 NOSIG=
202512260430 METAR WIHH 260430Z 29006KT 8000 SCT018 31/23 Q1009 NOSIG=
202512260400 METAR WIHH 260400Z 30006KT 8000 SCT018 31/23 Q1009 NOSIG=
202512260330 METAR WIHH 260330Z 28006KT 8000 SCT018 30/23 Q1009 NOSIG=
202512260300 METAR WIHH 260300Z 25006KT 6000 SCT020 30/24 Q1010 NOSIG=
202512260230 METAR WIHH 260230Z 27003KT 7000 SCT020 29/24 Q1010 NOSIG=
202512260200 METAR WIHH 260200Z 27003KT 7000 SCT020 28/24 Q1010 NOSIG=
202512260130 METAR WIHH 260130Z 29003KT 7000 SCT020 27/25 Q1010 NOSIG=
202512260100 METAR WIHH 260100Z 21003KT 7000 SCT018 26/25 Q1010 NOSIG=
202512260030 METAR WIHH 260030Z 24004KT 7000 SCT018 26/25 Q1010 NOSIG=
202512260000 METAR WIHH 260000Z 25003KT 7000 SCT018 25/25 Q1009 NOSIG=
202512252330 METAR WIHH 252330Z 25004KT 7000 SCT018 25/24 Q1009 NOSIG=
202512252300 METAR WIHH 252300Z 26003KT 7000 SCT018 25/24 Q1009 NOSIG=
202512252230 METAR WIHH 252230Z 31003KT 7000 SCT020 25/24 Q1008 NOSIG=
202512252200 METAR WIHH 252200Z 16003KT 7000 FEW020 25/24 Q1008 NOSIG=
202512252130 METAR WIHH 252130Z 29003KT 7000 SCT018 25/25 Q1008 NOSIG=
202512252100 METAR WIHH 252100Z 00000KT 6000 SCT018 25/25 Q1008 NOSIG=
202512252030 METAR WIHH 252030Z 25007KT 8000 FEW020 26/22 Q1007 NOSIG=
202512252000 METAR WIHH 252000Z 00000KT 8000 FEW020 26/22 Q1007 NOSIG=
202512251930 METAR WIHH 251930Z 00000KT 8000 FEW020 26/22 Q1007 NOSIG=
202512251900 METAR WIHH 251900Z 00000KT 8000 FEW020 26/22 Q1007 NOSIG=
202512251830 METAR WIHH 251830Z 00000KT 8000 FEW020 26/22 Q1007 NOSIG=
202512251800 METAR WIHH 251800Z 00000KT 8000 FEW020 26/22 Q1007 NOSIG=
202512251730 METAR WIHH 251730Z 00000KT 5000 HZ SCT017 26/25 Q1009 NOSIG=
202512251700 METAR WIHH 251700Z 00000KT 5000 HZ SCT017 25/25 Q1009 NOSIG=
202512251630 METAR WIHH 251630Z 26004KT 8000 SCT018 27/23 Q1008 NOSIG=
202512251600 METAR WIHH 251600Z 11004KT 5000 -RA SCT016 FEW017CB 25/25 Q1009 RMK C B TO NE=
202512251530 METAR WIHH 251530Z 07004KT 5000 -TSRA SCT016 FEW017CB 25/25 Q1010 RMK CB TO NE=
202512251500 METAR WIHH 251500Z 13003KT 5000 -TSRA SCT016 FEW017CB 25/25 Q1010 RMK CB TO SE=
202512251430 METAR WIHH 251430Z 22008KT 4000 -TSRA SCT016 FEW017CB 25/25 Q1010 RMK CB TO S=
202512251400 METAR WIHH 251400Z 02003KT 6000 -RA SCT017 25/25 Q1010 NOSIG=
202512251330 METAR WIHH 251330Z 03003KT 6000 -TSRA SCT016 FEW017CB 25/25 Q1009 RMK CB TO E=
202512251300 METAR WIHH 251300Z 07006KT 6000 -TSRA SCT016 FEW017CB 25/25 Q1008 RMK CB TO NE-SE=
202512251230 METAR WIHH 251230Z 06003KT 7000 -RA SCT016 FEW017CB 25/25 Q1008 RMK CB TO NE-SE=
202512251200 METAR WIHH 251200Z 04003KT 5000 -TSRA SCT016 FEW017CB 25/24 Q1008 RMK CB TO NE-SE=
202512251130 METAR WIHH 251130Z 05006KT 5000 -TSRA SCT016 FEW017CB 25/25 Q1007 RMK CB OVER THE FIELD=
202512251100 METAR WIHH 251100Z 05010KT 2000 TSRA BKN014 FEW016CB 25/25 Q1007 TEMPO TL1130 3000 -TSRA RMK CB OVER THE FIELD=
202512251030 METAR WIHH 251030Z 16025KT 0200 BKN012 FEW016CB 26/25 Q1006 TEMPO TL1100 3000 -TSRA RMK CB OVER THE FIELD=
202512251004 SPECI WIHH 251004Z 36010KT 3000 -TSRA SCT016 FEW017CB 30/25 Q1005 RMK CB TO E-S=
202512251000 METAR WIHH 251000Z 01007KT 5000 TS SCT016 FEW017CB 30/25 Q1005 TEMPO FM1010 3000 -TSRA RMK CB AND RA TO SE-S=
202512250930 METAR WIHH 250930Z 01008KT 6000 TS SCT016 FEW017CB 31/25 Q1005 RMK CB AND RA TO SE-S=
202512250900 METAR WIHH 250900Z 35010KT 5000 TS SCT016 FEW017CB 31/25 Q1004 RMK CB AND RA TO S=
202512250830 METAR WIHH 250830Z 35006KT 6000 SCT017 32/25 Q1004 RMK RA TO S AND W=
202512250800 METAR WIHH 250800Z 33008KT 6000 SCT018 33/25 Q1004 NOSIG=
202512250730 METAR WIHH 250730Z 34007KT 7000 SCT018 32/24 Q1004 NOSIG=
202512250700 METAR WIHH 250700Z 01006KT 7000 SCT018 33/24 Q1004 NOSIG=
202512250630 METAR WIHH 250630Z 32007KT 7000 SCT018 33/24 Q1005 NOSIG=
202512250600 METAR WIHH 250600Z 01003KT 7000 SCT018 34/24 Q1005 NOSIG=
202512250530 METAR WIHH 250530Z 35007KT 7000 SCT018 33/25 Q1006 NOSIG=
202512250500 METAR WIHH 250500Z 36006KT 7000 SCT018 33/24 Q1006 NOSIG=
202512250430 METAR WIHH 250430Z 31005KT 7000 SCT018 33/22 Q1007 NOSIG=
202512250400 METAR WIHH 250400Z 23006KT 7000 FEW018 33/24 Q1007 NOSIG=
202512250330 METAR WIHH 250330Z 24006KT 7000 FEW018 32/23 Q1007 NOSIG=
202512250300 METAR WIHH 250300Z 27004KT 7000 FEW020 32/23 Q1008 NOSIG=
202512250230 METAR WIHH 250230Z 23005KT 6000 FEW020 31/23 Q1008 NOSIG=
202512250200 METAR WIHH 250200Z 24007KT 6000 FEW020 30/23 Q1008 NOSIG=
202512250130 METAR WIHH 250130Z 00000KT 6000 FEW020 30/23 Q1008 NOSIG=
202512250100 METAR WIHH 250100Z 00000KT 5000 FEW017 29/24 Q1008 NOSIG=
202512250030 METAR WIHH 250030Z 00000KT 5000 HZ FEW016 27/24 Q1008 NOSIG=
202512250000 METAR WIHH 250000Z 00000KT 5000 FEW016 26/25 Q1008 NOSIG=
202512242330 METAR WIHH 242330Z 00000KT 5000 BR FEW016 25/25 Q1008 NOSIG=
202512242300 METAR WIHH 242300Z 00000KT 5000 BR FEW016 25/24 Q1007 NOSIG=
202512242230 METAR WIHH 242230Z 00000KT 5000 BR FEW016 25/24 Q1007 NOSIG=
202512242200 METAR WIHH 242200Z 27003KT 5000 BR FEW016 25/24 Q1007 NOSIG=
202512242130 METAR WIHH 242130Z 00000KT 5000 BR FEW016 25/24 Q1006 NOSIG=
202512242100 METAR WIHH 242100Z 00000KT 5000 BR FEW017 25/24 Q1006 NOSIG=
202512242030 METAR WIHH 242030Z 00000KT 6000 FEW020 26/24 Q1007 NOSIG=
202512242000 METAR WIHH 242000Z 25003KT 9999 NSC 26/21 Q1007 NOSIG=
202512241930 METAR WIHH 241930Z 00000KT 6000 FEW020 26/24 Q1008 NOSIG=
202512241900 METAR WIHH 241900Z 00000KT 6000 FEW020 26/25 Q1008 NOSIG=
202512241830 METAR WIHH 241830Z 00000KT 6000 FEW020 26/25 Q1008 NOSIG=
202512241800 METAR WIHH 241800Z 23010KT 9999 NSC 26/21 Q1008 NOSIG=
202512241730 METAR WIHH 241730Z 00000KT 6000 FEW020 26/25 Q1007 NOSIG=
202512241700 METAR WIHH 241700Z 00000KT 6000 FEW020 26/25 Q1007 NOSIG=
202512241630 METAR WIHH 241630Z 00000KT 6000 FEW020 26/24 Q1008 NOSIG=
202512241600 METAR WIHH 241600Z 00000KT 7000 FEW020 26/24 Q1008 NOSIG=
202512241530 METAR WIHH 241530Z 00000KT 7000 FEW020 26/23 Q1008 NOSIG=
202512241500 METAR WIHH 241500Z 00000KT 8000 FEW020 26/23 Q1008 NOSIG=
202512241430 METAR WIHH 241430Z 00000KT 8000 FEW020 27/24 Q1008 NOSIG=
202512241400 METAR WIHH 241400Z 00000KT 8000 FEW018 27/23 Q1008 NOSIG=
202512241330 METAR WIHH 241330Z 18003KT 8000 FEW018 28/21 Q1008 NOSIG=
202512241300 METAR WIHH 241300Z 30003KT 8000 FEW018 28/21 Q1007 NOSIG=
202512241230 METAR WIHH 241230Z 00000KT 8000 FEW018 29/21 Q1007 NOSIG=
202512241200 METAR WIHH 241200Z 27003KT 8000 FEW018 29/22 Q1007 NOSIG=
202512241130 METAR WIHH 241130Z 29005KT 8000 FEW018 30/22 Q1007 NOSIG=
202512241100 METAR WIHH 241100Z 27005KT 8000 FEW018 30/22 Q1006 NOSIG=
202512241030 METAR WIHH 241030Z 28004KT 8000 FEW018 30/23 Q1006 NOSIG=
202512241000 METAR WIHH 241000Z 27004KT 8000 FEW018 32/23 Q1006 NOSIG=
202512240930 METAR WIHH 240930Z 36005KT 8000 FEW018 31/23 Q1005 NOSIG=
202512240900 METAR WIHH 240900Z 33005KT 8000 FEW018 33/23 Q1005 NOSIG=
202512240830 METAR WIHH 240830Z 28008KT 8000 SCT017 33/24 Q1005 NOSIG=
202512240800 METAR WIHH 240800Z 27005KT 7000 SCT017 33/24 Q1005 NOSIG=
202512240730 METAR WIHH 240730Z 33005KT 7000 SCT017 32/23 Q1005 NOSIG=
202512240700 METAR WIHH 240700Z 03005KT 7000 SCT017 33/23 Q1005 NOSIG=
202512240630 METAR WIHH 240630Z 30005KT 7000 SCT017 31/24 Q1006 NOSIG=
202512240600 METAR WIHH 240600Z 27004KT 7000 SCT017 31/24 Q1007 NOSIG=
202512240530 METAR WIHH 240530Z 36006KT 6000 SCT017 30/25 Q1007 NOSIG=
202512240500 METAR WIHH 240500Z 33006KT 6000 SCT017 30/24 Q1008 TEMPO FM0600 4000 -RA BKN015 FEW016CB RMK RA TO N=
202512240430 METAR WIHH 240430Z 33006KT 6000 SCT017 29/24 Q1008 TEMPO FM0500 4000 -RA BKN015 FEW016CB RMK RA TO NW=
202512240400 METAR WIHH 240400Z 32005KT 6000 SCT017 29/24 Q1009 TEMPO FM0500 4000 -RA BKN015 FEW016CB RMK RA TO NW=
202512240330 METAR WIHH 240330Z 30005KT 6000 SCT017 29/24 Q1009 RMK RA TO NW=
202512240300 METAR WIHH 240300Z 31003KT 6000 SCT017 28/24 Q1009 NOSIG=
202512240230 METAR WIHH 240230Z 26004KT 6000 SCT017 28/24 Q1009 RMK RA TO NW=
202512240200 METAR WIHH 240200Z 24004KT 6000 SCT017 27/24 Q1009 RMK RA TO NW=
202512240130 METAR WIHH 240130Z 24003KT 6000 SCT017 25/24 Q1009 RMK RA TO NW=
202512240100 METAR WIHH 240100Z 00000KT 6000 SCT017 25/24 Q1009 NOSIG=
202512240030 METAR WIHH 240030Z 00000KT 6000 BKN018 25/24 Q1009 RMK RA TO NE=
202512240000 METAR WIHH 240000Z 22003KT 9999 SCT020 27/22 Q1009 NOSIG=
202512232330 METAR WIHH 232330Z 00000KT 6000 -RA BKN018 24/23 Q1008 NOSIG=
202512232300 METAR WIHH 232300Z 20003KT 5000 -RA BKN018 24/23 Q1008 NOSIG=
202512232230 METAR WIHH 232230Z 22004KT 6000 -RA BKN018 23/23 Q1008 NOSIG=
202512232200 METAR WIHH 232200Z 22003KT 5000 -RA BKN017 23/23 Q1008 NOSIG=
202512232130 METAR WIHH 232130Z 20004KT 5000 -RA BKN017 24/23 Q1008 NOSIG=
202512232100 METAR WIHH 232100Z 16006KT 5000 -RA BKN016 23/23 Q1008 NOSIG=
202512232030 METAR WIHH 232030Z 25003KT 9999 ////// 25/22 Q1008 NOSIG=
202512232000 METAR WIHH 232000Z 25003KT 9999 SCT020 25/22 Q1008 NOSIG=
202512231930 METAR WIHH 231930Z 28003KT 9999 SCT020 25/22 Q1008 NOSIG=
202512231900 METAR WIHH 231900Z 26002KT 9999 SCT020 26/21 Q1008 NOSIG=
202512231830 METAR WIHH 231830Z 00000KT 8000 FEW020 25/22 Q1009 NOSIG=
202512231800 METAR WIHH 231800Z 26004KT 9999 FEW020 26/22 Q1009 NOSIG=
202512231730 METAR WIHH 231730Z 27003KT 9999 FEW020 26/21 Q1009 NOSIG=
202512231700 METAR WIHH 231700Z 25005KT 8000 TS SCT017 FEW018CB 28/25 Q1007 RMK CB AND RA TO N-SE=
202512231630 METAR WIHH 231630Z 28003KT 8000 TS SCT017 FEW018CB 28/25 Q1008 RMK CB AND RA TO SE=
202512231600 METAR WIHH 231600Z 24003KT 8000 SCT017 FEW018CB 28/25 Q1008 RMK CB AND RA TO S=
202512231530 METAR WIHH 231530Z 24005KT 8000 TS SCT017 FEW018CB 28/26 Q1008 RMK CB AND RA TO SE AND NW=
202512231500 METAR WIHH 231500Z 29003KT 8000 SCT017 FEW018CB 28/25 Q1008 RMK CB AND RA TO S=
202512231430 METAR WIHH 231430Z 28003KT 8000 SCT018 29/25 Q1008 RMK RA TO S=
202512231400 METAR WIHH 231400Z 33003KT 8000 SCT018 29/25 Q1007 RMK RA TO S=
202512231330 METAR WIHH 231330Z 35004KT 8000 SCT017 FEW018CB 29/25 Q1007 RMK CB AND RA TO S=
202512231300 METAR WIHH 231300Z 01004KT 8000 SCT018 29/25 Q1007 NOSIG=
202512231230 METAR WIHH 231230Z 03004KT 8000 SCT018 29/25 Q1007 NOSIG=
202512231200 METAR WIHH 231200Z 01004KT 8000 SCT018 29/25 Q1006 NOSIG=
202512231130 METAR WIHH 231130Z 33004KT 8000 SCT018 29/24 Q1006 NOSIG=
202512231100 METAR WIHH 231100Z 34005KT 8000 SCT018 30/24 Q1005 NOSIG=
202512231030 METAR WIHH 231030Z 01003KT 8000 SCT018 31/24 Q1005 NOSIG=
202512231000 METAR WIHH 231000Z 28006KT 8000 SCT018 32/25 Q1005 NOSIG=
202512230930 METAR WIHH 230930Z 34003KT 8000 SCT018 33/24 Q1004 NOSIG=
202512230900 METAR WIHH 230900Z 32003KT 7000 SCT018 33/24 Q1004 NOSIG=
202512230830 METAR WIHH 230830Z 31007KT 7000 SCT017 32/24 Q1005 NOSIG=
202512230800 METAR WIHH 230800Z 01008KT 7000 SCT017 33/23 Q1005 NOSIG=
202512230730 METAR WIHH 230730Z 30007KT 7000 SCT017 32/24 Q1005 RMK RA TO SE=
202512230700 METAR WIHH 230700Z 31008KT 7000 SCT017 32/24 Q1006 RMK RA TO SE=
202512230630 METAR WIHH 230630Z 31004KT 6000 SCT016 33/24 Q1006 RMK RA TO SE=
202512230600 METAR WIHH 230600Z 35005KT 6000 SCT016 31/24 Q1007 NOSIG RMK RA TO SE=
202512230530 METAR WIHH 230530Z 25005KT 6000 SCT016 31/25 Q1007 NOSIG=
202512230500 METAR WIHH 230500Z 34005KT 6000 SCT016 30/25 Q1007 RMK RA TO NW=
202512230430 METAR WIHH 230430Z 23007KT 6000 SCT018 30/24 Q1008 RMK RA TO NW=
202512230400 METAR WIHH 230400Z 24008KT 6000 SCT018 30/23 Q1009 NOSIG=
202512230330 METAR WIHH 230330Z 24005KT 6000 BKN016 25/24 Q1008 RMK RA TO SE=
202512230300 METAR WIHH 230300Z 26006KT 5000 -RA BKN016 25/24 Q1009 NOSIG=
202512230230 METAR WIHH 230230Z 24006KT 5000 -RA BKN016 27/25 Q1009 TEMPO TL0300 3000 -RA BKN016 FEW017CB=
202512230200 METAR WIHH 230200Z 30003KT 5000 -RA BKN016 29/25 Q1009 TEMPO TL0230 3000 -RA BKN016 FEW017CB=
202512230130 METAR WIHH 230130Z 24003KT 5000 HZ SCT018 29/25 Q1009 RMK RATO NW=
202512230100 METAR WIHH 230100Z 31003KT 5000 HZ SCT018 28/24 Q1009 NOSIG=
202512230030 METAR WIHH 230030Z 23005KT 6000 SCT017 27/25 Q1009 NOSIG=
202512230000 METAR WIHH 230000Z 27003KT 6000 SCT017 26/25 Q1009 NOSIG=
202512222330 METAR WIHH 222330Z 26003KT 5000 HZ FEW020 26/26 Q1008 RMK RA TO SW=
202512222300 METAR WIHH 222300Z 00000KT 5000 HZ FEW020 25/25 Q1008 NOSIG=
202512222230 METAR WIHH 222230Z 00000KT 6000 FEW020 25/25 Q1008 NOSIG=
202512222200 METAR WIHH 222200Z 00000KT 6000 FEW020 26/25 Q1008 NOSIG=
202512222130 METAR WIHH 222130Z 18003KT 6000 SCT020 25/24 Q1007 NOSIG=
202512222100 METAR WIHH 222100Z 24003KT 6000 SCT020 25/24 Q1008 NOSIG=
202512222030 METAR WIHH 222030Z 00000KT 6000 SCT018 27/26 Q1008 NOSIG=
202512222000 METAR WIHH 222000Z 00000KT 6000 SCT018 27/26 Q1008 NOSIG=
202512221930 METAR WIHH 221930Z 00000KT 6000 SCT018 27/26 Q1008 NOSIG=
202512221900 METAR WIHH 221900Z 00000KT 6000 SCT018 27/26 Q1008 NOSIG=
202512221830 METAR WIHH 221830Z 00000KT 6000 SCT018 27/26 Q1008 NOSIG=
202512221800 METAR WIHH 221800Z 00000KT 6000 SCT018 27/26 Q1008 NOSIG=
202512221730 METAR WIHH 221730Z 24005KT 6000 SCT018 27/26 Q1008 NOSIG=
202512221700 METAR WIHH 221700Z 00000KT 5000 HZ SCT018 27/26 Q1008 RMK RA TO NE=
202512221630 METAR WIHH 221630Z 17003KT 6000 SCT020 27/26 Q1008 NOSIG=
202512221600 METAR WIHH 221600Z 00000KT 6000 SCT020 27/26 Q1008 NOSIG=
202512221530 METAR WIHH 221530Z 00000KT 7000 SCT020 27/26 Q1008 NOSIG=
202512221500 METAR WIHH 221500Z 00000KT 7000 SCT020 27/26 Q1009 NOSIG=
202512221430 METAR WIHH 221430Z 16003KT 7000 SCT020 27/25 Q1008 NOSIG=
202512221400 METAR WIHH 221400Z 00000KT 7000 SCT020 27/25 Q1008 NOSIG=
202512221330 METAR WIHH 221330Z 14003KT 7000 SCT020 28/25 Q1008 NOSIG=
202512221300 METAR WIHH 221300Z 33003KT 7000 SCT020 28/25 Q1007 NOSIG=
202512221230 METAR WIHH 221230Z 34004KT 7000 SCT020 28/25 Q1007 NOSIG=
202512221200 METAR WIHH 221200Z 34003KT 7000 SCT020 29/25 Q1007 NOSIG=
202512221130 METAR WIHH 221130Z 36004KT 7000 SCT020 29/24 Q1007 NOSIG=
202512221100 METAR WIHH 221100Z 35004KT 7000 SCT020 30/24 Q1006 NOSIG=
202512221030 METAR WIHH 221030Z 35005KT 7000 SCT018 30/24 Q1006 NOSIG=
202512221000 METAR WIHH 221000Z 03005KT 7000 SCT018 31/24 Q1005 NOSIG=
202512220930 METAR WIHH 220930Z 19008KT 6000 SCT017 FEW018CB 27/24 Q1007 NOSIG RMK CB AND RA TO N=
202512220900 METAR WIHH 220900Z 26003KT 7000 SCT018 31/24 Q1005 NOSIG=
202512220830 METAR WIHH 220830Z 35007KT 7000 SCT018 32/23 Q1005 RMK RA TO S=
202512220800 METAR WIHH 220800Z 18004KT 5000 TS SCT017 FEW018CB 29/25 Q1006 NOSIG RMK CB AND RA TO SW=
202512220730 METAR WIHH 220730Z 34006KT 7000 SCT017 32/23 Q1006 NOSIG=
202512220700 METAR WIHH 220700Z 33008KT 7000 SCT017 32/23 Q1006 NOSIG=
202512220630 METAR WIHH 220630Z 35010KT 7000 SCT017 33/24 Q1006 RMK RA TO SE AND S=
202512220600 METAR WIHH 220600Z 27007KT 6000 SCT017 32/24 Q1007 RMK RA TO SE=
202512220530 METAR WIHH 220530Z 33010KT 5000 HZ SCT016 31/24 Q1007 RMK RA TO SE-S=
202512220500 METAR WIHH 220500Z 32008KT 5000 HZ SCT016 FEW017CB 30/24 Q1008 RMK CB AND RA TO E-SE=
202512220430 METAR WIHH 220430Z 33005KT 5000 HZ SCT016 FEW017CB 30/24 Q1008 RMK CB AND RA TO E=
202512220400 METAR WIHH 220400Z 33005KT 5000 -RA SCT016 30/25 Q1008 TEMPO TL0430 4 000 -RA=
202512220330 METAR WIHH 220330Z 25006KT 6000 SCT016 30/25 Q1009 RMK RA TO W UNTIL NW=
202512220300 METAR WIHH 220300Z 33006KT 6000 SCT017 30/25 Q1009 RMK RA TO SW-NW=
202512220230 METAR WIHH 220230Z 23004KT 6000 SCT018 30/25 Q1009 RMK RA TO NE AND S=
202512220200 METAR WIHH 220200Z 21004KT 6000 SCT018 29/26 Q1009 NOSIG=
202512220130 METAR WIHH 220130Z 20004KT 6000 SCT017 28/26 Q1009 NOSIG=
202512220100 METAR WIHH 220100Z 17003KT 6000 SCT016 26/25 Q1009 NOSIG=
202512220030 METAR WIHH 220030Z 00000KT 6000 SCT016 26/25 Q1009 NOSIG=
202512220000 METAR WIHH 220000Z 00000KT 5000 BR SCT016 25/25 Q1009 RMK RA TO E=
202512212330 METAR WIHH 212330Z 00000KT 5000 BR SCT016 25/24 Q1008 RMK RA TO E=
202512212300 METAR WIHH 212300Z 00000KT 5000 BR SCT016 24/24 Q1008 RMK RA TO E=
202512212230 METAR WIHH 212230Z 00000KT 6000 SCT016 FEW017CB 25/24 Q1008 TEMPO FM2300 3000 -TSRA BKN015 RMK CB AND RA TO N=
202512212200 METAR WIHH 212200Z 27003KT 6000 SCT016 FEW017CB 24/24 Q1007 TEMPO FM2 220 3000 -TSRA RMK CB AND RA TO NW=
202512212130 METAR WIHH 212130Z 22004KT 6000 FEW018 25/25 Q1007 NOSIG=
202512212100 METAR WIHH 212100Z 25003KT 6000 SCT020 26/22 Q1007 NOSIG=
202512212030 METAR WIHH 212030Z 22003KT 7000 SCT020 26/23 Q1007 NOSIG=
202512212000 METAR WIHH 212000Z 24003KT 7000 26/22 Q1007 NOSIG=
202512211930 METAR WIHH 211930Z 24003KT 7000 SCT020 26/22 Q1008 NOSIG=
202512211900 METAR WIHH 211900Z 24003KT 7000 SCT020 26/22 Q1008 NOSIG=
202512211830 METAR WIHH 211830Z 24003KT 7000 SCT020 26/22 Q1008 NOSIG=
202512211800 METAR WIHH 211800Z 00000KT 3000 BR SCT016 FEW017CB 25/25 Q1008 RMK CB TO NW=
202512211730 METAR WIHH 211730Z 00000KT 3000 BR FEW016 25/25 Q1008 NOSIG=
202512211700 METAR WIHH 211700Z 00000KT 3000 BR FEW016 25/25 Q1009 NOSIG=
202512211630 METAR WIHH 211630Z 00000KT 5000 BR FEW018 25/25 Q1009 NOSIG=
202512211600 METAR WIHH 211600Z 00000KT 6000 FEW018 25/25 Q1009 NOSIG=
202512211530 METAR WIHH 211530Z 00000KT 6000 FEW018 25/25 Q1008 NOSIG=
202512211500 METAR WIHH 211500Z 00000KT 6000 FEW018 25/25 Q1009 NOSIG=
202512211430 METAR WIHH 211430Z 26005KT 8000 SCT020 27/23 Q1010 NOSIG RMK RA TO SW=
202512211400 METAR WIHH 211400Z 00000KT 6000 SCT017 25/25 Q1009 RMK RA TO SE=
202512211330 METAR WIHH 211330Z 00000KT 5000 -RA SCT016 25/25 Q1009 NOSIG=
202512211300 METAR WIHH 211300Z 00000KT 5000 -RA SCT016 25/25 Q1009 TEMPO TL1330 4 000 -RA=
202512211230 METAR WIHH 211230Z 00000KT 5000 -RA SCT016 25/24 Q1008 TEMPO TL1300 4000 -RA=
202512211200 METAR WIHH 211200Z 21010KT 7000 SCT017 28/21 Q1008 NOSIG=
202512211130 METAR WIHH 211130Z 21010KT 7000 SCT017 28/21 Q1008 NOSIG=
202512211100 METAR WIHH 211100Z 27004KT 5000 -RA SCT016 25/24 Q1006 NOSIG=
202512211030 METAR WIHH 211030Z 27010KT 4000 -TSRA BKN016 FEW017CB 27/25 Q1007 TEMPO TL1100 5000 -RA RMK CB TO NW=
202512211000 METAR WIHH 211000Z 03004KT 5000 TS SCT016 FEW017CB 27/25 Q1006 TEMPO FM1030 3000 -TSRA BKN015 RMK CB AND RA TO NW=
202512210930 METAR WIHH 210930Z 19004KT 4000 -TSRA SCT016 FEW017CB 26/25 Q1005 TEM PO TL0940 5000 -TSRA RMK CB TO E AND NW=
202512210900 METAR WIHH 210900Z 18005KT 3000 -TSRA SCT016 FEW017CB 27/25 Q1006 TEMPO TL0940 5000 -TSRA RMK CB TO W=
202512210830 METAR WIHH 210830Z 18005KT 6000 SCT016 27/25 Q1006 NOSIG=
202512210800 METAR WIHH 210800Z 13005KT 6000 SCT016 27/24 Q1006 NOSIG=
202512210730 METAR WIHH 210730Z 14006KT 6000 SCT016 28/24 Q1006 NOSIG RMK RA TO N=
202512210700 METAR WIHH 210700Z 15006KT 5000 TS SCT016 FEW017CB 28/24 Q1007 TEMPO FM0800 4000 -RA BKN015 RMK CB AND RA TO SE AND NW=
202512210630 METAR WIHH 210630Z 22005KT 5000 TS SCT016 FEW017CB 30/24 Q1007 TEMPO FM0700 4000 -TSRA SCT015 RMK CB AND RA TO SE AND NW=
202512210600 METAR WIHH 210600Z 33005KT 5000 TS SCT016 FEW017CB 30/24 Q1007 TEMPO FM0630 4000 -TSRA BKN015 RMK CB AND RA TO SE AND NW=
202512210530 METAR WIHH 210530Z 21010KT 6000 SCT016 FEW017CB 31/24 Q1007 TEMPO FM0600 4000 -RA BKN015 RMK CB AND RA TO E=
202512210500 METAR WIHH 210500Z 24011KT 6000 SCT016 30/25 Q1008 RMK RA TO N=
202512210430 METAR WIHH 210430Z 22012KT 6000 BKN016 29/24 Q1008 TEMPO FM0530 4000 -RA RMK RA TO SW=
202512210400 METAR WIHH 210400Z 24009KT 6000 BKN016 30/24 Q1008 TEMPO FM0430 4000 -RA RMK RA TO SW=
202512210330 METAR WIHH 210330Z 26007KT 6000 BKN016 30/24 Q1008 TEMPO FM0400 4000 -RA RMK RA TO S-SW=
202512210300 METAR WIHH 210300Z 21006KT 7000 BKN016 30/24 Q1009 TEMPO FM0345 4000 -RA RMK RA TO SW=
202512210230 METAR WIHH 210230Z 27010KT 8000 SCT018 31/24 Q1009 NOSIG=
202512210200 METAR WIHH 210200Z 24008KT 9999 SCT018 30/24 Q1009 NOSIG=
202512210130 METAR WIHH 210130Z 26005KT 9999 FEW020 28/24 Q1008 NOSIG=
202512210100 METAR WIHH 210100Z 28007KT 9999 FEW020 28/24 Q1008 NOSIG=
202512210030 METAR WIHH 210030Z 25006KT 9999 FEW020 28/25 Q1008 NOSIG=
202512210000 METAR WIHH 210000Z 26006KT 9999 FEW020 27/25 Q1008 NOSIG=
202512202330 METAR WIHH 202330Z 26007KT 7000 FEW020 26/24 Q1009 NOSIG=
202512202300 METAR WIHH 202300Z 29005KT 9999 FEW020 25/24 Q1007 NOSIG=
202512202230 METAR WIHH 202230Z 25004KT 9999 FEW020 25/24 Q1007 NOSIG=
202512202200 METAR WIHH 202200Z 24005KT 9999 FEW020 25/24 Q1006 NOSIG=
202512202130 METAR WIHH 202130Z 26007KT 9999 FEW020 25/24 Q1006 NOSIG=
202512202100 METAR WIHH 202100Z 27005KT 8000 SCT020 25/23 Q1008 NOSIG=
202512202030 METAR WIHH 202030Z 25005KT 8000 25/23 Q1008 NOSIG=
202512202000 METAR WIHH 202000Z 27006KT 8000 SCT020 25/23 Q1008 NOSIG=
202512201930 METAR WIHH 201930Z 00000KT 7000 FEW020 25/25 Q1006 NOSIG=
202512201900 METAR WIHH 201900Z 27003KT 7000 FEW020 25/24 Q1006 NOSIG=
202512201830 METAR WIHH 201830Z 25004KT 9999 SCT018 24/23 Q1008 NOSIG=
202512201800 METAR WIHH 201800Z 24005KT 7000 FEW020 26/24 Q1007 NOSIG=
202512201730 METAR WIHH 201730Z 27005KT 7000 FEW020 25/24 Q1007 NOSIG=
202512201700 METAR WIHH 201700Z 28007KT 9999 SCT018 25/23 Q1009 NOSIG=
202512201630 METAR WIHH 201630Z 00000KT 7000 FEW020 25/24 Q1008 NOSIG=
202512201600 METAR WIHH 201600Z 26002KT 7000 FEW020 25/24 Q1008 NOSIG=
202512201530 METAR WIHH 201530Z 24003KT 7000 FEW020 24/24 Q1008 NOSIG=
202512201500 METAR WIHH 201500Z 25005KT 8000 SCT018 25/24 Q1010 NOSIG=
202512201430 METAR WIHH 201430Z 25003KT 8000 FEW020 25/24 Q1008 NOSIG=
202512201400 METAR WIHH 201400Z 25003KT 8000 FEW020 25/24 Q1008 NOSIG=
202512201330 METAR WIHH 201330Z 25006KT 8000 SCT018 25/24 Q1010 RMK RA TO SW=
202512201300 METAR WIHH 201300Z 24003KT 8000 FEW020 25/24 Q1007 NOSIG=
202512201230 METAR WIHH 201230Z 24008KT 7000 SCT018 25/25 Q1009 TEMPO TL1400 4000 -RA=
202512201200 METAR WIHH 201200Z 00000KT 8000 FEW020 25/24 Q1007 NOSIG=
202512201130 METAR WIHH 201130Z 25005KT 6000 -RA SCT016 25/25 Q1009 TEMPO TL1200 4000 -RA=
202512201100 METAR WIHH 201100Z 00000KT 8000 SCT020 26/24 Q1006 NOSIG=
202512201030 METAR WIHH 201030Z 23005KT 8000 SCT020 26/24 Q1006 NOSIG=
202512201000 METAR WIHH 201000Z 18005KT 8000 SCT017 26/24 Q1005 NOSIG=
202512200930 METAR WIHH 200930Z 25004KT 6000 SCT017 26/24 Q1005 NOSIG RMK RA TO SE=
202512200900 METAR WIHH 200900Z 24006KT 6000 SCT017 25/24 Q1005 RMK RA TO SE=
202512200830 METAR WIHH 200830Z 28010KT 5000 -RA BKN016 25/25 Q1007 TEMPO TL0900 3000 -RA=
202512200800 METAR WIHH 200800Z 22008KT 5000 TS BKN016 FEW017CB 26/25 Q1005 RMK CB AND RA TO S-W=
202512200730 METAR WIHH 200730Z 22009KT 7000 -TSRA SCT016 FEW017CB 26/24 Q1005 RMK CB TO SW-W=
202512200700 METAR WIHH 200700Z 22014KT 5000 TS SCT016 FEW017CB 29/24 Q1006 RMK CB AND RA TO S-SW=
202512200630 METAR WIHH 200630Z 29005KT 5000 TS SCT016 FEW017CB 30/24 Q1006 NOSIG RMK CB AND RA TO S-SE=
202512200600 METAR WIHH 200600Z 25005KT 7000 TS SCT016 FEW017CB 29/24 Q1006 RMK CB AND RA TO SE=
202512200530 METAR WIHH 200530Z 25015KT 7000 SCT015 32/23 Q1008 RMK RA TO NE=
202512200500 METAR WIHH 200500Z 32010KT 7000 TS SCT016 FEW017CB 30/25 Q1007 TEMPO FM0530 4000 -TSRA RMK CB AND RA TO S=
202512200430 METAR WIHH 200430Z 33010KT 5000 SCT016 FEW017CB 29/26 Q1007 RMK CB AND RA TO SW=
202512200400 METAR WIHH 200400Z 24003KT 5000 HZ SCT016 27/26 Q1007 RMK RA TO NE-SE=
202512200330 METAR WIHH 200330Z 24003KT 4000 -RA SCT016 26/25 Q1007 NOSIG=
202512200300 METAR WIHH 200300Z 30015KT 7000 SCT015 29/25 Q1010 RMK RA TO W=
202512200230 METAR WIHH 200230Z 28006KT 7000 SCT017 29/24 Q1008 NOSIG=
202512200200 METAR WIHH 200200Z 26010KT 7000 SCT017 29/24 Q1010 RMK RA TO SW=
202512200130 METAR WIHH 200130Z 27013KT 6000 SCT017 29/24 Q1010 RMK RA TO SW=
202512200100 METAR WIHH 200100Z 25008KT 7000 SCT017 27/24 Q1008 NOSIG=
202512200030 METAR WIHH 200030Z 26005KT 7000 SCT017 27/24 Q1007 RMK RA TO S=
202512200000 METAR WIHH 200000Z 23005KT 7000 SCT017 26/24 Q1007 RMK RA TO S=
202512192330 METAR WIHH 192330Z 24006KT 8000 SCT020 26/24 Q1007 NOSIG=
202512192300 METAR WIHH 192300Z 25005KT 8000 SCT020 25/24 Q1006 NOSIG=
202512192230 METAR WIHH 192230Z 25005KT 8000 SCT020 25/24 Q1006 NOSIG=
202512192200 METAR WIHH 192200Z 25003KT 8000 FEW020 25/24 Q1006 NOSIG=
202512192130 METAR WIHH 192130Z 06003KT 7000 FEW020 25/24 Q1008 NOSIG=
202512192100 METAR WIHH 192100Z 19003KT 7000 FEW020 25/24 Q1007 NOSIG=
202512192030 METAR WIHH 192030Z 25004KT 7000 FEW020 25/24 Q1007 NOSIG=
202512192000 METAR WIHH 192000Z 24004KT 7000 FEW020 25/24 Q1007 NOSIG=
202512191930 METAR WIHH 191930Z 24004KT 7000 FEW020 26/23 Q1008 NOSIG=
202512191900 METAR WIHH 191900Z 21004KT 7000 FEW020 26/23 Q1008 NOSIG=
202512191830 METAR WIHH 191830Z 00000KT 3000 BR SCT020 24/24 Q1008 NOSIG=
202512191800 METAR WIHH 191800Z 24004KT 7000 FEW020 26/23 Q1008 NOSIG=
202512191730 METAR WIHH 191730Z 21004KT 7000 26/23 Q1008 NOSIG=
202512191700 METAR WIHH 191700Z 26005KT 8000 SCT020 26/24 Q1007 NOSIG=
202512191630 METAR WIHH 191630Z 25007KT 8000 SCT020 26/24 Q1007 NOSIG=
202512191600 METAR WIHH 191600Z 26005KT 8000 SCT020 26/24 Q1007 NOSIG=
202512191530 METAR WIHH 191530Z 26006KT 8000 SCT020 26/24 Q1008 NOSIG=
202512191500 METAR WIHH 191500Z 27004KT 8000 SCT020 26/24 Q1008 NOSIG=
202512191430 METAR WIHH 191430Z 24006KT 8000 SCT020 25/24 Q1008 NOSIG=
202512191400 METAR WIHH 191400Z 26004KT 8000 SCT017 25/24 Q1009 NOSIG=
202512191330 METAR WIHH 191330Z 24007KT 8000 SCT017 25/24 Q1008 NOSIG=
202512191300 METAR WIHH 191300Z 25004KT 8000 SCT017 26/24 Q1008 NOSIG=
202512191230 METAR WIHH 191230Z 25005KT 7000 SCT017 25/24 Q1007 NOSIG=
202512191200 METAR WIHH 191200Z 26005KT 7000 SCT017 25/24 Q1007 RMK RA TO N=
202512191130 METAR WIHH 191130Z 25004KT 7000 SCT017 25/24 Q1007 NOSIG RMK RA TO N=
202512191100 METAR WIHH 191100Z 28004KT 7000 SCT017 24/24 Q1008 NOSIG=
202512191030 METAR WIHH 191030Z 32004KT 7000 SCT017 24/24 Q1006 NOSIG=
202512191000 METAR WIHH 191000Z 21004KT 7000 -RA SCT016 24/24 Q1006 NOSIG=
202512190930 METAR WIHH 190930Z 29004KT 6000 SCT017 27/24 Q1006 NOSIG=
202512190900 METAR WIHH 190900Z 21022KT 3000 -TSRA BKN015 FEW017CB 25/24 Q1006 RMK CB TO NE=
202512190830 METAR WIHH 190830Z 19007KT 6000 TS BKN016 FEW017CB 28/24 Q1005 TEMPO FM0900 3000 -TSRA RMK CB AND RA TO E=
202512190800 METAR WIHH 190800Z 25006KT 5000 TS BKN016 FEW017CB 27/24 Q1005 RMK CB AND RA TO E=
202512190730 METAR WIHH 190730Z 24007KT 5000 -TSRA BKN016 FEW017CB 26/25 Q1006 NOSIG RMK CB TO S=
202512190700 METAR WIHH 190700Z 24011KT 3000 -RA BKN016 30/24 Q1006 NOSIG=
202512190630 METAR WIHH 190630Z 27009KT 5000 -RA BKN016 29/25 Q1006 TEMPO TL0700 3 000 -RA=
202512190600 METAR WIHH 190600Z 25011KT 6000 BKN016 30/26 Q1007 TEMPO FM0630 3000 -RA RMK RA TO N AND S=
202512190530 METAR WIHH 190530Z 23007KT 6000 BKN016 28/25 Q1007 TEMPO FM0600 3000 -RA RMK RA TO E=
202512190500 METAR WIHH 190500Z 27007KT 5000 -RA SCT016 28/25 Q1007 TEMPO TL0530 3000 -RA=
202512190430 METAR WIHH 190430Z 24010KT 5000 -RA BKN016 28/25 Q1008 TEMPO TL0500 3000 -RA=
202512190400 METAR WIHH 190400Z 23008KT 5000 -RA BKN016 27/25 Q1008 TEMPO TL0430 3 000 -RA=
202512190330 METAR WIHH 190330Z 26009KT 5000 -RA BKN016 26/25 Q1008 TEMPO TL0400 3000 -RA=
202512190300 METAR WIHH 190300Z 24007KT 5000 -RA BKN016 26/25 Q1008 TEMPO TL0400 3 000 -RA=
202512190230 METAR WIHH 190230Z 24008KT 5000 -RA BKN016 26/25 Q1009 NOSIG=
202512190200 METAR WIHH 190200Z 25010KT 5000 -RA BKN017 26/25 Q1009 NOSIG=
202512190130 METAR WIHH 190130Z 25006KT 6000 -RA BKN017 26/25 Q1008 NOSIG=
202512190100 METAR WIHH 190100Z 23007KT 5000 -RA BKN017 25/25 Q1008 TEMPO TL0200 5000 -RA=
202512190030 METAR WIHH 190030Z 22009KT 2000 BKN017 25/25 Q1008 TEMPO TL0200 5000 -RA=
202512190000 METAR WIHH 190000Z 24010KT 2000 BKN017 25/24 Q1008 TEMPO TL0100 4000 -RA=
202512182330 METAR WIHH 182330Z 27005KT 1000 -RA SCT017 25/24 Q1007 TEMPO TL0000 3000 -RA SCT015=
202512182300 METAR WIHH 182300Z 27005KT 6000 FEW018 25/24 Q1007 NOSIG=
202512182230 METAR WIHH 182230Z 26005KT 6000 FEW018 25/24 Q1007 NOSIG=
202512182200 METAR WIHH 182200Z 22005KT 6000 FEW018 25/24 Q1006 NOSIG=
202512182130 METAR WIHH 182130Z 25005KT 6000 FEW016 25/24 Q1006 NOSIG=
202512182100 METAR WIHH 182100Z 24005KT 6000 FEW016 25/24 Q1006 NOSIG=
202512182030 METAR WIHH 182030Z 26005KT 6000 FEW018 25/24 Q1005=
202512182000 METAR WIHH 182000Z 24007KT 6000 FEW016 25/24 Q1005 NOSIG=
202512181930 METAR WIHH 181930Z 28006KT 6000 FEW016 25/24 Q1006 NOSIG=
202512181900 METAR WIHH 181900Z 21005KT 6000 FEW016 25/24 Q1006 NOSIG=
202512181830 METAR WIHH 181830Z 22006KT 6000 FEW016 25/24 Q1006 NOSIG=
202512181800 METAR WIHH 181800Z 27006KT 6000 FEW016 25/24 Q1007 NOSIG=
202512181730 METAR WIHH 181730Z 26008KT 6000 FEW016 25/24 Q1007 NOSIG=
202512181700 METAR WIHH 181700Z 24008KT 6000 FEW016 25/24 Q1007 NOSIG=
202512181630 METAR WIHH 181630Z 25008KT 6000 SCT016 25/24 Q1008 NOSIG=
202512181600 METAR WIHH 181600Z 27008KT 6000 SCT016 26/24 Q1008 NOSIG=
202512181530 METAR WIHH 181530Z 24007KT 6000 SCT016 26/24 Q1009 RMK RA TO NW=
202512181500 METAR WIHH 181500Z 24007KT 6000 FEW016 26/24 Q1009 NOSIG=
202512181430 METAR WIHH 181430Z 26007KT 6000 SCT016 26/24 Q1009 NOSIG=
202512181400 METAR WIHH 181400Z 24008KT 6000 SCT016 26/24 Q1008 NOSIG=
202512181330 METAR WIHH 181330Z 24008KT 6000 SCT016 26/24 Q1008 NOSIG=
202512181300 METAR WIHH 181300Z 24011KT 6000 SCT016 26/24 Q1008 NOSIG=
202512181230 METAR WIHH 181230Z 23008KT 6000 SCT016 26/24 Q1008 NOSIG=
202512181200 METAR WIHH 181200Z 22010KT 6000 SCT016 26/24 Q1007 NOSIG=
202512181130 METAR WIHH 181130Z 25014KT 6000 SCT016 26/24 Q1006 NOSIG=
202512181100 METAR WIHH 181100Z 24010KT 6000 SCT016 27/24 Q1006 NOSIG=
202512181030 METAR WIHH 181030Z 26010KT 6000 SCT016 27/23 Q1006 RMK RA TO NW=
202512181000 METAR WIHH 181000Z 22010KT 6000 SCT016 27/23 Q1006 TEMPO FM1100 0400 -RA SCT015=
202512180930 METAR WIHH 180930Z 24010KT 6000 SCT016 27/24 Q1006 TEMPO FM1015 4000 -RA BKN015 RMK RA TO NW=
202512180900 METAR WIHH 180900Z 24008KT 6000 SCT016 27/24 Q1005 TEMPO FM0930 4000 -RA BKN015=
202512180830 METAR WIHH 180830Z 25015KT 6000 SCT016 27/23 Q1005 TEMPO FM0930 4000 -RA SCT015=
202512180800 METAR WIHH 180800Z 27010KT 6000 -RA SCT016 26/25 Q1005 TEMPO TL0845 4000 -RA BKN015=
202512180730 METAR WIHH 180730Z 26015KT 6000 -RA SCT016 26/25 Q1006 TEMPO TL0800 4000 -RA BKN015=
202512180700 METAR WIHH 180700Z 26015KT 6000 -RA BKN016 28/25 Q1007 TEMPO TL0730 4 000 -RA=
202512180630 METAR WIHH 180630Z 24015KT 6000 -RA BKN016 28/25 Q1007 TEMPO TL0645 4000 -RA=
202512180600 METAR WIHH 180600Z 24008KT 6000 -RA BKN016 27/25 Q1007 TEMPO TL0645 4000 -RA=
202512180530 METAR WIHH 180530Z 23008KT 5000 -RA SCT016 27/25 Q1008 TEMPO TL0600 4000 -RA=
202512180500 METAR WIHH 180500Z 25009KT 5000 -RA BKN016 27/25 Q1008 TEMPO TL0530 4 000 -RA=
202512180430 METAR WIHH 180430Z 27009KT 6000 BKN016 28/25 Q1008 TEMPO FM0500 4000 -RA RMK RA TO W=
202512180400 METAR COR WIHH 180400Z 24007KT 6000 BKN016 28/25 Q1008 TEMPO FM0445 4000 -RA=
202512180330 METAR WIHH 180330Z 24008KT 6000 BKN016 26/24 Q1008 TEMPO FM0415 4000 -RA RMK RA TO SW=
202512180300 METAR WIHH 180300Z 24008KT 6000 -RA BKN016 26/24 Q1009 TEMPO TL0330 4 000 -RA=
202512180230 METAR WIHH 180230Z 23015KT 6000 -RA BKN016 26/25 Q1009 TEMPO TL0245 4000 -RA=
202512180200 METAR WIHH 180200Z 22015KT 6000 -RA BKN016 26/25 Q1010 TEMPO TL0225 4 000 -RA=
202512180130 METAR WIHH 180130Z 24010KT 6000 -RA BKN016 26/24 Q1010 TEMPO TL0200 4 000 -RA=
202512180100 METAR WIHH 180100Z 24008KT 6000 -RA SCT016 26/24 Q1009 NOSIG=
202512180030 METAR WIHH 180030Z 27012KT 8000 SCT017 26/24 Q1009=
202512180000 METAR WIHH 180000Z 10005KT 5000 HZ SCT018 27/24 Q1009 TEMPO FM0100 3000 -RA SCT018=
202512172330 METAR WIHH 172330Z 25011KT 9999 SCT020 26/24 Q1008 NOSIG=
202512172300 METAR WIHH 172300Z 24008KT 9999 SCT020 26/24 Q1008 NOSIG=
202512172230 METAR WIHH 172230Z 25010KT 9999 FEW020 26/24 Q1007 NOSIG=
202512172200 METAR WIHH 172200Z 24009KT 9999 SCT020 26/24 Q1007 NOSIG=
202512172130 METAR WIHH 172130Z 00000KT 8000 SCT020 26/23 Q1008 NOSIG=
202512172100 METAR WIHH 172100Z 27007KT 9999 SCT020 25/24 Q1007 NOSIG=
202512172030 METAR WIHH 172030Z 26008KT 9999 FEW020 24/24 Q1007=
202512172000 METAR WIHH 172000Z 24009KT 9999 FEW020 25/24 Q1008 NOSIG=
202512171930 METAR WIHH 171930Z 28011KT 9999 FEW020 25/24 Q1008 NOSIG=
202512171900 METAR WIHH 171900Z 25010KT 9999 FEW020 25/24 Q1008 NOSIG=
202512171830 METAR WIHH 171830Z 24009KT 9999 FEW020 25/24 Q1008 NOSIG=
202512171800 METAR WIHH 171800Z 26008KT 9999 FEW020 25/24 Q1008 NOSIG=
202512171730 METAR WIHH 171730Z 24008KT 9999 FEW020 26/24 Q1008 NOSIG=
202512171700 METAR WIHH 171700Z 24015KT 9999 FEW020 25/24 Q1009 NOSIG=
202512171630 METAR WIHH 171630Z 25012KT 9999 FEW020 25/24 Q1009 NOSIG=
202512171600 METAR WIHH 171600Z 26012KT 9999 FEW020 25/24 Q1009=
202512171530 METAR WIHH 171530Z 27006KT 9999 FEW020 25/24 Q1010 RMK RA TO NW=
202512171500 METAR WIHH 171500Z 28013KT 9999 FEW020 26/24 Q1010 NOSIG=
202512171430 METAR WIHH 171430Z 27015KT 9999 FEW020 26/23 Q1010 NOSIG=
202512171400 METAR WIHH 171400Z 26003KT 9999 FEW020 27/24 Q1010 NOSIG=
202512171330 METAR WIHH 171330Z 26009KT 9999 FEW020 27/24 Q1009 NOSIG=
202512171300 METAR WIHH 171300Z 25010KT 9999 FEW020 27/24 Q1009 NOSIG=
202512171230 METAR WIHH 171230Z 28010KT 9999 SCT020 27/23 Q1008 NOSIG=
202512171200 METAR WIHH 171200Z 26009KT 9999 SCT020 27/24 Q1008 NOSIG=
202512171130 METAR WIHH 171130Z 27008KT 9999 SCT020 28/24 Q1007 NOSIG=
202512171100 METAR WIHH 171100Z 24007KT 9999 SCT020 28/24 Q1007 NOSIG=
202512171030 METAR WIHH 171030Z 25009KT 9999 SCT020 28/23 Q1007 NOSIG=
202512171000 METAR WIHH 171000Z 21015KT 7000 SCT017 30/22 Q1007 RMK RA TO SE=
202512170930 METAR WIHH 170930Z 27012KT 9999 SCT020 29/23 Q1006 NOSIG=
202512170900 METAR WIHH 170900Z 27013KT 9999 SCT017 28/24 Q1005 NOSIG=
202512170830 METAR WIHH 170830Z 21019KT 7000 32/22 Q1006 RMK RA TO SE=
202512170800 METAR WIHH 170800Z 27011KT 8000 SCT017 28/24 Q1006 NOSIG=
202512170730 METAR WIHH 170730Z 27010KT 8000 SCT017 28/24 Q1006 RMK RA TO SE=
202512170700 METAR WIHH 170700Z 26007KT 6000 -TSRA SCT016 FEW017CB 27/24 Q1007 NOSIG RMK CB TO E=
202512170630 METAR WIHH 170630Z 26008KT 6000 -RA SCT016 FEW017CB 26/25 Q1007 RMK CB TO NE=
202512170600 METAR WIHH 170600Z 26018KT 6000 SCT016 FEW017CB 31/23 Q1008 NOSIG RMK CB AND RA TO W-NW=
202512170530 METAR WIHH 170530Z 25010KT 8000 SCT018 34/21 Q1008 NOSIG=
202512170500 METAR WIHH 170500Z 23010KT 8000 SCT018 33/22 Q1008 NOSIG=
202512170430 METAR WIHH 170430Z 25014KT 9999 SCT018 32/23 Q1008 NOSIG=
202512170400 METAR WIHH 170400Z 24003KT 9999 SCT020 32/23 Q1009 NOSIG=
202512170330 METAR WIHH 170330Z 24014KT 9999 FEW020 31/23 Q1009 NOSIG=
202512170300 METAR WIHH 170300Z 24014KT 9999 SCT020 30/22 Q1009 NOSIG=
202512170230 METAR WIHH 170230Z 25013KT 9999 FEW020 30/22 Q1009 NOSIG=
202512170200 METAR WIHH 170200Z 24014KT 9999 FEW020 30/23 Q1009 NOSIG=
202512170130 METAR WIHH 170130Z 24010KT 9999 FEW020 29/23 Q1010 NOSIG=
202512170100 METAR WIHH 170100Z 23008KT 9999 SCT020 28/23 Q1009 NOSIG=
202512170030 METAR WIHH 170030Z 24005KT 8000 SCT020 28/23 Q1009 NOSIG=
202512170000 METAR WIHH 170000Z 27004KT 7000 SCT018 27/23 Q1009 NOSIG=
202512162330 METAR WIHH 162330Z 25003KT 7000 SCT018 26/23 Q1009 NOSIG=
202512162300 METAR WIHH 162300Z 24003KT 7000 SCT018 25/24 Q1008 NOSIG=
202512162230 METAR WIHH 162230Z 27005KT 7000 SCT018 25/24 Q1008 NOSIG=
202512162200 METAR WIHH 162200Z 21006KT 8000 SCT020 26/24 Q1008 NOSIG=
202512162130 METAR WIHH 162130Z 25005KT 8000 NSC 26/24 Q1009 NOSIG=
202512162100 METAR WIHH 162100Z 25007KT 8000 SCT020 25/24 Q1007 NOSIG=
202512162030 METAR WIHH 162030Z 23005KT 8000 SCT020 26/23 Q1008 NOSIG=
202512162000 METAR WIHH 162000Z 24005KT 8000 SCT020 25/23 Q1008=
202512161930 METAR WIHH 161930Z 25006KT 8000 SCT020 25/23 Q1008=
202512161900 METAR WIHH 161900Z 23008KT 8000 SCT020 25/23 Q1008=
202512161830 METAR WIHH 161830Z 26010KT 8000 SCT020 26/24 Q1009 NOSIG=
202512161800 METAR WIHH 161800Z 00000KT 8000 NSC 27/24 Q1010 NOSIG=
202512161730 METAR WIHH 161730Z 23007KT 7000 SCT020 24/24 Q1008 NOSIG=
202512161700 METAR WIHH 161700Z 20006KT 8000 SCT020 25/24 Q1009 NOSIG=
202512161630 METAR WIHH 161630Z 23006KT 8000 SCT018 25/24 Q1009 NOSIG=
202512161600 METAR WIHH 161600Z 24007KT 8000 SCT018 25/24 Q1009 NOSIG=
202512161530 METAR WIHH 161530Z 24006KT 8000 SCT018 25/24 Q1009 NOSIG=
202512161500 METAR WIHH 161500Z 26003KT 8000 SCT018 25/24 Q1010 NOSIG=
202512161430 METAR WIHH 161430Z 28004KT 8000 SCT018 24/24 Q1009 RMK RA TO NE=
202512161400 METAR WIHH 161400Z 29005KT 8000 SCT018 24/24 Q1009 RMK RA TO NE-SE=
202512161330 METAR WIHH 161330Z 26006KT 7000 -RA SCT017 24/24 Q1009 NOSIG=
202512161300 METAR WIHH 161300Z 24008KT 7000 -RA SCT017 24/23 Q1009 NOSIG=
202512161230 METAR WIHH 161230Z 24010KT 6000 -RA SCT017 24/23 Q1009 NOSIG=
202512161200 METAR WIHH 161200Z 25010KT 6000 -RA SCT017 24/23 Q1009 NOSIG=
202512161130 METAR WIHH 161130Z 24015KT 6000 -RA SCT017 24/24 Q1009 NOSIG=
202512161100 METAR WIHH 161100Z 24015KT 4000 -RA SCT017 24/24 Q1008 NOSIG=
202512161030 METAR WIHH 161030Z 24020KT 2500 -RA SCT017 25/24 Q1008 NOSIG=
202512161000 METAR WIHH 161000Z 24015KT 6000 SCT018 27/24 Q1008 RMK RA TO SW-N=
202512160930 METAR WIHH 160930Z 26007KT 7000 SCT018 32/21 Q1007 NOSIG=
202512160900 METAR WIHH 160900Z 25010KT 6000 -RA FEW017CB SCT018 27/24 Q1007 RMK CB TO W=
202512160830 METAR WIHH 160830Z 26020KT 6000 -RA SCT017 26/24 Q1007 NOSIG=
202512160800 METAR WIHH 160800Z 23020KT 6000 -RA SCT017 29/22 Q1007 TEMPO FM0830 3000 -RA=
202512160730 METAR WIHH 160730Z 25015KT 7000 SCT017 30/22 Q1007 BECMG FM0745 4000 -RA RMK RA TO SW-W=
202512160700 METAR WIHH 160700Z 24020KT 7000 SCT018 30/23 Q1008 RMK RA TO S-W=
202512160630 METAR WIHH 160630Z 27015KT 7000 SCT018 30/22 Q1007 RMK RA TO S-SW=
202512160600 METAR WIHH 160600Z 28020KT 7000 SCT018 32/22 Q1008 RMK RA TO SW=
202512160530 METAR WIHH 160530Z 25020KT 7000 SCT018 32/22 Q1008 RMK RA TO NE-SE AND SW=
202512160500 METAR WIHH 160500Z 23020KT 7000 SCT018 31/22 Q1009 NOSIG=
202512160430 METAR WIHH 160430Z 23020KT 7000 SCT018 32/23 Q1008 NOSIG=
202512160400 METAR WIHH 160400Z 25015KT 7000 SCT018 32/23 Q1009 NOSIG=
202512160330 METAR WIHH 160330Z 23015KT 8000 SCT018 32/22 Q1009 NOSIG=
202512160300 METAR WIHH 160300Z 24008KT 7000 SCT018 30/24 Q1010 NOSIG=
202512160230 METAR WIHH 160230Z 26010KT 8000 FEW018 32/22 Q1009 NOSIG=
202512160200 METAR WIHH 160200Z 24008KT 8000 FEW018 31/22 Q1010 NOSIG=
202512160130 METAR WIHH 160130Z 21010KT 8000 FEW018 30/22 Q1010 NOSIG=
202512160100 METAR WIHH 160100Z 22012KT 8000 FEW018 29/23 Q1009 NOSIG=
202512160030 METAR WIHH 160030Z 22010KT 8000 FEW018 27/23 Q1009 NOSIG=
202512160000 METAR WIHH 160000Z 23011KT 8000 FEW018 27/23 Q1009 NOSIG=
202512152330 METAR WIHH 152330Z 24010KT 8000 FEW020 26/23 Q1008 NOSIG=
202512152300 METAR WIHH 152300Z 24011KT 8000 FEW020 26/23 Q1008 NOSIG=
202512152230 METAR WIHH 152230Z 22006KT 7000 FEW020 25/22 Q1008 NOSIG=
202512152200 METAR WIHH 152200Z 24008KT 7000 FEW020 26/23 Q1008 NOSIG=
202512152130 METAR WIHH 152130Z 22005KT 7000 FEW020 26/23 Q1008 NOSIG=
202512152100 METAR WIHH 152100Z 21008KT 7000 FEW020 25/23 Q1008 NOSIG=
202512152030 METAR WIHH 152030Z 25006KT 7000 FEW020 26/23 Q1008 NOSIG=
202512152000 METAR WIHH 152000Z 24009KT 7000 FEW020 26/23 Q1008 NOSIG=
202512151930 METAR WIHH 151930Z 26010KT 7000 FEW020 26/23 Q1008 NOSIG=
202512151900 METAR WIHH 151900Z 27010KT 0700 FEW020 26/24 Q1008 NOSIG=
202512151830 METAR WIHH 151830Z 25008KT 8000 SCT020 26/24 Q1009 NOSIG=
202512151800 METAR WIHH 151800Z 26010KT 7000 FEW020 27/22 Q1009 NOSIG=
202512151730 METAR WIHH 151730Z 27010KT 7000 FEW020 27/22 Q1009 NOSIG=
202512151700 METAR WIHH 151700Z 24010KT 7000 FEW020 27/22 Q1009 NOSIG=
202512151630 METAR WIHH 151630Z 23010KT 7000 FEW020 27/22 Q1010 NOSIG=
202512151600 METAR WIHH 151600Z 25013KT 7000 FEW020 28/22 Q1010 NOSIG=
202512151530 METAR WIHH 151530Z 27005KT 7000 SCT018 27/24 Q1011 NOSIG=
202512151500 METAR WIHH 151500Z 25006KT 7000 SCT018 26/24 Q1011 NOSIG=
202512151430 METAR WIHH 151430Z 22012KT 7000 FEW020 28/22 Q1010 NOSIG=
202512151400 METAR WIHH 151400Z 26010KT 7000 FEW020 28/22 Q1010 NOSIG=
202512151330 METAR WIHH 151330Z 26012KT 7000 SCT018 28/22 Q1009 NOSIG=
202512151300 METAR WIHH 151300Z 22011KT 7000 SCT018 28/22 Q1009 NOSIG=
202512151230 METAR WIHH 151230Z 26012KT 7000 SCT018 28/23 Q1009 NOSIG=
202512151200 METAR WIHH 151200Z 25013KT 7000 SCT018 28/23 Q1009 NOSIG=
202512151130 METAR WIHH 151130Z 24010KT 7000 SCT018 28/23 Q1008 NOSIG=
202512151100 METAR WIHH 151100Z 24014KT 7000 SCT016 29/22 Q1008 NOSIG=
202512151030 METAR WIHH 151030Z 24017KT 7000 SCT016 29/21 Q1007 NOSIG=
202512151000 METAR WIHH 151000Z 24020KT 7000 SCT016 30/21 Q1007 NOSIG=
202512150930 METAR WIHH 150930Z 25020KT 7000 SCT016 31/23 Q1007 NOSIG=
202512150900 METAR WIHH 150900Z 27017KT 7000 SCT016 30/23 Q1007 RMK RA TO S=
202512150830 METAR WIHH 150830Z 23017KT 7000 SCT016 30/22 Q1007 NOSIG=
202512150800 METAR WIHH 150800Z 24020KT 7000 SCT016 30/22 Q1006 NOSIG=
202512150730 METAR WIHH 150730Z 24020KT 7000 SCT016 30/22 Q1007 NOSIG=
202512150700 METAR WIHH 150700Z 24018KT 7000 SCT016 30/23 Q1007 NOSIG=
202512150630 METAR WIHH 150630Z 23018KT 7000 SCT016 31/23 Q1008 NOSIG=
202512150600 METAR WIHH 150600Z 27018KT 7000 SCT016 31/23 Q1008 RMK RA TO NW=
202512150530 METAR WIHH 150530Z 27015KT 7000 SCT016 31/22 Q1009 RMK RA TO S=
202512150500 METAR WIHH 150500Z 24018KT 7000 SCT016 31/22 Q1009 RMK RA TO S-SE=
202512150430 METAR WIHH 150430Z 24018KT 7000 SCT016 31/24 Q1009 NOSIG RMK RA TO S=
202512150400 METAR WIHH 150400Z 27018KT 7000 SCT016 29/24 Q1010 NOSIG=
202512150330 METAR WIHH 150330Z 22013KT 7000 SCT016 29/24 Q1010 NOSIG=
202512150300 METAR WIHH 150300Z 28013KT 7000 BKN016 29/24 Q1010 RMK RA TO NW=
202512150230 METAR WIHH 150230Z 28010KT 7000 BKN016 29/24 Q1010 RMK RA TO W=
202512150200 METAR WIHH 150200Z 27008KT 7000 BKN016 28/24 Q1010 RMK RA TO SW=
202512150130 METAR WIHH 150130Z 24010KT 7000 BKN016 29/25 Q1010 NOSIG RMK RA TO W=
202512150100 METAR WIHH 150100Z 27010KT 7000 BKN016 29/25 Q1010 NOSIG=
202512150030 METAR WIHH 150030Z 24008KT 7000 BKN016 27/24 Q1009 NOSIG=
202512150000 METAR WIHH 150000Z 28008KT 7000 BKN016 26/24 Q1009 NOSIG=
202512142330 METAR WIHH 142330Z 27008KT 6000 BKN016 26/24 Q1009 NOSIG=
202512142300 METAR WIHH 142300Z 26009KT 6000 BKN016 25/24 Q1008 RMK RA TO SW=
202512142230 METAR WIHH 142230Z 28007KT 6000 BKN016 25/24 Q1008 NOSIG=
202512142200 METAR WIHH 142200Z 25007KT 7000 SCT016 25/24 Q1008 NOSIG=
202512142130 METAR COR WIHH 142130Z 24007KT 7000 -RA BKN016 26/23 Q1008 NOSIG=
202512142100 METAR WIHH 142100Z 24005KT 8000 SCT020 25/23 Q1010 RMK RA TO NW=
202512142030 METAR WIHH 142030Z 24010KT 7000 -RA BKN016 25/24 Q1008 NOSIG=
202512142000 METAR WIHH 142000Z 24010KT 7000 -RA BKN015 26/23 Q1008 TEMPO TL2100 23014KT 5000 -RA BKN016 RMK NIL=
202512141930 METAR WIHH 141930Z 24010KT 8000 SCT016 26/23 Q1008 TEMPO FM2000 TL210 0 26012KT 5000 -RA BKN015 RMK RA TO SW=
202512141900 METAR WIHH 141900Z 23008KT 8000 SCT018 26/23 Q1008 TEMPO FM1930 TL2030 24010KT 5000 -RA BKN016 RMK RA TO SW=
202512141830 METAR WIHH 141830Z 25010KT 9000 SCT020 26/23 Q1008 NOSIG=
202512141800 METAR WIHH 141800Z 27009KT 9000 SCT020 26/23 Q1009 NOSIG=
202512141730 METAR WIHH 141730Z 25008KT 9000 SCT020 27/23 Q1009 NOSIG=
202512141700 METAR WIHH 141700Z 24009KT 9000 SCT020 27/23 Q1009 NOSIG=
202512141630 METAR WIHH 141630Z 23010KT 9000 SCT020 27/23 Q1009 NOSIG=
202512141600 METAR WIHH 141600Z 24012KT 9000 SCT020 27/23 Q1009 NOSIG=
202512141530 METAR COR WIHH 141530Z 26012KT 9000 SCT018 27/23 Q1009 NOSIG=
202512141500 METAR WIHH 141500Z 27005KT 9999 SCT018 26/22 Q1010 NOSIG=
202512141430 METAR WIHH 141430Z 24012KT 9000 SCT018 27/23 Q1009 NOSIG=
202512141400 METAR WIHH 141400Z 25005KT 9999 SCT018 26/22 Q1010 NOSIG=
202512141330 METAR WIHH 141330Z 25011KT 7000 SCT017 27/23 Q1009 NOSIG=
202512141300 METAR WIHH 141300Z 26013KT 7000 SCT017 27/23 Q1008 NOSIG=
202512141230 METAR WIHH 141230Z 24010KT 7000 SCT016 28/23 Q1008 NOSIG=
202512141200 METAR WIHH 141200Z 28010KT 9999 SCT018 27/23 Q1008 NOSIG=
202512141130 METAR WIHH 141130Z 26012KT 6000 SCT016 28/23 Q1007 RMK RA TO SW=
202512141100 METAR WIHH 141100Z 23015KT 7000 SCT018 27/23 Q1008 NOSIG=
202512141030 METAR WIHH 141030Z 25011KT 6000 SCT016 28/23 Q1006 RMK RA TO SW=
202512141000 METAR WIHH 141000Z 24011KT 6000 SCT016 29/22 Q1005 RMK RA TO W=
202512140930 METAR WIHH 140930Z 28015KT 6000 SCT016 29/22 Q1005 RMK RA TO S=
202512140900 METAR WIHH 140900Z 26010KT 6000 SCT017 29/23 Q1005 RMK RA TO W=
202512140830 METAR WIHH 140830Z 25012KT 6000 SCT017 29/23 Q1005 TEMPO FM0900 4000 -RA RMK RA TO SW=
202512140800 METAR WIHH 140800Z 26011KT 7000 SCT017 30/23 Q1005 RMK RA TO SW=
202512140730 METAR WIHH 140730Z 24010KT 7000 SCT018 28/23 Q1007 RMK RA TO NE=
202512140700 METAR WIHH 140700Z 27011KT 7000 SCT017 30/23 Q1005 RMK RA TO S=
202512140630 METAR WIHH 140630Z 23013KT 7000 SCT017 31/23 Q1006 NOSIG=
202512140600 METAR WIHH 140600Z 25011KT 7000 SCT017 31/23 Q1006 NOSIG=
202512140530 METAR WIHH 140530Z 26015KT 7000 SCT018 31/23 Q1009 TEMPO FM0600 4000 -RA BKN018 RMK RA TO NW=
202512140500 METAR WIHH 140500Z 25014KT 7000 SCT017 30/23 Q1008 NOSIG=
202512140430 METAR WIHH 140430Z 29010KT 7000 SCT017 31/23 Q1008 NOSIG=
202512140400 METAR WIHH 140400Z 21010KT 7000 SCT018 30/23 Q1008 NOSIG=
202512140330 METAR WIHH 140330Z 28012KT 8000 SCT018 30/24 Q1009 NOSIG=
202512140300 METAR WIHH 140300Z 24013KT 8000 SCT018 29/24 Q1009 NOSIG=
202512140230 METAR WIHH 140230Z 27010KT 8000 SCT018 28/23 Q1009 NOSIG=
202512140200 METAR WIHH 140200Z 25010KT 8000 SCT018 28/24 Q1009 NOSIG=
202512140130 METAR WIHH 140130Z 27008KT 8000 SCT018 28/24 Q1009 NOSIG=
202512140100 METAR WIHH 140100Z 27010KT 7000 SCT018 27/24 Q1009 NOSIG RMK RA TO W=
202512140030 METAR WIHH 140030Z 26007KT 7000 SCT018 27/24 Q1009 NOSIG=
202512140000 METAR WIHH 140000Z 24010KT 7000 SCT018 26/24 Q1009 RMK RA TO SW-W=
202512132330 METAR WIHH 132330Z 25007KT 8000 SCT020 26/24 Q1008 NOSIG=
202512132300 METAR WIHH 132300Z 23008KT 8000 SCT020 26/24 Q1008 NOSIG=
202512132230 METAR WIHH 132230Z 25008KT 8000 SCT018 26/24 Q1008 NOSIG=
202512132200 METAR WIHH 132200Z 25010KT 8000 SCT020 26/24 Q1007 NOSIG=
202512132130 METAR WIHH 132130Z 25005KT 8000 SCT020 26/23 Q1008=
202512132100 METAR WIHH 132100Z 24003KT 6000 FEW020 25/24 Q1007 NOSIG=
202512132030 METAR WIHH 132030Z 24008KT 8000 FEW020 27/23 Q1007=
202512132000 METAR WIHH 132000Z 27006KT 8000 FEW020 27/23 Q1007=
202512131930 METAR WIHH 131930Z 24005KT 9999 FEW020 27/23 Q1007=
202512131900 METAR WIHH 131900Z 25006KT 9999 FEW020 27/23 Q1007=
202512131830 METAR WIHH 131830Z 27010KT 9999 FEW020 27/23 Q1007 NOSIG=
202512131800 METAR WIHH 131800Z 25008KT 9999 FEW020 27/23 Q1007 NOSIG=
202512131730 METAR WIHH 131730Z 25007KT 9999 FEW020 27/23 Q1007 NOSIG=
202512131700 METAR WIHH 131700Z 24008KT 9999 FEW020 28/23 Q1008 NOSIG=
202512131630 METAR WIHH 131630Z 25005KT 9999 FEW020 28/23 Q1008 NOSIG=
202512131600 METAR WIHH 131600Z 26006KT 9999 FEW020 28/23 Q1008 NOSIG=
202512131530 METAR WIHH 131530Z 24006KT 9999 FEW020 28/23 Q1008 NOSIG=
202512131500 METAR WIHH 131500Z 25006KT 9999 SCT020 28/23 Q1008 NOSIG=
202512131430 METAR WIHH 131430Z 26008KT 8000 SCT020 28/23 Q1008 NOSIG=
202512131400 METAR WIHH 131400Z 26010KT 8000 SCT020 28/23 Q1008 NOSIG=
202512131330 METAR WIHH 131330Z 25006KT 8000 SCT018 28/23 Q1008 NOSIG=
202512131300 METAR WIHH 131300Z 25013KT 8000 SCT018 29/23 Q1007 NOSIG=
202512131230 METAR WIHH 131230Z 25010KT 8000 SCT018 29/23 Q1007 NOSIG=
202512131200 METAR WIHH 131200Z 25005KT 8000 SCT018 29/23 Q1007 NOSIG=
202512131130 METAR WIHH 131130Z 25005KT 7000 SCT018 29/23 Q1006 NOSIG=
202512131100 METAR WIHH 131100Z 26007KT 7000 SCT018 29/23 Q1005 NOSIG=
202512131030 METAR WIHH 131030Z 28010KT 6000 SCT018 30/24 Q1005 RMK RA TO E=
202512131000 METAR WIHH 131000Z 27008KT 6000 FEW017CB SCT018 30/26 Q1005 RMK CB AN D RA TO E-SE=
202512130930 METAR WIHH 130930Z 35005KT 5000 -TSRA SCT016 FEW017CB 28/26 Q1004 RMK CB TO E-SE=
202512130900 METAR WIHH 130900Z 31010KT 4000 -RA SCT016 FEW017CB 31/24 Q1004 TEMPO TL0910 3000 -TSRA BKN015 FEW016CB RMK CB TO SW-W=
202512130830 METAR WIHH 130830Z 26006KT 7000 FEW017CB SCT018 32/24 Q1004 RMK CB AND RA TO SW=
202512130800 METAR WIHH 130800Z 32010KT 7000 FEW017CB SCT018 32/24 Q1004 RMK CB AND RA TO SW=
202512130730 METAR WIHH 130730Z 30006KT 7000 FEW017CB SCT018 32/24 Q1005 RMK CB AND RA TO NE=
202512130700 METAR WIHH 130700Z 28015KT 6000 -RA SCT016 FEW017CB 31/23 Q1009 RMK CB TO N,NE=
202512130630 METAR WIHH 130630Z 35006KT 7000 SCT018 33/23 Q1006 NOSIG=
202512130600 METAR WIHH 130600Z 29010KT 7000 SCT017 32/22 Q1009 RMK RA TO W,N=
202512130530 METAR WIHH 130530Z 31006KT 7000 SCT018 33/22 Q1006 NOSIG=
202512130500 METAR WIHH 130500Z 24010KT 7000 SCT018 33/22 Q1007 RMK RA TO NE=
202512130430 METAR WIHH 130430Z 32003KT 7000 SCT018 32/22 Q1007 NOSIG=
202512130400 METAR WIHH 130400Z 31003KT 6000 SCT018 31/23 Q1008 NOSIG=
202512130330 METAR WIHH 130330Z 27003KT 6000 SCT020 31/22 Q1008 NOSIG=
202512130300 METAR WIHH 130300Z 26004KT 6000 SCT020 30/23 Q1009 NOSIG=
202512130230 METAR WIHH 130230Z 27005KT 6000 SCT020 30/23 Q1009 NOSIG=
202512130200 METAR WIHH 130200Z 12003KT 6000 FEW020 29/24 Q1009 NOSIG=
202512130130 METAR WIHH 130130Z 24003KT 6000 FEW020 28/24 Q1009 NOSIG=
202512130100 METAR WIHH 130100Z 25003KT 6000 FEW020 28/25 Q1009 NOSIG=
202512130030 METAR WIHH 130030Z 24004KT 6000 FEW020 27/25 Q1009 NOSIG=
202512130000 METAR WIHH 130000Z 00000KT 6000 FEW020 26/25 Q1009 NOSIG=
202512122330 METAR WIHH 122330Z 27004KT 6000 FEW020 25/24 Q1008 NOSIG=
202512122300 METAR WIHH 122300Z 24004KT 6000 FEW020 25/24 Q1008 NOSIG=
202512122230 METAR WIHH 122230Z 27003KT 5000 BR FEW020 25/24 Q1008 NOSIG=
202512122200 METAR WIHH 122200Z 21003KT 6000 FEW020 25/24 Q1008 NOSIG=
202512122130 METAR WIHH 122130Z 26003KT 6000 FEW020 25/24 Q1007 NOSIG=
202512122100 METAR WIHH 122100Z 24003KT 6000 FEW020 25/24 Q1007 NOSIG=
202512122030 METAR WIHH 122030Z 25003KT 6000 FEW020 25/24 Q1007 NOSIG=
202512122000 METAR WIHH 122000Z 22003KT 6000 FEW020 25/24 Q1007 NOSIG=
202512121930 METAR WIHH 121930Z 27003KT 6000 SCT020 26/24 Q1007 NOSIG=
202512121900 METAR WIHH 121900Z 24003KT 6000 SCT020 25/24 Q1008 TEMPO=
202512121830 METAR WIHH 121830Z 24004KT 9999 SCT020 26/22 Q1009 NOSIG=
202512121800 METAR WIHH 121800Z 24004KT 6000 SCT020 25/25 Q1008 NOSIG=
202512121730 METAR WIHH 121730Z 25004KT 9999 SCT020 26/22 Q1009 NOSIG=
202512121700 METAR WIHH 121700Z 26004KT 9999 SCT018 26/22 Q1010 NOSIG=
202512121630 METAR WIHH 121630Z 00000KT 5000 BR SCT017 25/25 Q1008 NOSIG=
202512121600 METAR WIHH 121600Z 00000KT 5000 BR SCT017 26/25 Q1009 NOSIG=
202512121530 METAR WIHH 121530Z 00000KT 5000 BR SCT016 25/25 Q1009 NOSIG=
202512121500 METAR WIHH 121500Z 00000KT 5000 BR SCT016 25/25 Q1009 NOSIG=
202512121430 METAR WIHH 121430Z 00000KT 5000 BR FEW016 25/25 Q1009 NOSIG=
202512121400 METAR WIHH 121400Z 00000KT 6000 -RA SCT016 25/25 Q1009 NOSIG=
202512121330 METAR WIHH 121330Z 00000KT 6000 -RA SCT015 25/25 Q1008 NOSIG=
202512121300 METAR WIHH 121300Z 00000KT 6000 -RA SCT015 25/25 Q1008 NOSIG=
202512121230 METAR WIHH 121230Z 20015KT 8000 SCT018 27/23 Q1010 RMK RA TO SE=
202512121200 METAR WIHH 121200Z 24003KT 5000 -RA SCT015 FEW016CB 25/25 Q1008 RMK CB TO NE=
202512121130 METAR WIHH 121130Z 22004KT 5000 -RA SCT015 FEW016CB 25/24 Q1007 RMK CB TO NE=
202512121100 METAR WIHH 121100Z 18006KT 5000 -RA SCT015 FEW016CB 25/24 Q1007 RMK CB TO NE=
202512121030 METAR WIHH 121030Z 02005KT 5000 SCT015 FEW016CB 24/23 Q1006 RMK CB TO NE=
202512121000 METAR WIHH 121000Z 03006KT 5000 -TSRA SCT015 FEW016CB 24/23 Q1006 TEMPO TL1100 -RA RMK CB TO N=
202512120930 METAR WIHH 120930Z 30008KT 3000 -TSRA SCT015 FEW016CB 23/22 Q1006 TEMPO TL1000 4000 -RA RMK CB TO N=
202512120900 METAR WIHH 120900Z 24025KT 2000 TSRA BKN015 FEW016CB 26/23 Q1005 TEMPO TL0930 2000 -TSRA RMK CB OVER THE FIELD=
202512120830 METAR WIHH 120830Z 36008KT 3000 TS BKN015 FEW016CB 31/24 Q1004 TEMPO FM0845 1000 TSRA RMK CB AND RA TO S-W=
202512120800 METAR WIHH 120800Z 34009KT 6000 TS SCT017 FEW018CB 32/24 Q1004 TEMPO FM0820 3000 -TSRA BKN015 RMK CB AND RA TO S-SW=
202512120730 METAR WIHH 120730Z 34009KT 6000 SCT017 FEW018CB 34/24 Q1005 TEMPO FM0815 3000 -TSRA BKN015 RMK CB AND RA TO S=
202512120700 METAR WIHH 120700Z 27020KT 8000 SCT018 32/23 Q1008 RMK RA TO SE=
202512120630 METAR WIHH 120630Z 02004KT 6000 SCT018 34/23 Q1006 NOSIG=
202512120600 METAR WIHH 120600Z 33006KT 6000 SCT018 33/23 Q1006 NOSIG=
202512120530 METAR WIHH 120530Z 03008KT 6000 SCT018 34/23 Q1006 NOSIG=
202512120500 METAR WIHH 120500Z 12004KT 7000 SCT018 34/21 Q1007 NOSIG=
202512120430 METAR WIHH 120430Z 20005KT 7000 SCT018 33/23 Q1007 NOSIG=
202512120400 METAR WIHH 120400Z 15003KT 7000 SCT018 33/23 Q1008 NOSIG=
202512120330 METAR WIHH 120330Z 24003KT 7000 SCT018 33/23 Q1008 NOSIG=
202512120300 METAR WIHH 120300Z 18003KT 6000 SCT020 33/23 Q1009 NOSIG=
202512120230 METAR WIHH 120230Z 22004KT 6000 SCT020 32/24 Q1009 NOSIG=
202512120200 METAR WIHH 120200Z 21006KT 6000 SCT020 31/24 Q1009 NOSIG=
202512120130 METAR WIHH 120130Z 15005KT 6000 SCT020 30/23 Q1009 NOSIG=
202512120100 METAR WIHH 120100Z 16003KT 6000 SCT020 29/24 Q1009 NOSIG=
202512120030 METAR WIHH 120030Z 24004KT 6000 SCT020 28/24 Q1009 NOSIG=
202512120000 METAR WIHH 120000Z 21004KT 6000 SCT020 27/25 Q1009 NOSIG=
202512112330 METAR WIHH 112330Z 17004KT 6000 SCT020 26/24 Q1008 NOSIG=
202512112300 METAR WIHH 112300Z 25004KT 6000 SCT020 25/24 Q1007 NOSIG=
202512112230 METAR WIHH 112230Z 28003KT 6000 SCT020 25/25 Q1007 NOSIG=
202512112200 METAR WIHH 112200Z 26003KT 6000 SCT020 25/25 Q1007 NOSIG=
202512112130 METAR WIHH 112130Z 00000KT 6000 SCT020 25/25 Q1007 NOSIG=
202512112100 METAR WIHH 112100Z 00000KT 6000 SCT020 25/25 Q1007 NOSIG=
202512112030 METAR WIHH 112030Z 26004KT 6000 -RA SCT017 26/24 Q1010 NOSIG=
202512112000 METAR WIHH 112000Z 27003KT 6000 -RA SCT017 26/24 Q1010 NOSIG=
202512111930 METAR WIHH 111930Z 27006KT 5000 -RA SCT017 24/24 Q1010 NOSIG=
202512111900 METAR WIHH 111900Z 27006KT 7000 -RA SCT018 26/24 Q1010 TEMPO TL2000 4000 -RA=
202512111830 METAR WIHH 111830Z 26005KT 8000 SCT018 26/24 Q1010 TEMPO FM1900 4000 -RA RMK RA TO NW=
202512111800 METAR WIHH 111800Z 24004KT 8000 SCT018 26/24 Q1010 TEMPO FM1900 4000 -RA RMK RA TO NW=
202512111730 METAR WIHH 111730Z 24005KT 8000 SCT018 26/24 Q1011 NOSIG=
202512111700 METAR WIHH 111700Z 00000KT 7000 SCT020 25/25 Q1009 NOSIG=
202512111630 METAR WIHH 111630Z 00000KT 7000 SCT020 25/25 Q1009 NOSIG=
202512111600 METAR WIHH 111600Z 00000KT 7000 SCT017 25/25 Q1009 NOSIG=
202512111530 METAR WIHH 111530Z 00000KT 7000 SCT017 25/25 Q1010 NOSIG=
202512111500 METAR WIHH 111500Z 00000KT 7000 SCT017 25/25 Q1010 NOSIG=
202512111430 METAR WIHH 111430Z 00000KT 7000 SCT017 25/25 Q1010 NOSIG=
202512111400 METAR WIHH 111400Z 26005KT 6000 -RA SCT017 25/25 Q1010 NOSIG=
202512111330 METAR WIHH 111330Z 25013KT 8000 SCT018 27/23 Q1011 NOSIG=
202512111300 METAR WIHH 111300Z 22010KT 8000 SCT018 26/23 Q1010 NOSIG=
202512111230 METAR WIHH 111230Z 23008KT 7000 SCT018 26/23 Q1010 RMK RA TO SE=
202512111200 METAR WIHH 111200Z 25010KT 7000 SCT018 26/23 Q1010 RMK RA TO S=
202512111130 METAR WIHH 111130Z 26004KT 6000 TS BKN016 FEW017CB 25/24 Q1009 RMK CB AND RA TO SE=
202512111100 METAR WIHH 111100Z 23005KT 5000 TS BKN016 FEW017CB 25/24 Q1009 RMK CB AND RA TO SE=
202512111030 METAR WIHH 111030Z 23007KT 5000 TS BKN016 25/24 Q1008 RMK CB TO E=
202512111000 METAR WIHH 111000Z 24010KT 7000 SCT017 28/23 Q1008 NOSIG=
202512110930 METAR WIHH 110930Z 23010KT 5000 -TSRA BKN016 FEW017CB 25/24 Q1008 RMK CB TO E=
202512110900 METAR WIHH 110900Z 24006KT 5000 -TSRA BKN016 FEW017CB 26/25 Q1008 RMK CB TO E=
202512110830 METAR WIHH 110830Z 20006KT 3000 -TSRA BKN016 FEW017CB 26/25 Q1007 RMK OVER THE FIELD=
202512110800 METAR WIHH 110800Z 28006KT 3000 -TSRA BKN016 FEW017CB 28/21 Q1007 TEMPO TL0900 3000 -TSRA RMK CB OVER THE FIELD=
202512110730 METAR WIHH 110730Z 33008KT 5000 TS BKN016 FEW017CB 30/25 Q1007 TEMPO FM0800 2000 -TSRA=
202512110700 METAR WIHH 110700Z 35008KT 6000 TS BKN016 FEW017CB 31/25 Q1007 TEMPO FM0720 3000 -TSRA RMK CB AND RA TO S=
202512110630 METAR WIHH 110630Z 34007KT 6000 FEW017CB SCT018 32/24 Q1007 RMK CB AND RA TO S=
202512110600 METAR WIHH 110600Z 36010KT 6000 FEW017CB SCT018 32/24 Q1008 RMK CB AND RA TO S=
202512110530 METAR WIHH 110530Z 01009KT 6000 SCT017 31/24 Q1008 RMK RA TO E=
202512110500 METAR WIHH 110500Z 35011KT 6000 SCT017 31/23 Q1009 RMK RA TO E=
202512110430 METAR WIHH 110430Z 02007KT 7000 SCT018 32/23 Q1009 NOSIG RMK RA TO E=
202512110400 METAR WIHH 110400Z 30003KT 7000 SCT018 32/24 Q1010 NOSIG=
202512110330 METAR WIHH 110330Z 30004KT 7000 SCT018 31/23 Q1010 NOSIG=
202512110300 METAR WIHH 110300Z 26004KT 7000 SCT018 32/23 Q1011 NOSIG=
202512110230 METAR WIHH 110230Z 24004KT 7000 SCT020 32/24 Q1011 NOSIG=
202512110200 METAR WIHH 110200Z 21003KT 7000 SCT020 31/23 Q1011 NOSIG=
202512110130 METAR WIHH 110130Z 17003KT 6000 SCT020 30/24 Q1011 NOSIG=
202512110100 METAR WIHH 110100Z 27003KT 6000 SCT020 28/25 Q1011 NOSIG=
202512110030 METAR WIHH 110030Z 33003KT 5000 HZ FEW020 28/25 Q1011 NOSIG=
202512110000 METAR WIHH 110000Z 18003KT 5000 HZ FEW020 26/25 Q1010 NOSIG=
202512102330 METAR WIHH 102330Z 17003KT 5000 HZ SCT020 25/24 Q1010 NOSIG=
202512102300 METAR WIHH 102300Z 18003KT 4000 BR SCT018 24/24 Q1009 NOSIG=
202512102230 METAR WIHH 102230Z 13003KT 4000 BR SCT018 24/24 Q1009 NOSIG=
202512102200 METAR WIHH 102200Z 26015KT 8000 SCT016 26/23 Q1009 RMK RA TO W=
202512102130 METAR WIHH 102130Z 24005KT 8000 SCT016 26/23 Q1008 RMK RA TO W=
202512102100 METAR WIHH 102100Z 26003KT 6000 SCT018 24/24 Q1009 NOSIG=
202512102030 METAR WIHH NIL=
202512102000 METAR WIHH 102000Z 00000KT 6000 SCT017 24/23 Q1008=
202512101930 METAR WIHH 101930Z 00000KT 6000 SCT017 24/23 Q1008=
202512101900 METAR WIHH 101900Z 00000KT 6000 BKN016 24/23 Q1008=
202512101830 METAR WIHH 101830Z 00000KT 6000 BKN016 23/23 Q1009=
202512101800 METAR WIHH 101800Z 22003KT 6000 -RA BKN016 23/23 Q1009 NOSIG=
202512101730 METAR WIHH 101730Z 18003KT 5000 -RA BKN016 24/23 Q1009 NOSIG=
202512101700 METAR WIHH 101700Z 22003KT 5000 -RA BKN016 24/23 Q1010 TEMPO TL1730 4000 -RA BKN016 RMK NIL=
202512101630 METAR WIHH 101630Z 21005KT 5000 -RA BKN016 24/23 Q1010 TEMPO TL1730 28005KT 4000 -RA BKN016 RMK NIL=
202512101600 METAR WIHH 101600Z 16006KT 6000 -TSRA FEW018CB 24/22 Q1010 TEMPO TL1700 16005KT 5000 BKN016 RMK CB TO SE=
202512101530 METAR WIHH 101530Z 16008KT 5000 -TSRA SCT016 FEW017CB 25/23 Q1011 RMK CB OTF=
202512101500 METAR WIHH 101500Z 16015KT 6000 TS SCT016 FEW017CB 27/24 Q1011 RMK CB AND RA TO S=
202512101430 METAR WIHH 101430Z 31003KT 7000 TS FEW017CB SCT018 28/25 Q1011 RMK CB AND RA TO S=
202512101400 METAR WIHH 101400Z 26003KT 7000 SCT018 28/24 Q1010 TEMPO FM1430 TL153 0 16010G20KT 3000 SCT000 RMK CB AND RA TO SOUTH=
202512101330 METAR WIHH 101330Z 32003KT 7000 TS FEW017CB SCT018 28/24 Q1010 TEMPO FM1400 3000 -TSRA RMK CB AND RA TO SE-S=
202512101300 METAR WIHH 101300Z 33003KT 8000 FEW017CB SCT018 28/24 Q1010 TEMPO FM1400 3000 -TSRA RMK CB AND RA TO SE-S=
202512101230 METAR WIHH 101230Z 25012KT 9999 SCT018 28/23 Q1009 NOSIG=
202512101200 METAR WIHH 101200Z 01004KT 8000 SCT020 28/24 Q1009 NOSIG=
202512101130 METAR WIHH 101130Z 35003KT 8000 SCT020 28/24 Q1008 NOSIG=
202512101100 METAR WIHH 101100Z 01008KT 8000 SCT020 29/23 Q1008 NOSIG=
202512101030 METAR WIHH 101030Z 24010KT 8000 SCT016 FEW018CB 29/23 Q1006 RMK CB AND RA TO SE=
202512101000 METAR WIHH 101000Z 35005KT 7000 SCT020 29/23 Q1007 NOSIG=
202512100930 METAR WIHH 100930Z 35007KT 7000 SCT018 29/23 Q1007 NOSIG=
202512100900 METAR WIHH 100900Z 34005KT 7000 SCT018 30/23 Q1006 NOSIG=
202512100830 METAR WIHH 100830Z 33006KT 7000 SCT018 30/23 Q1009 NOSIG=
202512100800 METAR WIHH 100800Z 33008KT 6000 SCT016 FEW018CB 30/26 Q1006 RMK CB AND RA TO NW=
202512100730 METAR WIHH 100730Z 01008KT 7000 SCT018 31/23 Q1007 NOSIG=
202512100700 METAR WIHH 100700Z 30005KT 7000 SCT018 31/23 Q1007 NOSIG=
202512100630 METAR WIHH 100630Z 31006KT 7000 SCT018 31/24 Q1008 NOSIG=
202512100600 METAR WIHH 100600Z 26005KT 7000 SCT018 32/24 Q1008 NOSIG=
202512100530 METAR WIHH 100530Z 27003KT 7000 SCT018 31/23 Q1009 NOSIG=
202512100500 METAR WIHH 100500Z 30007KT 7000 SCT018 31/23 Q1009 NOSIG=
202512100430 METAR WIHH 100430Z 26007KT 7000 SCT018 31/23 Q1010 NOSIG=
202512100400 METAR WIHH 100400Z 01003KT 7000 SCT018 31/22 Q1010 NOSIG RMK RA TO N=
202512100330 METAR WIHH 100330Z 22005KT 7000 SCT018 31/22 Q1010 NOSIG=
202512100300 METAR WIHH 100300Z 26008KT 6000 SCT018 30/22 Q1011 NOSIG=
202512100230 METAR WIHH 100230Z 29006KT 6000 SCT018 30/23 Q1011 NOSIG=
202512100200 METAR WIHH 100200Z 27003KT 7000 SCT020 29/23 Q1011 NOSIG=
202512100130 METAR WIHH 100130Z 24005KT 7000 FEW020 29/23 Q1011 NOSIG=
202512100100 METAR WIHH 100100Z 25005KT 6000 FEW020 28/24 Q1011 NOSIG=
202512100030 METAR WIHH 100030Z 24003KT 6000 FEW020 27/24 Q1011 NOSIG=
202512100000 METAR WIHH 100000Z 21003KT 6000 FEW020 26/23 Q1011 NOSIG=
202512092330 METAR WIHH 092330Z 24004KT 6000 FEW020 25/23 Q1010 NOSIG=
202512092300 METAR WIHH 092300Z 24003KT 6000 FEW020 24/23 Q1010 NOSIG=
202512092230 METAR WIHH 092230Z 30003KT 6000 FEW020 24/23 Q1009 NOSIG=
202512092200 METAR WIHH 092200Z 27004KT 6000 FEW020 24/23 Q1009 NOSIG=
202512092130 METAR WIHH 092130Z 21003KT 6000 FEW020 25/23 Q1009 NOSIG=
202512092100 METAR WIHH 092100Z 24003KT 6000 FEW020 25/23 Q1009 NOSIG=
202512092030 METAR WIHH 092030Z 00000KT 8000 SCT020 26/24 Q1008 NOSIG=
202512092000 METAR WIHH 092000Z 00000KT 8000 SCT020 26/23 Q1009 NOSIG=
202512091930 METAR WIHH 091930Z 00000KT 6000 25/24 Q1009 NOSIG=
202512091900 METAR WIHH 091900Z 24003KT 6000 FEW020 25/24 Q1009 NOSIG=
202512091830 METAR COR WIHH 091830Z 24006KT 7000 FEW020 26/23 Q1010 NOSIG=
202512091800 METAR WIHH 091800Z 24004KT 6000 FEW020 25/23 Q1009 NOSIG=
202512091730 METAR WIHH 091730Z 24003KT 9999 FEW020 26/23 Q1010 NOSIG=
202512091700 METAR WIHH 091700Z 28004KT 6000 FEW020 26/23 Q1010 NOSIG=
202512091630 METAR WIHH 091630Z 26003KT 6000 FEW020 27/23 Q1010 NOSIG=
202512091600 METAR WIHH 091600Z 27003KT 6000 FEW020 27/22 Q1010 NOSIG=
202512091530 METAR WIHH 091530Z 24003KT 6000 FEW020 27/22 Q1010 NOSIG=
202512091500 METAR WIHH 091500Z 27003KT 6000 FEW020 27/22 Q1010 NOSIG=
202512091430 METAR WIHH 091430Z 00000KT 6000 FEW020 27/22 Q1010 NOSIG=
202512091400 METAR WIHH 091400Z 00000KT 6000 FEW020 28/22 Q1010 NOSIG=
202512091330 METAR COR WIHH 091330Z 00000KT 6000 SCT020 27/22 Q1010 NOSIG=
202512091300 METAR WIHH 091300Z 00000KT 6000 SCT020 27/22 Q1009 NOSIG=
202512091230 METAR WIHH 091230Z 00000KT 6000 SCT020 28/22 Q1009 NOSIG=
202512091200 METAR WIHH 091200Z 26017KT 9999 SCT020 28/22 Q1009 NOSIG=
202512091130 METAR WIHH 091130Z 18003KT 6000 SCT018 29/23 Q1008 NOSIG=
202512091100 METAR WIHH 091100Z 27003KT 6000 SCT018 29/23 Q1008 NOSIG=
202512091030 METAR WIHH 091030Z 36004KT 6000 SCT017 29/24 Q1007 NOSIG=
202512091000 METAR WIHH 091000Z 28007KT 7000 SCT018 31/21 Q1007 RMK RA TO NW=
202512090930 METAR WIHH 090930Z 34008KT 6000 SCT017 FEW018CB 30/24 Q1007 NOSIG RMK CB AND RA TO S-SW=
202512090900 METAR WIHH 090900Z 33006KT 6000 SCT017 FEW018CB 30/24 Q1006 NOSIG RMK CB AND RA TO W-NW=
202512090830 METAR WIHH 090830Z 34006KT 7000 SCT017 FEW018CB 30/24 Q1006 NOSIG RMK CB AND RA TO NW=
202512090800 METAR WIHH 090800Z 33004KT 7000 SCT018 31/24 Q1006 NOSIG=
202512090730 METAR WIHH 090730Z 24004KT 8000 SCT018 31/21 Q1007 NOSIG=
202512090700 METAR WIHH 090700Z 30004KT 8000 SCT018 31/21 Q1007 NOSIG=
202512090630 METAR WIHH 090630Z 27004KT 8000 SCT018 31/21 Q1007 NOSIG=
202512090600 METAR WIHH 090600Z 32004KT 8000 SCT018 31/20 Q1007 NOSIG=
202512090530 METAR WIHH 090530Z 28004KT 8000 SCT018 31/20 Q1008 NOSIG=
202512090500 METAR WIHH 090500Z 03004KT 8000 SCT020 31/21 Q1008 NOSIG=
202512090430 METAR WIHH 090430Z 33004KT 8000 SCT020 31/23 Q1009 NOSIG=
202512090400 METAR WIHH 090400Z 33004KT 8000 SCT020 30/23 Q1009 NOSIG=
202512090330 METAR WIHH 090330Z 26003KT 8000 SCT020 29/23 Q1009 NOSIG=
202512090300 METAR WIHH 090300Z 27004KT 8000 SCT020 29/23 Q1010 NOSIG=
202512090230 METAR WIHH 090230Z 30004KT 8000 SCT020 28/23 Q1010 NOSIG=
202512090200 METAR WIHH 090200Z 23004KT 8000 SCT020 28/23 Q1010 NOSIG=
202512090130 METAR WIHH 090130Z 24006KT 8000 SCT020 27/23 Q1010 NOSIG=
202512090100 METAR WIHH 090100Z 30004KT 8000 SCT020 27/24 Q1010 NOSIG=
202512090030 METAR WIHH 090030Z 24005KT 8000 SCT020 27/24 Q1010 NOSIG=
202512090000 METAR WIHH 090000Z 26005KT 8000 SCT020 26/24 Q1010 NOSIG=
202512082330 METAR WIHH 082330Z 24007KT 9999 FEW020 27/23 Q1009 NOSIG=
202512082300 METAR WIHH 082300Z 22005KT 8000 SCT020 25/24 Q1009 NOSIG=
202512082230 METAR WIHH 082230Z 25004KT 8000 SCT020 25/24 Q1009 NOSIG=
202512082200 METAR WIHH 082200Z 25004KT 8000 FEW020 25/24 Q1009 NOSIG=
202512082130 METAR WIHH 082130Z 24005KT 8000 FEW020 26/24 Q1008 NOSIG=
202512082100 METAR WIHH 082100Z 00000KT 8000 26/23 Q1009=
202512082030 METAR WIHH 082030Z 24008KT 9999 FEW020 27/22 Q1008 NOSIG=
202512082000 METAR WIHH 082000Z 00000KT 6000 FEW020 26/23 Q1010=
202512081930 METAR WIHH 081930Z 26004KT 8000 SCT020 25/23 Q1010 NOSIG=
202512081900 METAR WIHH 081900Z 23004KT 8000 SCT020 25/23 Q1010 NOSIG=
202512081830 METAR WIHH 081830Z 24005KT 8000 SCT020 25/23 Q1010 NOSIG=
202512081800 METAR WIHH 081800Z 25005KT 8000 SCT020 26/23 Q1010 NOSIG=
202512081730 METAR WIHH 081730Z 24008KT 8000 SCT020 26/23 Q1010 NOSIG=
202512081700 METAR WIHH 081700Z 25008KT 9999 SCT020 26/23 Q1010 NOSIG=
202512081630 METAR WIHH 081630Z 25005KT 8000 SCT020 26/24 Q1010 NOSIG=
202512081600 METAR WIHH 081600Z 21006KT 9999 SCT020 25/22 Q1011 NOSIG=
202512081530 METAR WIHH 081530Z 25006KT 8000 SCT020 27/24 Q1010 NOSIG=
202512081500 METAR WIHH 081500Z 27008KT 8000 SCT020 27/24 Q1010 NOSIG=
202512081430 METAR WIHH 081430Z 28008KT 8000 SCT020 27/24 Q1010 NOSIG=
202512081400 METAR WIHH 081400Z 30005KT 6000 SCT018 27/24 Q1010 NOSIG=
202512081330 METAR WIHH 081330Z 25005KT 9999 SCT018 26/23 Q1010 NOSIG=
202512081300 METAR WIHH 081300Z 24006KT 6000 SCT018 27/24 Q1010 NOSIG=
202512081230 METAR WIHH 081230Z 25005KT 9999 SCT018 26/23 Q1009 NOSIG=
202512081200 METAR WIHH 081200Z 25008KT 6000 SCT018 28/24 Q1009 NOSIG=
202512081130 METAR WIHH 081130Z 24006KT 6000 SCT018 28/24 Q1009 RMK RA TO SE=
202512081100 METAR WIHH 081100Z 21004KT 6000 SCT018 28/24 Q1008 RMK RA TO SE=
202512081030 METAR WIHH 081030Z 26007KT 6000 SCT018 28/24 Q1007 RMK RA TO SE=
202512081000 METAR COR WIHH 081000Z 23008KT 6000 SCT018 28/24 Q1007 RMK RA TO SE=
202512080930 METAR WIHH 080930Z 22011KT 6000 SCT018 28/23 Q1007 RMK RA TO SE=
202512080900 METAR WIHH 080900Z 19012KT 5000 TS FEW017CB SCT018 29/23 Q1007 RMK CB AND RA TO S=
202512080830 METAR WIHH 080830Z 27013KT 6000 TS FEW017CB SCT018 31/24 Q1007 RMK CB AND RA TO SE-S=
202512080800 METAR WIHH 080800Z 27013KT 7000 FEW017CB SCT018 32/24 Q1007 RMK CB AN D RA TO S=
202512080730 METAR WIHH 080730Z 29010KT 9999 SCT018 33/22 Q1007 RMK RA TO S=
202512080700 METAR WIHH 080700Z 26008KT 9999 SCT018 33/22 Q1007 RMK RA TO NW=
202512080630 METAR WIHH 080630Z 26006KT 5000 -RA BKN015 FEW017CB 25/25 Q1010 TEMPO 3000 -TSRA BKN017 RMK CB TO N=
202512080600 METAR WIHH 080600Z 26008KT 9999 SCT018 33/23 Q1008 NOSIG=
202512080530 METAR WIHH 080530Z 21008KT 9999 SCT018 32/23 Q1009 NOSIG=
202512080500 METAR WIHH 080500Z 24010KT 9999 SCT018 32/23 Q1009 NOSIG=
202512080430 METAR WIHH 080430Z 26004KT 0500 -TSRA FEW015CB BKN017 26/24 Q1011 TEMPO TL0500 3000 -RA BKN017 RMK CB TO W=
202512080400 METAR WIHH 080400Z 30006KT 9999 SCT020 31/22 Q1010 NOSIG=
202512080330 METAR WIHH 080330Z 25007KT 9999 SCT020 31/23 Q1010 NOSIG=
202512080300 METAR WIHH 080300Z 24006KT 9999 SCT020 30/24 Q1011 NOSIG=
202512080230 METAR WIHH 080230Z 24006KT 9999 SCT020 29/23 Q1011 NOSIG=
202512080200 METAR WIHH 080200Z 23003KT 9999 SCT020 27/23 Q1011 NOSIG=
202512080130 METAR WIHH 080130Z 24004KT 9999 SCT020 27/23 Q1011 NOSIG=
202512080100 METAR WIHH 080100Z 26006KT 7000 SCT020 26/23 Q1011 NOSIG=
202512080030 METAR WIHH 080030Z 25008KT 7000 SCT020 26/23 Q1010 NOSIG=
202512080000 METAR WIHH 080000Z 28005KT 7000 SCT020 26/23 Q1010 NOSIG=
202512072330 METAR WIHH 072330Z 27005KT 6000 SCT020 25/24 Q1010 NOSIG=
202512072300 METAR WIHH 072300Z 26008KT 6000 SCT020 25/24 Q1009 NOSIG=
202512072230 METAR WIHH 072230Z 26005KT 6000 SCT020 25/24 Q1009 NOSIG=
202512072200 METAR WIHH 072200Z 28005KT 6000 SCT018 25/24 Q1009 NOSIG=
202512072130 METAR WIHH 072130Z 26007KT 6000 SCT018 26/24 Q1009 NOSIG=
202512072100 METAR WIHH 072100Z 27007KT 7000 SCT018 26/24 Q1009 NOSIG=
202512072030 METAR WIHH 072030Z 00000KT 7000 FEW020 25/23 Q1009 NOSIG=
202512072000 METAR WIHH 072000Z 24007KT 7000 FEW020 27/24 Q1008 NOSIG=
202512071930 METAR WIHH 071930Z 22003KT 7000 FEW020 25/23 Q1010 NOSIG=
202512071900 METAR WIHH 071900Z 00000KT 7000 FEW020 26/23 Q1010 NOSIG=
202512071830 METAR WIHH 071830Z 00000KT 7000 FEW020 26/23 Q1010 NOSIG=
202512071800 METAR WIHH 071800Z 20003KT 7000 FEW020 26/23 Q1010 NOSIG=
202512071730 METAR WIHH 071730Z 22004KT 8000 FEW020 26/22 Q1010 NOSIG=
202512071700 METAR WIHH 071700Z 18004KT 8000 FEW020 26/22 Q1010 NOSIG=
202512071630 METAR WIHH 071630Z 22005KT 8000 FEW020 27/22 Q1010 NOSIG=
202512071600 METAR WIHH 071600Z 20006KT 8000 FEW020 27/22 Q1010 NOSIG=
202512071530 METAR WIHH 071530Z 23003KT 8000 FEW020 27/23 Q1010 NOSIG=
202512071500 METAR WIHH 071500Z 20004KT 8000 FEW020 27/23 Q1010 NOSIG=
202512071430 METAR WIHH 071430Z 24006KT 8000 FEW020 27/22 Q1011 NOSIG=
202512071400 METAR WIHH 071400Z 25006KT 8000 FEW020 28/22 Q1010 NOSIG=
202512071330 METAR WIHH 071330Z 23006KT 8000 FEW018 28/23 Q1010 NOSIG=
202512071300 METAR WIHH 071300Z 24004KT 7000 FEW018 27/23 Q1010 NOSIG=
202512071230 METAR WIHH 071230Z 26003KT 7000 FEW018 27/24 Q1010 NOSIG=
202512071200 METAR WIHH 071200Z 21004KT 7000 SCT018 28/24 Q1009 NOSIG=
202512071130 METAR WIHH 071130Z 19007KT 6000 SCT018 27/24 Q1008 NOSIG=
202512071100 METAR WIHH 071100Z 18003KT 6000 SCT018 28/24 Q1008 NOSIG=
202512071030 METAR WIHH 071030Z 30006KT 7000 SCT017 30/23 Q1007 NOSIG=
202512071000 METAR WIHH 071000Z 27007KT 7000 SCT017 31/24 Q1005 NOSIG RMK RA TO SE=
202512070930 METAR WIHH 070930Z 35007KT 7000 SCT017 32/24 Q1005 NOSIG=
202512070900 METAR WIHH 070900Z 28007KT 7000 SCT017 33/24 Q1005 NOSIG=
202512070830 METAR WIHH 070830Z 03008KT 6000 SCT017 33/24 Q1005 RMK RA TO NW=
202512070800 METAR WIHH 070800Z 33008KT 7000 SCT017 34/24 Q1005 NOSIG=
202512070730 METAR WIHH 070730Z 25008KT 7000 SCT017 34/24 Q1006 NOSIG=
202512070700 METAR WIHH 070700Z 32005KT 6000 SCT018 32/24 Q1007 NOSIG=
202512070630 METAR WIHH 070630Z 33007KT 6000 SCT018 32/23 Q1007 NOSIG=
202512070600 METAR WIHH 070600Z 35005KT 6000 SCT018 33/24 Q1008 NOSIG=
202512070530 METAR WIHH 070530Z 36006KT 6000 SCT018 32/24 Q1008 NOSIG=
202512070500 METAR WIHH 070500Z 35004KT 6000 SCT018 32/23 Q1009 NOSIG=
202512070430 METAR WIHH 070430Z 24004KT 5000 HZ SCT018 31/23 Q1009 NOSIG=
202512070400 METAR WIHH 070400Z 25003KT 5000 HZ SCT018 30/24 Q1010 NOSIG=
202512070330 METAR WIHH 070330Z 29003KT 5000 HZ SCT018 30/24 Q1010 RMK RA TO W=
202512070300 METAR WIHH 070300Z 21006KT 6000 SCT018 30/24 Q1010 NOSIG=
202512070230 METAR WIHH 070230Z 28003KT 6000 SCT018 30/24 Q1011 NOSIG=
202512070200 METAR WIHH 070200Z 26003KT 6000 SCT018 29/24 Q1009 NOSIG=
202512070130 METAR WIHH 070130Z 29003KT 6000 SCT020 29/24 Q1011 NOSIG=
202512070100 METAR WIHH 070100Z 24003KT 5000 HZ SCT020 28/24 Q1011 NOSIG=
202512070030 METAR WIHH 070030Z 19003KT 4000 HZ SCT020 27/23 Q1011 NOSIG=
202512070000 METAR WIHH 070000Z 23004KT 6000 SCT018 26/24 Q1009 NOSIG=
202512062330 METAR WIHH 062330Z 00000KT 4000 HZ SCT017 26/24 Q1010 NOSIG=
202512062300 METAR WIHH 062300Z 00000KT 4000 BR SCT017 25/24 Q1010 NOSIG=
202512062230 METAR WIHH 062230Z 24003KT 5000 BR SCT017 25/24 Q1010 NOSIG=
202512062200 METAR WIHH 062200Z 30003KT 6000 SCT020 25/24 Q1009 NOSIG=
202512062130 METAR WIHH 062130Z 00000KT 6000 SCT020 25/24 Q1009 NOSIG=
202512062100 METAR WIHH 062100Z 00000KT 6000 SCT020 25/24 Q1009=
202512062030 METAR WIHH 062030Z 19003KT 6000 SCT020 25/24 Q1009 NOSIG=
202512062000 METAR WIHH 062000Z 22002KT 6000 SCT020 25/24 Q1009=
202512061930 METAR WIHH 061930Z 00000KT 8000 SCT020 25/24 Q1008 NOSIG=
202512061900 METAR WIHH 061900Z 00000KT 8000 SCT020 26/24 Q1008 NOSIG=
202512061830 METAR WIHH 061830Z 26003KT 6000 SCT018 26/25 Q1010 NOSIG=
202512061800 METAR WIHH 061800Z 22003KT 6000 SCT018 26/25 Q1010 NOSIG=
202512061730 METAR WIHH 061730Z 21003KT 6000 SCT018 26/25 Q1010 NOSIG=
202512061700 METAR WIHH 061700Z 23003KT 6000 SCT018 26/25 Q1010 NOSIG=
202512061630 METAR WIHH 061630Z 26004KT 6000 SCT018 26/25 Q1011 NOSIG=
202512061600 METAR WIHH 061600Z 24004KT 6000 SCT018 26/25 Q1011 NOSIG=
202512061530 METAR WIHH 061530Z 21004KT 6000 SCT018 26/25 Q1011 TEMPO FM1600 4000 -RA BKN015 RMK RA TO N=
202512061500 METAR WIHH 061500Z 25004KT 6000 SCT018 26/25 Q1011 NOSIG=
202512061430 METAR WIHH 061430Z 18004KT 6000 SCT018 26/25 Q1011 NOSIG=
202512061400 METAR WIHH 061400Z 24004KT 6000 SCT018 26/25 Q1011 NOSIG=
202512061330 METAR WIHH 061330Z 20005KT 6000 SCT018 26/25 Q1010 NOSIG=
202512061300 METAR WIHH 061300Z 21003KT 6000 SCT017 26/25 Q1010 NOSIG=
202512061230 METAR WIHH 061230Z 04006KT 6000 -RA SCT017 FEW018CB 27/25 Q1010 RMK CB TO SW=
202512061200 METAR WIHH 061200Z 03006KT 6000 TS SCT017 FEW018CB 27/25 Q1009 RMK CB AND RA TO S-SW=
202512061130 METAR WIHH 061130Z 09004KT 6000 TS SCT017 FEW018CB 27/25 Q1009 TEMPO FM1145 3000 -TSRA BKN015 RMK CB AND RA TO SE-S=
202512061100 METAR WIHH 061100Z 03006KT 6000 TS SCT017 FEW018CB 28/24 Q1009 TEMPO FM1130 3000 -TSRA BKN015 RMK CB AND RA TO N-NE=
202512061030 METAR WIHH 061030Z 24015KT 7000 SCT016 29/23 Q1007 NOSIG=
202512061000 METAR WIHH 061000Z 33005KT 6000 FEW017CB SCT018 29/24 Q1008 RMK CB AND RA TO SE=
202512060930 METAR WIHH 060930Z 33004KT 6000 SCT018 29/25 Q1008 RMK RA TO S=
202512060900 METAR WIHH 060900Z 24016KT 7000 SCT016 30/23 Q1006 NOSIG=
202512060830 METAR WIHH 060830Z 03006KT 6000 SCT018 29/26 Q1008 RMK RA TO SE=
202512060800 METAR WIHH 060800Z 36006KT 5000 -RA SCT018 28/26 Q1008 NOSIG=
202512060730 METAR WIHH 060730Z 31004KT 5000 -RA SCT018 28/26 Q1008 NOSIG=
202512060700 METAR WIHH 060700Z 34004KT 5000 -RA SCT018 27/26 Q1008 NOSIG=
202512060630 METAR WIHH 060630Z 03005KT 4000 -RA SCT017 27/25 Q1009 NOSIG=
202512060600 METAR WIHH 060600Z 33005KT 6000 FEW017CB SCT018 30/24 Q1009 TEMPO FM0620 3000 -RA BKN015 RMK CB AND RA TO NE=
202512060530 METAR WIHH 060530Z 03006KT 6000 SCT018 32/23 Q1009 NOSIG=
202512060500 METAR WIHH 060500Z 36007KT 6000 SCT018 32/23 Q1010 NOSIG=
202512060430 METAR WIHH 060430Z 07005KT 6000 SCT018 31/22 Q1010 NOSIG=
202512060400 METAR WIHH 060400Z 33003KT 6000 SCT018 31/22 Q1011 NOSIG=
202512060330 METAR WIHH 060330Z 36005KT 6000 SCT018 30/22 Q1011 NOSIG=
202512060300 METAR WIHH 060300Z 03004KT 6000 SCT016 FEW017CB 31/22 Q1011 RMK CB TO N=
202512060230 METAR WIHH 060230Z 03006KT 4000 HZ FEW018 30/24 Q1012 NOSIG=
202512060200 METAR WIHH 060200Z 24003KT 4000 HZ FEW020 29/23 Q1012 NOSIG=
202512060130 METAR WIHH 060130Z 03005KT 4000 HZ FEW020 29/24 Q1012 NOSIG=
202512060100 METAR WIHH 060100Z 21003KT 4000 HZ FEW020 28/24 Q1012 NOSIG=
202512060030 METAR WIHH 060030Z 21003KT 4000 BR FEW020 24/24 Q1011 NOSIG=
202512060000 METAR WIHH 060000Z 18003KT 3000 BR FEW020 24/24 Q1011 NOSIG=
202512052330 METAR WIHH 052330Z 00000KT 3000 BR FEW020 24/24 Q1011 NOSIG=
202512052300 METAR WIHH 052300Z 00000KT 1500 BR FEW020 24/24 Q1010 NOSIG=
202512052230 METAR WIHH 052230Z 00000KT 2000 BR FEW020 24/24 Q1010 NOSIG=
202512052200 METAR WIHH 052200Z 00000KT 2000 BR FEW020 24/24 Q1010 NOSIG=
202512052130 METAR WIHH 052130Z 15002KT 5000 BR FEW020 23/23 Q1009 NOSIG=
202512052100 METAR WIHH 052100Z 25002KT 5000 BR FEW020 23/23 Q1009 NOSIG=
202512052030 METAR WIHH 052030Z 24005KT 9999 FEW020 26/23 Q1008 NOSIG=
202512052000 METAR WIHH 052000Z 00000KT 7000 FEW020 25/23 Q1010 NOSIG=
202512051930 METAR WIHH 051930Z 00000KT 7000 25/23 Q1010 NOSIG=
202512051900 METAR WIHH 051900Z 22005KT 8000 SCT020 25/23 Q1010 NOSIG=
202512051830 METAR WIHH 051830Z 00000KT 5000 HZ FEW017 24/24 Q1010 NOSIG=
202512051800 METAR WIHH 051800Z 00000KT 5000 HZ FEW017 24/24 Q1010 NOSIG=
202512051730 METAR WIHH 051730Z 00000KT 5000 HZ FEW017 24/24 Q1010 NOSIG=
202512051700 METAR WIHH 051700Z 00000KT 5000 HZ FEW017 24/24 Q1011 NOSIG=
202512051630 METAR WIHH 051630Z 24015KT 9999 SCT020 26/22 Q1011 NOSIG=
202512051600 METAR WIHH 051600Z 00000KT 5000 HZ SCT015 25/25 Q1011 NOSIG=
202512051530 METAR WIHH 051530Z 00000KT 4000 BR BKN015 25/25 Q1011 NOSIG=
202512051500 METAR WIHH 051500Z 00000KT 4000 BR BKN015 25/25 Q1011 NOSIG=
202512051430 METAR WIHH 051430Z 15003KT 4000 BR BKN015 24/24 Q1011 RMK RA TO E=
202512051400 METAR WIHH 051400Z 28003KT 4000 BR BKN015 24/24 Q1011 RMK RA TO E=
202512051330 METAR WIHH 051330Z 10003KT 4000 BR BKN015 24/24 Q1011 RMK RA TO E=
202512051300 METAR WIHH 051300Z 24010KT 9999 SCT020 28/20 Q1009 NOSIG=
202512051230 METAR WIHH 051230Z 24010KT 9999 SCT020 28/21 Q1009 NOSIG=
202512051200 METAR WIHH 051200Z 16004KT 4000 -RA BKN015 FEW017CB 24/24 Q1010 RMK CB TO NE=
202512051130 METAR WIHH 051130Z 19006KT 4000 -TSRA BKN015 25/24 Q1010 RMK CB TO N=
202512051100 METAR WIHH 051100Z 17008KT 4000 -TSRA BKN015 FEW017CB 25/24 Q1010 RMK CB TO N=
202512051030 METAR WIHH 051030Z 17010KT 4000 -TSRA BKN015 FEW017CB 25/24 Q1010 RMK CB TO N=
202512051000 METAR WIHH 051000Z 19010KT 4000 -TSRA BKN015 FEW017CB 25/23 Q1010 RMK CB TO N=
202512050930 METAR WIHH 050930Z 24018KT 9999 SCT018 30/23 Q1007 NOSIG=
202512050900 METAR WIHH 050900Z 30005KT 6000 TS SCT016 FEW018CB 30/23 Q1008 RMK CB AND RA TO S=
202512050830 METAR WIHH 050830Z 34005KT 6000 TS SCT016 FEW018CB 30/22 Q1008 NOSIG RMK CB AND RA TO S=
202512050800 METAR WIHH 050800Z 29008KT 6000 SCT016 FEW018CB 31/22 Q1008 RMK CB AND RA TO S=
202512050730 METAR WIHH 050730Z 02007KT 6000 SCT016 32/22 Q1008 RMK RA TO N-S=
202512050700 METAR WIHH 050700Z 24015KT 9999 SCT018 32/23 Q1007 NOSIG=
202512050630 METAR WIHH 050630Z 02005KT 6000 SCT016 FEW018CB 33/23 Q1009 RMK CB AN D RA TO NW=
202512050600 METAR WIHH 050600Z 03007KT 6000 SCT016 FEW018CB 33/23 Q1009 TEMPO FM0630 4000 -TSRA BKN016 RMK CB AND RA TO N=
202512050530 METAR WIHH 050530Z 02005KT 8000 SCT018 34/23 Q1009 NOSIG=
202512050500 METAR WIHH 050500Z 18003KT 8000 SCT018 33/21 Q1010 NOSIG=
202512050430 METAR WIHH 050430Z 24015KT 9999 SCT018 30/23 Q1009 NOSIG=
202512050400 METAR WIHH 050400Z 24015KT 9999 SCT018 31/23 Q1010 NOSIG=
202512050330 METAR WIHH 050330Z 24003KT 8000 FEW020 32/22 Q1012 NOSIG=
202512050300 METAR WIHH 050300Z 23003KT 8000 FEW022 31/22 Q1012 NOSIG=
202512050230 METAR WIHH 050230Z 24003KT 8000 FEW022 30/22 Q1012 NOSIG=
202512050200 METAR WIHH 050200Z 22003KT 8000 FEW022 30/22 Q1012 NOSIG=
202512050130 METAR WIHH 050130Z 28003KT 8000 NSC 28/22 Q1012 NOSIG=
202512050100 METAR WIHH 050100Z 21003KT 8000 NSC 28/23 Q1012 NOSIG=
202512050030 METAR WIHH 050030Z 23005KT 8000 NSC 26/23 Q1012 NOSIG=
202512050000 METAR WIHH 050000Z 22006KT 7000 NSC 26/23 Q1012 NOSIG=
202512042330 METAR WIHH 042330Z 23003KT 7000 FEW020 24/24 Q1011 NOSIG=
202512042300 METAR WIHH 042300Z 24003KT 7000 FEW020 24/23 Q1011 NOSIG=
202512042230 METAR WIHH 042230Z 23003KT 4000 BR SCT020 23/23 Q1011 NOSIG=
202512042200 METAR WIHH 042200Z 22003KT 4000 BR SCT020 24/23 Q1010 NOSIG=
202512042130 METAR WIHH 042130Z 24003KT 4000 BR SCT020 24/23 Q1010 NOSIG=
202512042100 METAR WIHH 042100Z 22003KT 4000 SCT020 24/23 Q1010=
202512042030 METAR WIHH 042030Z 00000KT 5000 HZ SCT020 24/23 Q1011 NOSIG=
202512042000 METAR WIHH 042000Z 00000KT 6000 SCT020 24/23 Q1011 NOSIG=
202512041930 METAR WIHH 041930Z 00000KT 6000 SCT020 24/23 Q1011 NOSIG=
202512041900 METAR WIHH 041900Z 00000KT 6000 SCT020 24/23 Q1011 NOSIG=
202512041830 METAR WIHH 041830Z 00000KT 6000 SCT020 24/24 Q1011 NOSIG=
202512041800 METAR WIHH 041800Z 00000KT 6000 SCT020 24/24 Q1011 NOSIG=
202512041730 METAR WIHH 041730Z 00000KT 6000 FEW020 25/24 Q1009 NOSIG=
202512041700 METAR WIHH 041700Z 25004KT 6000 SCT018 24/24 Q1011 NOSIG=
202512041630 METAR WIHH 041630Z 22004KT 6000 SCT018 24/24 Q1012 NOSIG=
202512041600 METAR WIHH 041600Z 24005KT 6000 SCT018 24/24 Q1012 NOSIG=
202512041530 METAR WIHH 041530Z 24003KT 6000 SCT018 24/24 Q1012 NOSIG=
202512041500 METAR WIHH 041500Z 00000KT 6000 SCT018 24/24 Q1012 NOSIG=
202512041430 METAR WIHH 041430Z 28003KT 6000 -RA SCT018 24/24 Q1012 NOSIG=
202512041400 METAR WIHH 041400Z 00000KT 6000 RA SCT018 24/24 Q1012 NOSIG=
202512041330 METAR WIHH 041330Z 13004KT 7000 SCT020 28/23 Q1010 NOSIG=
202512041300 METAR WIHH 041300Z 29003KT 6000 -RA SCT018 24/24 Q1012 NOSIG=
202512041230 METAR WIHH 041230Z 23003KT 6000 -RA SCT018 24/24 Q1012 NOSIG=
202512041200 METAR WIHH 041200Z 22003KT 5000 -RA SCT018 24/24 Q1011 NOSIG=
202512041130 METAR WIHH 041130Z 15004KT 5000 -RA SCT017 24/24 Q1011 NOSIG=
202512041100 METAR WIHH 041100Z 13003KT 4000 -RA SCT017 25/24 Q1011 NOSIG=
202512041030 METAR WIHH 041030Z 16003KT 4000 -RA SCT017 25/24 Q1011 NOSIG=
202512041000 METAR WIHH 041000Z 20003KT 4000 -RA SCT017 25/24 Q1011 NOSIG=
202512040930 METAR WIHH 040930Z 15004KT 4000 -RA SCT016 FEW017CB 25/24 Q1011 RMK C B TO NW=
202512040900 METAR WIHH 040900Z 17003KT 4000 -RA SCT016 FEW017CB 25/25 Q1011 RMK C B TO W=
202512040830 METAR WIHH 040830Z 11004KT 4000 -RA SCT016 FEW017CB 24/24 Q1010 RMK CB TO NW=
202512040800 METAR WIHH 040800Z 18005KT 3000 -TSRA BKN016 FEW017CB 24/24 Q1010 RMK CB TO NW=
202512040730 METAR WIHH 040730Z 02007KT 8000 SCT016 32/25 Q1007 NOSIG=
202512040700 METAR WIHH 040700Z 13006KT 3000 -TSRA BKN016 FEW017CB 24/24 Q1011 RMK CB TO N=
202512040630 METAR WIHH 040630Z 03008KT 3000 -TSRA BKN015 FEW017CB 25/24 Q1011 RMK CB OTF=
202512040600 METAR WIHH 040600Z 06005KT 2000 -TSRA BKN015 FEW016CB 24/24 Q1011 RMK CB OTF=
202512040530 METAR WIHH 040530Z 05006KT 1500 -TSRA BKN014 FEW016CB 24/24 Q1011 RMK CB OTF=
202512040500 METAR WIHH 040500Z 36015KT 0500 TSRA BKN014 FEW016CB 27/25 Q1011 RMK CB OTF=
202512040430 METAR WIHH 040430Z 23007KT 5000 HZ FEW017 SCT018 32/25 Q1011 RMK CB A ND RA TO NW-NE=
202512040400 METAR WIHH 040400Z 23005KT 5000 HZ SCT018 31/24 Q1011 RMK RA TO N AND SE=
202512040330 METAR WIHH 040330Z 23006KT 5000 HZ SCT018 31/25 Q1011 RMK RA TO NE AN D SE=
202512040300 METAR WIHH 040300Z 23007KT 5000 HZ SCT018 30/24 Q1012 NOSIG=
202512040230 METAR WIHH 040230Z 23006KT 5000 SCT018 30/24 Q1012 NOSIG=
202512040200 METAR WIHH 040200Z 19004KT 4000 HZ SCT018 29/25 Q1012 NOSIG=
202512040130 METAR WIHH 040130Z 19004KT 4000 HZ SCT018 29/25 Q1012 NOSIG=
202512040100 METAR WIHH 040100Z 24004KT 4000 HZ SCT018 28/25 Q1011 NOSIG=
202512040030 METAR WIHH 040030Z 24004KT 4000 BR SCT018 26/25 Q1011 NOSIG=
202512040000 METAR WIHH 040000Z 00000KT 4000 BR SCT018 26/25 Q1011 NOSIG=
202512032330 METAR WIHH 032330Z 20003KT 6000 FEW020 25/24 Q1010 NOSIG=
202512032300 METAR WIHH 032300Z 00000KT 4000 BR FEW020 24/24 Q1010 NOSIG=
202512032230 METAR WIHH 032230Z 00000KT 4000 BR SCT018 25/25 Q1010=
202512032200 METAR WIHH 032200Z 24003KT 4000 BR SCT018 25/25 Q1010 NOSIG=
202512032130 METAR WIHH 032130Z 00000KT 4000 BR SCT018 25/25 Q1009 NOSIG=
202512032100 METAR WIHH 032100Z 00000KT 4000 BR SCT018 25/25 Q1009 NOSIG=
202512032030 METAR WIHH 032030Z 00000KT 4000 SCT018 25/25 Q1009 NOSIG=
202512032000 METAR WIHH 032000Z 00000KT 4000 SCT018 25/25 Q1008 NOSIG=
202512031930 METAR WIHH 031930Z 00000KT 4000 BR SCT018 25/25 Q1009 NOSIG=
202512031900 METAR WIHH 031900Z 00000KT 4000 BR SCT018 25/25 Q1009 NOSIG=
202512031830 METAR WIHH 031830Z 00000KT 4000 BR SCT001 25/25 Q1010 NOSIG=
202512031800 METAR WIHH 031800Z 27003KT 4000 BR SCT017 25/25 Q1010 NOSIG=
202512031730 METAR WIHH 031730Z 27005KT 4000 BR SCT017 25/25 Q1010 NOSIG=
202512031700 METAR WIHH 031700Z 27003KT 4000 BR SCT017 25/25 Q1010 NOSIG=
202512031630 METAR WIHH 031630Z 00000KT 4000 BR SCT017 25/25 Q1011 NOSIG=
202512031600 METAR WIHH 031600Z 00000KT 4000 BR 25/25 Q1011 NOSIG=
202512031530 METAR WIHH 031530Z 00000KT 4000 BR SCT018 25/25 Q1012 NOSIG=
202512031500 METAR WIHH 031500Z 00000KT 7000 FEW020 25/24 Q1011 NOSIG=
202512031430 METAR WIHH 031430Z 00000KT 8000 SCT018 25/24 Q1011 NOSIG=
202512031400 METAR WIHH 031400Z 00000KT 8000 SCT018 25/24 Q1011 NOSIG=
202512031330 METAR WIHH 031330Z 03003KT 7000 SCT018 25/24 Q1011 NOSIG=
202512031300 METAR WIHH 031300Z 06003KT 7000 SCT018 25/24 Q1011 NOSIG=
202512031230 METAR WIHH 031230Z 18003KT 5000 BR SCT018 25/25 Q1011 NOSIG=
202512031200 METAR WIHH 031200Z 23003KT 7000 SCT018 25/24 Q1010 NOSIG=
202512031130 METAR WIHH 031130Z 24004KT 5000 HZ SCT017 25/25 Q1010 NOSIG=
202512031100 METAR WIHH 031100Z 19004KT 6000 SCT018 25/23 Q1009 NOSIG=
202512031030 METAR WIHH 031030Z 18008KT 5000 -RA SCT016 25/24 Q1009 NOSIG=
202512031000 METAR WIHH 031000Z 24008KT 4000 -TSRA FEW017CB SCT018 25/24 Q1008 TEM PO TL1025 5000 -RA RMK CB TO SE=
202512030930 METAR WIHH 030930Z 33006KT 4000 -TSRA BKN016 FEW017CB 25/23 Q1009 RMK CB OVER THE FIELD=
202512030900 METAR WIHH 030900Z 15006KT 5000 -TSRA BKN016 25/24 Q1008 RMK CB TO E=
202512030830 METAR WIHH 030830Z 14005KT 5000 -TSRA BKN016 FEW017CB 25/23 Q1009 RMK CB TO SE-S=
202512030800 METAR WIHH 030800Z 18010KT 4000 TS FEW017CB BKN018 28/23 Q1008 TEMPO FM08.25 2000 TSRA RMK CB AND RA TO SW - W=
202512030730 METAR WIHH 030730Z 27005KT 3000 TS BKN016 29/25 Q1007 TEMPO FM0745 2000 RMK CB AND RA TO W - NW=
202512030700 METAR WIHH 030700Z 33008KT 4000 SCT016 FEW017CB 30/25 Q1007 TEMPO FM0720 2000 -TSRA BKN015 RMK CB AND RA TO SW-W=
202512030630 METAR WIHH 030630Z 34008KT 7000 TS FEW017CB SCT018 34/24 Q1007 RMK CB AND RA TO SE-S=
202512030600 METAR WIHH 030600Z 03006KT 6000 SCT016 33/24 Q1008 NOSIG RMK CB TO N - NE=
202512030530 METAR WIHH 030530Z 05010KT 6000 SCT018 33/22 Q1009 NOSIG=
202512030500 METAR WIHH 030500Z 03008KT 6000 SCT018 33/23 Q1009 NOSIG=
202512030430 METAR WIHH 030430Z 33004KT 7000 SCT018 33/21 Q1010 NOSIG=
202512030400 METAR WIHH 030400Z 09005KT 6000 SCT018 33/24 Q1010 NOSIG=
202512030330 METAR WIHH 030330Z 09003KT 6000 FEW020 31/24 Q1010 NOSIG=
202512030300 METAR WIHH 030300Z 15003KT 6000 FEW017 31/24 Q1010 NOSIG=
202512030230 METAR WIHH 030230Z 15005KT 6000 FEW017 30/24 Q1011 NOSIG=
202512030200 METAR WIHH 030200Z 15005KT 6000 FEW017 30/24 Q1011 NOSIG=
202512030130 METAR WIHH 030130Z 00000KT 6000 FEW020 29/24 Q1011 NOSIG=
202512030100 METAR WIHH 030100Z 09006KT 5000 SCT017 28/24 Q1011 NOSIG=
202512030030 METAR WIHH 030030Z 09004KT 5000 HZ SCT020 27/25 Q1011 NOSIG=
202512030000 METAR WIHH 030000Z 06004KT 4000 HZ SCT020 26/25 Q1010 NOSIG=
202512022330 METAR WIHH 022330Z 00000KT 4000 BR SCT020 25/25 Q1010 NOSIG=
202512022300 METAR WIHH 022300Z 00000KT 4000 BR SCT018 24/24 Q1010 NOSIG=
202512022230 METAR WIHH 022230Z 32003KT 4000 BR SCT018 24/24 Q1009 NOSIG=
202512022200 METAR WIHH 022200Z 28003KT 4000 BR SCT018 25/24 Q1009 NOSIG=
202512022130 METAR WIHH 022130Z 26003KT 4000 BR SCT018 25/24 Q1009 NOSIG=
202512022100 METAR WIHH 022100Z 25003KT 4000 SCT018 25/24 Q1009=
202512022030 METAR WIHH 022030Z 00000KT 6000 FEW020 24/24 Q1010 RMK NOSIG=
202512022000 METAR WIHH 022000Z 00000KT 6000 FEW020 24/24 Q1010 NOSIG=
202512021930 METAR WIHH 021930Z 00000KT 6000 FEW020 24/24 Q1010 NOSIG=
202512021900 METAR WIHH 021900Z 00000KT 6000 FEW020 25/24 Q1010 NOSIG=
202512021830 METAR WIHH 021830Z 22003KT 4000 BR SCT018 25/25 Q1010 NOSIG=
202512021800 METAR WIHH 021800Z 25002KT 4000 SCT018 25/25 Q1010=
202512021730 METAR WIHH 021730Z 20003KT 8000 FEW020 25/24 Q1011 NOSIG=
202512021700 METAR WIHH 021700Z 25002KT 4000 BR SCT018 25/25 Q1011 NOSIG=
202512021630 METAR WIHH 021630Z 22003KT 4000 BR SCT018 25/25 Q1011 NOSIG=
202512021600 METAR WIHH 021600Z 26003KT 4000 BR SCT018 25/25 Q1011 NOSIG=
202512021530 METAR WIHH 021530Z 22003KT 4000 BR SCT018 25/25 Q1011 NOSIG=
202512021500 METAR WIHH 021500Z 24003KT 4000 BR SCT018 25/25 Q1011 NOSIG=
202512021430 METAR WIHH 021430Z 21003KT 4000 BR SCT018 25/25 Q1011 NOSIG=
202512021400 METAR WIHH 021400Z 25003KT 4000 BR SCT017 25/25 Q1011 RMK RA TO SE=
202512021330 METAR WIHH 021330Z 26003KT 4000 BR SCT017 25/25 Q1011 RMK RA TO SE=
202512021300 METAR WIHH 021300Z 25003KT 4000 BR SCT017 25/24 Q1010 RMK RA TO SE=
202512021230 METAR WIHH 021230Z 26003KT 4000 BR SCT017 25/25 Q1010 RMK RA TO SW=
202512021200 METAR WIHH 021200Z 19003KT 4000 HZ SCT017 25/24 Q1010 RMK RA TO SW=
202512021130 METAR WIHH 021130Z 18004KT 5000 HZ SCT017 25/25 Q1010 RMK RA TO SW=
202512021100 METAR WIHH 021100Z 23006KT 5000 SCT017 25/25 Q1009 RMK RA TO SW=
202512021030 METAR WIHH 021030Z 27003KT 5000 HZ SCT017 25/25 Q1009 RMK CB AND RA TO SW=
202512021000 METAR WIHH 021000Z 25003KT 5000 -TSRA SCT016 FEW017CB 25/25 Q1008 RMK CB TO SW=
202512020930 METAR WIHH 020930Z 06006KT 2000 -TSRA SCT016 FEW017CB 25/24 Q1009 TEMPO TL1000 4000 -RA RMK CB TO S-SW=
202512020900 METAR WIHH 020900Z 18006KT 3000 -TSRA SCT016 FEW017CB 25/24 Q1008 RMK CB TO S-SW=
202512020830 METAR WIHH 020830Z 12005KT 6000 SCT017 28/24 Q1008 RMK RA TO E=
202512020800 METAR WIHH 020800Z 16005KT 6000 -RA SCT016 FEW017CB 25/24 Q1008 RMK CB TO S=
202512020730 METAR WIHH 020730Z 24005KT 6000 -RA SCT016 FEW017CB 25/24 Q1008 RMK CB TO SW=
202512020700 METAR WIHH 020700Z 11025KT 0200 +TSRA BKN013 FEW016CB 24/22 Q1009 TEM PO TL0800 3000 -TSRA RMK CB OTF=
202512020630 METAR WIHH 020630Z 23015KT 1000 TSRA BKN013 FEW016CB 24/22 Q1009 TEMPO TL0700 3000 -TSRA RMK CB OTF=
202512020600 METAR WIHH 020600Z 09004KT 5000 -TSRA SCT016 FEW017CB 30/24 Q1009 RMK CB TO SW - W=
202512020530 METAR WIHH 020530Z 34008KT 4000 -TSRA SCT015 FEW017CB 32/24 Q1009 RMK CB OTF=
202512020500 METAR WIHH 020500Z 33005KT 5000 HZ FEW017CB SCT018 33/24 Q1010 RMK CB AND RA TO NE AND SE=
202512020430 METAR WIHH 020430Z 36003KT 5000 HZ SCT018 33/24 Q1010 NOSIG RMK RA TO N AND SE=
202512020400 METAR WIHH 020400Z 12003KT 5000 HZ SCT018 33/23 Q1010 NOSIG=
202512020330 METAR WIHH 020330Z 18003KT 5000 HZ SCT018 32/23 Q1011 NOSIG=
202512020300 METAR WIHH 020300Z 09005KT 6000 SCT020 32/24 Q1012 NOSIG=
202512020230 METAR WIHH 020230Z 18003KT 5000 HZ SCT018 31/23 Q1011 NOSIG=
202512020200 METAR WIHH 020200Z 12003KT 5000 HZ SCT020 31/24 Q1011 NOSIG=
202512020130 METAR WIHH 020130Z 36004KT 5000 HZ FEW020 30/24 Q1011 NOSIG=
202512020100 METAR WIHH 020100Z 14004KT 5000 HZ FEW020 29/24 Q1011 NOSIG=
202512020030 METAR WIHH 020030Z 18004KT 6000 FEW020 28/24 Q1012 NOSIG=
202512020000 METAR WIHH 020000Z 09003KT 5000 HZ SCT016 27/24 Q1011 NOSIG=
202512012330 METAR WIHH 012330Z 24003KT 4000 BR 25/25 Q1011 NOSIG=
202512012300 METAR WIHH 012300Z 20003KT 4000 SCT016 25/25 Q1010 NOSIG=
202512012230 METAR WIHH 012230Z 16003KT 7000 FEW020 25/24 Q1010 NOSIG=
202512012200 METAR WIHH 012200Z 00000KT 7000 NSC 25/23 Q1010 NOSIG=
202512012130 METAR WIHH 012130Z 20003KT 7000 FEW020 25/24 Q1009 NOSIG=
202512012100 METAR WIHH 012100Z 09003KT 7000 25/24 Q1009 NOSIG=
202512012030 METAR WIHH 012030Z 16005KT 7000 FEW020 25/24 Q1009 NOSIG=
202512012000 METAR WIHH 012000Z 16003KT 7000 FEW020 25/24 Q1009 NOSIG=
202512011930 METAR WIHH 011930Z 16004KT 7000 FEW020 25/24 Q1009 NOSIG=
202512011900 METAR WIHH 011900Z 17004KT 7000 FEW020 25/24 Q1009 NOSIG=
202512011830 METAR WIHH 011830Z 00000KT 7000 FEW020 24/24 Q1010 NOSIG=
202512011800 METAR WIHH 011800Z 18003KT 7000 FEW020 25/24 Q1010 NOSIG=
202512011730 METAR WIHH 011730Z 25003KT 7000 FEW020 25/24 Q1010 NOSIG=
202512011700 METAR WIHH 011700Z 27003KT 7000 FEW020 25/24 Q1010 NOSIG=
202512011630 METAR WIHH 011630Z 09004KT 6000 FEW020 26/24 Q1010 NOSIG=
202512011600 METAR WIHH 011600Z 17003KT 7000 FEW020 26/24 Q1011 NOSIG=
202512011530 METAR WIHH 011530Z 27002KT 7000 FEW020 26/23 Q1011 NOSIG=
202512011500 METAR WIHH 011500Z 24003KT 7000 FEW020 26/23 Q1011 NOSIG=
202512011430 METAR WIHH 011430Z 23003KT 6000 FEW020 26/24 Q1011 NOSIG=
202512011400 METAR WIHH 011400Z 26003KT 7000 FEW020 26/24 Q1011 NOSIG=
202512011330 METAR WIHH 011330Z 28004KT 7000 FEW018 26/24 Q1011 NOSIG=
202512011300 METAR WIHH 011300Z 24004KT 7000 FEW018 26/24 Q1010 NOSIG=
202512011230 METAR WIHH 011230Z 24003KT 6000 FEW018 26/24 Q1010 NOSIG=
202512011200 METAR WIHH 011200Z 24005KT 6000 FEW017 26/24 Q1009 NOSIG=
202512011130 METAR WIHH 011130Z 12004KT 6000 FEW016 26/24 Q1009 NOSIG=
202512011100 METAR WIHH 011100Z 23004KT 6000 FEW017CB SCT018 26/24 Q1009 NOSIG RMK CB AND RA TO SE=
202512011030 METAR WIHH 011030Z 18004KT 6000 FEW017CB SCT018 26/24 Q1009 NOSIG RMK CB AND RA TO SE=
202512011000 METAR WIHH 011000Z 22007KT 6000 FEW017CB SCT018 26/24 Q1009 NOSIG RMK CB AND RA TO SW=
202512010930 METAR WIHH 010930Z 33008KT 6000 TS FEW017CB SCT018 32/24 Q1008=
202512010900 METAR WIHH 010900Z 21008KT 5000 -TSRA BKN016 FEW017CB 26/23 Q1009 RMK CB AND RA TO SW-W=
202512010830 METAR WIHH 010830Z 24012KT 5000 BKN016 FEW017CB 31/23 Q1009 TEMPO FM0840 5000 -TSRA RMK CB AND RA TO W - NW=
202512010800 METAR WIHH 010800Z 36008KT 5000 VCTS SCT016 FEW017CB 31/23 Q1008 NOSIG RMK CB AND RA TO SE - S=
202512010730 METAR WIHH 010730Z 33006KT 6000 FEW017CB SCT018 32/23 Q1008 NOSIG RMK CB AND RA TO SE=
202512010700 METAR WIHH 010700Z 36008KT 6000 SCT016 FEW017CB 32/24 Q1008 NOSIG RMK CB AND RA TO SE=
202512010630 METAR WIHH 010630Z 35005KT 6000 SCT017 FEW018CB 33/24 Q1008 NOSIG RMK CB AND RA TO SE=
202512010600 METAR WIHH 010600Z 33010KT 7000 SCT018 34/24 Q1009 NOSIG=
202512010530 METAR WIHH 010530Z 03004KT 8000 SCT018 34/22 Q1009 NOSIG=
202512010500 METAR WIHH 010500Z 27003KT 8000 SCT018 34/23 Q1010 NOSIG=
202512010430 METAR WIHH 010430Z 27005KT 8000 SCT006 34/24 Q1010 NOSIG=
202512010400 METAR WIHH 010400Z 03004KT 8000 SCT006 33/23 Q1010=
202512010330 METAR WIHH 010330Z 15007KT 8000 SCT020 33/22 Q1011 NOSIG=
202512010300 METAR WIHH 010300Z 12007KT 8000 SCT020 32/23 Q1012 NOSIG=
202512010230 METAR WIHH 010230Z 16005KT 8000NDV SCT020 32/23 Q1012 NOSIG=
202512010200 METAR WIHH 010200Z 18005KT 8000 FEW020 31/24 Q1012 NOSIG=
202512010130 METAR WIHH 010130Z 17006KT 8000 FEW020 30/24 Q1012 NOSIG=
202512010100 METAR WIHH 010100Z 24004KT 8000 FEW020 28/24 Q1013 NOSIG=
202512010030 METAR WIHH 010030Z 15003KT 8000 NSC 28/24 Q1012 NOSIG=
202512010000 METAR WIHH 010000Z 16003KT 7000 NSC 26/24 Q1012 NOSIG=

# No short TAF reports from WIHH in databse.

###################################
#  large TAF from WIHH
###################################
202512312300 TAF WIHH 312300Z 0100/0200 23007KT 7000 SCT018
                      TEMPO 0103/0106 4000 -RA SCT016
                      TEMPO 0108/0112 33015KT 2000 TSRA BKN015
                       FEW016CB
                      BECMG 0113/0115 24007KT 5000 HZ=
202512311700 TAF WIHH 311700Z 3118/0118 18006KT 7000 SCT018
                      TEMPO 3118/3120 25008KT 3000 -RA SCT017
                      BECMG 3121/3123 3000 BR=
202512311100 TAF WIHH 311100Z 3112/0112 18006KT 7000 SCT020
                      TEMPO 3115/3118 25008KT 3000 -RA SCT018
                      BECMG 3120/3122 4000 BR=
202512310500 TAF WIHH 310500Z 3106/0106 31007KT 5000 HZ SCT016
                      TEMPO 3106/3110 25015KT 3000 -TSRA BKN015
                       FEW016CB
                      BECMG 3112/3114 6000 SCT018=
202512302300 TAF WIHH 302300Z 3100/0100 23010KT 6000 SCT018
                      TEMPO 3101/3103 4000 -RA SCT016 FEW017CB
                       TEMPO 3106/3110 32012KT 3000 -TSRA BKN015
                       BECMG 3112/3114 25007KT 5000 HZ SCT020=
202512301710 TAF COR WIHH 301710Z 3018/3118 22010KT 5000 -RA BKN016
                      BECMG 3100/3102 27006KT 7000 SCT018=
202512301700 TAF WIHH 301700Z 3018/3118 22010KT 5000 -RA SCT016
                      BECMG 3000/3002 27006KT 7000 SCT018=
202512301255 TAF AMD WIHH 301255Z 3013/3112 10005KT 8000 SCT020
                      TEMPO 3014/3018 3000 -TSRA BKN015 FEW017CB
                       BECMG 3019/3021 31003KT 5000 HZ=
202512301100 TAF WIHH 301100Z 3012/3112 22005KT 8000 SCT020
                      BECMG 3018/3020 31003KT 5000 HZ=
202512300500 TAF WIHH 300500Z 3006/3106 33015KT 8000 SCT018
                      TEMPO 3006/3010 4000 -TSRA BKN016 FEW017CB
                       BECMG 3012/3014 26005KT 5000 HZ FEW020=
202512292300 TAF WIHH 292300Z 3000/3100 26007KT 7000 FEW020
                      TEMPO 3007/3010 32015KT 4000 -TSRA SCT016
                       FEW017CB
                      BECMG 3012/3014 27004KT 5000 HZ
                      TEMPO 3020/3023 21010KT 5000 -RA BKN015=
202512291700 TAF WIHH 291700Z 2918/3018 24003KT 8000 FEW020
                      BECMG 2922/3000 28005KT 5000 HZ=
202512291105 TAF WIHH 291105Z 2912/3012 2400KT 7000 SCT018
                      BECMG 2920/2923 27003KT 5000 HZ FEW020=
202512291100 TAF WIHH 291100Z 2912/3012 07008KT 8000 SCT020
                      BECMG 2916/2918 22006KT 5000 HZ=
202512290500 TAF WIHH 290500Z 2906/3006 32010KT 8000 SCT018
                      TEMPO 2907/2911 24015KT 3000 -TSRA BKN016
                       FEW017CB
                      TEMPO 2912/2915 27005KT 4000 -RA SCT017=
202512282300 TAF WIHH 282300Z 2900/3000 24008KT 7000 SCT018
                      TEMPO 2907/2911 32015KT 2000 TSRA BKN015
                       FEW016CB
                      TEMPO 2912/2915 18007KT 4000 -RA BKN017=
202512281700 TAF WIHH 281700Z 2818/2918 25008KT 6000 FEW020
                      BECMG 2821/2823 17004KT 5000 HZ SCT018=
202512281100 TAF WIHH 281100Z 2812/2912 28007KT 5000 -RA SCT016 FEW017CB
                      TEMPO 2812/2814 21005KT 3000 -TSRA BKN015
                       FEW016CB
                      BECMG 2816/2818 00000KT 5000 HZ=
202512280500 TAF WIHH 280500Z 2806/2906 32010KT 7000 SCT018
                      TEMPO 2806/2810 25015G20KT 3000 -TSRA BKN015
                       FEW016CB
                      BECMG 2812/2814 18008KT 6000=
202512272300 TAF WIHH 272300Z 2800/2900 28010KT 8000 SCT018
                      TEMPO 2806/2810 22015G20KT 3000 -TSRA BKN015
                       FEW016CB
                      BECMG 2812/2814 7000 SCT020=
202512271700 TAF WIHH 271700Z 2718/2818 25007KT 8000 FEW020
                      BECMG 2721/2723 18005KT 6000 SCT018=
202512271101 TAF WIHH 271101Z 2712/2812 28010KT 9999 SCT018
                      BECMG 2717/2719 22006KT 8000 FEW020=
202512271100 TAF WIHH 271100Z 2712/2812 28010KT 10000 SCT018
                      BECMG 2717/2719 22006KT 8000 FEW020=
202512270500 TAF WIHH 270500Z 2706/2806 30012KT 8000 SCT018
                      TEMPO 2706/2710 24015KT 3000 -TSRA BKN015
                       FEW016CB
                      BECMG 2712/2714 18008KT 7000=
202512262300 TAF WIHH 262300Z 2700/2800 27010KT 8000 SCT018
                      TEMPO 2706/2710 23015KT 3000 -TSRA BKN015
                       FEW017CB
                      BECMG 2712/2714 16007KT 9000 FEW020=
202512261700 TAF WIHH 261700Z 2618/2718 24008KT 8000 FEW020
                      BECMG 2701/2703 27010KT SCT018=
202512261100 TAF WIHH 261100Z 2612/2712 28006KT 9999 SCT018
                      BECMG 2618/2620 23004KT 7000 FEW020=
202512260500 TAF WIHH 260500Z 2606/2706 28010G22KT 7000 SCT018
                      TEMPO 2608/2612 3000 -TSRA BKN015 FEW017CB
                       BECMG 2613/2615 23005KT 6000 FEW020=
202512252300 TAF WIHH 252300Z 2600/2700 23006KT 7000 SCT018
                      TEMPO 2603/2605 34010KT 5000 -RA SCT017
                      TEMPO 2609/2612 28015G20KT 3000 -TSRA BKN015
                       FEW016CB=
202512251700 TAF WIHH 251700Z 2518/2618 17003KT 5000 HZ SCT017
                      TEMPO 2519/2521 24006KT 3000 -RA BKN017
                      BECMG 2523/2601 33005KT 4000 BR=
202512251100 TAF WIHH 251100Z 2512/2612 35015KT 3000 -TSRA BKN015 FEW016
                      TEMPO 2512/2514 28010KT 4000 -RA BKN016 FEW017CB
                       BECMG 2516/2518 21005KT 5000 HZ=
202512250500 TAF WIHH 250500Z 2506/2606 24008KT 7000 SCT018
                      TEMPO 2506/2510 30014G20KT 3000 -TSRA BKN015
                       FEW016CB
                      BECMG 2512/2514 21007KT 6000=
202512242300 TAF WIHH 242300Z 2500/2600 26006KT 7000 SCT017
                      TEMPO 2506/2510 32012G20KT 3000 -TSRA BKN015
                       FEW016CB
                      BECMG 2512/2514 17007KT 6000 SCT018=
202512241701 TAF WIHH 241701Z 2418/2518 00000KT 6000 FEW020
                      BECMG 2421/2423 23000KT 5000 HZ SCT018=
202512241700 TAF COR WIHH 241700Z 2418/2518 00000KT 6000 FEW020
                      BECMG 2421/2423 23000KT 5000 HZ SCT018=
202512241100 TAF WIHH 241100Z 2412/2512 29008KT 8000 SCT017 SCT018
                      TEMPO 2416/2419 23006KT 4000 -RA BKN016
                      BECMG 2421/2423 00000KT 3000 BR SCT018=
202512240500 TAF WIHH 240500Z 2406/2506 27006KT 6000 SCT017
                      TEMPO 2406/2410 33012KT 3000 -TSRA BKN015
                       FEW017CB
                      BECMG 2413/2415 24005KT 5000 HZ SCT018
                      TEMPO 2417/2420 17004KT 4000 -RA BKN016=
202512232300 TAF WIHH 232300Z 2400/2500 23005KT 4000 -RA BKN016
                      BECMG 2401/2403 31008KT 6000 SCT018
                      TEMPO 2408/2411 3000 -TSRA BKN015 FEW017CB
                       BECMG 2412/2414 20005KT 5000 HZ SCT018
                      TEMPO 2417/2420 18007KT 5000 -RA BKN017=
202512231700 TAF WIHH 231700Z 2318/2418 24003KT 6000 TS SCT017 FEW017CB
                      TEMPO 2320/2323 4000 -RA BKN015
                      BECMG 2400/2402 30008KT 5000 HZ SCT020=
202512231100 TAF WIHH 231100Z 2312/2412 23012KT 8000 FEW020
                      BECMG 2321/2323 00000KT 5000 HZ=
202512230500 TAF WIHH 230500Z 2306/2406 33010KT 7000 SCT017
                      TEMPO 2313/2316 22012KT 3000 -TSRA BKN015
                       FEW017CB
                      BECMG 2317/2319 00000KT 5000 HZ SCT020=
202512222300 TAF WIHH 222300Z 2300/2400 27005KT 6000 SCT018
                      TEMPO 2304/2306 34010KT 4000 -RA
                      TEMPO 2313/2316 22015KT 3000 -TSRA BKN015
                       FEW016CB=
202512221700 TAF WIHH 221700Z 2218/2318 23004KT 6000 SCT018
                      BECMG 2221/2223 33008KT 5000 HZ=
202512221100 TAF WIHH 221100Z 2212/2312 25006KT 7000 SCT018
                      BECMG 2217/2219 23004KT 5000 HZ FEW020=
202512220500 TAF WIHH 220500Z 2206/2306 33010KT 6000 SCT017
                      TEMPO 2206/2210 27015KT 3000 -TSRA BKN016
                       FEW017CB
                      BECMG 2212/2214 23005KT 7000 SCT020=
202512212300 TAF WIHH 212300Z 2200/2300 25008KT 7000 SCT018
                      TEMPO 2203/2205 4000 -RA
                      TEMPO 2206/2210 32012G25KT 3000 -TSRA BKN016
                       FEW017CB
                      BECMG 2213/2215 23006KT 6000=
202512211700 TAF WIHH 211700Z 2118/2218 00000KT 3000 BR
                      BECMG 2201/2203 24007KT 6000 SCT018=
202512211102 TAF COR WIHH 211102Z 2112/2212 29007KT 5000 -TSRA BKN016 FEW017CB
                       TEMPO 2112/2114 6000 -RA SCT017
                      BECMG 2116/2118 23005KT 7000 SCT018=
202512211101 TAF COR WIHH 211101Z 2112/2212 29007KT 5000 -TSRA BKN016 FEW017CB
                       TEMPO 2112/2114 6000 -RA SCT017
                      BECMG 2116/2118 23005KT 7000 SCT018=
202512211100 TAF COR WIHH 211100Z 2112/2212 29007KT 5000 -TSRA BKN016 FEW017CB
                       TEMPO 2112/2114 -RA 6000 SCT017
                      BECMG 2116/2118 23005KT 7000 SCT018=
202512210500 TAF WIHH 210500Z 2106/2206 21010KT 6000 BKN016
                      TEMPO 2107/2110 27015G25KT 3000 -TSRA BKN015
                       FEW016CB
                      BECMG 2113/2115 22007KT 8000 SCT020=
202512202300 TAF WIHH 202300Z 2100/2200 25010KT 8000 SCT020
                      TEMPO 2104/2107 4000 -RA BKN018
                      TEMPO 2108/2111 30012G25KT 2000 -TSRA BKN016
                       FEW017CB=
202512201700 TAF WIHH 201700Z 2018/2118 25008KT 8000 SCT020
                      TEMPO 2106/2109 30012G25KT 3000 -TSRA FEW016CB
                       BKN017=
202512201100 TAF WIHH 201100Z 2012/2112 24008KT 8000 SCT020
                      BECMG 2100/2103 30015KT=
202512200500 TAF WIHH 200500Z 2006/2106 27010KT 6000 SCT020
                      TEMPO 2006/2010 21012G22KT 3000 -TSRA BKN016
                       FEW017CB=
202512192300 TAF WIHH 192300Z 2000/2100 28010KT 7000 SCT018
                      TEMPO 2004/2006 24012G22KT 4000 -RA
                      TEMPO 2008/2011 3000 -TSRA BKN016 FEW017CB
                       BECMG 2012/2014 25007KT 8000 SCT020=
202512191700 TAF WIHH 191700Z 1918/2018 23005KT 8000 FEW020
                      BECMG 1922/2000 27010KT 5000 HZ SCT018=
202512191100 TAF WIHH 191100Z 1912/2012 24010KT 8000 FEW020
                      BECMG 1921/1923 23012KT 5000 HZ SCT018=
202512190500 TAF WIHH 190500Z 1906/2006 27010G22KT 6000 BKN016
                      TEMPO 1906/1909 4000 -RA FEW017CB
                      BECMG 1912/1414 23008KT 8000 SCT018=
202512182300 TAF WIHH 182300Z 1900/2000 22008KT 7000 SCT018
                      TEMPO 1901/1903 4000 -RA
                      TEMPO 1906/1910 28012G20KT 3000 -TSRA BKN015
                       FEW017CB
                      BECMG 1912/1914 6000 SCT020=
202512181700 TAF WIHH 181700Z 1818/1918 29010KT 6000 FEW016
                      BECMG 1821/1823 23006KT 5000 HZ SCT018=
202512181100 TAF WIHH 181100Z 1812/1912 28010KT 7000 SCT017
                      BECMG 1817/1819 21008KT 6000 SCT018=
202512180500 TAF WIHH 180500Z 1806/1906 31010KT 5000 -RA BKN016
                      TEMPO 1807/1810 25015G25KT 3000 -TSRA BKN015
                       FEW016CB
                      BECMG 1812/1814 6000 BKN017=
202512172301 TAF WIHH 172301Z 1800/1900 24010KT 8000 SCT020
                      TEMPO 1803/1806 4000 -RA BKN018
                      TEMPO 1807/1810 27012G22KT 2000 -TSRA BKN015
                       FEW017CB=
202512172300 TAF WIHH 172300Z 1800/1900 24010KT 8000 SCT020
                      TEMPO 1803/1706 4000 -RA BKN018
                      TEMPO 1707/1710 27012G22KT 2000 -TSRA BKN015
                       FEW017CB=
202512171700 TAF WIHH 171700Z 1718/1818 27008KT 8000 SCT020
                      TEMPO 1806/1809 24010G20KT 3000 -TSRA FEW016CB
                       BKN018=
202512171100 TAF WIHH 171100Z 1712/1812 27008KT 8000 SCT020
                      BECMG 1720/1722 21006KT=
202512170500 TAF WIHH 170500Z 1706/1806 24010KT 8000 SCT020
                      TEMPO 1707/1710 28014G25KT 4000 -RA FEW016CB
                       BKN017=
202512162300 TAF WIHH 162300Z 1700/1800 25010KT 8000 SCT018
                      TEMPO 1704/1706 21015G25KT 4000 -RA SCT016
                       TEMPO 1708/1711 3000 -TSRA BKN015 FEW016CB
                       BECMG 1712/1714 27008KT 7000 SCT020=
202512161701 TAF WIHH 161701Z 1618/1718 26005KT 7000 SCT020
                      BECMG 1620/1623 00000KT 5000 HZ=
202512161700 TAF WIHH 161700Z 1618/1718 26005KT 7000 SCT020
                      BECMG 1620/2623 00000KT 5000 HZ=
202512161100 TAF WIHH 161100Z 1612/1712 23015KT 4000 -RA BKN015
                      BECMG 1615/1617 26010KT 7000 SCT020=
202512160500 TAF WIHH 160500Z 1606/1706 27015G25KT 7000 SCT018
                      TEMPO 1609/1612 23012KT 5000 -RA SCT016 FEW017CB
                       BECMG 1614/1616 25010KT 8000 FEW020=
202512152300 TAF WIHH 152300Z 1600/1700 29008KT 7000 SCT020
                      TEMPO 1607/1610 23012G20KT 3000 -TSRA BKN015
                       FEW016CB
                      BECMG 1612/1614 6000 SCT018=
202512151700 TAF WIHH 151700Z 1518/1618 29012KT 6000 FEW020
                      BECMG 1601/1603 22008KT 7000 SCT018=
202512151100 TAF WIHH 151100Z 1512/1612 22012KT 7000 SCT017
                      BECMG 1516/1518 28008KT 6000 SCT018=
202512150500 TAF WIHH 150500Z 1506/1606 32010KT 7000 SCT017
                      TEMPO 1506/1510 25015G27KT 3000 -TSRA BKN015
                       FEW016CB
                      TEMPO 1512/1515 21008KT 4000 -RA BKN017=
202512142300 TAF WIHH 142300Z 1500/1600 27010KT 7000 SCT020
                      TEMPO 1506/1510 23015KT 3000 -TSRA FEW017CB
                       BKN018
                      TEMPO 1512/1515 4000 -RA SCT016=
202512141700 TAF WIHH 141700Z 1418/1518 24008KT 8000 SCT020
                      TEMPO 1508/1511 30015KT 4000 -RA FEW017CB
                       BKN018=
202512141100 TAF WIHH 141100Z 1412/1512 24010KT 7000 SCT020
                      BECMG 1417/1419 31005KT=
202512140500 TAF WIHH 140500Z 1406/1506 25010KT 8000 SCT020
                      TEMPO 1407/1410 31015KT 3000 -TSRA FEW016CB
                       BKN017=
202512132300 TAF WIHH 132300Z 1400/1500 27010KT 7000 SCT018
                      TEMPO 1407/1410 24015KT 3000 -TSRA BKN015
                       FEW016CB
                      BECMG 1412/1414 28005KT 8000 SCT020=
202512131700 TAF WIHH 131700Z 1318/1418 26005KT 8000 FEW020
                      BECMG 1400/1402 27008KT SCT018=
202512131100 TAF WIHH 131100Z 1312/1412 28007KT 7000 SCT018
                      BECMG 1317/1319 22005KT 5000 HZ=
202512130501 TAF WIHH 130501Z 1306/1406 27008KT 6000 SCT018
                      TEMPO 1308/1312 32015KT 2000 TSRA BKN015
                       FEW017CB
                      BECMG 1316/1318 22005KT 5000 BR=
202512130500 TAF WIHH 130500Z 1306/1406 27008KT 6000 SCT018
                      TEMPO 1308/1312 32015KT 2000 TSRA BKN015
                       FEW017CB
                      BECMG 1316/1218 22005KT 5000 BR=
202512122301 TAF WIHH 122301Z 1300/1400 24008KT 6000 SCT020
                      TEMPO 1308/1312 32015KT 2000 TSRA BKN015
                       FEW016CB
                      BECMG 1316/1318 21004KT 5000 BR=
202512122300 TAF WIHH 122300Z 1300/1400 24008KT 6000 SCT020
                      TEMPO 1308/1312 32015KT 2000 TSRA BKN015
                       FEW016CB
                      BECMG 1316/1218 21004KT 5000 BR=
202512121700 TAF WIHH 121700Z 1218/1318 25004KT 8000 SCT020
                      BECMG 1301/1303 27012KT=
202512121100 TAF COR WIHH 121100Z 1212/1312 20007KT 5000 -RA SCT015 FEW016CB
                       BECMG 1214/1216 20004KT 6000 SCT018=
202512120500 TAF WIHH 120500Z 1206/1306 26008KT 7000 SCT018
                      TEMPO 1207/1211 33015KT 3000 -TSRA BKN016
                       FEW017CB
                      TEMPO 1213/1215 24006KT 4000 -RA BKN017
                      BECMG 1217/1219 15003KT 6000 SCT018=
202512112300 TAF WIHH 112300Z 1200/1300 27008KT 7000 SCT020
                      TEMPO 1208/1211 35015KT 3000 -TSRA FEW017CB
                       BKN018
                      BECMG 1213/1215 17005KT 5000 HZ=
202512111700 TAF WIHH 111700Z 1118/1218 26005KT 7000 SCT020
                      BECMG 1121/1123 18005KT 5000 HZ
                      TEMPO 1207/1210 35015KT 3000 -TSRA FEW017CB
                       BKN018=
202512111100 TAF WIHH 111100Z 1112/1212 35006KT 6000 SCT020
                      BECMG 1119/1121 26005KT 5000 HZ=
202512110500 TAF WIHH 110500Z 1106/1206 18006KT 8000 SCT020
                      TEMPO 1106/1110 33012KT 4000 -TSRA FEW016CB
                       BKN018
                      BECMG 1112/1114 25010KT 5000 HZ=
202512102300 TAF WIHH 102300Z 1100/1200 12005KT 5000 HZ FEW020
                      BECMG 1102/1104 33007KT 7000 SCT020
                      TEMPO 1106/1110 30015KT 3000 -TSRA BKN015
                       FEW017CB
                      BECMG 1112/1114 16005KT 6000 SCT018=
202512101700 TAF WIHH 101700Z 1018/1118 24003KT 4000 -RA BKN016
                      BECMG 1020/1022 12005KT 5000 HZ SCT018=
202512101255 TAF COR WIHH 101255Z 1013/1112 16005KT 7000 SCT020
                      TEMPO 1014/1016 16010KT 3000 -TSRA FEW017CB
                       BECMG 1018/1020 24003KT 5000 HZ=
202512101100 TAF WIHH 101100Z 1012/1112 16005KT 7000 SCT020
                      BECMG 1018/1020 24003KT 5000 HZ=
202512100500 TAF WIHH 100500Z 1006/1106 30008KT 7000 SCT018
                      TEMPO 1008/1011 23015KT 3000 -TSRA BKN016
                       FEW017CB
                      BECMG 1013/1015 16005KT 6000 SCT020=
202512092301 TAF WIHH 092301Z 1000/1100 23007KT 7000 SCT020
                      TEMPO 1009/1011 34015KT 3000 -TSRA BKN017
                       FEW016CB
                      BECMG 1013/1015 21005KT 6000 SCT018=
202512091700 TAF WIHH 091700Z 0918/1018 27003KT 6000 FEW020
                      BECMG 0921/0923 18004KT 5000 HZ SCT018
                      BECMG 1001/1003 27005KT=
202512091100 TAF WIHH 091100Z 0912/1012 30006KT 7000 SCT018
                      BECMG 0921/0923 20004KT 5000 HZ SCT020
                      BECMG 1001/1003 27005KT=
202512090500 TAF WIHH 090500Z 0906/1006 34008KT 8000 SCT018
                      TEMPO 0907/0911 27015KT 4000 -TSRA BKN017
                       FEW016CB
                      BECMG 0913/0915 20006KT 6000 SCT020=
202512082300 TAF WIHH 082300Z 0900/1000 25010KT 8000 FEW020
                      TEMPO 0907/0911 19015KT 3000 -TSRA FEW016CB
                       BKN018
                      BECMG 0913/0915 28005KT 5000 HZ SCT016=
202512081700 TAF WIHH 081700Z 0818/0918 22005KT 7000 SCT020
                      BECMG 0820/0823 28006KT=
202512081100 TAF WIHH 081100Z 0812/0912 26008KT 7000 SCT020
                      BECMG 0817/0819 20005KT 5000 HZ=
202512080505 TAF COR WIHH 080505Z 0806/0906 27008KT 8000 SCT020
                      TEMPO 0807/0810 35015KT 3000 -TSRA BKN016
                       FEW017CB
                      BECMG 0812/0814 17005KT 5000 HZ=
202512072300 TAF WIHH 072300Z 0800/0900 24006KT 7000 SCT020
                      TEMPO 0808/0811 32014KT 3000 -TSRA BKN016
                       FEW017CB
                      BECMG 0813/0815 17005KT 5000 SCT018=
202512071700 TAF WIHH 071700Z 0718/0818 24005KT 7000 FEW020
                      BECMG 0721/0723 00000KT 5000 HZ SCT018
                      BECMG 0801/0803 18003KT=
202512071100 TAF WIHH 071100Z 0712/0812 22005KT 6000 SCT018
                      TEMPO 0712/0714 32010KT 3000 -TSRA BKN016
                       FEW017CB
                      BECMG 0716/0718 14004KT 5000 HZ SCT017=
202512070500 TAF WIHH 070500Z 0706/0806 26005KT 6000 SCT018
                      TEMPO 0707/0711 34012KT 3000 -TSRA BKN016
                       FEW017CB
                      BECMG 0713/0715 24004KT 5000 HZ SCT017=
202512062300 TAF WIHH 062300Z 0700/0800 21006KT 6000 SCT020
                      TEMPO 0707/0711 32012KT 3000 -TSRA BKN016
                       FEW017CB
                      BECMG 0713/0715 17005KT 5000 HZ SCT018=
202512061700 TAF WIHH 061700Z 0618/0718 22005KT 6000 SCT020
                      BECMG 0621/0623 16003KT 3000 BR SCT018
                      BECMG 0701/0703 22004KT=
202512061100 TAF WIHH 061100Z 0612/0712 32006KT 6000 SCT018
                      TEMPO 0612/0614 06010KT 3000 -TSRA BKN015
                       FEW017CB
                      BECMG 0616/0618 17004KT 5000 HZ=
202512060500 TAF WIHH 060500Z 0606/0706 04006KT 6000 SCT018
                      TEMPO 0607/0610 32012KT 3000 -TSRA BKN015
                       FEW017CB
                      BECMG 0613/0615 15004KT 5000 HZ SCT018=
202512052300 TAF WIHH 052300Z 0600/0700 24008KT 6000 SCT020
                      TEMPO 0606/0610 34013KT 3000 -TSRA FEW016CB
                       BKN018
                      BECMG 0613/0615 17005KT 5000 HZ=
202512051700 TAF WIHH 051700Z 0518/0618 22005KT 6000 SCT020
                      BECMG 0521/0523 5000 HZ FEW022
                      TEMPO 0606/0609 34013KT 3000 -TSRA FEW016CB
                       BKN018=
202512051100 TAF WIHH 051100Z 0512/0612 25008KT 6000 SCT020
                      TEMPO 0512/0515 3000 RA FEW016CB BKN018
                      BECMG 0517/0519 19005KT 5000 HZ=
202512050500 TAF WIHH 050500Z 0506/0606 24010KT 8000 SCT020
                      TEMPO 0506/0510 36015KT 2000 -TSRA FEW015CB
                       BKN017
                      BECMG 0512/0513 15005KT 5000 HZ=
202512042300 TAF WIHH 042300Z 0500/0600 23006KT 5000 HZ SCT020
                      TEMPO 0507/0511 33015KT 2000 TSRA BKN015
                       FEW016CB
                      BECMG 0513/0515 16004KT 6000 SCT018=
202512041700 TAF WIHH 041700Z 0418/0518 23004KT 5000 HZ SCT018
                      BECMG 0422/0500 15006KT 4000 BR=
202512041100 TAF WIHH 041100Z 0412/0512 16005KT 3000 -RA BKN016
                      BECMG 0415/0417 24003KT 4000 HZ SCT018=
202512040501 TAF WIHH 040501Z 0406/0506 35010KT 5000 HZ SCT018
                      TEMPO 0406/0410 22015KT 2000 TSRA BKN015
                       FEW016CB
                      BECMG 0412/0414 16005KT 4000 HZ SCT020=
202512040500 TAF WIHH 040500Z 0406/0506 35010KT 5000 HZ SCT018
                      TEMPO 0406/0410 22015KT 2000 TSRA BKN015
                       FEW016CB
                      BECMG 04012/0414 16005KT 4000 HZ SCT020=
202512032301 TAF WIHH 032301Z 0400/0500 15008KT 6000 SCT020
                      TEMPO 0401/0404 4000 -RA BKN018
                      TEMPO 0407/0410 33015KT 2000 -TSRA FEW015CB
                       BKN017
                      BECMG 0412/0414 27005KT 5000 HZ=
202512032300 TAF WIHH 032300Z 0400/0500 15008KT 6000 SCT020
                      TEMPO 0401/0404 4000 -RA BKN018
                      TEMPO 0407/0410 33015KT 2000 -TSRA FEW015CB
                       BKN017
                      BECMG 0412/0614 27005KT 5000 HZ=
202512031700 TAF WIHH 031700Z 0318/0418 15005KT 7000 SCT020
                      BECMG 0320/0322 VRB02KT 5000 HZ
                      TEMPO 0406/0410 33015KT 3000 -TSRA FEW015CB
                       BKN017=
202512031100 TAF WIHH 031100Z 0312/0412 26006KT 6000 SCT020
                      BECMG 0320/0322 VRB02KT 5000 HZ=
202512030500 TAF WIHH 030500Z 0306/0406 25008KT 6000 SCT020
                      TEMPO 0307/0310 11015G25KT 2000 -TSRA FEW016CB
                       BKN018
                      BECMG 0312/0314 18005KT 5000 HZ=
202512022300 TAF WIHH 022300Z 0300/0400 12006KT 5000 HZ FEW020
                      TEMPO 0303/0305 06012KT 3000 -RA SCT016
                      TEMPO 0306/0310 35015KT 2000 -TSRA BKN015
                       FEW016CB
                      BECMG 0312/0314 22004KT 4000 BR SCT018=
202512021700 TAF WIHH 021700Z 0218/0318 26003KT 4000 BR SCT020
                      BECMG 0300/0302 12006KT 6000 SCT017=
202512021101 TAF WIHH 021101Z 0212/0312 23006KT 5000 HZ SCT018
                      BECMG 0218/0220 00000KT 4000 BR FEW020=
202512021100 TAF WIHH 021100Z 0212/0212 23006KT 5000 HZ SCT018
                      BECMG 0218/0220 00000KT 4000 BR FEW020=
202512020555 TAF COR WIHH 020555Z 0206/0306 01007KT 7000 SCT018
                      TEMPO 0206/0210 06015KT 3000 -TSRA BKN015
                       FEW016CB
                      BECMG 0219/0221 05003KT 5000 HZ FEW020=
202512020500 TAF WIHH 020500Z 0206/0306 01007KT 7000 SCT018
                      TEMPO 0207/0211 06015KT 3000 -TSRA BKN015
                       FEW016CB
                      BECMG 0219/022105003KT 5000 HZ FEW020=
202512012300 TAF WIHH 012300Z 0200/0300 15005KT 8000 SCT020
                      TEMPO 0203/0206 5000 -RA BKN016
                      TEMPO 0207/0211 36015KT 3000 -TSRA FEW016CB
                       BKN018
                      TEMPO 0213/0216 27005KT 4000 -RA SCT016
                      BECMG 0218/0220 09003KT 5000 HZ=
202512011700 TAF WIHH 011700Z 0118/0218 27005KT 8000 SCT020
                      BECMG 0121/0123 12005KT 5000 HZ
                      TEMPO 0207/0210 36015KT 3000 -TSRA FEW016CB
                       BKN018=
202512011100 TAF WIHH 011100Z 0112/0212 18006KT 8000 SCT020
                      BECMG 0121/0123 12005KT 5000 HZ=
202512010500 TAF WIHH 010500Z 0106/0206 15006KT 8000 SCT020
                      TEMPO 0109/0112 22015KT 3000 -TSRA FEW016CB
                       BKN018
                      BECMG 0114/0116 30005KT 6000=
