##########################################################
# Query made at 05/05/2026 03:25:25 UTC
# Time interval: from 08/01/2023 00:00  to 08/31/2023 23:59  UTC
##########################################################

##########################################################
# WIHH, Jakarta Halim Perdanakusuma (Indonesia)
# WMO index: 96747. WIGOS ID: Unknown
# Latitude 06-15S. Longitude 106-54E. Altitude 30 m.
##########################################################

###################################
#  METAR/SPECI from WIHH
###################################
202308312330 METAR WIHH 312330Z 00000KT 5000 HZ NSC 23/20 Q1011 NOSIG=
202308312300 METAR WIHH 312300Z 00000KT 5000 HZ NSC 23/20 Q1011 NOSIG=
202308312230 METAR WIHH 312230Z 00000KT 6000 NSC 23/20 Q1011 NOSIG=
202308312200 METAR WIHH 312200Z 15003KT 6000 NSC 23/20 Q1011 NOSIG=
202308312130 METAR WIHH 312130Z 00000KT 6000 NSC 25/22 Q1011 NOSIG=
202308312100 METAR WIHH NIL=
202308312030 METAR WIHH NIL=
202308312000 METAR WIHH NIL=
202308311930 METAR WIHH NIL=
202308311900 METAR WIHH NIL=
202308311830 METAR WIHH NIL=
202308311800 METAR WIHH NIL=
202308311730 METAR WIHH NIL=
202308311700 METAR WIHH NIL=
202308311630 METAR WIHH NIL=
202308311600 METAR WIHH NIL=
202308311530 METAR WIHH NIL=
202308311500 METAR WIHH 311500Z 00000KT 6000 FEW020 27/23 Q1012 NOSIG=
202308311430 METAR WIHH 311430Z 00000KT 6000 FEW020 27/22 Q1012 NOSIG=
202308311400 METAR WIHH 311400Z 00000KT 6000 FEW020 27/22 Q1012 NOSIG=
202308311330 METAR WIHH 311330Z 00000KT 6000 FEW020 28/22 Q1012 NOSIG=
202308311300 METAR WIHH 311300Z 34003KT 6000 FEW020 28/22 Q1011 NOSIG=
202308311230 METAR WIHH 311230Z 00000KT 6000 NSC 28/22 Q1011 NOSIG=
202308311200 METAR WIHH 311200Z 35003KT 6000 NSC 29/22 Q1010 NOSIG=
202308311130 METAR WIHH 311130Z 03003KT 6000 NSC 29/22 Q1010 NOSIG=
202308311100 METAR WIHH 311100Z 35003KT 6000 NSC 29/22 Q1010 NOSIG=
202308311030 METAR WIHH 311030Z 34004KT 6000 NSC 30/21 Q1010 NOSIG=
202308311000 METAR WIHH 311000Z 30005KT 6000 NSC 31/21 Q1009 NOSIG=
202308310930 METAR WIHH 310930Z 34010KT 6000 FEW020 31/21 Q1009 NOSIG=
202308310900 METAR WIHH 310900Z 02010KT 6000 FEW020 32/21 Q1009 NOSIG=
202308310830 METAR WIHH 310830Z 36010KT 5000 HZ FEW020 34/21 Q1009 NOSIG=
202308310800 METAR WIHH 310800Z 36010KT 5000 HZ FEW020 34/21 Q1009 NOSIG=
202308310730 METAR WIHH 310730Z 34010KT 5000 HZ SCT020 34/21 Q1009 NOSIG=
202308310700 METAR WIHH 310700Z 31006KT 5000 HZ SCT020 34/21 Q1010 NOSIG=
202308310630 METAR WIHH 310630Z 33004KT 5000 HZ SCT020 34/20 Q1010 NOSIG=
202308310600 METAR WIHH 310600Z 15004KT 5000 HZ SCT020 33/20 Q1010 NOSIG=
202308310530 METAR WIHH 310530Z 27004KT 5000 HZ FEW020 34/21 Q1011 NOSIG=
202308310500 METAR WIHH 310500Z 15008KT 5000 HZ FEW020 35/19 Q1011 NOSIG=
202308310430 METAR WIHH 310430Z 15006KT 5000 HZ SCT020 33/18 Q1012 NOSIG=
202308310400 METAR WIHH 310400Z 09006KT 5000 HZ FEW020 33/18 Q1012 NOSIG=
202308310330 METAR WIHH 310330Z 06003KT 5000 HZ NSC 33/19 Q1013 NOSIG=
202308310300 METAR WIHH 310300Z 24003KT 5000 HZ NSC 32/20 Q1013 NOSIG=
202308310230 METAR WIHH 310230Z 24003KT 5000 HZ NSC 31/21 Q1013 NOSIG=
202308310200 METAR WIHH 310200Z 21004KT 4000 HZ NSC 30/22 Q1013 NOSIG=
202308310130 METAR WIHH 310130Z 24003KT 4000 HZ NSC 29/23 Q1013 NOSIG=
202308310100 METAR WIHH 310100Z 20004KT 4000 HZ NSC 26723 Q1013 NOSIG=
202308310030 METAR WIHH 310030Z 00000KT 4000 HZ NSC 26/23 Q1013 NOSIG=
202308310000 METAR WIHH 310000Z 21003KT 4000 HZ NSC 25/23 Q1013 NOSIG=
202308302330 METAR WIHH 302330Z 23003KT 4000 HZ NSC 24/22 Q1012 NOSIG=
202308302300 METAR WIHH 302300Z 25003KT 4000 HZ NSC 24/23 Q1012 NOSIG=
202308302230 METAR WIHH 302230Z 21003KT 4000 HZ NSC 23/21 Q1011 NOSIG=
202308302200 METAR WIHH 302200Z 21003KT 4000 HZ NSC 23/21 Q1011 NOSIG=
202308302130 METAR WIHH 302130Z 23003KT 4000 HZ NSC 23/21 Q1011 NOSIG=
202308302100 METAR WIHH NIL=
202308302030 METAR WIHH NIL=
202308302000 METAR WIHH NIL=
202308301930 METAR WIHH NIL=
202308301900 METAR WIHH NIL=
202308301830 METAR WIHH NIL=
202308301800 METAR WIHH NIL=
202308301730 METAR WIHH NIL=
202308301700 METAR WIHH NIL=
202308301630 METAR WIHH NIL=
202308301600 METAR WIHH 301600Z 18003KT 8000 NSC 26/24 Q1012 NOSIG=
202308301530 METAR WIHH 301530Z 15004KT 8000 NSC 27/24 Q1012 NOSIG=
202308301500 METAR WIHH 301500Z 14008KT 8000 NSC 27/24 Q1012 NOSIG=
202308301430 METAR WIHH 301430Z 13010KT 8000 NSC 27/24 Q1012 NOSIG=
202308301400 METAR WIHH 301400Z 08012KT 8000 NSC 28/24 Q1011 NOSIG=
202308301330 METAR WIHH 301330Z 10013KT 8000 FEW020 28/23 Q1011 NOSIG=
202308301300 METAR WIHH 301300Z 07015KT 8000 FEW020 28/22 Q1011 NOSIG=
202308301230 METAR WIHH 301230Z 05015KT 8000 FEW020 29/21 Q1010 NOSIG=
202308301200 METAR WIHH 301200Z 07013KT 8000 FEW020 29/20 Q1010 NOSIG=
202308301130 METAR WIHH 301130Z 07013KT 7000 FEW020 29/20 Q1009 NOSIG=
202308301100 METAR WIHH 301100Z 03015KT 7000 FEW020 31/19 Q1009 NOSIG=
202308301030 METAR WIHH 301030Z 07015KT 7000 SCT020 31/20 Q1009 NOSIG=
202308301000 METAR WIHH 301000Z 07015KT 7000 SCT020 32/20 Q1009 NOSIG=
202308300930 METAR WIHH 300930Z 04015KT 7000 SCT020 32/20 Q1008 NOSIG=
202308300900 METAR WIHH NIL=
202308300830 METAR WIHH NIL=
202308300800 METAR WIHH 300800Z 02015KT 6000 SCT020 33/21 Q1008 NOSIG=
202308300730 METAR WIHH 300730Z 03012KT 6000 SCT020 33/20 Q1008 NOSIG=
202308300700 METAR WIHH 300700Z 03012KT 6000 SCT020 35/19 Q1008 NOSIG=
202308300630 METAR WIHH 300630Z 03010KT 6000 SCT020 34/19 Q1009 NOSIG=
202308300600 METAR WIHH 300600Z 03012KT 6000 SCT020 34/19 Q1009 NOSIG=
202308300530 METAR WIHH 300530Z 03010KT 6000 SCT020 34/19 Q1010 NOSIG=
202308300500 METAR WIHH 300500Z 11008KT 6000 SCT020 33/20 Q1011 NOSIG=
202308300430 METAR WIHH 300430Z 03010KT 6000 SCT020 33/20 Q1011 NOSIG=
202308300400 METAR WIHH 300400Z 11008KT 5000 HZ SCT020 32/19 Q1011 NOSIG=
202308300330 METAR WIHH 300330Z 09008KT 5000 HZ FEW020 31/19 Q1012 NOSIG=
202308300300 METAR WIHH 300300Z 22005KT 5000 HZ FEW020 31/20 Q1012 NOSIG=
202308300230 METAR WIHH 300230Z 20003KT 5000 HZ NSC 30/21 Q1012 NOSIG=
202308300200 METAR WIHH 300200Z 24003KT 4000 HZ NSC 29/22 Q1012 NOSIG=
202308300130 METAR WIHH 300130Z 19003KT 4000 HZ NSC 28/22 Q1012 NOSIG=
202308300100 METAR WIHH 300100Z 22003KT 4000 HZ NSC 27/22 Q1012 NOSIG=
202308300030 METAR WIHH 300030Z 00000KT 4000 HZ NSC 26/22 Q1012 NOSIG=
202308300000 METAR WIHH 300000Z 00000KT 3000 HZ NSC 24/22 Q1012 NOSIG=
202308292330 METAR WIHH 292330Z 00000KT 3000 HZ NSC 24/22 Q1011 NOSIG=
202308292300 METAR WIHH 292300Z 00000KT 3000 HZ NSC 24/23 Q1011 NOSIG=
202308292230 METAR WIHH 292230Z 15003KT 3000 HZ NSC 24/23 Q1010 NOSIG=
202308292200 METAR WIHH 292200Z 00000KT 3000 HZ NSC 24/23 Q1010 NOSIG=
202308292130 METAR WIHH 292130Z 00000KT 3000 HZ NSC 24/23 Q1010 NOSIG=
202308292100 METAR WIHH NIL=
202308292030 METAR WIHH NIL=
202308292000 METAR WIHH NIL=
202308291930 METAR WIHH NIL=
202308291900 METAR WIHH NIL=
202308291830 METAR WIHH NIL=
202308291800 METAR WIHH NIL=
202308291730 METAR WIHH NIL=
202308291700 METAR WIHH 291700Z 15003KT 5000 HZ FEW020 26/23 Q1011 NOSIG=
202308291630 METAR WIHH 291630Z 15003KT 5000 HZ FEW020 26/23 Q1011 NOSIG=
202308291600 METAR WIHH 291600Z 00000KT 6000 FEW020 27/23 Q1011 NOSIG=
202308291530 METAR WIHH 291530Z 05003KT 6000 FEW020 27/23 Q1011 NOSIG=
202308291500 METAR WIHH 291500Z 05003KT 6000 FEW020 27/23 Q1011 NOSIG=
202308291430 METAR WIHH 291430Z 05006KT 6000 FEW020 28/23 Q1011 NOSIG=
202308291400 METAR WIHH 291400Z 06004KT 6000 FEW020 28/23 Q1010 NOSIG=
202308291330 METAR WIHH 291330Z 05004KT 6000 FEW020 28/23 Q1010 NOSIG=
202308291300 METAR WIHH 291300Z 06005KT 6000 FEW020 28/23 Q1010 NOSIG=
202308291230 METAR WIHH 291230Z 01005KT 6000 FEW020 28/23 Q1009 NOSIG=
202308291200 METAR WIHH 291200Z 02007KT 6000 FEW020 29/23 Q1009 NOSIG=
202308291130 METAR WIHH 291130Z 04007KT 6000 FEW020 29/23 Q1009 NOSIG=
202308291100 METAR WIHH 291100Z 03011KT 6000 FEW020 30/22 Q1008 NOSIG=
202308291030 METAR WIHH 291030Z 03012KT 6000 FEW020 30/22 Q1008 NOSIG=
202308291000 METAR WIHH 291000Z 03015KT 6000 FEW020 32/21 Q1007 NOSIG=
202308290930 METAR WIHH 290930Z 05015KT 6000 FEW020 33/20 Q1007 NOSIG=
202308290900 METAR WIHH 290900Z 03012KT 6000 FEW020 33/20 Q1007 NOSIG=
202308290830 METAR WIHH 290830Z 02015KT 6000 FEW020 33/20 Q1007 NOSIG=
202308290800 METAR WIHH 290800Z 05013KT 6000 FEW020 34/20 Q1007 NOSIG=
202308290730 METAR WIHH 290730Z 03010KT 6000 SCT020 34/20 Q1007 NOSIG=
202308290700 METAR WIHH NIL=
202308290630 METAR WIHH 290630Z 04011KT 6000 SCT020 34/19 Q1008 NOSIG=
202308290600 METAR WIHH 290600Z 05008KT 6000 SCT020 33/20 Q1008 NOSIG=
202308290530 METAR WIHH 290530Z 07011KT 5000 HZ SCT020 33/19 Q1009 NOSIG=
202308290500 METAR WIHH 290500Z 05011KT 5000 HZ SCT020 33/20 Q1009 NOSIG=
202308290430 METAR WIHH 290430Z 08012KT 5000 HZ SCT020 33/19 Q1010 NOSIG=
202308290400 METAR WIHH 290400Z 10011KT 5000 HZ SCT020 32/20 Q1010 NOSIG=
202308290330 METAR WIHH 290330Z 10012KT 5000 HZ FEW020 31/20 Q1010 NOSIG=
202308290300 METAR WIHH 290300Z 08010KT 5000 HZ FEW020 31/21 Q1011 NOSIG=
202308290230 METAR WIHH 290230Z 07010KT 5000 HZ FEW020 30/21 Q1011 NOSIG=
202308290200 METAR WIHH NIL=
202308290130 METAR WIHH 290130Z 27003KT 5000 HZ NSC 28/21 Q1011 NOSIG=
202308290100 METAR WIHH 290100Z 21003KT 5000 HZ NSC 27/21 Q1011 NOSIG=
202308290030 METAR WIHH 290030Z 24003KT 5000 HZ NSC 26/22 Q1011 NOSIG=
202308290000 METAR WIHH 290000Z 24003KT 4000 HZ NSC 24/22 Q1011 NOSIG=
202308282330 METAR WIHH 282330Z 00000KT 4000 HZ NSC 23/21 Q1010 NOSIG=
202308282300 METAR WIHH 282300Z 00000KT 4000 HZ NSC 23/21 Q1010 NOSIG=
202308282230 METAR WIHH 282230Z 00000KT 5000 HZ FEW020 23/21 Q1010 NOSIG=
202308282200 METAR WIHH 282200Z 00000KT 5000 HZ FEW020 24/21 Q1010 NOSIG=
202308282130 METAR WIHH 282130Z 21002KT 5000 HZ FEW020 23/21 Q1010 NOSIG=
202308282100 METAR WIHH NIL=
202308282030 METAR WIHH NIL=
202308282000 METAR WIHH NIL=
202308281930 METAR WIHH NIL=
202308281900 METAR WIHH NIL=
202308281830 METAR WIHH NIL=
202308281800 METAR WIHH NIL=
202308281730 METAR WIHH NIL=
202308281700 METAR WIHH 281700Z 16002KT 5000 HZ SCT020 26/23 Q1012 NOSIG=
202308281630 METAR WIHH 281630Z 15003KT 5000 HZ SCT020 27/23 Q1012 NOSIG=
202308281600 METAR WIHH 281600Z 17003KT 5000 HZ SCT020 27/23 Q1012 NOSIG=
202308281530 METAR WIHH 281530Z 18003KT 5000 HZ SCT020 27/23 Q1012 NOSIG=
202308281500 METAR WIHH 281500Z 18003KT 5000 HZ SCT020 27/23 Q1012 NOSIG=
202308281430 METAR WIHH 281430Z 19003KT 6000 SCT020 27/22 Q1012 NOSIG=
202308281400 METAR WIHH 281400Z 09003KT 6000 SCT020 28/21 Q1011 RMK RA TO SW=
202308281330 METAR WIHH 281330Z 09005KT 6000 SCT020 28/21 Q1011 RMK RA TO SW=
202308281300 METAR WIHH 281300Z 08003KT 6000 SCT020 29/21 Q1011 RMK RA TO S=
202308281230 METAR WIHH 281230Z 05005KT 6000 SCT020 29/21 Q1011 RMK RA TO S=
202308281200 METAR WIHH 281200Z 03007KT 5000 HZ SCT020 29/21 Q1010 RMK RA TO S=
202308281130 METAR WIHH 281130Z 03008KT 5000 HZ SCT018 29/21 Q1010 RMK RA TO S=
202308281100 METAR WIHH 281100Z 03010KT 5000 HZ SCT018 30/22 Q1009 TEMPO FM1120 3000 RA BKN018 RMK RA TO S=
202308281030 METAR WIHH 281030Z 06010KT 5000 HZ SCT018 30/22 Q1009 TEMPO FM1040 TL1130 3000 RA BKN018 RMK RA TO SW=
202308281000 METAR WIHH 281000Z 03010KT 5000 HZ SCT018 31/22 Q1009 TEMPO FM1030 TL1130 3000 RA BKN018 RMK RA TO SW=
202308280930 METAR WIHH 280930Z 03010KT 5000 HZ SCT018 31/21 Q1009 TEMPO FM1030 4000 -RA RMK RA TO SW=
202308280900 METAR WIHH 280900Z 06010KT 6000 SCT020 32/21 Q1008 NOSIG=
202308280830 METAR WIHH 280830Z 03008KT 6000 SCT020 32/21 Q1008 NOSIG=
202308280800 METAR WIHH NIL=
202308280730 METAR WIHH 280730Z 03012KT 6000 SCT018 32/21 Q1008 NOSIG=
202308280700 METAR WIHH 280700Z 06010KT 6000 SCT018 33/20 Q1009 NOSIG=
202308280630 METAR WIHH 280630Z 06010KT 6000 SCT018 33/19 Q1009 NOSIG=
202308280600 METAR WIHH 280600Z 09005KT 6000 SCT018 33/19 Q1009 NOSIG=
202308280530 METAR WIHH 280530Z 06008KT 5000 HZ SCT018 33/20 Q1010 NOSIG=
202308280500 METAR WIHH 280500Z 09004KT 5000 HZ SCT018 33/19 Q1010 NOSIG=
202308280430 METAR WIHH 280430Z 12005KT 4000 HZ SCT018 32/20 Q1010 NOSIG=
202308280400 METAR WIHH 280400Z 10006KT 4000 HZ SCT018 31/20 Q1011 NOSIG=
202308280330 METAR WIHH 280330Z 00000KT 4000 HZ SCT018 30/20 Q1012 NOSIG=
202308280300 METAR WIHH 280300Z 00000KT 4000 HZ SCT020 29/23 Q1012 NOSIG=
202308280230 METAR WIHH 280230Z 06004KT 4000 HZ SCT020 29/23 Q1012 NOSIG=
202308280200 METAR WIHH 280200Z 00000KT 4000 HZ SCT020 28/23 Q1012 NOSIG=
202308280130 METAR WIHH 280130Z 00000KT 4000 HZ SCT020 27/23 Q1011 NOSIG=
202308280100 METAR WIHH 280100Z 00000KT 4000 HZ FEW020 26/22 Q1011 NOSIG=
202308280030 METAR WIHH 280030Z 20003KT 5000 HZ FEW020 26/22 Q1011 NOSIG=
202308280000 METAR WIHH 280000Z 00000KT 5000 HZ FEW020 25/22 Q1010 NOSIG=
202308272330 METAR WIHH 272330Z 21003KT 5000 HZ FEW020 25/22 Q1010 NOSIG=
202308272300 METAR WIHH 272300Z 23003KT 5000 HZ FEW020 24/22 Q1009 NOSIG=
202308272230 METAR WIHH 272230Z 24003KT 5000 HZ FEW020 24/22 Q1009 NOSIG=
202308272200 METAR WIHH 272200Z 24003KT 5000 HZ NSC 24/22 Q1009 NOSIG=
202308272130 METAR WIHH 272130Z 27003KT 5000 HZ FEW020 24/22 Q1009 NOSIG=
202308272100 METAR WIHH 272100Z 25003KT 6000 FEW018 24/22 Q1009 NOSIG=
202308272030 METAR WIHH NIL=
202308272000 METAR WIHH NIL=
202308271930 METAR WIHH NIL=
202308271900 METAR WIHH NIL=
202308271830 METAR WIHH NIL=
202308271800 METAR WIHH NIL=
202308271730 METAR WIHH NIL=
202308271700 METAR WIHH NIL=
202308271630 METAR WIHH NIL=
202308271600 METAR WIHH 271600Z 24003KT 6000 FEW018 25/23 Q1011 NOSIG=
202308271530 METAR WIHH NIL=
202308271500 METAR WIHH 271500Z 15003KT 6000 FEW018 25/23 Q1011 NOSIG=
202308271430 METAR WIHH 271430Z 24004KT 6000 FEW018 25/23 Q1011 NOSIG=
202308271400 METAR WIHH 271400Z 20004KT 5000 -RA SCT018 25/23 Q1011 NOSIG=
202308271330 METAR WIHH 271330Z 20005KT 5000 -RA SCT018 26/24 Q1011 NOSIG=
202308271300 METAR WIHH 271300Z 19005KT 5000 HZ SCT018 26/24 Q1011 RMK RA TO NW-SW=
202308271230 METAR WIHH 271230Z 19010KT 5000 -RA BKN018 27/23 Q1010 NOSIG=
202308271200 METAR WIHH 271200Z 21012KT 5000 HZ SCT018 29/23 Q1010 RMK RA TO S=
202308271130 METAR WIHH 271130Z 06007KT 5000 HZ SCT018 29/23 Q1009 RMK RA TO S=
202308271100 METAR WIHH 271100Z 03008KT 5000 HZ SCT020 30/23 Q1009 NOSIG=
202308271030 METAR WIHH 271030Z 02009KT 6000 FEW020 30/23 Q1008 NOSIG=
202308271000 METAR WIHH 271000Z 01010KT 6000 FEW020 31/22 Q1008 NOSIG=
202308270930 METAR WIHH 270930Z 35011KT 6000 FEW020 31/22 Q1008 NOSIG=
202308270900 METAR WIHH 270900Z 01012KT 6000 FEW020 32/22 Q1008 NOSIG=
202308270830 METAR WIHH 270830Z 32011KT 6000 FEW020 32/22 Q1008 NOSIG=
202308270800 METAR WIHH 270800Z 35012KT 6000 SCT020 32/23 Q1008 NOSIG=
202308270730 METAR WIHH 270730Z 33011KT 5000 HZ SCT018 32/23 Q1008 NOSIG=
202308270700 METAR WIHH 270700Z 03012KT 5000 HZ SCT018 32/23 Q1008 NOSIG=
202308270630 METAR WIHH 270630Z 01007KT 5000 HZ SCT018 33/23 Q1009 NOSIG=
202308270600 METAR WIHH 270600Z 02005KT 5000 HZ SCT018 33/22 Q1009 NOSIG=
202308270530 METAR WIHH 270530Z 02005KT 5000 HZ SCT018 33/22 Q1010 NOSIG=
202308270500 METAR WIHH 270500Z 04004KT 5000 HZ SCT018 32/22 Q1010 NOSIG=
202308270430 METAR WIHH 270430Z 03004KT 5000 HZ SCT018 32/22 Q1011 NOSIG=
202308270400 METAR WIHH 270400Z 36004KT 5000 HZ SCT020 31/21 Q1011 NOSIG=
202308270330 METAR WIHH 270330Z 22004KT 5000 HZ SCT020 32/21 Q1012 NOSIG=
202308270300 METAR WIHH 270300Z 19003KT 5000 HZ FEW020 32/22 Q1012 NOSIG=
202308270230 METAR WIHH 270230Z 12003KT 5000 HZ FEW020 31/23 Q1012 NOSIG=
202308270200 METAR WIHH 270200Z 09003KT 5000 HZ FEW020 30/23 Q1012 NOSIG=
202308270130 METAR WIHH 270130Z 18004KT 5000 HZ FEW020 29/22 Q1012 NOSIG=
202308270100 METAR WIHH 270100Z 18003KT 5000 HZ FEW020 28/23 Q1012 NOSIG=
202308270030 METAR WIHH 270030Z 12003KT 5000 HZ FEW020 28/23 Q1012 NOSIG=
202308270000 METAR WIHH 270000Z 18003KT 5000 HZ FEW020 27/23 Q1012 NOSIG=
202308262330 METAR WIHH 262330Z 17003KT 5000 HZ SCT020 26/23 Q1012 NOSIG=
202308262300 METAR WIHH 262300Z 19003KT 5000 HZ SCT020 26/23 Q1011 NOSIG=
202308262230 METAR WIHH 262230Z 25003KT 5000 HZ SCT020 27/23 Q1011 NOSIG=
202308262200 METAR WIHH NIL=
202308262130 METAR WIHH NIL=
202308262100 METAR WIHH NIL=
202308262030 METAR WIHH NIL=
202308262000 METAR WIHH NIL=
202308261930 METAR WIHH NIL=
202308261900 METAR WIHH NIL=
202308261830 METAR WIHH NIL=
202308261800 METAR WIHH NIL=
202308261730 METAR WIHH NIL=
202308261700 METAR WIHH NIL=
202308261630 METAR WIHH NIL=
202308261600 METAR WIHH NIL=
202308261530 METAR WIHH 261530Z 02004KT 6000 SCT020 29/24 Q1011 NOSIG=
202308261500 METAR WIHH 261500Z 09004KT 6000 SCT020 29/24 Q1011 NOSIG=
202308261430 METAR WIHH 261430Z 02004KT 6000 SCT020 29/24 Q1011 NOSIG=
202308261400 METAR WIHH 261400Z 04005KT 6000 SCT020 29/24 Q1011 NOSIG=
202308261330 METAR WIHH 261330Z 02006KT 6000 SCT020 29/24 Q1011 NOSIG=
202308261300 METAR WIHH 261300Z 04008KT 6000 SCT020 29/23 Q1010 NOSIG=
202308261230 METAR WIHH 261230Z 04005KT 6000 SCT020 30/22 Q1009 NOSIG=
202308261200 METAR WIHH 261200Z 02005KT 6000 SCT020 30/22 Q1009 NOSIG=
202308261130 METAR WIHH 261130Z 03004KT 6000 SCT020 31/21 Q1009 NOSIG=
202308261100 METAR WIHH 261100Z 33005KT 5000 HZ SCT020 31/21 Q1009 NOSIG=
202308261030 METAR WIHH NIL=
202308261000 METAR WIHH 261000Z 01008KT 5000 HZ SCT020 31/22 Q1008 NOSIG=
202308260930 METAR WIHH 260930Z 33008KT 5000 HZ SCT020 32/22 Q1008 NOSIG=
202308260900 METAR WIHH 260900Z 01008KT 5000 HZ SCT020 33/22 Q1007 NOSIG=
202308260830 METAR WIHH 260830Z 05007KT 5000 HZ SCT020 33/23 Q1007 NOSIG=
202308260800 METAR WIHH 260800Z 03007KT 5000 HZ SCT020 33/23 Q1007 NOSIG=
202308260730 METAR WIHH 260730Z 05007KT 5000 HZ SCT020 33/23 Q1008 NOSIG=
202308260700 METAR WIHH 260700Z 01008KT 5000 HZ SCT020 33/23 Q1008 NOSIG=
202308260630 METAR WIHH 260630Z 03007KT 5000 HZ SCT020 33/22 Q1008 NOSIG=
202308260600 METAR WIHH 260600Z 22004KT 5000 HZ SCT020 33/22 Q1009 NOSIG=
202308260530 METAR WIHH 260530Z 21003KT 5000 HZ SCT020 33/22 Q1009 NOSIGDUPE=
202308260500 METAR WIHH 260500Z 21003KT 5000 HZ SCT020 32/22 Q1010 NOSIG=
202308260430 METAR WIHH 260430Z 09003KT 5000 HZ SCT020 31/23 Q1010 NOSIG=
202308260400 METAR WIHH 260400Z 07003KT 5000 HZ SCT020 31/23 Q1011 NOSIG=
202308260330 METAR WIHH 260330Z 18004KT 5000 HZ SCT020 31/23 Q1011 NOSIG=
202308260300 METAR WIHH 260300Z 12003KT 5000 HZ SCT020 30/23 Q1012 NOSIG=
202308260230 METAR WIHH 260230Z 14003KT 5000 HZ SCT020 30/24 Q1012 NOSIG=
202308260200 METAR WIHH 260200Z 15003KT 5000 HZ SCT020 30/23 Q1012 NOSIG=
202308260130 METAR WIHH 260130Z 15003KT 5000 HZ FEW020 29/23 Q1012 NOSIG=
202308260100 METAR WIHH 260100Z 15003KT 5000 HZ FEW020 29/24 Q1012 NOSIG=
202308260030 METAR WIHH 260030Z 12003KT 5000 HZ SCT018 28/24 Q1012 NOSIG=
202308260000 METAR WIHH 260000Z 12003KT 5000 HZ SCT018 27/24 Q1012 NOSIG=
202308252330 METAR WIHH 252330Z 03002KT 5000 HZ SCT018 27/24 Q1012 NOSIG=
202308252300 METAR WIHH 252300Z 06004KT 5000 HZ SCT018 27/24 Q1011 NOSIG=
202308252230 METAR WIHH 252230Z 04003KT 5000 HZ SCT020 27/24 Q1011 NOSIG=
202308252200 METAR WIHH 252200Z 06003KT 5000 HZ SCT018 27/24 Q1011 RMK RA TO S=
202308252130 METAR WIHH 252130Z 00000KT 5000 HZ SCT018 27/24 Q1011 RMK RA TO S=
202308252100 METAR WIHH NIL=
202308252030 METAR WIHH NIL=
202308252000 METAR WIHH NIL=
202308251930 METAR WIHH NIL=
202308251900 METAR WIHH NIL=
202308251830 METAR WIHH NIL=
202308251800 METAR WIHH NIL=
202308251730 METAR WIHH NIL=
202308251700 METAR WIHH 251700Z 00000KT 5000 HZ SCT020 27/24 Q1012 NOSIG=
202308251630 METAR WIHH 251630Z 00000KT 5000 HZ SCT020 27/24 Q1012 NOSIG=
202308251600 METAR WIHH 251600Z 00000KT 6000 SCT020 28/24 Q1012 NOSIG=
202308251530 METAR WIHH 251530Z 03003KT 6000 SCT020 28/23 Q1012 NOSIG=
202308251500 METAR WIHH 251500Z 03003KT 6000 SCT020 28/23 Q1012 NOSIG=
202308251430 METAR WIHH 251430Z 03005KT 6000 SCT020 29/24 Q1012 NOSIG=
202308251400 METAR WIHH 251400Z 04005KT 6000 SCT020 29/24 Q1012 NOSIG=
202308251330 METAR WIHH 251330Z 03004KT 6000 SCT020 29/23 Q1012 NOSIG=
202308251300 METAR WIHH 251300Z 03004KT 6000 SCT020 29/23 Q1012 NOSIG=
202308251230 METAR WIHH 251230Z 03006KT 6000 SCT020 29/23 Q1011 NOSIG=
202308251200 METAR WIHH 251200Z 06006KT 6000 SCT020 29/23 Q1011 NOSIG=
202308251130 METAR WIHH 251130Z 03006KT 6000 SCT020 29/23 Q1010 NOSIG=
202308251100 METAR WIHH 251100Z 03010KT 6000 FEW020 30/23 Q1010 NOSIG=
202308251030 METAR WIHH 251030Z 03010KT 6000 FEW020 30/23 Q1009 NOSIG=
202308251000 METAR WIHH NIL=
202308250930 METAR WIHH 250930Z 03012KT 6000 SCT020 32/23 Q1009 NOSIG=
202308250900 METAR WIHH 250900Z 03013KT 6000 SCT020 32/23 Q1008 NOSIG=
202308250830 METAR WIHH 250830Z 03012KT 5000 HZ SCT020 33/22 Q1008 NOSIG=
202308250800 METAR WIHH 250800Z 03010KT 5000 HZ SCT020 33/23 Q1008 NOSIG=
202308250730 METAR WIHH 250730Z 07010KT 5000 HZ SCT020 34/23 Q1008 NOSIG=
202308250700 METAR WIHH NIL=
202308250630 METAR WIHH 250630Z 36010KT 5000 HZ SCT020 33/23 Q1008 NOSIG=
202308250600 METAR WIHH 250600Z 03010KT 5000 HZ SCT020 35/22 Q1009 NOSIG=
202308250530 METAR WIHH 250530Z 36008KT 5000 HZ SCT020 34/22 Q1009 NOSIG=
202308250500 METAR WIHH 250500Z 06008KT 5000 HZ SCT020 34/21 Q1009 NOSIG=
202308250430 METAR WIHH 250430Z 03010KT 5000 HZ FEW020 34/22 Q1009 NOSIG=
202308250400 METAR WIHH 250400Z 09005KT 5000 HZ FEW020 33/22 Q1010 NOSIG=
202308250330 METAR WIHH 250330Z 03005KT 5000 HZ FEW020 32/22 Q1011 NOSIG=
202308250300 METAR WIHH 250300Z 03005KT 5000 HZ NSC 32/22 Q1011 NOSIG=
202308250230 METAR WIHH 250230Z 02003KT 5000 HZ NSC 31/22 Q1012 NOSIG=
202308250200 METAR WIHH 250200Z 12003KT 5000 HZ NSC 30/22 Q1012 NOSIG=
202308250130 METAR WIHH 250130Z 24004KT 4000 HZ NSC 29/22 Q1012 NOSIG=
202308250100 METAR WIHH 250100Z 23004KT 4000 HZ NSC 28/23 Q1011 NOSIG=
202308250030 METAR WIHH 250030Z 24004KT 4000 HZ NSC 27/23 Q1011 NOSIG=
202308250000 METAR WIHH 250000Z 23003KT 4000 HZ NSC 25/23 Q1011 NOSIG=
202308242330 METAR WIHH 242330Z 21005KT 4000 HZ NSC 25/22 Q1011 NOSIG=
202308242300 METAR WIHH 242300Z 00000KT 4000 HZ NSC 24/22 Q1011 NOSIG=
202308242230 METAR WIHH 242230Z 00000KT 5000 HZ NSC 24/23 Q1011 NOSIG=
202308242200 METAR WIHH 242200Z 00000KT 5000 HZ NSC 24/23 Q1010 NOSIG=
202308242130 METAR WIHH 242130Z 00000KT 5000 HZ NSC 24/23 Q1010 NOSIG=
202308242100 METAR WIHH 242100Z 00000KT 5000 HZ FEW020 25/23 Q1010 NOSIG=
202308242030 METAR WIHH NIL=
202308242000 METAR WIHH NIL=
202308241930 METAR WIHH NIL=
202308241900 METAR WIHH NIL=
202308241830 METAR WIHH NIL=
202308241800 METAR WIHH 241800Z 00000KT 6000 FEW020 26/23 Q1011 NOSIG=
202308241730 METAR WIHH 241730Z 17003KT 6000 FEW020 26/23 Q1011 NOSIG=
202308241700 METAR WIHH 241700Z 00000KT 6000 FEW020 26/23 Q1011 NOSIG=
202308241630 METAR WIHH 241630Z 18003KT 6000 SCT020 27/23 Q1012 NOSIG=
202308241600 METAR WIHH 241600Z 18003KT 6000 SCT020 27/23 Q1012 NOSIG=
202308241530 METAR WIHH 241530Z 15003KT 6000 SCT020 27/23 Q1012 NOSIG=
202308241500 METAR WIHH 241500Z 10004KT 6000 FEW020 27/23 Q1012 NOSIG=
202308241430 METAR WIHH 241430Z 12004KT 6000 FEW020 27/23 Q1012 NOSIG=
202308241400 METAR WIHH 241400Z 14007KT 6000 FEW020 28/23 Q1011 NOSIG=
202308241330 METAR WIHH 241330Z 09009KT 6000 FEW020 28/23 Q1011 NOSIG=
202308241300 METAR WIHH 241300Z 10010KT 6000 FEW020 28/23 Q1011 NOSIG=
202308241230 METAR WIHH 241230Z 07012KT 6000 FEW020 28/23 Q1010 NOSIG=
202308241200 METAR WIHH 241200Z 09009KT 6000 FEW020 29/23 Q1010 NOSIG=
202308241130 METAR WIHH 241130Z 09014KT 6000 FEW020 29/22 Q1009 NOSIG=
202308241100 METAR WIHH 241100Z 05014KT 6000 FEW020 30/22 Q1008 NOSIG=
202308241030 METAR WIHH 241030Z 05014KT 6000 FEW020 30/22 Q1008 NOSIG=
202308241000 METAR WIHH 241000Z 06015KT 6000 FEW020 32/22 Q1008 NOSIG=
202308240930 METAR WIHH 240930Z 06012KT 6000 FEW020 32/22 Q1008 NOSIG=
202308240900 METAR WIHH 240900Z 08010KT 6000 FEW020 33/23 Q1007 NOSIG=
202308240830 METAR WIHH 240830Z 06014KT 6000 FEW020 33/22 Q1007 NOSIG=
202308240800 METAR WIHH 240800Z 05014KT 6000 FEW020 34/21 Q1007 NOSIG=
202308240730 METAR WIHH 240730Z 03012KT 6000 FEW020 34/21 Q1008 NOSIG=
202308240700 METAR WIHH 240700Z 05014KT 6000 FEW020 34/20 Q1008 NOSIG=
202308240630 METAR WIHH 240630Z 05012KT 6000 FEW020 33/21 Q1008 NOSIG=
202308240600 METAR WIHH 240600Z 09009KT 6000 FEW020 34/22 Q1009 NOSIG=
202308240530 METAR WIHH 240530Z 09015KT 6000 FEW020 33/20 Q1009 NOSIG=
202308240500 METAR WIHH 240500Z 06017KT 6000 FEW020 33/20 Q1009 NOSIG=
202308240430 METAR WIHH 240430Z 07014KT 5000 HZ FEW020 34/20 Q1010 NOSIG=
202308240400 METAR WIHH 240400Z 12008KT 5000 HZ FEW020 33/20 Q1011 NOSIG=
202308240330 METAR WIHH 240330Z 11011KT 5000 HZ NSC 33/20 Q1011 NOSIG=
202308240300 METAR WIHH 240300Z 04006KT 5000 HZ NSC 32/21 Q1011 NOSIG=
202308240230 METAR WIHH 240230Z 13007KT 5000 HZ NSC 31/23 Q1015 NOSIG=
202308240200 METAR WIHH 240200Z 06003KT 5000 HZ NSC 30/21 Q1012 NOSIG=
202308240130 METAR WIHH 240130Z 05003KT 5000 HZ NSC 29/21 Q1012 NOSIG=
202308240100 METAR WIHH 240100Z 13003KT 5000 HZ NSC 28/22 Q1011 NOSIG=
202308240030 METAR WIHH 240030Z 00000KT 5000 HZ NSC 27/22 Q1011 NOSIG=
202308240000 METAR WIHH 240000Z 00000KT 4000 HZ NSC 25/22 Q1011 NOSIG=
202308232330 METAR WIHH 232330Z 00000KT 4000 HZ NSC 24/22 Q1011 NOSIG=
202308232300 METAR WIHH 232300Z 00000KT 4000 HZ NSC 24/22 Q1011 NOSIG=
202308232230 METAR WIHH 232230Z 00000KT 5000 HZ NSC 25/24 Q1010 NOSIG=
202308232200 METAR WIHH 232200Z 00000KT 5000 HZ NSC 25/24 Q1010 NOSIG=
202308232130 METAR WIHH 232130Z 00000KT 5000 HZ NSC 25/24 Q1010 NOSIG=
202308232100 METAR WIHH NIL=
202308232030 METAR WIHH 232030Z 18004KT 6000 FEW020 26/24 Q1010 NOSIG=
202308232000 METAR WIHH NIL=
202308231930 METAR WIHH NIL=
202308231900 METAR WIHH NIL=
202308231830 METAR WIHH 231830Z 18006KT 6000 FEW020 27/25 Q1010 NOSIG=
202308231800 METAR WIHH 231800Z 06005KT 6000 FEW020 27/25 Q1011 NOSIG=
202308231730 METAR WIHH 231730Z 05005KT 6000 FEW020 28/25 Q1011 NOSIG=
202308231700 METAR WIHH 231700Z 11005KT 6000 FEW020 28/25 Q1011 NOSIG=
202308231630 METAR WIHH 231630Z 08005KT 6000 FEW020 28/25 Q1011 NOSIG=
202308231600 METAR WIHH 231600Z 15005KT 6000 FEW020 28/24 Q1011 NOSIG=
202308231530 METAR WIHH 231530Z 10008KT 6000 FEW020 28/24 Q1011 NOSIG=
202308231500 METAR WIHH 231500Z 08007KT 6000 NSC 28/23 Q1011 NOSIG=
202308231430 METAR WIHH 231430Z 09007KT 6000 NSC 28/23 Q1011 NOSIG=
202308231400 METAR WIHH 231400Z 07010KT 6000 NSC 29/22 Q1011 NOSIG=
202308231330 METAR WIHH 231330Z 07010KT 6000 NSC 29/21 Q1011 NOSIG=
202308231300 METAR WIHH 231300Z 05010KT 6000 NSC 29/20 Q1011 NOSIG=
202308231230 METAR WIHH 231230Z 03010KT 6000 NSC 29/20 Q1010 NOSIG=
202308231200 METAR WIHH 231200Z 05012KT 6000 NSC 30/20 Q1010 NOSIG=
202308231130 METAR WIHH 231130Z 04012KT 6000 NSC 30/21 Q1009 NOSIG=
202308231100 METAR WIHH 231100Z 06012KT 6000 NSC 30/21 Q1008 NOSIG=
202308231030 METAR WIHH 231030Z 08012KT 6000 NSC 31/21 Q1008 NOSIG=
202308231000 METAR WIHH 231000Z 06015KT 6000 NSC 31/21 Q1008 NOSIG=
202308230930 METAR WIHH 230930Z 06012KT 6000 FEW020 32/21 Q1008 NOSIG=
202308230900 METAR WIHH 230900Z 06012KT 6000 FEW020 32/21 Q1008 NOSIG=
202308230830 METAR WIHH 230830Z 03012KT 6000 FEW020 33/20 Q1008 NOSIG=
202308230800 METAR WIHH 230800Z 03012KT 6000 SCT020 33/20 Q1008 NOSIG=
202308230730 METAR WIHH 230730Z 35012KT 6000 SCT020 33/22 Q1008 NOSIG=
202308230700 METAR WIHH 230700Z 04012KT 6000 SCT020 32/22 Q1008 NOSIG=
202308230630 METAR WIHH 230630Z 35012KT 6000 SCT020 34/21 Q1009 NOSIG=
202308230600 METAR WIHH 230600Z 35012KT 6000 SCT020 33/21 Q1009 NOSIG=
202308230530 METAR WIHH 230530Z 06005KT 6000 SCT020 33/20 Q1010 NOSIG=
202308230500 METAR WIHH 230500Z 15005KT 6000 SCT020 33/20 Q1010 NOSIG=
202308230430 METAR WIHH 230430Z 07005KT 6000 SCT020 33/20 Q1010 NOSIG=
202308230400 METAR WIHH 230400Z 30003KT 6000 FEW020 32/20 Q1011 NOSIG=
202308230330 METAR WIHH 230330Z 27003KT 6000 NSC 32/21 Q1011 NOSIG=
202308230300 METAR WIHH 230300Z 23005KT 6000 NSC 32/22 Q1012 NOSIG=
202308230230 METAR WIHH NIL=
202308230200 METAR WIHH 230200Z 18005KT 6000 NSC 30/22 Q1012 NOSIG=
202308230130 METAR WIHH 230130Z 21005KT 6000 NSC 29/22 Q1012 NOSIG=
202308230100 METAR WIHH 230100Z 21006KT 6000 FEW020 28/21 Q1012 NOSIG=
202308230030 METAR WIHH 230030Z 21005KT 5000 HZ FEW020 25/21 Q1012 NOSIG=
202308230000 METAR WIHH 230000Z 21004KT 5000 HZ FEW020 25/21 Q1011 NOSIG=
202308222330 METAR WIHH 222330Z 24004KT 5000 HZ FEW020 25/21 Q1011 NOSIG=
202308222300 METAR WIHH 222300Z 21003KT 5000 HZ FEW020 24/21 Q1011 NOSIG=
202308222230 METAR WIHH 222230Z 21003KT 5000 HZ FEW020 25/21 Q1011 NOSIG=
202308222200 METAR WIHH 222200Z 22003KT 5000 HZ FEW020 25/21 Q1010 NOSIG=
202308222130 METAR WIHH NIL=
202308222100 METAR WIHH NIL=
202308222030 METAR WIHH NIL=
202308222000 METAR WIHH NIL=
202308221930 METAR WIHH NIL=
202308221900 METAR WIHH NIL=
202308221830 METAR WIHH NIL=
202308221800 METAR WIHH NIL=
202308221730 METAR WIHH NIL=
202308221700 METAR WIHH NIL=
202308221630 METAR WIHH 221630Z 00000KT 6000 NSC 26/23 Q1011 NOSIG=
202308221600 METAR WIHH 221600Z 18003KT 7000 FEW020 27/23 Q1011 NOSIG=
202308221530 METAR WIHH NIL=
202308221500 METAR WIHH 221500Z 09003KT 6000 FEW020 28/23 Q1012 NOSIG=
202308221430 METAR WIHH 221430Z 06005KT 6000 FEW020 28/23 Q1011 NOSIG=
202308221400 METAR WIHH 221400Z 09005KT 6000 FEW020 28/23 Q1011 NOSIG=
202308221330 METAR WIHH 221330Z 03006KT 6000 FEW020 28/23 Q1011 NOSIG=
202308221300 METAR WIHH 221300Z 06006KT 6000 FEW020 28/23 Q1011 NOSIG=
202308221230 METAR WIHH 221230Z 03008KT 6000 FEW020 29/23 Q1010 NOSIG=
202308221200 METAR WIHH 221200Z 05010KT 6000 FEW020 29/22 Q1009 NOSIG=
202308221130 METAR WIHH 221130Z 05010KT 6000 FEW020 29/22 Q1009 NOSIG=
202308221100 METAR WIHH 221100Z 03010KT 6000 FEW020 30/22 Q1009 NOSIG=
202308221030 METAR WIHH 221030Z 06013KT 6000 FEW020 30/21 Q1009 NOSIG=
202308221000 METAR WIHH 221000Z 04013KT 6000 FEW020 31/20 Q1008 NOSIG=
202308220930 METAR WIHH 220930Z 08015KT 6000 SCT020 32/20 Q1008 NOSIG=
202308220900 METAR WIHH 220900Z 07014KT 6000 SCT020 32/20 Q1008 NOSIG=
202308220830 METAR WIHH 220830Z 07012KT 6000 SCT020 32/20 Q1008 NOSIG=
202308220800 METAR WIHH 220800Z 08012KT 6000 SCT020 33/20 Q1008 NOSIG=
202308220730 METAR WIHH 220730Z 03010KT 5000 HZ SCT020 33/20 Q1008 NOSIG=
202308220700 METAR WIHH 220700Z 03010KT 5000 HZ SCT020 32/20 Q1008 NOSIG=
202308220630 METAR WIHH 220630Z 03010KT 5000 HZ SCT020 32/20 Q1009 NOSIG=
202308220600 METAR WIHH 220600Z 03010KT 5000 HZ SCT020 31/20 Q1009 NOSIG=
202308220530 METAR WIHH 220530Z 05005KT 5000 HZ SCT020 32/19 Q1010 NOSIG=
202308220500 METAR WIHH 220500Z 05005KT 5000 HZ SCT020 32/19 Q1010 NOSIG=
202308220430 METAR WIHH 220430Z 01008KT 5000 HZ SCT020 32/19 Q1010 NOSIG=
202308220400 METAR WIHH 220400Z 03008KT 5000 HZ FEW020 33/19 Q1011 NOSIG=
202308220330 METAR WIHH 220330Z 03003KT 5000 HZ FEW020 31/19 Q1011 NOSIG=
202308220300 METAR WIHH 220300Z 00000KT 6000 NSC 31/20 Q1011 NOSIG=
202308220230 METAR WIHH 220230Z 22008KT 6000 NSC 31/20 Q1011 NOSIG=
202308220200 METAR WIHH 220200Z 15005KT 5000 HZ NSC 29/21 Q1012 NOSIG=
202308220130 METAR WIHH 220130Z 13003KT 5000 HZ NSC 28/21 Q1012 NOSIG=
202308220100 METAR WIHH 220100Z 21005KT 5000 HZ NSC 27/22 Q1011 NOSIG=
202308220030 METAR WIHH 220030Z 22004KT 5000 HZ NSC 26/22 Q1011 NOSIG=
202308220000 METAR WIHH 220000Z 22005KT 4000 HZ NSC 25/23 Q1011 NOSIG=
202308212330 METAR WIHH 212330Z 23003KT 4000 HZ NSC 24/23 Q1011 NOSIG=
202308212300 METAR WIHH 212300Z 00000KT 4000 HZ NSC 24/22 Q1011 NOSIG=
202308212230 METAR WIHH 212230Z 00000KT 4000 HZ NSC 23/22 Q1010 NOSIG=
202308212200 METAR WIHH 212200Z 00000KT 4000 HZ NSC 23/22 Q1010 NOSIG=
202308212130 METAR WIHH 212130Z 00000KT 4000 HZ NSC 23/22 Q1010 NOSIG=
202308212100 METAR WIHH 212100Z 00000KT 4000 HZ NSC 24/22 Q1010 NOSIG=
202308212030 METAR WIHH NIL=
202308212000 METAR WIHH NIL=
202308211930 METAR WIHH NIL=
202308211900 METAR WIHH NIL=
202308211830 METAR WIHH NIL=
202308211800 METAR WIHH NIL=
202308211730 METAR WIHH NIL=
202308211700 METAR WIHH 211700Z 00000KT 5000 HZ SCT020 26/23 Q1012 NOSIG=
202308211630 METAR WIHH 211630Z 00000KT 5000 HZ FEW018 27/23 Q1012 NOSIG=
202308211600 METAR WIHH 211600Z 00000KT 5000 HZ FEW018 27/23 Q1012 NOSIG=
202308211530 METAR WIHH 211530Z 00000KT 6000 FEW018 27/22 Q1012 NOSIG=
202308211500 METAR WIHH 211500Z 00000KT 6000 FEW018 28/22 Q1012 NOSIG=
202308211430 METAR WIHH 211430Z 00000KT 6000 SCT018 27/22 Q1011 NOSIG=
202308211400 METAR WIHH 211400Z 08004KT 6000 SCT018 28/21 Q1011 NOSIG=
202308211330 METAR WIHH 211330Z 10003KT 6000 SCT018 29/21 Q1011 NOSIG=
202308211300 METAR WIHH 211300Z 04005KT 6000 SCT018 28/21 Q1011 NOSIG=
202308211230 METAR WIHH 211230Z 07007KT 6000 SCT018 29/21 Q1010 NOSIG=
202308211200 METAR WIHH 211200Z 05008KT 6000 SCT018 29/20 Q1010 NOSIG=
202308211130 METAR WIHH 211130Z 05008KT 6000 SCT018 30/20 Q1010 NOSIG=
202308211100 METAR WIHH 211100Z 05011KT 6000 SCT018 30/20 Q1009 NOSIG=
202308211030 METAR WIHH 211030Z 06011KT 6000 SCT018 31/19 Q1009 NOSIG=
202308211000 METAR WIHH 211000Z 04013KT 6000 SCT018 31/19 Q1009 NOSIG=
202308210930 METAR WIHH 210930Z 07012KT 6000 SCT018 32/19 Q1009 NOSIG=
202308210900 METAR WIHH 210900Z 04010KT 6000 SCT018 32/19 Q1008 NOSIG=
202308210830 METAR WIHH 210830Z 08013KT 6000 SCT018 33/20 Q1008 NOSIG=
202308210800 METAR WIHH 210800Z 03012KT 6000 SCT018 33/20 Q1008 NOSIG=
202308210730 METAR WIHH 210730Z 07010KT 6000 SCT018 33/19 Q1008 NOSIG=
202308210700 METAR WIHH 210700Z 08011KT 6000 SCT018 33/19 Q1009 NOSIG=
202308210630 METAR WIHH 210630Z 06011KT 6000 SCT018 33/20 Q1009 NOSIG=
202308210600 METAR WIHH 210600Z 06011KT 6000 SCT018 33/21 Q1009 NOSIG=
202308210530 METAR WIHH 210530Z 06010KT 5000 HZ SCT018 33/20 Q1010 NOSIG=
202308210500 METAR WIHH 210500Z 05010KT 5000 HZ SCT018 32/21 Q1010 NOSIG=
202308210430 METAR WIHH 210430Z 03010KT 5000 HZ SCT018 33/21 Q1010 NOSIG=
202308210400 METAR WIHH 210400Z 09010KT 5000 HZ SCT018 32/21 Q1011 NOSIG=
202308210330 METAR WIHH 210330Z 09008KT 5000 HZ SCT020 32/21 Q1011 NOSIG=
202308210300 METAR WIHH 210300Z 12007KT 5000 HZ SCT020 31/21 Q1011 NOSIG=
202308210230 METAR WIHH 210230Z 08008KT 5000 HZ FEW020 30/21 Q1012 NOSIG=
202308210200 METAR WIHH 210200Z 09005KT 5000 HZ NSC 30/22 Q1012 NOSIG=
202308210130 METAR WIHH 210130Z 14003KT 4000 HZ NSC 29/23 Q1012 NOSIG=
202308210100 METAR WIHH 210100Z 15002KT 4000 HZ NSC 27/23 Q1012 NOSIG=
202308210030 METAR WIHH 210030Z 14003KT 4000 HZ NSC 26/23 Q1012 NOSIG=
202308210000 METAR WIHH 210000Z 14002KT 4000 HZ NSC 25/22 Q1011 NOSIG=
202308202330 METAR WIHH 202330Z 00000KT 5000 HZ NSC 24/22 Q1011 NOSIG=
202308202300 METAR WIHH 202300Z 00000KT 4000 HZ NSC 24/21 Q1011 NOSIG=
202308202230 METAR WIHH 202230Z 00000KT 5000 HZ NSC 24/22 Q1011 NOSIG=
202308202200 METAR WIHH 202200Z 00000KT 5000 HZ NSC 24/22 Q1011 NOSIG=
202308202130 METAR WIHH 202130Z 00000KT 5000 HZ NSC 24/22 Q1010 NOSIG=
202308202100 METAR WIHH 202100Z 25002KT 5000 HZ NSC 25/23 Q1010 NOSIG=
202308202030 METAR WIHH NIL=
202308202000 METAR WIHH NIL=
202308201930 METAR WIHH NIL=
202308201900 METAR WIHH NIL=
202308201830 METAR WIHH NIL=
202308201800 METAR WIHH NIL=
202308201730 METAR WIHH NIL=
202308201700 METAR WIHH 201700Z 09004KT 5000 HZ SCT018 28/24 Q1012 NOSIG=
202308201630 METAR WIHH 201630Z 09005KT 5000 HZ SCT018 28/24 Q1012 NOSIG=
202308201600 METAR WIHH 201600Z 09005KT 6000 SCT018 29/23 Q1012 NOSIG=
202308201530 METAR WIHH 201530Z 07005KT 6000 BKN018 29/23 Q1012 NOSIG=
202308201500 METAR WIHH 201500Z 05006KT 6000 BKN018 29/23 Q1012 NOSIG=
202308201430 METAR WIHH 201430Z 06005KT 6000 SCT018 29/23 Q1011 NOSIG=
202308201400 METAR WIHH 201400Z 07005KT 6000 SCT018 29/22 Q1011 NOSIG=
202308201330 METAR WIHH 201330Z 03004KT 6000 BKN018 29/22 Q1011 NOSIG=
202308201300 METAR WIHH 201300Z 06004KT 6000 BKN018 29/22 Q1010 NOSIG=
202308201230 METAR WIHH 201230Z 06005KT 6000 SCT018 29/22 Q1010 NOSIG=
202308201200 METAR WIHH 201200Z 05006KT 6000 SCT018 29/22 Q1010 NOSIG=
202308201130 METAR WIHH 201130Z 04007KT 6000 SCT018 29/22 Q1009 NOSIG=
202308201100 METAR WIHH 201100Z 04007KT 6000 SCT018 30/21 Q1009 NOSIG=
202308201030 METAR WIHH 201030Z 04008KT 7000 SCT020 30/21 Q1009 NOSIG=
202308201000 METAR WIHH 201000Z 01007KT 7000 SCT020 31/22 Q1008 NOSIG=
202308200930 METAR WIHH 200930Z 04010KT 7000 SCT020 31/23 Q1008 NOSIG=
202308200900 METAR WIHH 200900Z 03013KT 7000 SCT020 32/23 Q1008 NOSIG=
202308200830 METAR WIHH 200830Z 01012KT 7000 SCT020 32/23 Q1008 RMK RA TO S=
202308200800 METAR WIHH 200800Z 03010KT 7000 SCT020 33/23 Q1007 NOSIG=
202308200730 METAR WIHH 200730Z 03010KT 7000 SCT020 34/20 Q1008 NOSIG=
202308200700 METAR WIHH 200700Z 08010KT 7000 SCT020 35/21 Q1008 NOSIG=
202308200630 METAR WIHH 200630Z 06010KT 7000 SCT020 34/20 Q1008 NOSIG=
202308200600 METAR WIHH 200600Z 05008KT 7000 SCT020 34/20 Q1009 NOSIG=
202308200530 METAR WIHH 200530Z 03012KT 7000 SCT020 34/20 Q1009 NOSIG=
202308200500 METAR WIHH 200500Z 06010KT 6000 SCT020 34/20 Q1010 NOSIG=
202308200430 METAR WIHH 200430Z 02003KT 6000 SCT020 33/20 Q1010 NOSIG=
202308200400 METAR WIHH 200400Z 06007KT 6000 FEW020 33/20 Q1011 NOSIG=
202308200330 METAR WIHH 200330Z 09012KT 6000 FEW020 32/21 Q1011 NOSIG=
202308200300 METAR WIHH 200300Z 12009KT 6000 NSC 31/21 Q1012 NOSIG=
202308200230 METAR WIHH 200230Z 12010KT 6000 NSC 31/22 Q1012 NOSIG=
202308200200 METAR WIHH 200200Z 12008KT 6000 NSC 30/22 Q1012 NOSIG=
202308200130 METAR WIHH 200130Z 10004KT 5000 HZ NSC 29/22 Q1013 NOSIG=
202308200100 METAR WIHH 200100Z 12004KT 4000 HZ NSC 28/23 Q1012 NOSIG=
202308200030 METAR WIHH 200030Z 09004KT 4000 HZ NSC 27/23 Q1012 NOSIG=
202308200000 METAR WIHH 200000Z 15003KT 4000 HZ NSC 26/23 Q1012 NOSIG=
202308192330 METAR WIHH 192330Z 00000KT 4000 HZ FEW020 26/23 Q1012 NOSIG=
202308192300 METAR WIHH 192300Z 16003KT 5000 HZ FEW020 26/23 Q1012 NOSIG=
202308192230 METAR WIHH 192230Z 12003KT 5000 HZ FEW020 26/23 Q1011 NOSIG=
202308192200 METAR WIHH 192200Z 12003KT 5000 HZ FEW020 26/23 Q1011 NOSIG=
202308192130 METAR WIHH NIL=
202308192100 METAR WIHH NIL=
202308192030 METAR WIHH NIL=
202308192000 METAR WIHH NIL=
202308191930 METAR WIHH NIL=
202308191900 METAR WIHH NIL=
202308191830 METAR WIHH NIL=
202308191800 METAR WIHH NIL=
202308191730 METAR WIHH NIL=
202308191700 METAR WIHH NIL=
202308191630 METAR WIHH NIL=
202308191600 METAR WIHH NIL=
202308191530 METAR WIHH 191530Z 06004KT 7000 SCT020 28/23 Q1012 NOSIG=
202308191500 METAR WIHH 191500Z 06005KT 6000 SCT020 28/23 Q1012 NOSIG=
202308191430 METAR WIHH 191430Z 03006KT 7000 SCT020 28/23 Q1012 NOSIG=
202308191400 METAR WIHH 191400Z 03006KT 7000 SCT020 28/23 Q1011 NOSIG=
202308191330 METAR WIHH 191330Z 06006KT 7000 SCT020 29/22 Q1011 NOSIG=
202308191300 METAR WIHH 191300Z 05008KT 7000 SCT020 29/22 Q1011 NOSIG=
202308191230 METAR WIHH 191230Z 03010KT 6000 SCT020 29/22 Q1010 NOSIG=
202308191200 METAR WIHH 191200Z 03008KT 6000 SCT020 29/21 Q1010 NOSIG=
202308191130 METAR WIHH 191130Z 03010KT 6000 SCT020 29/22 Q1009 NOSIG=
202308191100 METAR WIHH 191100Z 03010KT 6000 SCT020 30/22 Q1009 NOSIG=
202308191030 METAR WIHH 191030Z 03010KT 6000 SCT020 30/22 Q1008 NOSIG=
202308191000 METAR WIHH 191000Z 04010KT 6000 SCT020 31/22 Q1008 NOSIG=
202308190930 METAR WIHH 190930Z 04011KT 6000 SCT020 31/22 Q1008 NOSIG=
202308190900 METAR WIHH 190900Z 03010KT 6000 SCT020 32/22 Q1007 NOSIG=
202308190830 METAR WIHH 190830Z 03010KT 6000 SCT020 33/21 Q1007 NOSIG=
202308190800 METAR WIHH 190800Z 03010KT 6000 SCT020 33/22 Q1007 NOSIG=
202308190730 METAR WIHH 190730Z 06010KT 6000 SCT020 33/21 Q1007 NOSIG=
202308190700 METAR WIHH 190700Z 06012KT 6000 SCT020 33/21 Q1008 NOSIG=
202308190630 METAR WIHH NIL=
202308190600 METAR WIHH 190600Z 06010KT 6000 SCT020 33/20 Q1009 NOSIG=
202308190530 METAR WIHH 190530Z 09008KT 6000 SCT020 33/19 Q1009 NOSIG=
202308190500 METAR WIHH 190500Z 06008KT 6000 SCT020 33/19 Q1010 NOSIG=
202308190430 METAR WIHH 190430Z 10005KT 6000 SCT020 33/20 Q1010 NOSIG=
202308190400 METAR WIHH 190400Z 06006KT 6000 FEW020 32/20 Q1011 NOSIG=
202308190330 METAR WIHH 190330Z 06008KT 5000 HZ FEW020 31/21 Q1011 NOSIG=
202308190300 METAR WIHH 190300Z 06005KT 5000 HZ FEW020 31/20 Q1012 NOSIG=
202308190230 METAR WIHH 190230Z 14007KT 5000 HZ NSC 30/21 Q1012 NOSIG=
202308190200 METAR WIHH 190200Z 08006KT 4000 HZ NSC 29/22 Q1012 NOSIG=
202308190130 METAR WIHH 190130Z 08006KT 4000 HZ NSC 29/22 Q1012 NOSIG=
202308190100 METAR WIHH 190100Z 12003KT 4000 HZ NSC 27/23 Q1012 NOSIG=
202308190030 METAR WIHH 190030Z 14003KT 4000 HZ NSC 26/22 Q1012 NOSIG=
202308190000 METAR WIHH 190000Z 12003KT 4000 HZ NSC 25/22 Q1011 NOSIG=
202308182330 METAR WIHH 182330Z 14003KT 4000 HZ NSC 25/23 Q1011 NOSIG=
202308182300 METAR WIHH 182300Z 00000KT 4000 HZ NSC 24/22 Q1011 NOSIG=
202308182230 METAR WIHH 182230Z 00000KT 5000 HZ NSC 24/22 Q1011 NOSIG=
202308182200 METAR WIHH NIL=
202308182130 METAR WIHH 182130Z 00000KT 5000 HZ NSC 24/22 Q1011 NOSIG=
202308182100 METAR WIHH 182100Z 00000KT 5000 HZ NSC 24/22 Q1011 NOSIG=
202308182030 METAR WIHH NIL=
202308182000 METAR WIHH NIL=
202308181930 METAR WIHH NIL=
202308181900 METAR WIHH NIL=
202308181830 METAR WIHH NIL=
202308181800 METAR WIHH NIL=
202308181730 METAR WIHH NIL=
202308181700 METAR WIHH NIL=
202308181630 METAR WIHH NIL=
202308181600 METAR WIHH NIL=
202308181530 METAR WIHH NIL=
202308181500 METAR WIHH 181500Z 03004KT 7000 NSC 29/22 Q1012 NOSIG=
202308181430 METAR WIHH 181430Z 04005KT 7000 NSC 29/22 Q1012 NOSIG=
202308181400 METAR WIHH 181400Z 02006KT 7000 FEW020 29/22 Q1012 NOSIG=
202308181330 METAR WIHH 181330Z 03004KT 7000 FEW020 29/22 Q1011 NOSIG=
202308181300 METAR WIHH 181300Z 03005KT 7000 FEW020 29/22 Q1011 NOSIG=
202308181230 METAR WIHH 181230Z 03007KT 7000 FEW020 29/22 Q1010 NOSIG=
202308181200 METAR WIHH 181200Z 04007KT 7000 FEW020 29/21 Q1010 NOSIG=
202308181130 METAR WIHH 181130Z 05008KT 6000 FEW020 29/21 Q1009 NOSIG=
202308181100 METAR WIHH 181100Z 33005KT 6000 FEW020 30/22 Q1008 NOSIG=
202308181030 METAR WIHH 181030Z 36007KT 6000 SCT020 30/21 Q1008 NOSIG=
202308181000 METAR WIHH 181000Z 33008KT 6000 SCT020 31/22 Q1008 NOSIG=
202308180930 METAR WIHH 180930Z 34008KT 6000 SCT020 31/22 Q1008 NOSIG=
202308180900 METAR WIHH 180900Z 36008KT 6000 SCT020 32/22 Q1008 NOSIG=
202308180830 METAR WIHH 180830Z 01014KT 6000 SCT020 32/22 Q1008 NOSIG=
202308180800 METAR WIHH 180800Z 33008KT 6000 SCT020 32/22 Q1008 NOSIG=
202308180730 METAR WIHH 180730Z 36009KT 6000 SCT020 32/22 Q1008 NOSIG=
202308180700 METAR WIHH 180700Z 09006KT 6000 SCT020 32/20 Q1008 NOSIG=
202308180630 METAR WIHH 180630Z 06006KT 6000 SCT020 33/19 Q1008 NOSIG=
202308180600 METAR WIHH 180600Z 25007KT 6000 SCT020 33/18 Q1009 NOSIG=
202308180530 METAR WIHH 180530Z 29004KT 6000 SCT020 33/18 Q1009 NOSIG=
202308180500 METAR WIHH 180500Z 21006KT 6000 SCT020 32/19 Q1010 NOSIG=
202308180430 METAR WIHH 180430Z 09005KT 6000 SCT020 33/18 Q1010 NOSIG=
202308180400 METAR WIHH 180400Z 28004KT 6000 FEW020 32/19 Q1011 NOSIG=
202308180330 METAR WIHH 180330Z 23004KT 6000 NSC 32/19 Q1012 NOSIG=
202308180300 METAR WIHH 180300Z 26007KT 6000 NSC 30/21 Q1012 NOSIG=
202308180230 METAR WIHH 180230Z 25008KT 5000 HZ NSC 30/21 Q1012 NOSIG=
202308180200 METAR WIHH 180200Z 23008KT 5000 HZ NSC 29/21 Q1012 NOSIG=
202308180130 METAR WIHH 180130Z 23008KT 5000 HZ NSC 29/21 Q1012 NOSIG=
202308180100 METAR WIHH 180100Z 23006KT 5000 HZ NSC 27/21 Q1012 NOSIG=
202308180030 METAR WIHH 180030Z 20008KT 5000 HZ NSC 26/21 Q1012 NOSIG=
202308180000 METAR WIHH 180000Z 21004KT 5000 HZ FEW020 25/20 Q1012 NOSIG=
202308172330 METAR WIHH 172330Z 21005KT 6000 FEW020 24/20 Q1011 NOSIG=
202308172300 METAR WIHH 172300Z 21007KT 6000 FEW020 24/20 Q1011 NOSIG=
202308172230 METAR WIHH 172230Z 20005KT 6000 FEW020 24/20 Q1011 NOSIG=
202308172200 METAR WIHH 172200Z 22007KT 6000 FEW020 24/20 Q1011 NOSIG=
202308172130 METAR WIHH 172130Z 22004KT 6000 FEW020 24/21 Q1011 NOSIG=
202308172100 METAR WIHH 172100Z 00000KT 6000 FEW020 24/21 Q1011 NOSIG=
202308172030 METAR WIHH NIL=
202308172000 METAR WIHH NIL=
202308171930 METAR WIHH NIL=
202308171900 METAR WIHH NIL=
202308171830 METAR WIHH NIL=
202308171800 METAR WIHH NIL=
202308171730 METAR WIHH NIL=
202308171700 METAR WIHH NIL=
202308171630 METAR WIHH 171630Z 12004KT 5000 HZ FEW020 27/23 Q1012 NOSIG=
202308171600 METAR WIHH 171600Z 09004KT 6000 FEW020 28/23 Q1012 NOSIG=
202308171530 METAR WIHH 171530Z 09004KT 6000 FEW020 28/23 Q1012 NOSIG=
202308171500 METAR WIHH 171500Z 07005KT 6000 FEW020 28/22 Q1012 NOSIG=
202308171430 METAR WIHH 171430Z 05005KT 6000 FEW020 28/22 Q1012 NOSIG=
202308171400 METAR WIHH 171400Z 07005KT 6000 FEW020 28/22 Q1012 NOSIG=
202308171330 METAR WIHH 171330Z 07004KT 6000 FEW020 28/22 Q1011 NOSIG=
202308171300 METAR WIHH 171300Z 05005KT 6000 FEW020 28/22 Q1011 NOSIG=
202308171230 METAR WIHH 171230Z 02006KT 6000 FEW020 28/22 Q1011 NOSIG=
202308171200 METAR WIHH 171200Z 04007KT 6000 FEW020 29/21 Q1010 NOSIG=
202308171130 METAR WIHH 171130Z 03008KT 6000 FEW020 29/21 Q1010 NOSIG=
202308171100 METAR WIHH 171100Z 07008KT 6000 FEW020 30/21 Q1010 NOSIG=
202308171030 METAR WIHH 171030Z 03011KT 7000 SCT020 30/21 Q1009 NOSIG=
202308171000 METAR WIHH 171000Z 36012KT 7000 SCT020 31/20 Q1009 NOSIG=
202308170930 METAR WIHH 170930Z 03013KT 7000 SCT020 32/20 Q1009 NOSIG=
202308170900 METAR WIHH 170900Z 03010KT 7000 SCT020 32/21 Q1009 NOSIG=
202308170830 METAR WIHH 170830Z 03015KT 7000 SCT020 33/21 Q1009 NOSIG=
202308170800 METAR WIHH 170800Z 01014KT 7000 SCT020 33/20 Q1008 NOSIG=
202308170730 METAR WIHH 170730Z 01012KT 7000 FEW020 33/20 Q1008 NOSIG=
202308170700 METAR WIHH 170700Z 02012KT 7000 FEW020 34/19 Q1009 NOSIG=
202308170630 METAR WIHH 170630Z 35008KT 7000 FEW020 34/18 Q1009 NOSIG=
202308170600 METAR WIHH 170600Z 05008KT 7000 FEW020 34/18 Q1009 NOSIG=
202308170530 METAR WIHH 170530Z 05004KT 7000 FEW020 34/18 Q1010 NOSIG=
202308170500 METAR WIHH 170500Z 04010KT 6000 FEW020 33/18 Q1010 NOSIG=
202308170430 METAR WIHH 170430Z 03010KT 6000 FEW020 33/18 Q1010 NOSIG=
202308170400 METAR WIHH 170400Z 05010KT 6000 NSC 32/18 Q1011 NOSIG=
202308170330 METAR WIHH 170330Z 12005KT 6000 NSC 32/18 Q1011 NOSIG=
202308170300 METAR WIHH 170300Z 12003KT 5000 HZ NSC 31/18 Q1012 NOSIG=
202308170230 METAR WIHH 170230Z 16003KT 5000 HZ NSC 30/20 Q1012 NOSIG=
202308170200 METAR WIHH 170200Z 00000KT 4000 HZ NSC 30/21 Q1012 NOSIG=
202308170130 METAR WIHH 170130Z 11003KT 5000 HZ NSC 28/21 Q1012 NOSIG=
202308170100 METAR WIHH 170100Z 13004KT 6000 NSC 27/21 Q1012 NOSIG=
202308170030 METAR WIHH 170030Z 12004KT 6000 NSC 24/21 Q1012 NOSIG=
202308170000 METAR WIHH 170000Z 21003KT 6000 NSC 25/20 Q1012 NOSIG=
202308162330 METAR WIHH 162330Z 17003KT 6000 NSC 24/20 Q1012 NOSIG=
202308162300 METAR WIHH 162300Z 20004KT 6000 NSC 23/20 Q1012 NOSIG=
202308162230 METAR WIHH 162230Z 22003KT 6000 NSC 24/21 Q1012 NOSIG=
202308162200 METAR WIHH 162200Z 24003KT 6000 NSC 24/21 Q1011 NOSIG=
202308162130 METAR WIHH 162130Z 22003KT 7000 NSC 24/20 Q1011 NOSIG=
202308162100 METAR WIHH 162100Z 23002KT 7000 NSC 24/21 Q1011 NOSIG=
202308162030 METAR WIHH NIL=
202308162000 METAR WIHH NIL=
202308161930 METAR WIHH NIL=
202308161900 METAR WIHH NIL=
202308161830 METAR WIHH NIL=
202308161800 METAR WIHH NIL=
202308161730 METAR WIHH NIL=
202308161700 METAR WIHH 161700Z 00000KT 5000 HZ FEW020 26/22 Q1013 NOSIG=
202308161630 METAR WIHH 161630Z 00000KT 5000 HZ FEW020 26/22 Q1013 NOSIG=
202308161600 METAR WIHH 161600Z 00000KT 6000 FEW020 27/21 Q1013 NOSIG=
202308161530 METAR WIHH 161530Z 08003KT 6000 FEW020 28/21 Q1013 NOSIG=
202308161500 METAR WIHH 161500Z 08002KT 6000 FEW020 28/22 Q1013 NOSIG=
202308161430 METAR WIHH 161430Z 07003KT 6000 FEW020 27/22 Q1013 NOSIG=
202308161400 METAR WIHH 161400Z 05003KT 6000 SCT020 29/22 Q1013 NOSIG=
202308161330 METAR WIHH 161330Z 04004KT 6000 SCT020 29/22 Q1012 NOSIG=
202308161300 METAR WIHH 161300Z 06003KT 6000 SCT020 29/22 Q1012 NOSIG=
202308161230 METAR WIHH 161230Z 06003KT 6000 SCT020 29/22 Q1011 NOSIG=
202308161200 METAR WIHH 161200Z 03003KT 6000 SCT020 29/22 Q1011 NOSIG=
202308161130 METAR WIHH 161130Z 03006KT 6000 SCT020 29/22 Q1011 NOSIG=
202308161100 METAR WIHH 161100Z 01004KT 7000 FEW020 30/21 Q1010 NOSIG=
202308161030 METAR WIHH 161030Z 03007KT 7000 FEW020 30/21 Q1010 NOSIG=
202308161000 METAR WIHH 161000Z 05010KT 7000 FEW020 31/20 Q1010 NOSIG=
202308160930 METAR WIHH 160930Z 04012KT 7000 FEW020 32/19 Q1010 NOSIG=
202308160900 METAR WIHH 160900Z 02011KT 7000 FEW020 33/19 Q1009 NOSIG=
202308160830 METAR WIHH 160830Z 03012KT 7000 FEW020 33/19 Q1009 NOSIG=
202308160800 METAR WIHH 160800Z 03012KT 7000 SCT020 33/20 Q1009 NOSIG=
202308160730 METAR WIHH 160730Z 08010KT 6000 SCT020 33/20 Q1009 NOSIG=
202308160700 METAR WIHH 160700Z 36010KT 6000 SCT020 33/21 Q1010 NOSIG=
202308160630 METAR WIHH 160630Z 36006KT 6000 SCT020 35/21 Q1010 NOSIG=
202308160600 METAR WIHH 160600Z 12004KT 6000 SCT020 35/17 Q1010 NOSIG=
202308160530 METAR WIHH 160530Z 28003KT 6000 SCT020 35/19 Q1011 NOSIG=
202308160500 METAR WIHH 160500Z 24004KT 6000 FEW020 34/19 Q1012 NOSIG=
202308160430 METAR WIHH 160430Z 07004KT 6000 FEW020 33/19 Q1012 NOSIG=
202308160400 METAR WIHH 160400Z 04003KT 5000 HZ FEW020 32/20 Q1013 NOSIG=
202308160330 METAR WIHH 160330Z 36003KT 5000 HZ FEW020 33/21 Q1013 NOSIG=
202308160300 METAR WIHH 160300Z 18003KT 5000 HZ FEW020 31/22 Q1014 NOSIG=
202308160230 METAR WIHH 160230Z 16004KT 4000 HZ NSC 30/22 Q1014 NOSIG=
202308160200 METAR WIHH 160200Z 20002KT 4000 HZ NSC 29/23 Q1014 NOSIG=
202308160130 METAR WIHH 160130Z 00000KT 4000 HZ NSC 27/22 Q1014 NOSIG=
202308160100 METAR WIHH 160100Z 22003KT 4000 HZ NSC 27/21 Q1014 NOSIG=
202308160030 METAR WIHH 160030Z 22003KT 5000 HZ NSC 25/21 Q1014 NOSIG=
202308160000 METAR WIHH 160000Z 00000KT 5000 HZ NSC 24/21 Q1013 NOSIG=
202308152330 METAR WIHH 152330Z 00000KT 4000 HZ FEW020 24/21 Q1013 NOSIG=
202308152300 METAR WIHH 152300Z 00000KT 4000 HZ FEW020 24/21 Q1013 NOSIG=
202308152230 METAR WIHH 152230Z 00000KT 5000 HZ FEW020 24/22 Q1012 NOSIG=
202308152200 METAR WIHH 152200Z 00000KT 5000 HZ FEW020 25/22 Q1012 NOSIG=
202308152130 METAR WIHH 152130Z 00000KT 5000 HZ NSC 25/22 Q1012 NOSIG=
202308152100 METAR WIHH 152100Z 18003KT 5000 HZ NSC 25/23 Q1012 NOSIG=
202308152030 METAR WIHH NIL=
202308152000 METAR WIHH NIL=
202308151930 METAR WIHH NIL=
202308151900 METAR WIHH NIL=
202308151830 METAR WIHH NIL=
202308151800 METAR WIHH NIL=
202308151730 METAR WIHH NIL=
202308151700 METAR WIHH NIL=
202308151630 METAR WIHH NIL=
202308151600 METAR WIHH 151600Z 14003KT 6000 SCT020 27/23 Q1013 NOSIG=
202308151530 METAR WIHH NIL=
202308151500 METAR WIHH 151500Z 10003KT 6000 SCT020 28/23 Q1013 NOSIG=
202308151430 METAR WIHH 151430Z 08003KT 6000 SCT020 28/23 Q1013 NOSIG=
202308151400 METAR WIHH 151400Z 10005KT 6000 SCT020 28/23 Q1013 NOSIG=
202308151330 METAR WIHH 151330Z 06003KT 6000 FEW020 28/23 Q1013 NOSIG=
202308151300 METAR WIHH 151300Z 05004KT 6000 SCT020 28/23 Q1012 NOSIG=
202308151230 METAR WIHH 151230Z 03007KT 6000 SCT020 28/24 Q1012 NOSIG=
202308151200 METAR WIHH 151200Z 01007KT 6000 FEW020 28/23 Q1012 NOSIG=
202308151130 METAR WIHH 151130Z 01007KT 6000 SCT020 29/23 Q1011 NOSIG=
202308151100 METAR WIHH 151100Z 03008KT 6000 SCT020 29/22 Q1010 NOSIG=
202308151030 METAR WIHH 151030Z 36012KT 6000 SCT020 30/22 Q1010 NOSIG=
202308151000 METAR WIHH 151000Z 36010KT 6000 SCT020 31/20 Q1010 NOSIG=
202308150930 METAR WIHH 150930Z 02011KT 6000 SCT020 32/21 Q1010 NOSIG=
202308150900 METAR WIHH 150900Z 03011KT 6000 SCT020 33/21 Q1009 NOSIG=
202308150830 METAR WIHH 150830Z 06008KT 6000 SCT020 33/20 Q1009 NOSIG=
202308150800 METAR WIHH 150800Z 07008KT 6000 SCT020 33/20 Q1009 NOSIG=
202308150730 METAR WIHH NIL=
202308150700 METAR WIHH 150700Z 06007KT 5000 HZ SCT020 33/21 Q1010 NOSIG=
202308150630 METAR WIHH 150630Z 01008KT 5000 HZ SCT020 33/21 Q1010 NOSIG=
202308150600 METAR WIHH 150600Z 06006KT 5000 HZ SCT020 33/21 Q1011 NOSIG=
202308150530 METAR WIHH 150530Z 05008KT 5000 HZ SCT020 33/21 Q1011 NOSIG=
202308150500 METAR WIHH 150500Z 06004KT 5000 HZ SCT020 33/20 Q1012 NOSIG=
202308150430 METAR WIHH 150430Z 31003KT 5000 HZ FEW020 33/21 Q1013 NOSIG=
202308150400 METAR WIHH 150400Z 09003KT 5000 HZ FEW020 33/20 Q1013 NOSIG=
202308150330 METAR WIHH 150330Z 11003KT 5000 HZ NSC 32/21 Q1013 NOSIG=
202308150300 METAR WIHH 150300Z 22003KT 5000 HZ NSC 30/21 Q1014 NOSIG=
202308150230 METAR WIHH 150230Z 34003KT 5000 HZ NSC 30/21 Q1014 NOSIG=
202308150200 METAR WIHH NIL=
202308150130 METAR WIHH 150130Z 00000KT 5000 HZ NSC 28/22 Q1014 NOSIG=
202308150100 METAR WIHH 150100Z 22003KT 4000 HZ NSC 27/22 Q1014 NOSIG=
202308150030 METAR WIHH 150030Z 23004KT 4000 HZ NSC 26/23 Q1013 NOSIG=
202308150000 METAR WIHH 150000Z 24002KT 4000 HZ NSC 25/22 Q1013 NOSIG=
202308142330 METAR WIHH 142330Z 00000KT 3000 HZ NSC 24/22 Q1013 NOSIG=
202308142300 METAR WIHH 142300Z 00000KT 3000 HZ NSC 24/22 Q1011 NOSIG=
202308142230 METAR WIHH NIL=
202308142200 METAR WIHH NIL=
202308142130 METAR WIHH NIL=
202308142100 METAR WIHH NIL=
202308142030 METAR WIHH NIL=
202308142000 METAR WIHH NIL=
202308141930 METAR WIHH NIL=
202308141900 METAR WIHH NIL=
202308141830 METAR WIHH NIL=
202308141800 METAR WIHH NIL=
202308141730 METAR WIHH NIL=
202308141700 METAR WIHH NIL=
202308141630 METAR WIHH NIL=
202308141600 METAR WIHH NIL=
202308141530 METAR WIHH 141530Z 12003KT 6000 SCT020 27/23 Q1013 NOSIG=
202308141500 METAR WIHH 141500Z 06003KT 6000 SCT020 28/23 Q1013 NOSIG=
202308141430 METAR WIHH 141430Z 07005KT 6000 FEW020 28/23 Q1013 NOSIG=
202308141400 METAR WIHH NIL=
202308141330 METAR WIHH 141330Z 05007KT 7000 FEW020 28/22 Q1012 NOSIG=
202308141300 METAR WIHH 141300Z 07006KT 7000 FEW020 28/22 Q1012 NOSIG=
202308141230 METAR WIHH 141230Z 06007KT 7000 FEW020 28/22 Q1011 NOSIG=
202308141200 METAR WIHH 141200Z 05007KT 7000 FEW020 29/21 Q1011 NOSIG=
202308141130 METAR WIHH 141130Z 05008KT 7000 FEW020 29/22 Q1010 NOSIG=
202308141100 METAR WIHH 141100Z 06008KT 7000 FEW020 29/22 Q1010 NOSIG=
202308141030 METAR WIHH 141030Z 04007KT 7000 FEW020 30/22 Q1009 NOSIG=
202308141000 METAR WIHH 141000Z 02007KT 7000 FEW020 31/21 Q1009 NOSIG=
202308140930 METAR WIHH 140930Z 02010KT 7000 FEW020 32/21 Q1009 NOSIG=
202308140900 METAR WIHH 140900Z 05012KT 7000 SCT020 32/20 Q1009 NOSIG=
202308140830 METAR WIHH 140830Z 01012KT 7000 SCT020 32/20 Q1009 NOSIG=
202308140800 METAR WIHH 140800Z 06012KT 7000 SCT020 33/20 Q1009 NOSIG=
202308140730 METAR WIHH 140730Z 03006KT 6000 SCT020 33/19 Q1009 NOSIG=
202308140700 METAR WIHH 140700Z 03008KT 6000 SCT020 34/19 Q1009 NOSIG=
202308140630 METAR WIHH 140630Z 03007KT 6000 SCT020 34/19 Q1009 NOSIG=
202308140600 METAR WIHH NIL=
202308140530 METAR WIHH 140530Z 06006KT 6000 SCT020 32/19 Q1010 NOSIG=
202308140500 METAR WIHH 140500Z 06008KT 6000 SCT020 33/19 Q1011 NOSIG=
202308140430 METAR WIHH 140430Z 26003KT 6000 SCT020 32/20 Q1011 NOSIG=
202308140400 METAR WIHH 140400Z 03005KT 6000 FEW020 32/20 Q1012 NOSIG=
202308140330 METAR WIHH 140330Z 15005KT 5000 HZ NSC 32/20 Q1012 NOSIG=
202308140300 METAR WIHH 140300Z 07005KT 6000 NSC 31/20 Q1012 NOSIG=
202308140230 METAR WIHH 140230Z 12005KT 6000 NSC 30/21 Q1013 NOSIG=
202308140200 METAR WIHH 140200Z 07002KT 6000 NSC 29/21 Q1013 NOSIG=
202308140130 METAR WIHH 140130Z 13002KT 5000 HZ NSC 28/21 Q1013 NOSIG=
202308140100 METAR WIHH 140100Z 24003KT 5000 HZ NSC 26/21 Q1013 NOSIG=
202308140030 METAR WIHH NIL=
202308140000 METAR WIHH 140000Z 20003KT 5000 HZ NSC 24/20 Q1012 NOSIG=
202308132330 METAR WIHH 132330Z 00000KT 4000 HZ FEW020 23/21 Q1011 NOSIG=
202308132300 METAR WIHH 132300Z 22003KT 4000 HZ FEW020 23/21 Q1011 NOSIG=
202308132230 METAR WIHH 132230Z 22003KT 4000 HZ FEW020 23/21 Q1011 NOSIG=
202308132200 METAR WIHH 132200Z 18003KT 4000 HZ FEW020 24/22 Q1011 NOSIG=
202308132130 METAR WIHH 132130Z 19003KT 5000 HZ FEW020 24/23 Q1011 NOSIG=
202308132100 METAR WIHH 132100Z 20002KT 5000 HZ FEW020 24/23 Q1011 NOSIG=
202308132030 METAR WIHH NIL=
202308132000 METAR WIHH NIL=
202308131930 METAR WIHH NIL=
202308131900 METAR WIHH NIL=
202308131830 METAR WIHH NIL=
202308131800 METAR WIHH NIL=
202308131730 METAR WIHH NIL=
202308131700 METAR WIHH 131700Z 15003KT 5000 HZ SCT020 26/23 Q1013 NOSIG=
202308131630 METAR WIHH 131630Z 14003KT 5000 HZ SCT020 26/23 Q1013 NOSIG=
202308131600 METAR WIHH 131600Z 12003KT 6000 SCT020 27/23 Q1013 NOSIG=
202308131530 METAR WIHH 131530Z 12003KT 6000 SCT020 27/23 Q1013 NOSIG=
202308131500 METAR WIHH 131500Z 10003KT 6000 SCT020 28/23 Q1013 NOSIG=
202308131430 METAR WIHH 131430Z 08003KT 6000 SCT020 28/23 Q1013 NOSIG=
202308131400 METAR WIHH 131400Z 05005KT 6000 FEW020 28/23 Q1012 NOSIG=
202308131330 METAR WIHH 131330Z 06006KT 6000 SCT020 28/23 Q1012 NOSIG=
202308131300 METAR WIHH 131300Z 10007KT 6000 SCT020 28/23 Q1011 NOSIG=
202308131230 METAR WIHH 131230Z 09007KT 6000 SCT020 28/23 Q1011 NOSIG=
202308131200 METAR WIHH 131200Z 05009KT 6000 FEW020 28/22 Q1011 NOSIG=
202308131130 METAR WIHH 131130Z 07010KT 6000 SCT020 28/22 Q1011 NOSIG=
202308131100 METAR WIHH 131100Z 03010KT 6000 SCT020 29/22 Q1010 NOSIG=
202308131030 METAR WIHH 131030Z 04012KT 6000 SCT020 29/22 Q1010 NOSIG=
202308131000 METAR WIHH 131000Z 05013KT 6000 SCT020 30/21 Q1009 NOSIG=
202308130930 METAR WIHH 130930Z 03012KT 7000 SCT020 31/21 Q1009 NOSIG=
202308130900 METAR WIHH 130900Z 03009KT 7000 SCT020 32/21 Q1009 NOSIG=
202308130830 METAR WIHH NIL=
202308130800 METAR WIHH NIL=
202308130730 METAR WIHH 130730Z 02011KT 7000 SCT020 33/19 Q1008 NOSIG=
202308130700 METAR WIHH 130700Z 03010KT 6000 FEW020 33/18 Q1009 NOSIG=
202308130630 METAR WIHH 130630Z 07010KT 6000 FEW020 34/18 Q1009 NOSIG=
202308130600 METAR WIHH 130600Z 08008KT 6000 FEW020 33/18 Q1010 NOSIG=
202308130530 METAR WIHH 130530Z 11012KT 6000 FEW020 33/19 Q1010 NOSIG=
202308130500 METAR WIHH 130500Z 33005KT 6000 FEW020 32/18 Q1011 NOSIG=
202308130430 METAR WIHH 130430Z 07005KT 6000 FEW020 32/18 Q1011 NOSIG=
202308130400 METAR WIHH 130400Z 07006KT 6000 FEW020 31/18 Q1012 NOSIG=
202308130330 METAR WIHH 130330Z 12006KT 6000 FEW020 31/19 Q1012 NOSIG=
202308130300 METAR WIHH 130300Z 07011KT 6000 FEW020 30/20 Q1013 NOSIG=
202308130230 METAR WIHH 130230Z 10011KT 6000 FEW020 30/20 Q1013 NOSIG=
202308130200 METAR WIHH 130200Z 12006KT 5000 HZ FEW020 29/20 Q1013 NOSIG=
202308130130 METAR WIHH 130130Z 13004KT 5000 HZ NSC 28/20 Q1013 NOSIG=
202308130100 METAR WIHH 130100Z 11003KT 4000 HZ NSC 27/21 Q1012 NOSIG=
202308130030 METAR WIHH 130030Z 13003KT 4000 HZ NSC 26/21 Q1012 NOSIG=
202308130000 METAR WIHH 130000Z 21002KT 4000 HZ NSC 24/21 Q1012 NOSIG=
202308122330 METAR WIHH 122330Z 26002KT 4000 HZ NSC 23/21 Q1012 NOSIG=
202308122300 METAR WIHH 122300Z 26002KT 4000 HZ NSC 23/21 Q1011 NOSIG=
202308122230 METAR WIHH 122230Z 17002KT 4000 HZ NSC 24/22 Q1011 NOSIG=
202308122200 METAR WIHH 122200Z 00000KT 4000 HZ NSC 23/21 Q1011 NOSIG=
202308122130 METAR WIHH 122130Z 00000KT 5000 HZ FEW020 23/22 Q1011 NOSIG=
202308122100 METAR WIHH NIL=
202308122030 METAR WIHH NIL=
202308122000 METAR WIHH NIL=
202308121930 METAR WIHH NIL=
202308121900 METAR WIHH NIL=
202308121830 METAR WIHH NIL=
202308121800 METAR WIHH NIL=
202308121730 METAR WIHH NIL=
202308121700 METAR WIHH 121700Z 15003KT 5000 HZ FEW020 25/22 Q1013 NOSIG=
202308121630 METAR WIHH 121630Z 15003KT 5000 HZ FEW020 25/22 Q1013 NOSIG=
202308121600 METAR WIHH 121600Z 15003KT 6000 FEW020 26/22 Q1013 NOSIG=
202308121530 METAR WIHH 121530Z 14003KT 6000 FEW020 27/22 Q1013 NOSIG=
202308121500 METAR WIHH 121500Z 08006KT 7000 FEW020 28/22 Q1013 NOSIG=
202308121430 METAR WIHH 121430Z 04005KT 7000 FEW020 28/22 Q1012 NOSIG=
202308121400 METAR WIHH 121400Z 04005KT 7000 FEW020 28/22 Q1012 NOSIG=
202308121330 METAR WIHH 121330Z 07005KT 7000 FEW020 28/22 Q1012 NOSIG=
202308121300 METAR WIHH 121300Z 07006KT 7000 NSC 28/22 Q1012 NOSIG=
202308121230 METAR WIHH 121230Z 08006KT 7000 NSC 28/22 Q1011 NOSIG=
202308121200 METAR WIHH 121200Z 05008KT 7000 NSC 28/22 Q1011 NOSIG=
202308121130 METAR WIHH 121130Z 05010KT 7000 NSC 28/22 Q1010 NOSIG=
202308121100 METAR WIHH 121100Z 05006KT 7000 FEW020 29/21 Q1010 NOSIG=
202308121030 METAR WIHH 121030Z 04008KT 7000 FEW020 30/20 Q1009 NOSIG=
202308121000 METAR WIHH 121000Z 04010KT 7000 FEW020 30/19 Q1009 NOSIG=
202308120930 METAR WIHH 120930Z 03010KT 7000 FEW020 32/17 Q1009 NOSIG=
202308120900 METAR WIHH 120900Z 09010KT 7000 FEW020 32/17 Q1008 NOSIG=
202308120830 METAR WIHH 120830Z 05012KT 7000 FEW020 33/18 Q1008 NOSIG=
202308120800 METAR WIHH 120800Z 03010KT 7000 SCT020 33/18 Q1009 NOSIG=
202308120730 METAR WIHH 120730Z 09010KT 6000 SCT020 33/17 Q1009 NOSIG=
202308120700 METAR WIHH 120700Z 05010KT 6000 SCT020 33/17 Q1009 NOSIG=
202308120630 METAR WIHH 120630Z 05010KT 6000 SCT020 33/18 Q1009 NOSIG=
202308120600 METAR WIHH 120600Z 28003KT 5000 HZ SCT020 33/18 Q1010 NOSIG=
202308120530 METAR WIHH 120530Z 20003KT 5000 HZ SCT020 33/19 Q1010 NOSIG=
202308120500 METAR WIHH 120500Z 13003KT 5000 HZ SCT020 32/19 Q1011 NOSIG=
202308120430 METAR WIHH 120430Z 21003KT 5000 HZ SCT020 32/19 Q1011 NOSIG=
202308120400 METAR WIHH 120400Z 28003KT 5000 HZ FEW020 31/19 Q1011 NOSIG=
202308120330 METAR WIHH 120330Z 09005KT 5000 HZ FEW020 32/19 Q1012 NOSIG=
202308120300 METAR WIHH 120300Z 09005KT 5000 HZ FEW020 31/19 Q1013 NOSIG=
202308120230 METAR WIHH 120230Z 18002KT 4000 HZ NSC 30/21 Q1013 NOSIG=
202308120200 METAR WIHH 120200Z 10003KT 4000 HZ NSC 29/21 Q1013 NOSIG=
202308120130 METAR WIHH 120130Z 00000KT 4000 HZ NSC 28/22 Q1013 NOSIG=
202308120100 METAR WIHH 120100Z 13003KT 4000 HZ NSC 27/22 Q1013 NOSIG=
202308120030 METAR WIHH 120030Z 00000KT 4000 HZ NSC 26/22 Q1013 NOSIG=
202308120000 METAR WIHH 120000Z 00000KT 4000 HZ NSC 25/22 Q1012 NOSIG=
202308112330 METAR WIHH 112330Z 05003KT 4000 HZ FEW020 24/21 Q1012 NOSIG=
202308112300 METAR WIHH 112300Z 00000KT 4000 HZ FEW020 24/21 Q1012 NOSIG=
202308112230 METAR WIHH 112230Z 21003KT 5000 HZ FEW020 24/21 Q1011 NOSIG=
202308112200 METAR WIHH 112200Z 20003KT 5000 HZ FEW020 24/22 Q1011 NOSIG=
202308112130 METAR WIHH 112130Z 18004KT 5000 HZ FEW020 24/22 Q1011 NOSIG=
202308112100 METAR WIHH 112100Z 00000KT 5000 HZ FEW020 24/23 Q1011 NOSIG=
202308112030 METAR WIHH NIL=
202308112000 METAR WIHH NIL=
202308111930 METAR WIHH NIL=
202308111900 METAR WIHH NIL=
202308111830 METAR WIHH NIL=
202308111800 METAR WIHH NIL=
202308111730 METAR WIHH NIL=
202308111700 METAR WIHH NIL=
202308111630 METAR WIHH NIL=
202308111600 METAR WIHH NIL=
202308111530 METAR WIHH NIL=
202308111500 METAR WIHH 111500Z 08005KT 6000 FEW020 28/23 Q1012 NOSIG=
202308111430 METAR WIHH 111430Z 08006KT 6000 FEW020 28/23 Q1012 NOSIG=
202308111400 METAR WIHH 111400Z 07004KT 6000 SCT020 28/22 Q1012 NOSIG=
202308111330 METAR WIHH 111330Z 07006KT 6000 SCT020 28/23 Q1012 NOSIG=
202308111300 METAR WIHH 111300Z 07006KT 6000 SCT020 28/22 Q1011 NOSIG=
202308111230 METAR WIHH 111230Z 06007KT 6000 SCT020 29/21 Q1011 NOSIG=
202308111200 METAR WIHH 111200Z 05006KT 6000 SCT018 29/21 Q1010 NOSIG=
202308111130 METAR WIHH 111130Z 03008KT 5000 HZ SCT018 29/22 Q1010 NOSIG=
202308111100 METAR WIHH 111100Z 03007KT 5000 HZ SCT020 30/21 Q1010 NOSIG=
202308111030 METAR WIHH 111030Z 04007KT 5000 HZ FEW020 30/21 Q1009 NOSIG=
202308111000 METAR WIHH 111000Z 03009KT 5000 HZ FEW020 31/21 Q1009 NOSIG=
202308110930 METAR WIHH 110930Z 03012KT 5000 HZ FEW020 31/22 Q1009 NOSIG=
202308110900 METAR WIHH 110900Z 02011KT 5000 HZ SCT020 31/22 Q1009 NOSIG=
202308110830 METAR WIHH 110830Z 02011KT 5000 HZ SCT020 32/22 Q1009 NOSIG=
202308110800 METAR WIHH 110800Z 36010KT 5000 HZ SCT020 32/22 Q1009 NOSIG=
202308110730 METAR WIHH 110730Z 35010KT 5000 HZ SCT020 33/24 Q1009 NOSIG=
202308110700 METAR WIHH 110700Z 02011KT 5000 HZ SCT020 33/22 Q1009 NOSIG=
202308110630 METAR WIHH 110630Z 30003KT 5000 HZ SCT020 33/22 Q1010 NOSIG=
202308110600 METAR WIHH 110600Z 04004KT 5000 HZ SCT020 33/22 Q1010 NOSIG=
202308110530 METAR WIHH 110530Z 28003KT 5000 HZ SCT020 33/22 Q1011 NOSIG=
202308110500 METAR WIHH 110500Z 04003KT 5000 HZ SCT020 33/22 Q1011 NOSIG=
202308110430 METAR WIHH 110430Z 16003KT 5000 HZ SCT020 31/22 Q1012 NOSIG=
202308110400 METAR WIHH 110400Z 22004KT 5000 HZ SCT020 31/22 Q1013 NOSIG=
202308110330 METAR WIHH 110330Z 02003KT 4000 HZ FEW020 31/23 Q1013 NOSIG=
202308110300 METAR WIHH 110300Z 07003KT 4000 HZ FEW020 31/23 Q1014 NOSIG=
202308110230 METAR WIHH 110230Z 14003KT 4000 HZ FEW020 30/23 Q1014 NOSIG=
202308110200 METAR WIHH 110200Z 20003KT 4000 HZ FEW020 29/23 Q1014 NOSIG=
202308110130 METAR WIHH 110130Z 00000KT 4000 HZ FEW020 28/23 Q1014 NOSIG=
202308110100 METAR WIHH NIL=
202308110030 METAR WIHH 110030Z 00000KT 3000 HZ NSC 26/24 Q1013 NOSIG=
202308110000 METAR WIHH 110000Z 26003KT 4000 HZ NSC 25/23 Q1013 NOSIG=
202308102330 METAR WIHH 102330Z 00000KT 4000 HZ NSC 25/23 Q1012 NOSIG=
202308102300 METAR WIHH 102300Z 00000KT 4000 HZ NSC 25/23 Q1012 NOSIG=
202308102230 METAR WIHH 102230Z 00000KT 5000 HZ NSC 25/23 Q1012 NOSIG=
202308102200 METAR WIHH 102200Z 15003KT 4000 HZ FEW020 25/23 Q1012 NOSIG=
202308102130 METAR WIHH 102130Z 15003KT 4000 HZ FEW020 25/24 Q1012 NOSIG=
202308102100 METAR WIHH NIL=
202308102030 METAR WIHH NIL=
202308102000 METAR WIHH NIL=
202308101930 METAR WIHH NIL=
202308101900 METAR WIHH NIL=
202308101830 METAR WIHH NIL=
202308101800 METAR WIHH NIL=
202308101730 METAR WIHH NIL=
202308101700 METAR WIHH NIL=
202308101630 METAR WIHH NIL=
202308101600 METAR WIHH NIL=
202308101530 METAR WIHH NIL=
202308101500 METAR WIHH 101500Z 03003KT 5000 HZ SCT020 28/25 Q1014 NOSIG=
202308101430 METAR WIHH 101430Z 02004KT 5000 HZ SCT020 28/24 Q1014 NOSIG=
202308101400 METAR WIHH 101400Z 04003KT 5000 HZ SCT020 28/23 Q1014 NOSIG=
202308101330 METAR WIHH 101330Z 02004KT 5000 HZ SCT020 28/23 Q1013 NOSIG=
202308101300 METAR WIHH 101300Z 02004KT 5000 HZ SCT020 28/24 Q1013 NOSIG=
202308101230 METAR WIHH 101230Z 02005KT 5000 HZ SCT020 29/23 Q1012 NOSIG=
202308101200 METAR WIHH 101200Z 04006KT 5000 HZ SCT020 29/23 Q1012 NOSIG=
202308101130 METAR WIHH 101130Z 03006KT 5000 HZ SCT020 29/22 Q1012 NOSIG=
202308101100 METAR WIHH 101100Z 03012KT 5000 HZ SCT020 31/21 Q1011 NOSIG=
202308101030 METAR WIHH 101030Z 03012KT 5000 HZ SCT020 31/21 Q1011 NOSIG=
202308101000 METAR WIHH 101000Z 05012KT 5000 HZ SCT020 32/21 Q1010 NOSIG=
202308100930 METAR WIHH 100930Z 02013KT 5000 HZ SCT020 32/21 Q1010 NOSIG=
202308100900 METAR WIHH 100900Z 03013KT 5000 HZ SCT020 32/21 Q1010 NOSIG=
202308100830 METAR WIHH 100830Z 05013KT 5000 HZ SCT020 33/21 Q1010 NOSIG=
202308100800 METAR WIHH 100800Z 03015KT 5000 HZ SCT020 34/20 Q1010 NOSIG=
202308100730 METAR WIHH 100730Z 05005KT 5000 HZ SCT020 34/20 Q1010 NOSIG=
202308100700 METAR WIHH 100700Z 23006KT 5000 HZ SCT020 34/20 Q1010 NOSIG=
202308100630 METAR WIHH 100630Z 25008KT 5000 HZ SCT020 34/21 Q1011 NOSIG=
202308100600 METAR WIHH 100600Z 06008KT 5000 HZ SCT020 34/20 Q1011 NOSIG=
202308100530 METAR WIHH 100530Z 08005KT 5000 HZ SCT020 34/20 Q1012 NOSIG=
202308100500 METAR WIHH 100500Z TAF WIHH 100500Z 1006/1106 04014KT 7000 SCT020 BECMG 1015/1017 17004KT 4000 HZ FEW022=
202308100430 METAR WIHH 100430Z 27005KT 5000 HZ FEW020 33/20 Q1013 NOSIG=
202308100400 METAR WIHH 100400Z 16005KT 5000 HZ FEW020 32/21 Q1013 NOSIG=
202308100330 METAR WIHH 100330Z 13005KT 5000 HZ FEW020 32/21 Q1014 NOSIG=
202308100300 METAR WIHH 100300Z 11007KT 5000 HZ FEW020 31/21 Q1014 NOSIG=
202308100230 METAR WIHH 100230Z 10005KT 5000 HZ NSC 30/23 Q1014 NOSIG=
202308100200 METAR WIHH 100200Z 15004KT 4000 HZ NSC 29/23 Q1014 NOSIG=
202308100130 METAR WIHH 100130Z 11004KT 4000 HZ NSC 28/23 Q1014 NOSIG=
202308100100 METAR WIHH 100100Z 09005KT 4000 HZ NSC 27/23 Q1014 NOSIG=
202308100030 METAR WIHH 100030Z 12003KT 4000 HZ NSC 27/23 Q1014 NOSIG=
202308100000 METAR WIHH 100000Z 13003KT 4000 HZ NSC 26/23 Q1013 NOSIG=
202308092330 METAR WIHH 092330Z 00000KT 4000 HZ NSC 25/23 Q1013 NOSIG=
202308092300 METAR WIHH 092300Z 15004KT 4000 HZ NSC 25/23 Q1013 NOSIG=
202308092230 METAR WIHH 092230Z 12003KT 5000 HZ NSC 25/23 Q1012 NOSIG=
202308092200 METAR WIHH 092200Z 12003KT 5000 HZ NSC 25/23 Q1012 NOSIG=
202308092130 METAR WIHH 092130Z 09003KT 4000 HZ FEW020 25/23 Q1012 NOSIG=
202308092100 METAR WIHH 092100Z 12003KT 4000 HZ FEW020 25/23 Q1012 NOSIG=
202308092030 METAR WIHH NIL=
202308092000 METAR WIHH NIL=
202308091930 METAR WIHH NIL=
202308091900 METAR WIHH NIL=
202308091830 METAR WIHH NIL=
202308091800 METAR WIHH NIL=
202308091730 METAR WIHH NIL=
202308091700 METAR WIHH NIL=
202308091630 METAR WIHH 091630Z 08005KT 6000 SCT020 28/23 Q1013 NOSIG=
202308091600 METAR WIHH 091600Z 06006KT 6000 SCT020 28/23 Q1013 NOSIG=
202308091530 METAR WIHH 091530Z 07006KT 6000 SCT020 28/24 Q1013 NOSIG=
202308091500 METAR WIHH 091500Z 06006KT 6000 SCT020 28/24 Q1013 NOSIG=
202308091430 METAR WIHH 091430Z 06006KT 6000 SCT020 28/24 Q1013 NOSIG=
202308091400 METAR WIHH 091400Z 06008KT 6000 SCT020 28/24 Q1013 NOSIG=
202308091330 METAR WIHH 091330Z 06008KT 6000 SCT020 28/24 Q1013 NOSIG=
202308091300 METAR WIHH 091300Z 06009KT 7000 FEW020 28/24 Q1013 NOSIG=
202308091230 METAR WIHH 091230Z 05010KT 7000 NSC 28/24 Q1013 NOSIG=
202308091200 METAR WIHH 091200Z 03012KT 7000 NSC 28/24 Q1012 NOSIG=
202308091130 METAR WIHH 091130Z 06009KT 7000 NSC 29/23 Q1012 NOSIG=
202308091100 METAR WIHH 091100Z 05009KT 7000 NSC 29/23 Q1011 NOSIG=
202308091030 METAR WIHH 091030Z 03008KT 7000 NSC 30/23 Q1011 NOSIG=
202308091000 METAR WIHH 091000Z 03010KT 7000 FEW020 31/22 Q1011 NOSIG=
202308090930 METAR WIHH 090930Z 03010KT 7000 FEW020 32/22 Q1011 NOSIG=
202308090900 METAR WIHH 090900Z 03010KT 7000 FEW020 32/22 Q1011 NOSIG=
202308090830 METAR WIHH 090830Z 03012KT 7000 FEW020 32/21 Q1011 NOSIG=
202308090800 METAR WIHH 090800Z 06010KT 7000 SCT020 33/21 Q1010 NOSIG=
202308090730 METAR WIHH 090730Z 06010KT 7000 SCT020 33/21 Q1011 NOSIG=
202308090700 METAR WIHH 090700Z 06012KT 7000 FEW020 33/21 Q1011 NOSIG=
202308090630 METAR WIHH 090630Z 03015KT 6000 FEW020 33/20 Q1011 NOSIG=
202308090600 METAR WIHH 090600Z 06010KT 6000 FEW020 33/20 Q1012 NOSIG=
202308090530 METAR WIHH 090530Z 06010KT 6000 SCT020 33/21 Q1012 NOSIG=
202308090500 METAR WIHH 090500Z 06013KT 6000 SCT020 33/21 Q1012 NOSIG=
202308090430 METAR WIHH 090430Z 03012KT 6000 SCT020 32/22 Q1013 NOSIG=
202308090400 METAR WIHH 090400Z 03012KT 5000 HZ SCT020 32/22 Q1013 NOSIG=
202308090330 METAR WIHH 090330Z 03008KT 5000 HZ SCT020 32/22 Q1013 NOSIG=
202308090300 METAR WIHH 090300Z 05008KT 5000 HZ SCT020 31/22 Q1014 NOSIG=
202308090230 METAR WIHH 090230Z 07008KT 5000 HZ FEW020 31/22 Q1014 NOSIG=
202308090200 METAR WIHH 090200Z 09010KT 5000 HZ NSC 29/22 Q1014 NOSIG=
202308090130 METAR WIHH 090130Z 10009KT 5000 HZ NSC 29/23 Q1014 NOSIG=
202308090100 METAR WIHH 090100Z 10005KT 4000 HZ NSC 28/23 Q1014 NOSIG=
202308090030 METAR WIHH 090030Z 10003KT 4000 HZ NSC 27/23 Q1014 NOSIG=
202308090000 METAR WIHH 090000Z 00000KT 3000 HZ NSC 25/24 Q1013 NOSIG=
202308082330 METAR WIHH 082330Z 00000KT 3000 HZ NSC 25/24 Q1013 NOSIG=
202308082300 METAR WIHH 082300Z 00000KT 3000 HZ FEW020 24/23 Q1013 NOSIG=
202308082230 METAR WIHH 082230Z 00000KT 3000 HZ FEW020 24/23 Q1013 NOSIG=
202308082200 METAR WIHH 082200Z 00000KT 3000 HZ FEW020 25/24 Q1012 NOSIG=
202308082130 METAR WIHH 082130Z 00000KT 4000 HZ FEW020 25/23 Q1012 NOSIG=
202308082100 METAR WIHH 082100Z 11003KT 4000 HZ FEW020 25/23 Q1012 NOSIG=
202308082030 METAR WIHH NIL=
202308082000 METAR WIHH NIL=
202308081930 METAR WIHH NIL=
202308081900 METAR WIHH NIL=
202308081830 METAR WIHH NIL=
202308081800 METAR WIHH NIL=
202308081730 METAR WIHH NIL=
202308081700 METAR WIHH 081700Z 12004KT 5000 HZ FEW020 27/24 Q1013 NOSIG=
202308081630 METAR WIHH 081630Z 12004KT 6000 FEW020 27/24 Q1013 NOSIG=
202308081600 METAR WIHH 081600Z 10006KT 6000 FEW020 28/24 Q1013 NOSIG=
202308081530 METAR WIHH 081530Z 06006KT 6000 FEW020 28/24 Q1013 NOSIG=
202308081500 METAR WIHH 081500Z 06007KT 6000 FEW020 28/24 Q1013 NOSIG=
202308081430 METAR WIHH 081430Z 05006KT 6000 SCT020 28/24 Q1013 NOSIG=
202308081400 METAR WIHH 081400Z 08009KT 6000 SCT020 28/24 Q1013 NOSIG=
202308081330 METAR WIHH 081330Z 06009KT 6000 SCT020 28/24 Q1013 NOSIG=
202308081300 METAR WIHH 081300Z 05008KT 6000 SCT020 28/24 Q1012 NOSIG=
202308081230 METAR WIHH 081230Z 06010KT 6000 SCT020 29/24 Q1012 NOSIG=
202308081200 METAR WIHH 081200Z 09010KT 6000 SCT020 29/24 Q1011 NOSIG=
202308081130 METAR WIHH 081130Z 05014KT 6000 SCT020 29/24 Q1011 NOSIG=
202308081100 METAR WIHH 081100Z 05014KT 6000 SCT020 30/24 Q1011 NOSIG=
202308081030 METAR WIHH 081030Z 08012KT 6000 SCT020 30/23 Q1010 NOSIG=
202308081000 METAR WIHH 081000Z 05014KT 7000 FEW020 31/23 Q1010 NOSIG=
202308080930 METAR WIHH 080930Z 02016KT 7000 FEW020 32/23 Q1009 NOSIG=
202308080900 METAR WIHH 080900Z 03010KT 7000 FEW020 33/22 Q1009 NOSIG=
202308080830 METAR WIHH 080830Z 03014KT 7000 FEW020 33/22 Q1009 NOSIG=
202308080800 METAR WIHH 080800Z 05013KT 7000 SCT020 34/22 Q1010 NOSIG=
202308080730 METAR WIHH 080730Z 04012KT 7000 SCT020 34/21 Q1010 NOSIG=
202308080700 METAR WIHH 080700Z 06012KT 7000 SCT020 34/21 Q1010 NOSIG=
202308080630 METAR WIHH 080630Z 07010KT 7000 SCT020 34/20 Q1010 NOSIG=
202308080600 METAR WIHH 080600Z 07008KT 7000 SCT020 34/20 Q1011 NOSIG=
202308080530 METAR WIHH 080530Z 06012KT 7000 FEW020 34/20 Q1011 NOSIG=
202308080500 METAR WIHH 080500Z 11012KT 6000 FEW020 33/21 Q1011 NOSIG=
202308080430 METAR WIHH 080430Z 14006KT 6000 FEW020 32/21 Q1012 NOSIG=
202308080400 METAR WIHH 080400Z 11008KT 6000 FEW020 32/20 Q1012 NOSIG=
202308080330 METAR WIHH 080330Z 13008KT 6000 FEW020 32/21 Q1012 NOSIG=
202308080300 METAR WIHH 080300Z 14006KT 6000 FEW020 31/21 Q1013 NOSIG=
202308080230 METAR WIHH 080230Z 12007KT 5000 HZ FEW020 31/22 Q1013 NOSIG=
202308080200 METAR WIHH 080200Z 11006KT 4000 HZ FEW020 29/23 Q1013 NOSIG=
202308080130 METAR WIHH 080130Z 10006KT 4000 HZ NSC 28/23 Q1012 NOSIG=
202308080100 METAR WIHH 080100Z 11005KT 4000 HZ NSC 27/23 Q1012 NOSIG=
202308080030 METAR WIHH 080030Z 00000KT 4000 HZ NSC 27/24 Q1012 NOSIG=
202308080000 METAR WIHH 080000Z 00000KT 4000 HZ FEW020 26/24 Q1012 NOSIG=
202308072330 METAR WIHH 072330Z 00000KT 4000 HZ FEW020 25/24 Q1012 NOSIG=
202308072300 METAR WIHH 072300Z 00000KT 4000 HZ NSC 25/24 Q1012 NOSIG=
202308072230 METAR WIHH 072230Z 000000KT 4000 HZ NSC 25/24 Q1011 NOSIG=
202308072200 METAR WIHH 072200Z 00000KT 4000 HZ NSC 25/24 Q1011 NOSIG=
202308072130 METAR WIHH 072130Z 00000KT 4000 HZ NSC 25/24 Q1011 NOSIG=
202308072100 METAR WIHH NIL=
202308072030 METAR WIHH NIL=
202308072000 METAR WIHH NIL=
202308071930 METAR WIHH NIL=
202308071900 METAR WIHH NIL=
202308071830 METAR WIHH NIL=
202308071800 METAR WIHH NIL=
202308071730 METAR WIHH NIL=
202308071700 METAR WIHH NIL=
202308071630 METAR WIHH NIL=
202308071600 METAR WIHH NIL=
202308071530 METAR WIHH NIL=
202308071500 METAR WIHH 071500Z 00000KT 6000 NSC 28/23 Q1012 NOSIG=
202308071430 METAR WIHH 071430Z 08003KT 6000 FEW022 29/23 Q1012 NOSIG=
202308071400 METAR WIHH 071400Z 08003KT 6000 FEW022 29/23 Q1012 NOSIG=
202308071330 METAR WIHH 071330Z 06004KT 6000 FEW022 29/24 Q1012 NOSIG=
202308071300 METAR WIHH 071300Z 08005KT 6000 FEW022 29/24 Q1012 NOSIG=
202308071230 METAR WIHH 071230Z 06008KT 6000 FEW022 29/24 Q1011 NOSIG=
202308071200 METAR WIHH 071200Z 05006KT 6000 SCT020 29/23 Q1011 NOSIG=
202308071130 METAR WIHH 071130Z 09005KT 6000 SCT020 30/22 Q1010 NOSIG=
202308071100 METAR WIHH 071100Z 07005KT 6000 SCT020 30/22 Q1010 NOSIG=
202308071030 METAR WIHH 071030Z 06005KT 6000 SCT020 33/21 Q1009 NOSIG=
202308071000 METAR WIHH 071000Z 03008KT 6000 SCT020 33/22 Q1009 NOSIG=
202308070930 METAR WIHH 070930Z 06006KT 6000 SCT020 33/22 Q1009 NOSIG=
202308070900 METAR WIHH 070900Z 04008KT 6000 SCT020 33/21 Q1009 NOSIG=
202308070830 METAR WIHH 070830Z 04004KT 5000 HZ SCT020 33/21 Q1009 NOSIG=
202308070800 METAR WIHH 070800Z 04004KT 5000 HZ SCT020 33/21 Q1009 NOSIG=
202308070730 METAR WIHH 070730Z 02005KT 5000 HZ SCT020 33/21 Q1009 NOSIG=
202308070700 METAR WIHH 070700Z 06005KT 5000 HZ SCT020 34/21 Q1009 NOSIG=
202308070630 METAR WIHH 070630Z 07005KT 4000 HZ SCT020 34/21 Q1010 NOSIG=
202308070600 METAR WIHH 070600Z 34004KT 4000 HZ SCT020 32/23 Q1010 NOSIG=
202308070530 METAR WIHH 070530Z 31004KT 4000 HZ SCT020 32/23 Q1011 NOSIG=
202308070500 METAR WIHH 070500Z 34004KT 4000 HZ SCT020 31/23 Q1011 NOSIG=
202308070430 METAR WIHH 070430Z 09005KT 4000 HZ SCT020 32/22 Q1012 RMK RA TO E=
202308070400 METAR WIHH NIL=
202308070330 METAR WIHH 070330Z 20004KT 5000 HZ FEW020 31/22 Q1012 NOSIG=
202308070300 METAR WIHH 070300Z 20004KT 5000 HZ NSC 31/23 Q1013 NOSIG=
202308070230 METAR WIHH 070230Z 22004KT 5000 HZ NSC 30/23 Q1013 NOSIG=
202308070200 METAR WIHH 070200Z 00000KT 5000 HZ NSC 29/22 Q1013 NOSIG=
202308070130 METAR WIHH 070130Z 00000KT 4000 HZ NSC 28/23 Q1013 NOSIG=
202308070100 METAR WIHH 070100Z 00000KT 4000 HZ NSC 28/23 Q1013 NOSIG=
202308070030 METAR WIHH 070030Z 24004KT 3000 HZ NSC 26/23 Q1012 NOSIG=
202308070000 METAR WIHH 070000Z 00000KT 3000 HZ NSC 25/23 Q1012 NOSIG=
202308062330 METAR WIHH 062330Z 00000KT 3000 HZ NSC 24/23 Q1011 NOSIG=
202308062300 METAR WIHH 062300Z 00000KT 3000 HZ NSC 24/23 Q1011 NOSIG=
202308062230 METAR WIHH 062230Z 00000KT 4000 HZ FEW020 24/23 Q1011 NOSIG=
202308062200 METAR WIHH NIL=
202308062130 METAR WIHH NIL=
202308062100 METAR WIHH 062100Z 24003KT 4000 HZ FEW020 25/23 Q1011 NOSIG=
202308062030 METAR WIHH NIL=
202308062000 METAR WIHH NIL=
202308061930 METAR WIHH NIL=
202308061900 METAR WIHH NIL=
202308061830 METAR WIHH NIL=
202308061800 METAR WIHH NIL=
202308061730 METAR WIHH NIL=
202308061700 METAR WIHH NIL=
202308061630 METAR WIHH NIL=
202308061600 METAR WIHH 061600Z 00000KT 6000 FEW020 26/24 Q1013 NOSIG=
202308061530 METAR WIHH 061530Z 00000KT 6000 FEW020 27/23 Q1013 NOSIG=
202308061500 METAR WIHH 061500Z 00000KT 6000 FEW020 27/24 Q1013 NOSIG=
202308061430 METAR WIHH 061430Z 00000KT 6000 FEW020 28/23 Q1013 NOSIG=
202308061400 METAR WIHH 061400Z 00000KT 6000 FEW020 28/23 Q1012 NOSIG=
202308061330 METAR WIHH 061330Z 06005KT 6000 FEW020 29/23 Q1012 NOSIG=
202308061300 METAR WIHH 061300Z 03004KT 6000 SCT020 29/23 Q1012 NOSIG=
202308061230 METAR WIHH 061230Z 36005KT 6000 SCT020 29/23 Q1012 NOSIG=
202308061200 METAR WIHH 061200Z 03004KT 6000 SCT020 29/23 Q1011 NOSIG=
202308061130 METAR WIHH 061130Z 03008KT 6000 SCT020 30/22 Q1011 NOSIG=
202308061100 METAR WIHH 061100Z TAF WIHH 061100Z 0612/0712 03007KT 6000 SCT020 BECMG 0615/0617 21004KT 4000 HZ FEW022=
202308061030 METAR WIHH 061030Z 03010KT 6000 SCT020 31/22 Q1010 NOSIG=
202308061000 METAR WIHH 061000Z 03006KT 6000 SCT018 31/22 Q1010 NOSIG=
202308060930 METAR WIHH 060930Z 03008KT 5000 HZ SCT018 32/23 Q1010 NOSIG=
202308060900 METAR WIHH 060900Z 03006KT 5000 HZ SCT018 32/23 Q1010 RMK RA TO SW=
202308060830 METAR WIHH 060830Z 03010KT 5000 HZ SCT018 32/23 Q1010 RMK RA TO SW=
202308060800 METAR WIHH 060800Z 03010KT 5000 HZ SCT018 33/23 Q1010 RMK RA TO SW=
202308060730 METAR WIHH 060730Z 03008KT 5000 HZ SCT018 33/21 Q1010 RMK RA TO E=
202308060700 METAR WIHH 060700Z 03008KT 5000 HZ SCT018 34/22 Q1010 RMK RA TO E=
202308060630 METAR WIHH 060630Z 03004KT 5000 HZ SCT018 33/20 Q1011 NOSIG=
202308060600 METAR WIHH 060600Z 03004KT 5000 HZ SCT018 33/20 Q1011 NOSIG=
202308060530 METAR WIHH 060530Z 03005KT 6000 SCT020 34/20 Q1012 NOSIG=
202308060500 METAR WIHH 060500Z 03004KT 6000 SCT020 33/20 Q1012 NOSIG=
202308060430 METAR WIHH 060430Z 24006KT 6000 FEW020 33/21 Q1012 NOSIG=
202308060400 METAR WIHH 060400Z 21006KT 6000 FEW020 32/21 Q1013 NOSIG=
202308060330 METAR WIHH 060330Z 24005KT 5000 HZ FEW020 32/22 Q1013 NOSIG=
202308060300 METAR WIHH 060300Z 21008KT 5000 HZ FEW020 31/21 Q1013 NOSIG=
202308060230 METAR WIHH 060230Z 21008KT 5000 HZ FEW020 31/22 Q1013 NOSIG=
202308060200 METAR WIHH 060200Z 20009KT 5000 HZ FEW020 29/22 Q1014 NOSIG=
202308060130 METAR WIHH 060130Z 21008KT 5000 HZ FEW020 28/23 Q1014 NOSIG=
202308060100 METAR WIHH 060100Z 19006KT 5000 HZ FEW020 27/22 Q1014 NOSIG=
202308060030 METAR WIHH 060030Z 00000KT 5000 HZ NSC 26/22 Q1014 NOSIG=
202308060000 METAR WIHH 060000Z 00000KT 5000 HZ NSC 25/22 Q1014 NOSIG=
202308052330 METAR WIHH 052330Z 00000KT 5000 HZ NSC 24/22 Q1013 NOSIG=
202308052300 METAR WIHH 052300Z 00000KT 5000 HZ NSC 24/22 Q1013 NOSIG=
202308052230 METAR WIHH 052230Z 00000KT 6000 NSC 24/22 Q1013 NOSIG=
202308052200 METAR WIHH 052200Z 00000KT 6000 NSC 24/23 Q1013 NOSIG=
202308052130 METAR WIHH 052130Z 00000KT 5000 HZ FEW020 24/23 Q1013 NOSIG=
202308052100 METAR WIHH NIL=
202308052030 METAR WIHH NIL=
202308052000 METAR WIHH NIL=
202308051930 METAR WIHH NIL=
202308051900 METAR WIHH NIL=
202308051830 METAR WIHH NIL=
202308051800 METAR WIHH NIL=
202308051730 METAR WIHH NIL=
202308051700 METAR WIHH 051700Z 12003KT 5000 HZ FEW020 27/23 Q1014 NOSIG=
202308051630 METAR WIHH 051630Z 12003KT 6000 FEW020 27/23 Q1014 NOSIG=
202308051600 METAR WIHH 051600Z 12004KT 6000 FEW020 27/22 Q1014 NOSIG=
202308051530 METAR WIHH 051530Z 08004KT 6000 FEW020 28/22 Q1014 NOSIG=
202308051500 METAR WIHH 051500Z 09004KT 6000 FEW020 28/22 Q1014 NOSIG=
202308051430 METAR WIHH 051430Z 11006KT 6000 FEW020 28/22 Q1013 NOSIG=
202308051400 METAR WIHH 051400Z 07010KT 6000 SCT020 28/22 Q1013 NOSIG=
202308051330 METAR WIHH 051330Z 08010KT 6000 SCT020 29/21 Q1013 NOSIG=
202308051300 METAR WIHH 051300Z 06012KT 6000 SCT020 29/21 Q1013 NOSIG=
202308051230 METAR WIHH 051230Z 04012KT 6000 SCT020 30/21 Q1013 NOSIG=
202308051200 METAR WIHH 051200Z 06013KT 6000 SCT020 30/20 Q1013 NOSIG=
202308051130 METAR WIHH 051130Z 05012KT 6000 SCT020 30/20 Q1012 NOSIG=
202308051100 METAR WIHH 051100Z 03012KT 6000 SCT020 31/20 Q1012 NOSIG=
202308051030 METAR WIHH 051030Z 05012KT 6000 SCT020 31/20 Q1012 NOSIG=
202308051000 METAR WIHH 051000Z 08012KT 6000 SCT020 31/21 Q1011 NOSIG=
202308050930 METAR WIHH 050930Z 05012KT 6000 SCT020 21/20 Q1011 NOSIG=
202308050900 METAR WIHH 050900Z 05013KT 6000 SCT020 33/19 Q1011 NOSIG=
202308050830 METAR WIHH 050830Z 03012KT 6000 SCT020 34/19 Q1011 NOSIG=
202308050800 METAR WIHH 050800Z 09012KT 6000 SCT020 34/19 Q1011 NOSIG=
202308050730 METAR WIHH 050730Z 05013KT 6000 SCT020 34/20 Q1011 NOSIG=
202308050700 METAR WIHH 050700Z 07008KT 6000 SCT020 34/20 Q1011 NOSIG=
202308050630 METAR WIHH 050630Z 06012KT 6000 SCT020 34/20 Q1012 NOSIG=
202308050600 METAR WIHH 050600Z 08012KT 6000 SCT020 34/20 Q1012 NOSIG=
202308050530 METAR WIHH 050530Z 06013KT 6000 SCT020 34/21 Q1013 NOSIG=
202308050500 METAR WIHH 050500Z 06012KT 6000 SCT020 33/21 Q1013 NOSIG=
202308050430 METAR WIHH 050430Z 04010KT 5000 HZ SCT020 33/21 Q1014 NOSIG=
202308050400 METAR WIHH 050400Z 09010KT 5000 HZ SCT020 33/21 Q1014 NOSIG=
202308050330 METAR WIHH 050330Z 09006KT 5000 HZ FEW020 31/22 Q1015 NOSIG=
202308050300 METAR WIHH 050300Z 06004KT 5000 HZ NSC 31/21 Q1015 NOSIG=
202308050230 METAR WIHH 050230Z 10003KT 5000 HZ NSC 31/22 Q1016 NOSIG=
202308050200 METAR WIHH 050200Z 22003KT 5000 HZ NSC 29/23 Q1016 NOSIG=
202308050130 METAR WIHH 050130Z 14003KT 5000 HZ NSC 29/23 Q1015 NOSIG=
202308050100 METAR WIHH 050100Z 17003KT 4000 HZ NSC 28/23 Q1015 NOSIG=
202308050030 METAR WIHH 050030Z 18003KT 4000 HZ NSC 27/23 Q1015 NOSIG=
202308050000 METAR WIHH 050000Z 00000KT 3000 HZ NSC 26/23 Q1015 NOSIG=
202308042330 METAR WIHH 042330Z 16003KT 4000 HZ FEW022 25/23 Q1014 NOSIG=
202308042300 METAR WIHH 042300Z 00000KT 3000 HZ FEW022 25/23 Q1014 NOSIG=
202308042230 METAR WIHH 042230Z 00000KT 4000 HZ FEW020 25/23 Q1014 NOSIG=
202308042200 METAR WIHH 042200Z 00000KT 5000 HZ FEW020 25/23 Q1014 NOSIG=
202308042130 METAR WIHH 042130Z 00000KT 5000 HZ FEW020 25/23 Q1013 NOSIG=
202308042100 METAR WIHH NIL=
202308042030 METAR WIHH NIL=
202308042000 METAR WIHH NIL=
202308041930 METAR WIHH NIL=
202308041900 METAR WIHH NIL=
202308041830 METAR WIHH NIL=
202308041800 METAR WIHH NIL=
202308041730 METAR WIHH NIL=
202308041700 METAR WIHH 041700Z 12004KT 5000 HZ SCT020 26/23 Q1015 NOSIG=
202308041630 METAR WIHH 041630Z 12004KT 6000 SCT020 27/23 Q1015 NOSIG=
202308041600 METAR WIHH 041600Z 10004KT 6000 SCT020 28/23 Q1015 NOSIG=
202308041530 METAR WIHH 041530Z 05006KT 6000 SCT020 28/23 Q1015 NOSIG=
202308041500 METAR WIHH 041500Z 05006KT 6000 SCT020 28/23 Q1015 NOSIG=
202308041430 METAR WIHH 041430Z 08004KT 6000 FEW020 28/23 Q1015 NOSIG=
202308041400 METAR WIHH 041400Z 11005KT 6000 SCT020 28/23 Q1015 NOSIG=
202308041330 METAR WIHH 041330Z 06005KT 6000 SCT020 28/24 Q1015 NOSIG=
202308041300 METAR WIHH 041300Z 05007KT 6000 SCT020 28/24 Q1014 NOSIG=
202308041230 METAR WIHH 041230Z 04007KT 6000 SCT020 29/24 Q1014 NOSIG=
202308041200 METAR WIHH 041200Z 06008KT 6000 FEW020 29/23 Q1013 NOSIG=
202308041130 METAR WIHH 041130Z 06006KT 6000 FEW020 29/23 Q1013 NOSIG=
202308041100 METAR WIHH 041100Z 05012KT 6000 FEW020 30/23 Q1012 NOSIG=
202308041030 METAR WIHH 041030Z 07013KT 6000 FEW020 30/23 Q1012 NOSIG=
202308041000 METAR WIHH 041000Z 07015KT 6000 FEW020 31/23 Q1011 NOSIG=
202308040930 METAR WIHH 040930Z 06015KT 6000 FEW020 32/23 Q1011 NOSIG=
202308040900 METAR WIHH 040900Z 03010KT 6000 SCT020 33/23 Q1011 NOSIG=
202308040830 METAR WIHH 040830Z 02011KT 6000 SCT020 34/23 Q1011 NOSIG=
202308040800 METAR WIHH 040800Z 09010KT 7000 SCT020 34/22 Q1011 NOSIG=
202308040730 METAR WIHH 040730Z 06014KT 7000 FEW020 34/22 Q1011 NOSIG=
202308040700 METAR WIHH 040700Z 07013KT 7000 FEW020 34/22 Q1011 NOSIG=
202308040630 METAR WIHH 040630Z 04013KT 7000 FEW020 34/22 Q1012 NOSIG=
202308040600 METAR WIHH 040600Z 06010KT 7000 FEW020 34/22 Q1012 NOSIG=
202308040530 METAR WIHH 040530Z 07014KT 6000 SCT020 34/22 Q1012 NOSIG=
202308040500 METAR WIHH 040500Z 11012KT 6000 FEW020 33/21 Q1013 NOSIG=
202308040430 METAR WIHH 040430Z 09014KT 6000 FEW020 33/21 Q1013 NOSIG=
202308040400 METAR WIHH 040400Z 09013KT 5000 HZ FEW020 33/21 Q1014 NOSIG=
202308040330 METAR WIHH 040330Z 09008KT 5000 HZ FEW020 32/21 Q1014 NOSIG=
202308040300 METAR WIHH 040300Z 11008KT 5000 HZ NSC 31/23 Q1014 NOSIG=
202308040230 METAR WIHH 040230Z 13007KT 5000 HZ NSC 31/23 Q1015 NOSIG=
202308040200 METAR WIHH NIL=
202308040130 METAR WIHH NIL=
202308040100 METAR WIHH 040100Z 00000KT 4000 HZ NSC 28/24 Q1014 NOSIG=
202308040030 METAR WIHH 040030Z 00000KT 3000 HZ NSC 27/24 Q1014 NOSIG=
202308040000 METAR WIHH 040000Z 00000KT 3000 HZ NSC 26/24 Q1014 NOSIG=
202308032330 METAR WIHH 032330Z 00000KT 2500 BR NSC 25/24 Q1014 NOSIG=
202308032300 METAR WIHH 032300Z 21003KT 2500 BR NSC 25/24 Q1013 NOSIG=
202308032230 METAR WIHH 032230Z 18003KT 4000 HZ NSC 25/24 Q1013 NOSIG=
202308032200 METAR WIHH 032200Z 00000KT 4000 HZ NSC 25/24 Q1013 NOSIG=
202308032130 METAR WIHH 032130Z 15002KT 4000 HZ NSC 25/24 Q1013 NOSIG=
202308032100 METAR WIHH NIL=
202308032030 METAR WIHH NIL=
202308032000 METAR WIHH NIL=
202308031930 METAR WIHH NIL=
202308031900 METAR WIHH NIL=
202308031830 METAR WIHH NIL=
202308031800 METAR WIHH NIL=
202308031730 METAR WIHH NIL=
202308031700 METAR WIHH NIL=
202308031630 METAR WIHH NIL=
202308031600 METAR WIHH 031600Z 18003KT 6000 FEW020 28/23 Q1015 NOSIG=
202308031530 METAR WIHH NIL=
202308031500 METAR WIHH 031500Z 09003KT 6000 FEW020 29/24 Q1015 NOSIG=
202308031430 METAR WIHH 031430Z 11005KT 6000 FEW020 29/24 Q1015 NOSIG=
202308031400 METAR WIHH 031400Z 12003KT 5000 HZ FEW020 28/24 Q1015 NOSIG=
202308031330 METAR WIHH 031330Z 03004KT 5000 HZ FEW020 28/24 Q1014 NOSIG=
202308031300 METAR WIHH 031300Z 06006KT 5000 HZ FEW020 29/24 Q1014 NOSIG=
202308031230 METAR WIHH 031230Z 08007KT 5000 HZ FEW020 29/24 Q1013 NOSIG=
202308031200 METAR WIHH 031200Z 07009KT 5000 HZ FEW020 30/23 Q1013 NOSIG=
202308031130 METAR WIHH 031130Z 06010KT 5000 HZ FEW020 30/23 Q1012 RMK RA TO W=
202308031100 METAR WIHH 031100Z 03010KT 5000 HZ FEW020 31/24 Q1011 RMK RA TO W=
202308031030 METAR WIHH 031030Z 03010KT 5000 HZ FEW018 31/24 Q1011 RMK RA TO W=
202308031000 METAR WIHH 031000Z 05012KT 5000 HZ FEW018 32/23 Q1011 RMK RA TO S=
202308030930 METAR WIHH 030930Z 05012KT 5000 HZ SCT018 32/23 Q1010 RMK RA TO SW AND W=
202308030900 METAR WIHH 030900Z 03010KT 6000 SCT018 33/23 Q1010 RMK RA TO SW=
202308030830 METAR WIHH 030830Z 03010KT 5000 HZ SCT018 34/23 Q1010 RMK RA TO E AND S=
202308030800 METAR WIHH 030800Z 03010KT 5000 HZ SCT018 34/22 Q1010 RMK RA TO S AND W=
202308030730 METAR WIHH 030730Z 03010KT 5000 HZ SCT018 33/22 Q1010 RMK RA TO S AND W=
202308030700 METAR WIHH 030700Z 09006KT 5000 HZ SCT018 33/22 Q1010 RMK RA TO NW=
202308030630 METAR WIHH 030630Z 03004KT 5000 HZ SCT018 33/22 Q1011 NOSIG=
202308030600 METAR WIHH 030600Z 00000KT 5000 HZ SCT018 33/22 Q1011 NOSIG=
202308030530 METAR WIHH 030530Z 09004KT 5000 HZ SCT018 33/23 Q1012 NOSIG=
202308030500 METAR WIHH 030500Z 06006KT 5000 HZ SCT018 33/23 Q1012 NOSIG=
202308030430 METAR WIHH 030430Z 12005KT 5000 HZ SCT018 33/23 Q1012 NOSIG=
202308030400 METAR WIHH 030400Z 09006KT 5000 HZ SCT018 32/23 Q1013 NOSIG=
202308030330 METAR WIHH 030330Z 06006KT 5000 HZ SCT018 31/23 Q1014 NOSIG=
202308030300 METAR WIHH 030300Z 06006KT 5000 HZ FEW020 32/23 Q1014 NOSIG=
202308030230 METAR WIHH 030230Z 15005KT 5000 HZ NSC 30/23 Q1014 NOSIG=
202308030200 METAR WIHH 030200Z 15008KT 4000 HZ NSC 30/23 Q1014 NOSIG=
202308030130 METAR WIHH 030130Z 21004KT 4000 HZ NSC 30/23 Q1014 NOSIG=
202308030100 METAR WIHH 030100Z 20004KT 4000 HZ NSC 28/24 Q1013 NOSIG=
202308030030 METAR WIHH 030030Z 20003KT 4000 HZ FEW020 27/24 Q1013 NOSIG=
202308030000 METAR WIHH 030000Z 00000KT 4000 HZ FEW020 26/23 Q1013 NOSIG=
202308022330 METAR WIHH 022330Z 21003KT 3000 HZ FEW020 25/23 Q1013 NOSIG=
202308022300 METAR WIHH 022300Z 20003KT 3000 HZ FEW020 25/23 Q1012 NOSIG=
202308022230 METAR WIHH 022230Z 18003KT 5000 HZ FEW020 25/23 Q1012 NOSIG=
202308022200 METAR WIHH 022200Z 14003KT 5000 HZ FEW020 25/23 Q1012 NOSIG=
202308022130 METAR WIHH 022130Z 13003KT 5000 HZ FEW020 25/24 Q1012 NOSIG=
202308022100 METAR WIHH 022100Z 10003KT 5000 HZ FEW020 28/24 Q1013 NOSIG=
202308022030 METAR WIHH NIL=
202308022000 METAR WIHH NIL=
202308021930 METAR WIHH NIL=
202308021900 METAR WIHH NIL=
202308021830 METAR WIHH NIL=
202308021800 METAR WIHH NIL=
202308021730 METAR WIHH NIL=
202308021700 METAR WIHH NIL=
202308021630 METAR WIHH NIL=
202308021600 METAR WIHH NIL=
202308021530 METAR WIHH NIL=
202308021500 METAR WIHH 021500Z 10003KT 5000 HZ FEW020 28/24 Q1013 NOSIG=
202308021430 METAR WIHH 021430Z 11003KT 5000 HZ SCT020 28/25 Q1013 NOSIG=
202308021400 METAR WIHH 021400Z 03006KT 5000 HZ SCT020 28/25 Q1013 NOSIG=
202308021330 METAR WIHH 021330Z 12003KT 5000 HZ SCT020 28/23 Q1013 NOSIG=
202308021300 METAR WIHH 021300Z 15003KT 5000 HZ SCT020 29/23 Q1012 NOSIG=
202308021230 METAR WIHH 021230Z 09004KT 5000 HZ SCT020 29/23 Q1012 NOSIG=
202308021200 METAR WIHH 021200Z 35004KT 5000 HZ SCT020 29/23 Q1012 NOSIG=
202308021130 METAR WIHH 021130Z 00000KT 5000 HZ SCT020 29/23 Q1011 NOSIG=
202308021100 METAR WIHH 021100Z 35003KT 5000 HZ SCT020 30/23 Q1011 RMK RA TO SE=
202308021030 METAR WIHH 021030Z 36005KT 5000 HZ SCT020 30/23 Q1010 RMK RA TO SW=
202308021000 METAR WIHH 021000Z 01004KT 5000 HZ SCT020 31/23 Q1010 RMK RA TO SW=
202308020930 METAR WIHH 020930Z 04005KT 5000 HZ SCT020 31/23 Q1010 RMK RA TO W=
202308020900 METAR WIHH 020900Z 02007KT 5000 HZ SCT020 29/23 Q1010 RMK RA TO W=
202308020830 METAR WIHH 020830Z 03008KT 6000 SCT020 31/23 Q1010 RMK RA TO NE AND W=
202308020800 METAR WIHH NIL=
202308020730 METAR WIHH 020730Z 00000KT 5000 HZ SCT020 32/23 Q1010 RMK RA TO NW=
202308020700 METAR WIHH 020700Z 17003KT 5000 HZ SCT020 33/23 Q1011 RMK RA TO W=
202308020630 METAR WIHH 020630Z 36003KT 5000 HZ SCT020 32/23 Q1011 NOSIG=
202308020600 METAR WIHH 020600Z 21003KT 5000 HZ SCT020 32/22 Q1011 NOSIG=
202308020530 METAR WIHH 020530Z 03005KT 5000 HZ SCT020 32/22 Q1012 NOSIG=
202308020500 METAR WIHH 020500Z 15003KT 5000 HZ SCT020 32/23 Q1012 NOSIG=
202308020430 METAR WIHH 020430Z 04003KT 5000 HZ SCT020 31/22 Q1013 NOSIG=
202308020400 METAR WIHH 020400Z 12006KT 6000 SCT020 30/22 Q1013 NOSIG=
202308020330 METAR WIHH 020330Z 11007KT 6000 SCT020 30/22 Q1013 NOSIG=
202308020300 METAR WIHH 020300Z 13004KT 6000 SCT020 30/22 Q1013 NOSIG=
202308020230 METAR WIHH 020230Z 11003KT 6000 SCT020 30/22 Q1013 NOSIG=
202308020200 METAR WIHH 020200Z 16003KT 6000 SCT020 29/22 Q1013 NOSIG=
202308020130 METAR WIHH 020130Z 19003KT 6000 SCT020 28/22 Q1013 NOSIG=
202308020100 METAR WIHH 020100Z 20003KT 6000 SCT020 27/23 Q1013 NOSIG=
202308020030 METAR WIHH 020030Z 22003KT 6000 SCT020 27/22 Q1013 NOSIG=
202308020000 METAR WIHH 020000Z 18003KT 6000 SCT020 27/22 Q1012 NOSIG=
202308012330 METAR WIHH 012330Z 15003KT 6000 SCT020 26/22 Q1012 NOSIG=
202308012300 METAR WIHH 012300Z 09003KT 6000 SCT020 26/22 Q1012 NOSIG=
202308012230 METAR WIHH 012230Z 13006KT 6000 SCT020 26/22 Q1011 NOSIG=
202308012200 METAR WIHH 012200Z 13006KT 6000 FEW020 27/23 Q1011 NOSIG=
202308012130 METAR WIHH 012130Z 12004KT 6000 SCT020 27/23 Q1011 NOSIG=
202308012100 METAR WIHH NIL=
202308012030 METAR WIHH NIL=
202308012000 METAR WIHH NIL=
202308011930 METAR WIHH NIL=
202308011900 METAR WIHH NIL=
202308011830 METAR WIHH NIL=
202308011800 METAR WIHH NIL=
202308011730 METAR WIHH NIL=
202308011700 METAR WIHH NIL=
202308011630 METAR WIHH 011630Z 12005KT 7000 NSC 28/24 Q1013 NOSIG=
202308011600 METAR WIHH 011600Z 12005KT 7000 NSC 28/24 Q1013 NOSIG=
202308011530 METAR WIHH 011530Z 09007KT 8000 NSC 28/24 Q1013 NOSIG=
202308011500 METAR WIHH 011500Z 10008KT 8000 NSC 28/24 Q1013 NOSIG=
202308011430 METAR WIHH 011430Z 06010KT 8000 NSC 28/23 Q1012 NOSIG=
202308011400 METAR WIHH 011400Z 08010KT 8000 NSC 28/23 Q1012 NOSIG=
202308011330 METAR WIHH 011330Z 09010KT 7000 NSC 28/23 Q1012 NOSIG=
202308011300 METAR WIHH 011300Z 08007KT 7000 FEW020 28/23 Q1012 NOSIG=
202308011230 METAR WIHH 011230Z 04007KT 7000 FEW020 29/23 Q1011 NOSIG=
202308011200 METAR WIHH 011200Z 03010KT 7000 FEW020 29/22 Q1011 NOSIG=
202308011130 METAR WIHH 011130Z 06012KT 7000 FEW020 29/22 Q1010 NOSIG=
202308011100 METAR WIHH 011100Z 04015KT 7000 FEW020 30/22 Q1010 NOSIG=
202308011030 METAR WIHH 011030Z 07020KT 7000 FEW020 31/21 Q1009 NOSIG=
202308011000 METAR WIHH 011000Z 05020KT 7000 FEW020 31/22 Q1009 NOSIG=
202308010930 METAR WIHH 010930Z 07020KT 7000 FEW020 33/22 Q1009 NOSIG=
202308010900 METAR WIHH 010900Z 05020KT 7000 FEW020 33/21 Q1009 NOSIG=
202308010830 METAR WIHH 010830Z 07020KT 7000 FEW020 33/21 Q1009 NOSIG=
202308010800 METAR WIHH 010800Z 06020KT 7000 FEW020 33/20 Q1009 NOSIG=
202308010730 METAR WIHH 010730Z 08020KT 7000 FEW020 34/18 Q1009 NOSIG=
202308010700 METAR WIHH NIL=
202308010630 METAR WIHH 010630Z 07025KT 7000 FEW020 33/18 Q1009 NOSIG=
202308010600 METAR WIHH 010600Z 08025KT 7000 FEW020 33/20 Q1010 NOSIG=
202308010530 METAR WIHH 010530Z 08025KT 7000 FEW020 33/20 Q1010 NOSIG=
202308010500 METAR WIHH 010500Z 09025KT 7000 FEW020 33/20 Q1011 NOSIG=
202308010430 METAR WIHH 010430Z 10025KT 7000 FEW020 33/20 Q1011 NOSIG=
202308010400 METAR WIHH 010400Z 10025KT 7000 FEW020 33/20 Q1012 NOSIG=
202308010330 METAR WIHH 010330Z 07020KT 7000 NSC 32/20 Q1012 NOSIG=
202308010300 METAR WIHH 010300Z 08015KT 6000 NSC 31/20 Q1012 NOSIG=
202308010230 METAR WIHH 010230Z 10015KT 5000 HZ NSC 31/21 Q1013 NOSIG=
202308010200 METAR WIHH 010200Z 09012KT 5000 HZ NSC 30/21 Q1013 NOSIG=
202308010130 METAR WIHH 010130Z 08003KT 5000 HZ NSC 29/22 Q1012 NOSIG=
202308010100 METAR WIHH 010100Z 09003KT 4000 HZ NSC 29/21 Q1012 NOSIG=
202308010030 METAR WIHH 010030Z 00000KT 4000 HZ NSC 27/21 Q1012 NOSIG=
202308010000 METAR WIHH NIL=

###################################
#  short TAF from WIHH
###################################
202308100500 TAF WIHH 100500Z 1006/1106 04014KT 7000 SCT020
                      BECMG 1015/1017 17004KT 4000 HZ FEW022=

###################################
#  large TAF from WIHH
###################################
202308312300 TAF WIHH 312300Z 0100/0200 06008KT 7000 FEW020
                      BECMG 0105/0107 36012KT SCT020
                      BECMG 0116/0118 12003KT 5000 HZ=
202308311700 TAF WIHH 311700Z 3118/0118 21003KT 4000 HZ FEW022
                      BECMG 0104/0106 36008KT 7000 SCT020=
202308311100 TAF WIHH 311100Z 3112/0112 03006KT 7000 FEW022
                      BECMG 3116/3118 18003KT 4000 HZ=
202308310500 TAF WIHH 310500Z 3106/0106 03014KT 7000 SCT020
                      BECMG 3116/3118 18004KT 4000 HZ FEW022=
202308302300 TAF WIHH 302300Z 3100/0100 03012KT 7000 SCT020
                      BECMG 3116/3118 09003KT 4000 HZ=
202308301700 TAF WIHH 301700Z 3018/3118 18003KT 4000 HZ FEW022
                      BECMG 3102/3104 34008KT 6000 SCT020=
202308301100 TAF WIHH 301100Z 3012/3112 06010KT 7000 SCT020
                      BECMG 3014/3016 14005KT 5000 HZ FEW022=
202308300500 TAF WIHH 300500Z 3006/3106 03014KT 7000 SCT020
                      BECMG 3014/3016 14005KT FEW022=
202308292300 TAF WIHH 292300Z 3000/3100 05015KT 7000 SCT020
                      BECMG 3016/3018 18003KT 4000 HZ=
202308291700 TAF WIHH 291700Z 2918/3018 15004KT 4000 HZ SCT020
                      BECMG 3001/3003 03015KT 7000 NSW=
202308291100 TAF WIHH 291100Z 2912/3012 06013KT 7000 SCT020
                      BECMG 2916/2918 17003KT 4000 HZ=
202308290500 TAF WIHH 290500Z 2906/3006 06015KT 7000 SCT020
                      BECMG 2916/2918 17004KT 4000 HZ=
202308282300 TAF WIHH 282300Z 2900/3000 06013KT 7000 SCT020
                      TEMPO 2909/2912 20008KT 4000 RA BKN016
                      BECMG 2916/2918 12003KT 5000 HZ=
202308281700 TAF WIHH 281700Z 2818/2918 15004KT 4000 HZ SCT020
                      BECMG 2903/2905 06015KT 7000 NSW=
202308281100 TAF WIHH 281100Z 2812/2912 06013KT 5000 HZ SCT020
                      TEMPO 2812/2815 20008KT 3000 RA BKN016
                      BECMG 2816/2818 12003KT=
202308280500 TAF WIHH 280500Z 2806/2906 06015KT 7000 SCT020
                      TEMPO 2809/2813 20008KT 3000 RA BKN016
                      BECMG 2816/2818 13004KT 4000 HZ=
202308272300 TAF WIHH 272300Z 2800/2900 05006KT 5000 HZ FEW022
                      BECMG 2804/2806 36010KT 7000 SCT020
                      TEMPO 2809/2812 15004KT 4000 SHRA BKN018=
202308271700 TAF WIHH 271700Z 2718/2818 21003KT 5000 HZ FEW022
                      BECMG 2803/2805 06008KT 7000 SCT020=
202308271130 TAF AMD WIHH 271130Z 2712/2812 03007KT 6000 SCT020
                      TEMPO 2712/2714 14004KT 3000 -RA
                      BECMG 2715/2717 00000KT 4000 HZ=
202308271100 TAF WIHH 271100Z 2712/2812 03007KT 6000 SCT020
                      BECMG 2716/2718 14004KT 4000 HZ FEW022=
202308270500 TAF WIHH 270500Z 2706/2806 35010KT 7000 SCT018
                      BECMG 2710/2712 06006KT FEW020
                      BECMG 2716/2718 17003KT 5000 HZ=
202308262300 TAF WIHH 262300Z 2700/2800 36010KT 7000 SCT020
                      BECMG 2715/2717 16003KT 5000 HZ FEW022=
202308261700 TAF WIHH 261700Z 2618/2718 15004KT 4000 HZ FEW022
                      BECMG 2703/2705 04010KT 7000 SCT020=
202308261100 TAF WIHH 261100Z 2612/2712 04006KT 6000 SCT020
                      BECMG 2616/2618 15004KT 4000 HZ FEW022=
202308260500 TAF WIHH 260500Z 2606/2706 36010KT 7000 SCT020
                      BECMG 2616/2618 15004KT 4000 HZ FEW022=
202308252300 TAF WIHH 252300Z 2600/2700 03015KT 7000 SCT020
                      BECMG 2616/2618 15004KT 4000 HZ=
202308251700 TAF WIHH 251700Z 2518/2618 15003KT 4000 HZ SCT020
                      BECMG 2602/2604 06015KT 7000 NSW=
202308251100 TAF WIHH 251100Z 2512/2612 03015KT 7000 SCT020
                      BECMG 2516/2518 13004KT 4000 HZ=
202308250500 TAF WIHH 250500Z 2506/2606 03015KT 7000 SCT018
                      TEMPO 2509/2512 20012KT 3000 SHRA BKN016
                       BECMG 2516/2518 12004KT 4000 HZ=
202308242300 TAF WIHH 242300Z 2500/2600 03015KT 7000 SCT020
                      BECMG 2515/2517 15004KT 4000 HZ=
202308241700 TAF WIHH 241700Z 2418/2518 15005KT 4000 HZ SCT020
                      BECMG 2503/2505 06015KT 7000 NSW=
202308241100 TAF WIHH 241100Z 2412/2512 06015KT 7000 SCT020
                      BECMG 2416/2418 15004KT 4000 HZ=
202308240500 TAF WIHH 240500Z 2406/2506 06015KT 7000 SCT020
                      BECMG 2416/2418 15004KT 4000 HZ=
202308232300 TAF WIHH 232300Z 2400/2500 08008KT 5000 HZ FEW022
                      BECMG 2405/2407 03014KT 6000 SCT020=
202308231700 TAF WIHH 231700Z 2318/2418 20004KT 5000 HZ FEW022
                      BECMG 2401/2403 09008KT 6000 SCT020=
202308231100 TAF WIHH 231100Z 2312/2412 08008KT 7000 FEW022
                      BECMG 2315/2317 14003KT 4000 HZ=
202308230500 TAF WIHH 230500Z 2306/2406 03014KT 7000 SCT020
                      BECMG 2315/2317 14005KT 5000 HZ FEW022=
202308222300 TAF WIHH 222300Z 2300/2400 12006KT 5000 HZ FEW020
                      BECMG 2306/2309 04015KT 6000 SCT020=
202308221700 TAF WIHH 221700Z 2218/2318 23004KT 4000 HZ FEW022
                      BECMG 2303/2305 03010KT 6000 SCT020=
202308221100 TAF WIHH 221100Z 2212/2312 03010KT 6000 FEW022
                      BECMG 2215/2217 23005KT 4000 HZ=
202308220500 TAF WIHH 220500Z 2206/2306 03012KT 7000 SCT020
                      BECMG 2214/2216 22005KT 5000 HZ=
202308212300 TAF WIHH 212300Z 2200/2300 08013KT 7000 SCT020
                      BECMG 2216/2218 15003KT 4000 HZ=
202308211700 TAF WIHH 211700Z 2118/2218 14004KT 4000 HZ SCT020
                      BECMG 2201/2203 06015KT 7000 NSW=
202308211100 TAF WIHH 211100Z 2112/2212 03013KT 7000 SCT018
                      BECMG 2116/2118 13003KT 4000 HZ=
202308210500 TAF WIHH 210500Z 2106/2206 06015KT 7000 SCT020
                      BECMG 2116/2118 13004KT 4000 HZ=
202308202300 TAF WIHH 202300Z 2100/2200 07013KT 7000 SCT020
                      BECMG 2116/2118 15003KT 4000 HZ=
202308201700 TAF WIHH 201700Z 2018/2118 08004KT 4000 HZ SCT020
                      BECMG 2102/2104 15015KT 7000 NSW=
202308201100 TAF WIHH 201100Z 2012/2112 07013KT 7000 SCT018
                      BECMG 2015/2017 15003KT 4000 HZ=
202308200500 TAF WIHH 200500Z 2006/2106 09015KT 7000 SCT020
                      BECMG 2016/2018 15004KT 4000 HZ=
202308192300 TAF WIHH 192300Z 2000/2100 11006KT 7000 FEW022
                      BECMG 2006/2008 03012KT SCT020
                      BECMG 2016/2018 20004KT 4000 HZ=
202308191700 TAF WIHH 191700Z 1918/2018 15004KT 4000 HZ FEW022
                      BECMG 2003/2005 06010KT 7000 SCT020=
202308191100 TAF WIHH 191100Z 1912/2012 08007KT 6000 SCT020
                      BECMG 1915/1917 15004KT 5000 HZ FEW022=
202308190500 TAF WIHH 190500Z 1906/2006 04012KT 7000 SCT020
                      BECMG 1915/1917 15005KT 5000 HZ FEW022=
202308182300 TAF WIHH 182300Z 1900/2000 06008KT 6000 FEW022
                      BECMG 1904/1906 02012KT SCT020=
202308181700 TAF WIHH 181700Z 1818/1918 20003KT 4000 HZ FEW022
                      BECMG 1902/1904 08006KT 6000 SCT020=
202308181100 TAF WIHH 181100Z 1812/1912 06006KT 6000 FEW022
                      BECMG 1818/1820 20003KT 4000 HZ=
202308180500 TAF WIHH 180500Z 1806/1906 01012KT 7000 SCT020
                      BECMG 1813/1815 08005KT FEW022
                      BECMG 1818/1820 20003KT 4000 HZ=
202308172300 TAF WIHH 172300Z 1800/1900 06015KT 7000 SCT020
                      BECMG 1815/1817 15003KT 4000 HZ=
202308171700 TAF WIHH 171700Z 1718/1818 15003KT 4000 HZ SCT020
                      BECMG 1801/1803 06015KT 7000 NSW=
202308171100 TAF WIHH 171100Z 1712/1812 03013KT 7000 SCT020
                      BECMG 1716/1718 15003KT 4000 HZ=
202308170500 TAF WIHH 170500Z 1706/1806 06013KT 7000 FEW020
                      BECMG 1716/1718 15003KT 4000 HZ=
202308162300 TAF WIHH 162300Z 1700/1800 06015KT 7000 SCT020
                      BECMG 1716/1718 15003KT 4000 HZ=
202308161700 TAF WIHH 161700Z 1618/1718 15003KT 4000 HZ SCT020
                      BECMG 1702/1704 03015KT 7000 NSW=
202308161100 TAF WIHH 161100Z 1612/1712 03013KT 7000 SCT020
                      BECMG 1616/1618 15003KT 4000 HZ=
202308160500 TAF WIHH 160500Z 1606/1706 03013KT 7000 SCT020
                      BECMG 1616/1618 15003KT 4000 HZ=
202308152300 TAF WIHH 152300Z 1600/1700 12005KT 4000 HZ FEW022
                      BECMG 1603/1605 03010KT 7000 SCT020=
202308151700 TAF WIHH 151700Z 1518/1618 22004KT 4000 HZ FEW022
                      BECMG 1602/1604 11006KT 6000 SCT020=
202308151100 TAF WIHH 151100Z 1512/1612 03008KT 6000 SCT020
                      BECMG 1515/1517 22004KT 4000 HZ FEW022=
202308150500 TAF WIHH 150500Z 1506/1606 35012KT 6000 SCT020
                      BECMG 1515/1517 21003KT 4000 HZ FEW022=
202308142300 TAF WIHH 142300Z 1500/1600 03012KT 6000 SCT020
                      BECMG 1515/1517 21003KT 4000 HZ FEW022=
202308141700 TAF WIHH 141700Z 1418/1518 20003KT 4000 HZ FEW022
                      BECMG 1502/1504 03010KT 6000 SCT020=
202308141100 TAF WIHH 141100Z 1412/1512 06006KT 6000 FEW022
                      BECMG 1416/1418 20003KT 4000 HZ=
202308140500 TAF WIHH 140500Z 1406/1506 03013KT 7000 SCT020
                      BECMG 1416/1418 12004KT 4000 HZ FEW022=
202308132300 TAF WIHH 132300Z 1400/1500 06015KT 7000 SCT020
                      BECMG 1416/1418 15003KT 4000 HZ=
202308131700 TAF WIHH 131700Z 1318/1418 15003KT 4000 HZ SCT020
                      BECMG 1402/1404 04015KT 7000 NSW=
202308131100 TAF WIHH 131100Z 1312/1412 06013KT 7000 SCT020
                      BECMG 1316/1318 15003KT 4000 HZ=
202308130500 TAF WIHH 130500Z 1306/1406 06015KT 7000 SCT020
                      BECMG 1316/1318 15003KT 4000 HZ=
202308122300 TAF WIHH 122300Z 1300/1400 08013KT 7000 SCT020
                      BECMG 1315/1317 15003KT 4000 HZ=
202308121700 TAF WIHH 121700Z 1218/1318 15004KT 4000 HZ SCT020
                      BECMG 1302/1304 08015KT 7000 NSW=
202308121100 TAF WIHH 121100Z 1212/1312 06013KT 7000 FEW020
                      BECMG 1216/1218 15003KT 4000 HZ=
202308120500 TAF WIHH 120500Z 1206/1306 06013KT 7000 SCT020
                      BECMG 1216/1218 15003KT 4000 HZ=
202308112300 TAF WIHH 112300Z 1200/1300 20005KT 4000 HZ FEW022
                      BECMG 1202/1204 03012KT 6000 SCT020
                      BECMG 1215/1217 12004KT=
202308111700 TAF WIHH 111700Z 1118/1218 22003KT 4000 HZ FEW022
                      BECMG 1202/1204 09006KT 6000=
202308111100 TAF WIHH 111100Z 1112/1212 04006KT 6000 FEW020
                      BECMG 1114/1116 11004KT 4000 HZ=
202308110500 TAF WIHH 110500Z 1106/1206 02012KT 6000 SCT020
                      BECMG 1114/1116 10004KT 4000 HZ=
202308102300 TAF WIHH 102300Z 1100/1200 18005KT 4000 HZ FEW022
                      BECMG 1102/1104 03010KT 6000 SCT020
                      BECMG 1113/1115 11003KT=
202308101700 TAF WIHH 101700Z 1018/1118 21003KT 4000 HZ FEW022
                      BECMG 1102/1104 12008KT 6000=
202308101100 TAF WIHH 101100Z 1012/1112 04008KT 6000 SCT020
                      BECMG 1015/1017 20003KT 4000 HZ FEW022=
202308100500 TAF WIHH 100500Z 1006/1106 04014KT 7000 SCT020
                      BECMG 1015/1017 17004KT 4000 HZ FEW022=
202308092300 TAF WIHH 092300Z 1000/1100 06013KT 7000 SCT020
                      BECMG 1015/1017 15003KT 4000 HZ=
202308091700 TAF WIHH 091700Z 0918/1018 15003KT 4000 HZ SCT020
                      BECMG 1002/1004 05013KT 7000 NSW=
202308091100 TAF WIHH 091100Z 0912/1012 06013KT 7000 SCT020
                      BECMG 0915/0917 15003KT 4000 HZ=
202308090500 TAF WIHH 090500Z 0906/1006 08015KT 7000 SCT020
                      BECMG 0915/0917 15003KT 4000 HZ=
202308082300 TAF WIHH 082300Z 0900/1000 08013KT 7000 SCT020
                      BECMG 0914/0916 15003KT 4000 HZ=
202308081700 TAF WIHH 081700Z 0818/0918 15003KT 4000 HZ SCT020
                      BECMG 0901/0903 06015KT 7000 NSW=
202308081100 TAF WIHH 081100Z 0812/0912 09013KT 7000 SCT020
                      TEMPO 0815/0817 5000 -RA
                      BECMG 0818/0820 15003KT 4000 HZ=
202308080500 TAF WIHH 080500Z 0806/0906 08015KT 7000 SCT020
                      TEMPO 0811/0814 21008KT 5000 -RA
                      BECMG 0815/0817 15004KT 4000 HZ=
202308072300 TAF WIHH 072300Z 0800/0900 09006KT 4000 HZ FEW022
                      BECMG 0803/0805 03012KT 7000
                      TEMPO 0810/0812 4000 -RA SCT018
                      BECMG 0814/0816 15004KT 5000 HZ=
202308071700 TAF WIHH 071700Z 0718/0818 21003KT 4000 HZ FEW022
                      BECMG 0801/0803 09008KT 6000 SCT020=
202308071100 TAF WIHH 071100Z 0712/0812 06005KT 6000 SCT020
                      BECMG 0715/0717 21004KT 4000 HZ FEW022=
202308070500 TAF WIHH 070500Z 0706/0806 35008KT 6000 SCT018
                      TEMPO 0709/0712 04012KT 3000 -RA
                      BECMG 0714/0716 15004KT 4000 HZ FEW020=
202308062300 TAF WIHH 062300Z 0700/0800 09005KT 4000 HZ FEW022
                      BECMG 0703/0705 03010KT 7000 SCT020
                      BECMG 0714/0716 15004KT=
202308061700 TAF WIHH 061700Z 0618/0718 21003KT 4000 HZ FEW022
                      BECMG 0703/0705 03010KT 6000 SCT020=
202308061100 TAF WIHH 061100Z 0612/0712 03007KT 6000 SCT020
                      BECMG 0615/0617 21004KT 4000 HZ FEW022=
202308060500 TAF WIHH 060500Z 0606/0706 35012KT 6000 SCT020
                      BECMG 0614/0616 16004KT 4000 HZ FEW020=
202308052300 TAF WIHH 052300Z 0600/0700 09013KT 7000 SCT020
                      BECMG 0613/0615 35003KT 4000 HZ=
202308051700 TAF WIHH 051700Z 0518/0618 15003KT 4000 HZ SCT020
                      BECMG 0601/0603 06015KT 7000 NSW=
202308051100 TAF WIHH 051100Z 0512/0612 05013KT 6000 SCT020
                      BECMG 0515/0517 15003KT=
202308050500 TAF WIHH 050500Z 0506/0606 06013KT 6000 SCT020
                      BECMG 0515/0517 15003KT=
202308042300 TAF WIHH 042300Z 0500/0600 05015KT 7000 SCT020
                      BECMG 0516/0518 15004KT 4000 HZ=
202308041700 TAF WIHH 041700Z 0418/0518 15004KT 4000 HZ FEW020
                      BECMG 0501/0503 05015KT 7000 NSW=
202308041100 TAF WIHH 041100Z 0412/0512 06015KT 7000 FEW020
                      BECMG 0417/0419 15004KT 4000 HZ=
202308040500 TAF WIHH 040500Z 0406/0506 09015KT 7000 SCT020
                      BECMG 0416/0418 15005KT 4000 HZ=
202308032300 TAF WIHH 032300Z 0400/0500 20004KT 4000 HZ FEW022
                      BECMG 0402/0404 09010KT 6000 SCT018
                      TEMPO 0408/0411 35012KT 4000 -RA FEW017CB
                       BECMG 0414/0416 15005KT=
202308031700 TAF WIHH 031700Z 0318/0418 21004KT 5000 HZ FEW022
                      BECMG 0402/0404 05010KT 6000 SCT020=
202308031100 TAF WIHH 031100Z 0312/0412 03007KT 5000 HZ SCT018
                      BECMG 0315/0317 23003KT 4000 HZ FEW020=
202308030500 TAF WIHH 030500Z 0306/0406 02012KT 6000 SCT018
                      TEMPO 0308/0311 4000 -RA FEW017CB
                      BECMG 0314/0316 21004KT 5000 HZ=
202308022300 TAF WIHH 022300Z 0300/0400 09008KT 6000 FEW022
                      TEMPO 0308/0311 02012KT 4000 RA FEW018CB
                       SCT020
                      BECMG 0313/0315 21004KT 5000 HZ=
202308021700 TAF WIHH 021700Z 0218/0318 10005KT 5000 HZ FEW020
                      BECMG 0301/0303 09010KT 6000=
202308021100 TAF WIHH 021100Z 0212/0312 24005KT 6000 SCT020
                      BECMG 0216/0218 16003KT 4000 HZ FEW022=
202308020500 TAF WIHH 020500Z 0206/0306 35012KT 7000 SCT020
                      TEMPO 0208/0211 4000 -RA FEW018CB
                      BECMG 0214/0216 16004KT 5000 HZ=
202308012300 TAF WIHH 012300Z 0200/0300 09013KT 6000 SCT020
                      TEMPO 0208/0211 15010KT 4000 RA FEW018CB
                       BECMG 0214/0216 00000KT 5000 HZ=
202308011700 TAF WIHH 011700Z 0118/0218 15004KT 5000 HZ FEW020
                      BECMG 0202/0204 06015KT 6000 NSW=
202308011100 TAF WIHH 011100Z 0112/0212 09018KT 7000 FEW020
                      BECMG 0118/0120 15004KT 5000 HZ=
202308010500 TAF WIHH 010500Z 0106/0206 09022KT 7000 FEW020
                      BECMG 0116/0118 15005KT 5000 HZ=
