##########################################################
# Query made at 05/05/2026 03:34:21 UTC
# Time interval: from 11/01/2025 00:00  to 11/30/2025 23:59  UTC
##########################################################

##########################################################
# WIHH, Jakarta Halim Perdanakusuma (Indonesia)
# WMO index: 96747. WIGOS ID: Unknown
# Latitude 06-15S. Longitude 106-54E. Altitude 30 m.
##########################################################

###################################
#  METAR/SPECI from WIHH
###################################
202511302330 METAR WIHH 302330Z 25003KT 7000 NSC 25/24 Q1012 NOSIG=
202511302300 METAR WIHH 302300Z 27003KT 6000 NSC 24/24 Q1011 NOSIG=
202511302230 METAR WIHH 302230Z 11003KT 6000 NSC 24/24 Q1011 NOSIG=
202511302200 METAR WIHH 302200Z 12003KT 6000 NSC 24/24 Q1011 NOSIG=
202511302130 METAR WIHH 302130Z 15003KT 6000 FEW020 24/24 Q1010 NOSIG=
202511302100 METAR WIHH 302100Z 25002KT 6000 SCT020 24/24 Q1010 NOSIG=
202511302030 METAR WIHH 302030Z 19003KT 6000 SCT020 24/24 Q1010 NOSIG=
202511302000 METAR WIHH 302000Z 00000KT 6000 SCT020 24/24 Q1010 NOSIG=
202511301930 METAR WIHH 301930Z 00000KT 6000 FEW020 24/24 Q1012=
202511301900 METAR WIHH 301900Z 00000KT 6000 FEW020 24/23 Q1010=
202511301830 METAR WIHH 301830Z 00000KT 8000 SCT020 25/24 Q1010 NOSIG=
202511301800 METAR WIHH 301800Z 00000KT 7000 FEW020 24/23 Q1011 NOSIG=
202511301730 METAR WIHH 301730Z 00000KT 8000 SCT020 25/24 Q1011 NOSIG=
202511301700 METAR WIHH 301700Z 00000KT 7000 FEW020 24/23 Q1012 NOSIG=
202511301630 METAR WIHH 301630Z 13003KT 7000 FEW020 24/23 Q1012=
202511301600 METAR WIHH 301600Z 18002KT 8000 FEW020 24/23 Q1012 NOSIG=
202511301530 METAR WIHH 301530Z 00000KT 8000 SCT020 24/23 Q1012=
202511301500 METAR WIHH 301500Z 18003KT 8000 SCT020 24/23 Q1012 NOSIG=
202511301430 METAR WIHH 301430Z 30003KT 8000 SCT020 24/23 Q1012 NOSIG=
202511301400 METAR WIHH 301400Z 14003KT 8000 SCT020 24/23 Q1013 RMK RA TO SW=
202511301330 METAR WIHH 301330Z 33002KT 8000 SCT020 24/23 Q1013 RMK RA TO SW=
202511301300 METAR WIHH 301300Z 18003KT 7000 SCT018 24/23 Q1012 RMK RA TO S=
202511301230 METAR WIHH 301230Z 20003KT 7000 -RA SCT017 FEW018CB 24/23 Q1012 RMK C B TO SE=
202511301200 METAR WIHH 301200Z 16003KT 6000 -RA SCT016 FEW017CB 24/22 Q1012 RMK C B TO SE - S=
202511301130 METAR WIHH 301130Z 16010KT 5000 -TSRA BKN015 FEW017CB 24/23 Q1012 RMK CB TO SE - S=
202511301100 METAR WIHH 301100Z 22015KT 5000 -TSRA SCT014 FEW017CB 26/23 Q1011 TEMPO TL1110 3000 -TSRA RMK CB AND RA TO SE-S=
202511301030 METAR WIHH 301030Z 23005KT 6000 SCT016 FEW017CB 28/26 Q1010 RMK CB AND RA TO S=
202511301000 METAR WIHH 301000Z 35003KT 6000 SCT017 29/25 Q1009 RMK RA TO SE - SW=
202511300930 METAR WIHH 300930Z 01005KT 6000 SCT018 31/24 Q1008 RMK RA TO SW=
202511300900 METAR WIHH 300900Z 27003KT 6000 SCT017 29/27 Q1008 RMK RA TO SE-S=
202511300830 METAR WIHH 300830Z 21003KT 7000 SCT017 27/25 Q1008 RMK RA TO NW=
202511300800 METAR WIHH 300800Z 24003KT 7000 SCT017 26/24 Q1008 RMK RA TO NW - N=
202511300730 METAR WIHH 300730Z 03010KT 5000 -RA SCT015 FEW017CB 26/25 Q1008 RMK CB TO N=
202511300700 METAR WIHH 300700Z 02013KT 1000 -RA SCT015 FEW017CB 30/25 Q1008 RMK CB TO SE - SW=
202511300630 METAR WIHH 300630Z 35006KT 6000 TS SCT016 FEW017CB 31/25 Q1009 TEMPO FM0700 3000 -TSRA RMK CB AND RA TO SE AND N=
202511300600 METAR WIHH 300600Z 34010KT 6000 FEW016CB SCT017 29/25 Q1009 TEMPO FM0610 3000 -TSRA RMK CB AND RA TO NW - N=
202511300530 METAR WIHH 300530Z 09005KT 6000 FEW016CB SCT017 32/25 Q1009 TEMPO FM0 535 RMK CB AND RA NW=
202511300500 METAR WIHH 300500Z 03007KT 6000 SCT017 32/23 Q1010 RMK RA TO NW-N=
202511300430 METAR WIHH 300430Z 04006KT 6000 SCT017 32/23 Q1010 NOSIG RMK RA TO NW=
202511300400 METAR WIHH 300400Z 02005KT 6000 SCT017 32/23 Q1010 NOSIG=
202511300330 METAR WIHH 300330Z 04006KT 7000 SCT018 32/23 Q1011 NOSIG=
202511300300 METAR WIHH 300300Z 03005KT 7000 SCT018 32/25 Q1011 RMK RA TO SE=
202511300230 METAR WIHH 300230Z 07004KT 7000 SCT018 31/23 Q1011 NOSIG=
202511300200 METAR WIHH 300200Z 15004KT 7000 SCT018 31/24 Q1011 NOSIG=
202511300130 METAR WIHH 300130Z 16006KT 7000 FEW020 30/24 Q1011 NOSIG=
202511300100 METAR WIHH 300100Z 12004KT 7000 FEW020 29/23 Q1011 NOSIG=
202511300030 METAR WIHH 300030Z 18003KT 7000 FEW020 28/23 Q1011 NOSIG=
202511300000 METAR WIHH 300000Z 21004KT 7000 FEW020 27/23 Q1011 NOSIG=
202511292330 METAR WIHH 292330Z 27003KT 6000 FEW020 26/24 Q1010 NOSIG=
202511292300 METAR WIHH 292300Z 21003KT 6000 FEW020 26/25 Q1010 NOSIG=
202511292230 METAR WIHH 292230Z 18003KT 6000 FEW020 26/24 Q1010 NOSIG=
202511292200 METAR WIHH 292200Z 33003KT 4000 BR SCT018 25/25 Q1010 NOSIG=
202511292130 METAR WIHH 292130Z 26003KT 6000 FEW020 26/25 Q1009 NOSIG=
202511292100 METAR WIHH 292100Z 18004KT 6000 FEW020 26/24 Q1009 NOSIG=
202511292030 METAR WIHH 292030Z 21003KT 6000 FEW020 26/25 Q1009 NOSIG=
202511292000 METAR WIHH 292000Z 20003KT 6000 FEW020 26/25 Q1009 NOSIG=
202511291930 METAR WIHH 291930Z 20003KT 6000 FEW020 26/25 Q1009 NOSIG=
202511291900 METAR WIHH 291900Z 15003KT 6000 FEW020 26/25 Q1009 NOSIG=
202511291830 METAR WIHH 291830Z 30003KT 6000 26/25 Q1009 NOSIG=
202511291800 METAR WIHH 291800Z 29003KT 6000 FEW006 26/25 Q1009 NOSIG=
202511291730 METAR WIHH 291730Z 30003KT 6000 FEW020 26/25 Q1009 NOSIG=
202511291700 METAR WIHH 291700Z 17003KT 6000 FEW020 26/25 Q1010 NOSIG=
202511291630 METAR WIHH 291630Z 18005KT 6000 SCT020 27/25 Q1010 NOSIG=
202511291600 METAR WIHH 291600Z 29004KT 6000 SCT018 26/25 Q1011 NOSIG=
202511291530 METAR WIHH 291530Z 14005KT 6000 SCT020 27/25 Q1011 NOSIG=
202511291500 METAR WIHH 291500Z 11005KT 6000 SCT020 27/25 Q1011 NOSIG=
202511291430 METAR WIHH 291430Z 10007KT 6000 SCT017 26/23 Q1011 NOSIG=
202511291400 METAR WIHH 291400Z 12007KT 6000 SCT017 26/24 Q1011 NOSIG=
202511291330 METAR WIHH 291330Z 09007KT 6000 SCT017 27/25 Q1011 NOSIG=
202511291300 METAR WIHH 291300Z 16005KT 6000 SCT017 27/25 Q1010 NOSIG=
202511291230 METAR WIHH 291230Z 27004KT 6000 BKN018 26/25 Q1011 NOSIG=
202511291200 METAR WIHH 291200Z 16003KT 6000 SCT017 26/25 Q1010 NOSIG=
202511291130 METAR WIHH 291130Z 18005KT 6000 BKN016 FEW017CB 25/24 Q1010 RMK CB AND RA TO N=
202511291100 METAR WIHH 291100Z 09004KT 6000 SCT017 27/25 Q1008 NOSIG=
202511291030 METAR WIHH 291030Z 09004KT 6000 SCT016 27/25 Q1008 NOSIG=
202511291000 METAR WIHH 291000Z 09005KT 5000 -RA SCT016 27/25 Q1008 NOSIG RMK CB TO SE=
202511290930 METAR WIHH 290930Z 28008KT 4000 -TSRA BKN015 FEW016CB 25/24 Q1009 RMK CB OVER THE FIELD=
202511290900 METAR WIHH 290900Z 26008KT 4000 BKN015 FEW017CB 25/24 Q1008 RMK CB TO NE=
202511290830 METAR WIHH 290830Z 24013KT 2000 TSRA BKN013 FEW016CB 27/25 Q1008 RMK CB OVER THE FIELD=
202511290800 METAR WIHH 290800Z 36006KT 5000 FEW017CB SCT018 32/22 Q1007 TEMPO FM0820 4000 TSRA BKN015 RMK CB AND RA TO SW=
202511290730 METAR WIHH 290730Z 30008KT 8000 FEW017CB SCT018 33/23 Q1007 NOSIG RMK CB TO S=
202511290700 METAR WIHH 290700Z 36006KT 8000 SCT017 33/23 Q1007 NOSIG=
202511290630 METAR WIHH 290630Z 25007KT 8000 SCT017 33/23 Q1007 NOSIG=
202511290600 METAR WIHH 290600Z 35007KT 8000 SCT017 33/23 Q1008 NOSIG=
202511290530 METAR WIHH 290530Z 36005KT 8000 SCT018 34/21 Q1008 NOSIG=
202511290500 METAR WIHH 290500Z 06004KT 8000 SCT018 34/20 Q1008 NOSIG=
202511290430 METAR WIHH 290430Z 06005KT 8000 FEW020 34/20 Q1009 NOSIG=
202511290400 METAR WIHH 290400Z 12006KT 8000 FEW020 33/20 Q1009 NOSIG=
202511290330 METAR WIHH 290330Z 03008KT 5000 HZ SCT018 31/23 Q1012 NOSIG=
202511290300 METAR WIHH 290300Z 18005KT 8000 FEW020 32/21 Q1010 NOSIG=
202511290230 METAR WIHH 290230Z 18004KT 8000 FEW020 32/22 Q1010 NOSIG=
202511290200 METAR WIHH 290200Z 16004KT 8000 FEW020 31/22 Q1010 NOSIG=
202511290130 METAR WIHH 290130Z 16005KT 8000 FEW020 31/22 Q1010 NOSIG=
202511290100 METAR WIHH 290100Z 17003KT 8000 NSC 30/21 Q1010 NOSIG=
202511290030 METAR WIHH 290030Z 21003KT 9999 NSC 29/22 Q1010 NOSIG=
202511290000 METAR WIHH 290000Z 18004KT 9999 NSC 28/22 Q1010 NOSIG=
202511282330 METAR WIHH 282330Z 22003KT 9999 NSC 27/22 Q1009 NOSIG=
202511282300 METAR WIHH 282300Z 23005KT 9999 NSC 26/22 Q1009 NOSIG=
202511282230 METAR WIHH 282230Z 21008KT 9999 NSC 26/22 Q1009 NOSIG=
202511282200 METAR WIHH 282200Z 22010KT 8000 NSC 26/22 Q1008 NOSIG=
202511282130 METAR WIHH 282130Z 23007KT 8000 FEW020 26/22 Q1008 NOSIG=
202511282100 METAR WIHH 282100Z 24007KT 8000 FEW020 26/22 Q1008 RMK NOSIG=
202511282030 METAR WIHH 282030Z 24006KT 8000 FEW020 26/21 Q1008=
202511282000 METAR WIHH 282000Z 24006KT 8000 26/22 Q1008=
202511281930 METAR WIHH 281930Z 22006KT 8000 26/21 Q1008=
202511281900 METAR WIHH 281900Z 21004KT 8000 26/21 Q1008=
202511281830 METAR WIHH NIL=
202511281800 METAR WIHH 281800Z 26006KT 8000 FEW020 27/22 Q1009 NOSIG=
202511281730 METAR WIHH 281730Z 23008KT 7000 FEW020 27/22 Q1009 NOSIG=
202511281700 METAR WIHH 281700Z 22005KT 8000 FEW020 26/22 Q1009 NOSIG=
202511281630 METAR WIHH 281630Z 26003KT 8000 FEW020 27/23 Q1009 NOSIG=
202511281600 METAR WIHH 281600Z 24003KT 8000 FEW020 27/23 Q1010 NOSIG=
202511281530 METAR WIHH 281530Z 25005KT 8000 SCT020 27/23 Q1010 NOSIG=
202511281500 METAR WIHH 281500Z 22004KT 8000 SCT020 27/23 Q1010 NOSIG=
202511281430 METAR WIHH 281430Z 22005KT 8000 SCT020 28/24 Q1010 NOSIG=
202511281400 METAR WIHH 281400Z 20003KT 8000 SCT020 28/24 Q1010 NOSIG=
202511281330 METAR WIHH 281330Z 15003KT 8000 SCT020 28/24 Q1009 NOSIG=
202511281300 METAR WIHH 281300Z 17004KT 8000 SCT020 29/24 Q1009 NOSIG=
202511281230 METAR WIHH 281230Z 12003KT 8000 SCT020 29/24 Q1009 NOSIG=
202511281200 METAR WIHH 281200Z 07003KT 8000 SCT020 30/23 Q1008 NOSIG=
202511281130 METAR WIHH 281130Z 07004KT 8000 SCT020 30/23 Q1008 NOSIG=
202511281100 METAR WIHH 281100Z 03005KT 8000 SCT020 30/23 Q1007 NOSIG=
202511281030 METAR WIHH 281030Z 31005KT 7000 SCT018 30/24 Q1007 NOSIG=
202511281000 METAR WIHH 281000Z 34005KT 6000 SCT018 31/23 Q1007 NOSIG=
202511280930 METAR WIHH 280930Z 36006KT 5000 HZ SCT016 31/23 Q1006 NOSIG=
202511280900 METAR WIHH 280900Z 02006KT 5000 HZ SCT017 32/23 Q1006 RMK RA TO SW=
202511280830 METAR WIHH 280830Z 35005KT 5000 HZ SCT017 32/22 Q1006 RMK RA TO SW=
202511280800 METAR WIHH 280800Z 36005KT 5000 SCT017 33/22 Q1006 RMK RA TO E AND SW=
202511280730 METAR WIHH 280730Z 02007KT 5000 HZ SCT018 33/23 Q1006 RMK RA TO SW=
202511280700 METAR WIHH 280700Z 01007KT 5000 HZ SCT018 33/23 Q1007 RMK RA TO E=
202511280630 METAR WIHH 280630Z 04005KT 5000 HZ SCT017 32/23 Q1007 RMK RA TO E=
202511280600 METAR WIHH 280600Z 32007KT 6000 SCT018 33/23 Q1007 NOSIG=
202511280530 METAR WIHH 280530Z 07005KT 7000 SCT018 33/23 Q1008 NOSIG=
202511280500 METAR WIHH 280500Z 01007KT 7000 SCT018 33/23 Q1008 NOSIG=
202511280430 METAR WIHH 280430Z 02003KT 7000 SCT018 34/23 Q1008 NOSIG=
202511280400 METAR WIHH 280400Z 07003KT 7000 SCT020 34/22 Q1009 NOSIG=
202511280330 METAR WIHH 280330Z 06004KT 7000 SCT020 34/23 Q1009 NOSIG=
202511280300 METAR WIHH 280300Z 12003KT 7000 SCT020 32/23 Q1009=
202511280230 METAR WIHH 280230Z 05005KT 7000 SCT020 32/23 Q1009 NOSIG=
202511280200 METAR WIHH 280200Z 12003KT 7000 FEW020 31/23 Q1009 NOSIG=
202511280130 METAR WIHH 280130Z 19003KT 7000 FEW020 31/24 Q1009 NOSIG=
202511280100 METAR WIHH 280100Z 16004KT 7000 FEW020 29/24 Q1009 NOSIG=
202511280030 METAR WIHH 280030Z 18005KT 7000 FEW020 29/22 Q1010 NOSIG=
202511280000 METAR WIHH 280000Z 18004KT 7000 FEW020 28/22 Q1009 NOSIG=
202511272330 METAR WIHH 272330Z 21007KT 7000 FEW020 27/22 Q1009 NOSIG=
202511272300 METAR WIHH 272300Z 19007KT 7000 FEW020 26/22 Q1008 NOSIG=
202511272230 METAR WIHH 272230Z 18006KT 6000 FEW020 25/22 Q1008 NOSIG=
202511272200 METAR WIHH 272200Z 18004KT 6000 FEW020 25/22 Q1008 NOSIG=
202511272130 METAR WIHH 272130Z 21004KT 6000 FEW020 25/22 Q1008 NOSIG=
202511272100 METAR WIHH 272100Z 24004KT 6000 26/22 Q1008 NOSIG=
202511272030 METAR COR WIHH 272030Z 20005KT 6000 FEW020 26/23 Q1008 NOSIG=
202511272000 METAR COR WIHH 272000Z 18005KT 6000 FEW020 26/22 Q1006 NOSIG=
202511271930 METAR WIHH 271930Z 00000KT 7000 SCT020 26/23 Q1010 NOSIG=
202511271900 METAR WIHH 271900Z 00000KT 7000 SCT020 26/24 Q1010 NOSIG=
202511271830 METAR WIHH 271830Z 16005KT 6000 FEW020 26/23 Q1008 NOSIG=
202511271800 METAR WIHH 271800Z 21005KT 6000 FEW020 26/23 Q1009 NOSIG=
202511271730 METAR WIHH 271730Z 20005KT 6000 FEW020 26/24 Q1009 NOSIG=
202511271700 METAR WIHH 271700Z 18005KT 6000 FEW020 26/24 Q1009 NOSIG=
202511271630 METAR WIHH 271630Z 15004KT 6000 FEW020 27/25 Q1009 NOSIG=
202511271600 METAR WIHH 271600Z 16004KT 6000 FEW020 27/25 Q1009 NOSIG=
202511271530 METAR WIHH 271530Z 17004KT 6000 FEW020 27/25 Q1009 NOSIG=
202511271500 METAR WIHH 271500Z 18004KT 6000 FEW020 27/25 Q1009 NOSIG=
202511271430 METAR WIHH 271430Z 12003KT 6000 FEW017 28/24 Q1010 NOSIG=
202511271400 METAR WIHH 271400Z 09003KT 6000 FEW017 29/24 Q1009 NOSIG=
202511271330 METAR WIHH 271330Z 08006KT 6000 FEW017 29/24 Q1009 NOSIG=
202511271300 METAR WIHH 271300Z 09006KT 6000 FEW017 29/24 Q1009 NOSIG=
202511271230 METAR WIHH 271230Z 08006KT 6000 SCT017 29/24 Q1008 NOSIG=
202511271200 METAR WIHH 271200Z 06006KT 6000 SCT017 29/24 Q1008 NOSIG=
202511271130 METAR WIHH 271130Z 03004KT 6000 SCT017 30/23 Q1007 NOSIG=
202511271100 METAR WIHH 271100Z 36004KT 6000 SCT017 30/23 Q1007 NOSIG RMK RA TO NW=
202511271030 METAR WIHH 271030Z 33004KT 7000 SCT017 30/23 Q1007 NOSIG=
202511271000 METAR WIHH 271000Z 33005KT 7000 SCT017 30/23 Q1007 NOSIG=
202511270930 METAR WIHH 270930Z 34006KT 7000 SCT017 31/23 Q1006 NOSIG=
202511270900 METAR WIHH 270900Z 36008KT 7000 SCT017 31/24 Q1006 NOSIG=
202511270830 METAR WIHH 270830Z 34006KT 7000 SCT017 31/23 Q1006 NOSIG=
202511270800 METAR WIHH 270800Z 33006KT 7000 SCT017 32/24 Q1006 NOSIG=
202511270730 METAR WIHH 270730Z 36006KT 7000 SCT017 32/24 Q1006 NOSIG=
202511270700 METAR WIHH 270700Z 30005KT 7000 SCT017 32/24 Q1007 NOSIG=
202511270630 METAR WIHH 270630Z 36007KT 8000 SCT017 31/24 Q1007 NOSIG=
202511270600 METAR WIHH 270600Z 03008KT 8000 SCT017 31/24 Q1007 NOSIG=
202511270530 METAR WIHH 270530Z 24005KT 7000 SCT017 32/23 Q1007 RMK RA TO NE=
202511270500 METAR WIHH 270500Z 18005KT 7000 SCT017 33/23 Q1008 RMK RA TO NE=
202511270430 METAR WIHH 270430Z 12006KT 8000 SCT017 32/23 Q1008 NOSIG=
202511270400 METAR WIHH 270400Z 24009KT 8000 SCT018 32/23 Q1008 NOSIG=
202511270330 METAR WIHH 270330Z 24008KT 8000 SCT018 32/23 Q1009 NOSIG=
202511270300 METAR WIHH 270300Z 09003KT 8000 SCT020 32/23 Q1009 NOSIG=
202511270230 METAR WIHH 270230Z 18003KT 8000 FEW020 31/23 Q1010 NOSIG=
202511270200 METAR WIHH 270200Z 21003KT 8000 FEW020 31/23 Q1010 NOSIG=
202511270130 METAR WIHH 270130Z 22003KT 8000 FEW020 30/23 Q1010 NOSIG=
202511270100 METAR WIHH 270100Z 13003KT 8000 FEW020 29/23 Q1010 NOSIG=
202511270030 METAR WIHH 270030Z 18003KT 7000 FEW020 28/23 Q1009 NOSIG=
202511270000 METAR WIHH 270000Z 21003KT 8000 FEW022 28/23 Q1009 NOSIG=
202511262330 METAR WIHH 262330Z 23003KT 8000 FEW022 26/23 Q1009 NOSIG=
202511262300 METAR WIHH 262300Z 00000KT 8000 FEW022 26/23 Q1008 NOSIG=
202511262230 METAR WIHH 262230Z 00000KT 8000 FEW022 25/23 Q1008 NOSIG=
202511262200 METAR WIHH 262200Z 00000KT 8000 FEW022 25/23 Q1008 NOSIG=
202511262130 METAR WIHH 262130Z 22005KT 8000 FEW020 25/22 Q1007 NOSIG=
202511262100 METAR WIHH 262100Z 24004KT 8000 FEW020 25/23 Q1008 NOSIG=
202511262030 METAR WIHH NIL=
202511262000 METAR WIHH 262000Z 25003KT 8000 FEW020 26/23 Q1008 NOSIG=
202511261930 METAR WIHH 261930Z 27003KT 8000 FEW020 26/23 Q1008 NOSIG=
202511261900 METAR WIHH 261900Z 29003KT 8000 FEW020 26/23 Q1008 NOSIG=
202511261830 METAR WIHH 261830Z 22006KT 8000 FEW020 27/23 Q1008 NOSIG=
202511261800 METAR WIHH 261800Z 23006KT 8000 FEW020 27/23 Q1008 NOSIG=
202511261730 METAR WIHH 261730Z 24005KT 9999 28/23 Q1009 NOSIG=
202511261700 METAR WIHH 261700Z 25005KT 9999 FEW020 28/23 Q1009 NOSIG=
202511261630 METAR WIHH 261630Z 22004KT 9999 FEW020 28/23 Q1009 NOSIG=
202511261600 METAR WIHH 261600Z 25005KT 9999 FEW020 28/23 Q1009 NOSIG=
202511261530 METAR WIHH 261530Z 25003KT 9999 FEW020 28/23 Q1009 NOSIG=
202511261500 METAR WIHH 261500Z 27005KT 9999 FEW020 28/23 Q1009 NOSIG=
202511261430 METAR WIHH 261430Z 25005KT 9999 FEW020 28/23 Q1009 NOSIG=
202511261400 METAR WIHH 261400Z 26007KT 9999 FEW020 28/23 Q1009 NOSIG=
202511261330 METAR WIHH 261330Z 25007KT 9999 FEW020 28/23 Q1008 NOSIG=
202511261300 METAR WIHH 261300Z 24010KT 9999 FEW022 28/23 Q1008 NOSIG=
202511261230 METAR WIHH 261230Z 25004KT 9999 FEW022 29/23 Q1007 NOSIG=
202511261200 METAR WIHH 261200Z 26007KT 9999 FEW022 30/23 Q1007 NOSIG=
202511261130 METAR WIHH 261130Z 23010KT 9999 FEW022 30/23 Q1007 NOSIG=
202511261100 METAR WIHH 261100Z 25008KT 9999 FEW022 30/23 Q1006 NOSIG=
202511261030 METAR WIHH 261030Z 24008KT 9999 FEW022 30/23 Q1006 NOSIG=
202511261000 METAR WIHH 261000Z 23008KT 9999 FEW020 30/23 Q1005 NOSIG=
202511260930 METAR WIHH 260930Z 24008KT 8000 FEW020 30/23 Q1005 NOSIG=
202511260900 METAR WIHH 260900Z 25010KT 8000 FEW020 31/23 Q1005 NOSIG=
202511260830 METAR WIHH 260830Z 24008KT 8000 FEW020 31/22 Q1005 NOSIG=
202511260800 METAR WIHH 260800Z 24010KT 8000 SCT020 31/22 Q1005 NOSIG=
202511260730 METAR WIHH 260730Z 26006KT 7000 SCT018 31/22 Q1005 NOSIG=
202511260700 METAR WIHH 260700Z 27006KT 7000 SCT018 32/21 Q1005 RMK RA TO SE=
202511260630 METAR WIHH 260630Z 25008KT 7000 SCT018 32/22 Q1005 RMK RA TO S=
202511260600 METAR WIHH 260600Z 29005KT 7000 SCT018 32/21 Q1006 NOSIG=
202511260530 METAR WIHH 260530Z 25006KT 7000 SCT018 32/22 Q1006 NOSIG=
202511260500 METAR WIHH 260500Z 36005KT 7000 SCT018 32/22 Q1006 NOSIG=
202511260430 METAR WIHH 260430Z 27010KT 8000 SCT018 32/23 Q1007 NOSIG=
202511260400 METAR WIHH 260400Z 22004KT 9999 SCT018 32/21 Q1007 NOSIG=
202511260330 METAR WIHH 260330Z 25007KT 9999 FEW020 32/21 Q1008 NOSIG=
202511260300 METAR WIHH 260300Z 27003KT 8000 FEW020 32/22 Q1008 NOSIG=
202511260230 METAR WIHH 260230Z 23005KT 8000 FEW020 32/23 Q1008 NOSIG=
202511260200 METAR WIHH 260200Z 24005KT 8000 FEW020 30/22 Q1008 NOSIG=
202511260130 METAR WIHH 260130Z 29005KT 8000 FEW020 29/22 Q1008 NOSIG=
202511260100 METAR WIHH 260100Z 24005KT 8000 FEW020 29/22 Q1008 NOSIG=
202511260030 METAR WIHH 260030Z 24005KT 8000 FEW020 28/23 Q1008 NOSIG=
202511260000 METAR WIHH 260000Z 25005KT 8000 FEW020 27/23 Q1008 NOSIG=
202511252330 METAR WIHH 252330Z 27006KT 8000 FEW020 27/23 Q1008 NOSIG=
202511252300 METAR WIHH 252300Z 24006KT 8000 FEW020 26/22 Q1007 NOSIG=
202511252230 METAR WIHH 252230Z 25005KT 8000 FEW018 25/23 Q1007 NOSIG=
202511252200 METAR WIHH 252200Z 24004KT 8000 FEW018 25/23 Q1007 NOSIG=
202511252130 METAR WIHH 252130Z 22005KT 8000 FEW020 25/22 Q1007 NOSIG=
202511252100 METAR WIHH 252100Z 24005KT 8000 FEW018 26/22 Q1007 NOSIG=
202511252030 METAR WIHH 252030Z 25007KT 8000 FEW020 26/22 Q1007 NOSIG=
202511252000 METAR WIHH 252000Z 00000KT 8000 FEW020 26/22 Q1007 NOSIG=
202511251930 METAR WIHH 251930Z 00000KT 8000 FEW020 26/22 Q1007 NOSIG=
202511251900 METAR WIHH 251900Z 00000KT 8000 FEW020 26/22 Q1007 NOSIG=
202511251830 METAR WIHH 251830Z 00000KT 8000 FEW020 26/22 Q1007 NOSIG=
202511251800 METAR WIHH 251800Z 00000KT 8000 FEW020 26/22 Q1007 NOSIG=
202511251730 METAR WIHH 251730Z 23006KT 8000 FEW018 26/25 Q1007 NOSIG=
202511251700 METAR WIHH 251700Z 22007KT 8000 SCT018 27/22 Q1007 NOSIG=
202511251630 METAR WIHH 251630Z 26004KT 8000 SCT018 27/23 Q1008 NOSIG=
202511251600 METAR WIHH 251600Z 22006KT 8000 FEW018 28/22 Q1008 NOSIG=
202511251530 METAR WIHH 251530Z 18007KT 8000 SCT018 28/22 Q1008 NOSIG=
202511251500 METAR WIHH 251500Z 21007KT 8000 SCT018 28/22 Q1008 NOSIG=
202511251430 METAR WIHH 251430Z 18006KT 8000 SCT018 28/23 Q1008 NOSIG=
202511251400 METAR WIHH 251400Z 24005KT 8000 SCT018 28/22 Q1007 NOSIG=
202511251330 METAR WIHH 251330Z 24005KT 8000 29/22 Q1007 NOSIG=
202511251300 METAR WIHH 251300Z 24007KT 8000 28/22 Q1007 NOSIG=
202511251230 METAR WIHH 251230Z 24009KT 8000 29/22 Q1007 NOSIG=
202511251200 METAR WIHH 251200Z 26008KT 8000 SCT018 29/22 Q1006 NOSIG=
202511251130 METAR WIHH 251130Z 26006KT 8000 SCT018 30/22 Q1006 NOSIG=
202511251100 METAR WIHH 251100Z 24007KT 8000 SCT018 30/22 Q1005 NOSIG=
202511251030 METAR WIHH 251030Z 24008KT 8000 BKN018 31/22 Q1005 NOSIG=
202511251000 METAR WIHH 251000Z 27006KT 9000 SCT018 32/22 Q1004 NOSIG=
202511250930 METAR WIHH 250930Z 30007KT 9000 SCT018 33/23 Q1004 NOSIG=
202511250900 METAR WIHH 250900Z 24014KT 9000 SCT018 33/23 Q1004 NOSIG=
202511250830 METAR WIHH 250830Z 26006KT 9999 SCT018 33/22 Q1004 NOSIG=
202511250800 METAR WIHH 250800Z 24006KT 9999 SCT018 34/22 Q1004 NOSIG=
202511250730 METAR WIHH 250730Z 16005KT 9999 SCT018 35/21 Q1004 NOSIG=
202511250700 METAR WIHH 250700Z 18005KT 9999 SCT018 35/20 Q1004 NOSIG=
202511250630 METAR WIHH 250630Z 06004KT 9999 FEW020 35/19 Q1005 NOSIG=
202511250600 METAR WIHH 250600Z 09004KT 9999 FEW020 35/19 Q1005 NOSIG=
202511250530 METAR WIHH 250530Z 26006KT 9999 FEW020 34/20 Q1006 NOSIG=
202511250500 METAR WIHH 250500Z 27007KT 9999 FEW020 34/20 Q1006 NOSIG=
202511250430 METAR WIHH 250430Z 24006KT 9999 FEW020 34/20 Q1007=
202511250400 METAR WIHH 250400Z 23006KT 9999 FEW020 33/19 Q1007 NOSIG=
202511250330 METAR WIHH 250330Z 23005KT 9999 FEW020 33/20 Q1007 NOSIG=
202511250300 METAR WIHH 250300Z 22005KT 9999 FEW020 32/19 Q1008 NOSIG=
202511250230 METAR WIHH 250230Z 23005KT 9999 FEW020 31/20 Q1009 NOSIG=
202511250200 METAR WIHH 250200Z 19005KT 9999 FEW020 31/20 Q1009 NOSIG=
202511250130 METAR WIHH 250130Z 24006KT 9999 FEW020 29/21 Q1009 NOSIG=
202511250100 METAR WIHH 250100Z 25005KT 9999 NSC 28/21 Q1009 NOSIG=
202511250030 METAR WIHH 250030Z 23004KT 9999 NSC 27/20 Q1009 NOSIG=
202511250000 METAR WIHH 250000Z 21004KT 9999 NSC 26/21 Q1008 NOSIG=
202511242330 METAR WIHH 242330Z 19005KT 9999 NSC 25/21 Q1008 NOSIG=
202511242300 METAR WIHH 242300Z 23007KT 9999 NSC 24/21 Q1008 NOSIG=
202511242230 METAR WIHH 242230Z 24006KT 9999 FEW020 24/21 Q1007 NOSIG=
202511242200 METAR WIHH 242200Z 27003KT 9999 FEW020 24/21 Q1007 NOSIG=
202511242130 METAR WIHH 242130Z 25005KT 9999 FEW020 25/21 Q1007 NOSIG=
202511242100 METAR WIHH 242100Z 28003KT 9999 FEW020 25/21 Q1007 NOSIG=
202511242030 METAR WIHH NIL=
202511242000 METAR WIHH 242000Z 25003KT 9999 NSC 26/21 Q1007 NOSIG=
202511241930 METAR WIHH NIL=
202511241900 METAR WIHH 241900Z 25008KT 9999 26/21 Q1008 NOSIG=
202511241830 METAR WIHH 241830Z 26005KT 9999 NSC 26/21 Q1008 NOSIG=
202511241800 METAR WIHH 241800Z 23010KT 9999 NSC 26/21 Q1008 NOSIG=
202511241730 METAR WIHH 241730Z 23007KT 9999 NSC 26/20 Q1008 NOSIG=
202511241700 METAR WIHH 241700Z 25008KT 9999 NSC 26/20 Q1008 NOSIG=
202511241630 METAR WIHH 241630Z 27004KT 9999 NSC 27/20 Q1008 NOSIG=
202511241600 METAR WIHH 241600Z 28004KT 9999 NSC 27/20 Q1008 NOSIG=
202511241530 METAR WIHH 241530Z 22005KT 9999 NSC 28/20 Q1008 NOSIG=
202511241500 METAR WIHH 241500Z 24006KT 9999 NSC 28/20 Q1008 NOSIG=
202511241430 METAR WIHH 241430Z 24008KT 9999 NSC 28/20 Q1008 NOSIG=
202511241400 METAR WIHH 241400Z 23008KT 9999 NSC 28/20 Q1008 NOSIG=
202511241330 METAR WIHH 241330Z 24008KT 9999 NSC 28/20 Q1008 NOSIG=
202511241300 METAR WIHH 241300Z 23008KT 9999 NSC 28/21 Q1008 NOSIG=
202511241230 METAR WIHH 241230Z 24010KT 9999 NSC 29/20 Q1007 NOSIG=
202511241200 METAR WIHH 241200Z 26010KT 9999 NSC 30/20 Q1007 NOSIG=
202511241130 METAR WIHH 241130Z 24010KT 9999 NSC 31/20 Q1007 NOSIG=
202511241100 METAR WIHH 241100Z 24010KT 9999 NCD 31/20 Q1006 NOSIG=
202511241030 METAR WIHH 241030Z 25009KT 9999 FEW022 32/19 Q1006 NOSIG=
202511241000 METAR WIHH 241000Z 27008KT 9999 FEW020 33/20 Q1006 NOSIG=
202511240930 METAR WIHH 240930Z 24015KT 9999 FEW020 33/20 Q1005 NOSIG=
202511240900 METAR WIHH 240900Z 25012KT 9999 FEW020 34/20 Q1005 NOSIG=
202511240830 METAR WIHH 240830Z 24010KT 9999 SCT020 34/21 Q1005 NOSIG=
202511240800 METAR WIHH 240800Z 28010KT 9999 SCT020 34/21 Q1005 NOSIG=
202511240730 METAR WIHH 240730Z 28010KT 8000 SCT018 34/20 Q1006 NOSIG=
202511240700 METAR WIHH 240700Z 30005KT 8000 SCT018 34/21 Q1006 NOSIG=
202511240630 METAR WIHH 240630Z 25008KT 8000 SCT018 34/21 Q1006 NOSIG=
202511240600 METAR WIHH 240600Z 22005KT 8000 SCT020 34/21 Q1006 NOSIG=
202511240530 METAR WIHH 240530Z 25006KT 9999 SCT020 33/21 Q1007 NOSIG=
202511240500 METAR WIHH 240500Z 29007KT 9999 SCT020 34/20 Q1007 NOSIG=
202511240430 METAR WIHH 240430Z 20010KT 9999 SCT020 34/21 Q1007 NOSIG=
202511240400 METAR WIHH 240400Z 24010KT 9999 FEW020 33/21 Q1008 NOSIG=
202511240330 METAR WIHH 240330Z 24008KT 9999 SCT020 32/20 Q1008 NOSIG=
202511240300 METAR WIHH 240300Z 21008KT 9999 SCT020 32/21 Q1009 NOSIG=
202511240230 METAR WIHH 240230Z 19003KT 9999 SCT018 31/20 Q1009 NOSIG=
202511240200 METAR WIHH 240200Z 18004KT 9999 SCT018 30/20 Q1009 NOSIG=
202511240130 METAR WIHH 240130Z 24004KT 9999 SCT018 29/21 Q1009 NOSIG=
202511240100 METAR WIHH 240100Z 26004KT 9999 SCT020 28/21 Q1009 NOSIG=
202511240030 METAR WIHH 240030Z 24004KT 9999 SCT020 28/21 Q1009 NOSIG=
202511240000 METAR WIHH 240000Z 22003KT 9999 SCT020 27/22 Q1009 NOSIG=
202511232330 METAR COR WIHH 232330Z 24003KT 9999 SCT020 25/22 Q1008 NOSIG=
202511232300 METAR WIHH 232300Z 27004KT 9999 SCT020 25/22 Q1008 NOSIG=
202511232230 METAR WIHH 232230Z 30003KT 9999 SCT020 25/22 Q1008 NOSIG=
202511232200 METAR WIHH 232200Z 27003KT 9999 SCT020 25/22 Q1008 NOSIG=
202511232130 METAR WIHH 232130Z 25003KT 9999 SCT020 25/22 Q1008 NOSIG=
202511232100 METAR WIHH 232100Z 28004KT 9999 SCT020 25/22 Q1008 NOSIG=
202511232030 METAR WIHH 232030Z 25003KT 9999 25/22 Q1008 NOSIG=
202511232000 METAR WIHH 232000Z 25003KT 9999 SCT020 25/22 Q1008 NOSIG=
202511231930 METAR WIHH 231930Z 28003KT 9999 SCT020 25/22 Q1008 NOSIG=
202511231900 METAR WIHH 231900Z 26002KT 9999 SCT020 26/21 Q1008 NOSIG=
202511231830 METAR WIHH 231830Z 24006KT 9999 SCT020 25/21 Q1008 NOSIG=
202511231800 METAR WIHH 231800Z 26004KT 9999 FEW020 26/22 Q1009 NOSIG=
202511231730 METAR WIHH 231730Z 27003KT 9999 FEW020 26/21 Q1009 NOSIG=
202511231700 METAR WIHH 231700Z 25004KT 9999 FEW020 26/21 Q1009 NOSIG=
202511231630 METAR WIHH 231630Z 29005KT 9999 FEW020 26/21 Q1009 NOSIG=
202511231600 METAR WIHH 231600Z 27003KT 9999 SCT020 26/21 Q1009 NOSIG=
202511231530 METAR WIHH 231530Z 24005KT 9999 SCT020 26/21 Q1009 NOSIG=
202511231500 METAR WIHH 231500Z 22005KT 9999 SCT020 27/21 Q1009 NOSIG=
202511231430 METAR WIHH 231430Z 21008KT 9999 SCT020 27/21 Q1009 NOSIG=
202511231400 METAR WIHH 231400Z 22008KT 9999 SCT020 27/21 Q1009 NOSIG=
202511231330 METAR WIHH 231330Z 23007KT 9999 SCT020 27/21 Q1008 NOSIG=
202511231300 METAR WIHH 231300Z 21007KT 7000 SCT018 27/21 Q1008 NOSIG=
202511231230 METAR WIHH 231230Z 21008KT 6000 SCT017 27/22 Q1008 NOSIG=
202511231200 METAR WIHH 231200Z 21005KT 6000 SCT017 27/22 Q1008 NOSIG=
202511231130 METAR WIHH 231130Z 21008KT 6000 SCT017 27/22 Q1007 NOSIG=
202511231100 METAR WIHH 231100Z 19010KT 6000 SCT017 28/22 Q1007 NOSIG=
202511231030 METAR WIHH 231030Z 22010KT 6000 SCT017 28/22 Q1007 NOSIG=
202511231000 METAR WIHH 231000Z 20015KT 6000 SCT017 29/22 Q1007 NOSIG=
202511230930 METAR WIHH 230930Z 24015KT 6000 SCT017 30/20 Q1006 NOSIG=
202511230900 METAR WIHH 230900Z 26015KT 6000 SCT017 30/22 Q1006 NOSIG=
202511230830 METAR WIHH 230830Z 22015KT 6000 SCT017 30/22 Q1006 NOSIG=
202511230800 METAR WIHH 230800Z 22020KT 6000 SCT017 31/22 Q1006 RMK RA TO E=
202511230730 METAR WIHH 230730Z 23020KT 6000 SCT017 32/22 Q1006 RMK RA TO NE=
202511230700 METAR WIHH 230700Z 27015KT 6000 SCT017 31/22 Q1006 RMK RA TO NE=
202511230630 METAR WIHH 230630Z 24010KT 6000 SCT017 32/23 Q1007 RMK RA TO NE=
202511230600 METAR WIHH 230600Z 27013KT 6000 SCT017 30/23 Q1007 RMK RA TO E-SE=
202511230530 METAR WIHH 230530Z 23005KT 6000 SCT020 32/22 Q1010 NOSIG=
202511230500 METAR WIHH 230500Z 29007KT 6000 -RA SCT017 FEW018CB 30/24 Q1008 TEMPO FM0615 3000 RA RMK CB TO N=
202511230430 METAR WIHH 230430Z 23007KT 6000 SCT018 30/24 Q1008 RMK RA TO NW=
202511230400 METAR WIHH 230400Z 24008KT 6000 SCT018 30/23 Q1009 NOSIG=
202511230330 METAR WIHH 230330Z 33005KT 6000 SCT018 30/23 Q1009 NOSIG=
202511230300 METAR WIHH 230300Z 30005KT 6000 SCT018 29/24 Q1010 NOSIG=
202511230230 METAR WIHH 230230Z 28004KT 6000 SCT018 28/24 Q1010 NOSIG=
202511230200 METAR WIHH 230200Z 25005KT 6000 SCT018 28/24 Q1010 NOSIG=
202511230130 METAR WIHH 230130Z 27006KT 6000 SCT017 27/24 Q1009 NOSIG=
202511230100 METAR WIHH 230100Z 24005KT 6000 SCT017 27/24 Q1009=
202511230030 METAR WIHH 230030Z 23005KT 6000 SCT017 27/25 Q1009 NOSIG=
202511230000 METAR WIHH 230000Z 27003KT 6000 SCT017 26/25 Q1009 NOSIG=
202511222330 METAR WIHH 222330Z 24003KT 6000 SCT017 25/24 Q1008 NOSIG=
202511222300 METAR WIHH 222300Z 18003KT 6000 SCT017 25/24 Q1008 NOSIG=
202511222230 METAR WIHH 222230Z 18003KT 6000 SCT020 25/24 Q1008 NOSIG=
202511222200 METAR WIHH 222200Z 24005KT 6000 SCT020 25/24 Q1008 NOSIG=
202511222130 METAR WIHH 222130Z 18003KT 6000 SCT020 25/24 Q1007 NOSIG=
202511222100 METAR WIHH 222100Z 24003KT 6000 SCT020 25/24 Q1008 NOSIG=
202511222030 METAR WIHH 222030Z 24004KT 8000 FEW020 25/24 Q1007 NOSIG=
202511222000 METAR WIHH 222000Z 22003KT 7000 SCT020 26/22 Q1008 NOSIG=
202511221930 METAR WIHH 221930Z 24005KT 7000 FEW018 25/24 Q1007 NOSIG=
202511221900 METAR WIHH 221900Z 00000KT 8000 FEW020 25/24 Q1008 NOSIG=
202511221830 METAR WIHH 221830Z 00000KT 8000 FEW020 25/24 Q1008 NOSIG=
202511221800 METAR WIHH 221800Z 00000KT 8000 FEW020 25/25 Q1008 NOSIG=
202511221730 METAR WIHH 221730Z 22005KT 8000 FEW020 25/24 Q1008 NOSIG=
202511221700 METAR WIHH 221700Z 00000KT 8000 SCT020 25/24 Q1008 NOSIG=
202511221630 METAR WIHH 221630Z 00000KT 8000 FEW020 25/24 Q1009 NOSIG=
202511221600 METAR WIHH 221600Z 00000KT 8000 FEW020 24/24 Q1009 NOSIG=
202511221530 METAR WIHH 221530Z 00000KT 8000 FEW020 25/24 Q1009 NOSIG=
202511221500 METAR WIHH 221500Z 26004KT 8000 FEW020 25/24 Q1009 NOSIG=
202511221430 METAR WIHH 221430Z 24005KT 8000 FEW020 25/24 Q1009 NOSIG=
202511221400 METAR WIHH 221400Z 22005KT 8000 FEW020 25/24 Q1008 NOSIG=
202511221330 METAR WIHH 221330Z 25004KT 8000 FEW020 25/25 Q1008 NOSIG=
202511221300 METAR WIHH 221300Z 23003KT 8000 FEW020 25/25 Q1008 NOSIG=
202511221230 METAR WIHH 221230Z 00000KT 8000 FEW020 25/24 Q1008 NOSIG=
202511221200 METAR WIHH 221200Z 00000KT 8000 FEW020 25/25 Q1008 NOSIG=
202511221130 METAR WIHH 221130Z 00000KT 8000 SCT020 25/25 Q1008 NOSIG=
202511221100 METAR WIHH 221100Z 17004KT 6000 SCT018 27/25 Q1007 NOSIG=
202511221030 METAR WIHH 221030Z 17006KT 6000 -RA SCT018 26/25 Q1007 NOSIG=
202511221000 METAR WIHH 221000Z 26007KT 5000 -TSRA SCT017 FEW018CB 27/24 Q1007 NOSIG RMK CB TO SE=
202511220930 METAR WIHH 220930Z 19008KT 6000 SCT017 FEW018CB 27/24 Q1007 NOSIG RMK CB AND RA TO N=
202511220900 METAR WIHH 220900Z 24004KT 6000 SCT017 FEW018CB 30/24 Q1006 NOSIG RMK CB AND RA TO SW=
202511220830 METAR WIHH 220830Z 24004KT 6000 TS SCT017 FEW018CB 29/24 Q1006 NOSIG RMK CB AND RA TO S=
202511220800 METAR WIHH 220800Z 18004KT 5000 TS SCT017 FEW018CB 29/25 Q1006 NOSIG RMK CB AND RA TO SW=
202511220730 METAR WIHH 220730Z 24009KT 5000 TS SCT017 FEW018CB 30/24 Q1006 TEMPO FM0800 3000 TSRA BKN015 RMK CB AND RA TO W=
202511220700 METAR WIHH 220700Z 09009KT 5000 TS SCT017 FEW018CB 29/25 Q1007 TEMPO FM0730 3000 -TSRA BKN015 RMK CB AND RA TO SE=
202511220630 METAR WIHH 220630Z 06008KT 6000 TS SCT017 FEW018CB 29/24 Q1007 NOSIG RMK CB AND RA TO SE=
202511220600 METAR WIHH 220600Z 04006KT 6000 TS SCT017 FEW018CB 28/23 Q1007 NOSIG RMK CB AND RA TO SE=
202511220530 METAR WIHH 220530Z 06012KT 3000 BKN017 FEW018CB 28/24 Q1007 NOSIG RMK CB TO NE=
202511220500 METAR WIHH 220500Z 03008KT 7000 SCT017 FEW018CB 32/22 Q1008 TEMPO FM0505 3000 -RA BKN015 RMK CB AND RA TO W - NW=
202511220430 METAR WIHH 220430Z 04004KT 7000 SCT017 33/22 Q1008 RMK RA TO W=
202511220400 METAR WIHH 220400Z 06008KT 7000 SCT018 33/23 Q1008 NOSIG=
202511220330 METAR WIHH 220330Z 24004KT 7000 FEW019 32/23 Q1009 NOSIG=
202511220300 METAR WIHH 220300Z 03005KT 7000 FEW019 33/23 Q1009=
202511220230 METAR WIHH 220230Z 03004KT 7000 FEW020 31/22 Q1009 NOSIG=
202511220200 METAR WIHH 220200Z 18004KT 7000 FEW020 31/23 Q1010 NOSIG=
202511220130 METAR WIHH 220130Z 15005KT 7000 FEW020 30/22 Q1010 NOSIG=
202511220100 METAR WIHH 220100Z 16005KT 7000 FEW020 29/23 Q1009 NOSIG=
202511220030 METAR WIHH 220030Z 18003KT 7000 SCT020 28/23 Q1009 NOSIG=
202511220000 METAR WIHH 220000Z 21003KT 6000 SCT020 26/23 Q1009 NOSIG=
202511212330 METAR WIHH 212330Z 23005KT 5000 HZ SCT020 25/24 Q1009 NOSIG=
202511212300 METAR WIHH 212300Z 23004KT 4000 HZ SCT020 25/24 Q1008 NOSIG=
202511212230 METAR WIHH 212230Z 20003KT 5000 HZ SCT020 25/24 Q1008 NOSIG=
202511212200 METAR WIHH 212200Z 21004KT 7000 SCT020 24/23 Q1008 NOSIG=
202511212130 METAR WIHH 212130Z 20003KT 6000 SCT020 25/23 Q1008 NOSIG=
202511212100 METAR WIHH 212100Z 25003KT 6000 SCT020 26/22 Q1007 NOSIG=
202511212030 METAR WIHH 212030Z 22003KT 7000 SCT020 26/23 Q1007 NOSIG=
202511212000 METAR WIHH 212000Z 24003KT 7000 26/22 Q1007 NOSIG=
202511211930 METAR WIHH 211930Z 24003KT 7000 SCT020 26/22 Q1008 NOSIG=
202511211900 METAR WIHH 211900Z 24003KT 7000 SCT020 26/22 Q1008 NOSIG=
202511211830 METAR WIHH 211830Z 24003KT 7000 SCT020 26/22 Q1008 NOSIG=
202511211800 METAR WIHH 211800Z 24003KT 7000 SCT020 26/22 Q1008 NOSIG=
202511211730 METAR WIHH 211730Z 21010KT 8000 SCT020 27/21 Q1008 NOSIG=
202511211700 METAR WIHH 211700Z 24007KT 8000 SCT020 27/22 Q1009 NOSIG=
202511211630 METAR WIHH 211630Z 18005KT 8000 SCT018 26/22 Q1010 RMK RA TO NE=
202511211600 METAR WIHH 211600Z 19013KT 8000 SCT018 27/22 Q1010 TEMPO FM211630 TL211700 20008KT 5000 -RA BKN018 RMK RA TO W=
202511211530 METAR WIHH 211530Z 20010KT 8000 SCT020 27/22 Q1010 NOSIG=
202511211500 METAR WIHH 211500Z 23006KT 8000 SCT020 27/23 Q1010 RMK RA TO S=
202511211430 METAR WIHH 211430Z 26005KT 8000 SCT020 27/23 Q1010 NOSIG RMK RA TO SW=
202511211400 METAR WIHH 211400Z 25003KT 8000 SCT020 27/23 Q1010 NOSIG=
202511211330 METAR WIHH 211330Z 24006KT 8000 SCT020 28/22 Q1010 NOSIG=
202511211300 METAR WIHH 211300Z 25005KT 7000 SCT018 27/23 Q1010 NOSIG=
202511211230 METAR WIHH 211230Z 23014KT 8000 28/21 Q1009 NOSIG=
202511211200 METAR WIHH 211200Z 21010KT 7000 SCT017 28/21 Q1008 NOSIG=
202511211130 METAR WIHH 211130Z 21010KT 7000 SCT017 28/21 Q1008 NOSIG=
202511211100 METAR WIHH 211100Z 25008KT 7000 SCT017 28/23 Q1008 NOSIG=
202511211030 METAR WIHH 211030Z 23010KT 7000 SCT017 28/23 Q1007 RMK RA TO SE=
202511211000 METAR WIHH 211000Z 25005KT 6000 SCT017 29/23 Q1007 RMK RA TO SE=
202511210930 METAR WIHH 210930Z 26005KT 6000 SCT017 28/24 Q1007 RMK RA TO SE=
202511210900 METAR WIHH 210900Z 13005KT 6000 SCT016 FEW017CB 28/23 Q1007 RMK CB AN D RA TO SE=
202511210830 METAR WIHH 210830Z 12015KT 5000 TS SCT016 FEW017CB 28/22 Q1007 RMK CB AND RA TO E-S=
202511210800 METAR WIHH 210800Z 24015KT 4000 -TSRA SCT015 FEW016CB 31/23 Q1006 TEMPO TL0830 3000 -TSRA RMK CB TO E - SE=
202511210730 METAR WIHH 210730Z 25010KT 7000 TS FEW016CB SCT017 33/24 Q1006 TEMPO FM0745 3000 -TSRA RMK CB AND RA TO SE - S=
202511210700 METAR WIHH 210700Z 30010KT 7000 FEW016CB SCT017 33/23 Q1006 TEMPO FM0 730 3000 -TSRA RMK CB AND RA TO SE - S=
202511210630 METAR WIHH 210630Z 25007KT 7000 SCT017 34/23 Q1007 NOSIG RMK RA TO SE=
202511210600 METAR WIHH 210600Z 30005KT 7000 SCT018 34/22 Q1007 NOSIG RMK RA TO NW=
202511210530 METAR WIHH 210530Z 28004KT 7000 SCT018 34/22 Q1008 NOSIG=
202511210500 METAR WIHH 210500Z 29003KT 8000 SCT018 33/21 Q1008 NOSIG=
202511210430 METAR WIHH 210430Z 25006KT 8000 SCT018 33/22 Q1009 NOSIG=
202511210400 METAR WIHH 210400Z 22008KT 8000 SCT018 33/22 Q1009 NOSIG=
202511210330 METAR WIHH 210330Z 05004KT 8000 SCT020 33/23 Q1010 NOSIG=
202511210300 METAR WIHH 210300Z 23003KT 8000 SCT020 32/23 Q1010 NOSIG=
202511210230 METAR WIHH 210230Z 21005KT 8000 FEW020 31/24 Q1010 NOSIG=
202511210200 METAR WIHH 210200Z 24005KT 9999 FEW020 30/24 Q1010 NOSIG=
202511210130 METAR WIHH 210130Z 21005KT 9999 FEW020 29/24 Q1010 NOSIG=
202511210100 METAR WIHH 210100Z 25003KT 9999 FEW020 29/24 Q1010 NOSIG=
202511210030 METAR WIHH 210030Z 28004KT 8000 FEW020 27/24 Q1010 NOSIG=
202511210000 METAR WIHH 210000Z 25005KT 8000 FEW020 27/24 Q1010=
202511202330 METAR WIHH 202330Z 26007KT 7000 FEW020 26/24 Q1009 NOSIG=
202511202300 METAR WIHH 202300Z 24005KT 7000 FEW020 24/23 Q1009 NOSIG=
202511202230 METAR WIHH 202230Z 27003KT 7000 FEW020 25/23 Q1008 NOSIG=
202511202200 METAR WIHH 202200Z 24003KT 7000 SCT020 25/23 Q1008 NOSIG=
202511202130 METAR WIHH 202130Z 25005KT 7000 SCT020 25/23 Q1008 NOSIG=
202511202100 METAR WIHH 202100Z 27005KT 8000 SCT020 25/23 Q1008 NOSIG=
202511202030 METAR WIHH 202030Z 25005KT 8000 25/23 Q1008 NOSIG=
202511202000 METAR WIHH 202000Z 27006KT 8000 SCT020 25/23 Q1008 NOSIG=
202511201930 METAR WIHH 201930Z 26004KT 9999 SCT020 24/23 Q1008 NOSIG=
202511201900 METAR WIHH 201900Z 25003KT 9999 SCT020 24/23 Q1008 NOSIG=
202511201830 METAR WIHH 201830Z 25004KT 9999 SCT018 24/23 Q1008 NOSIG=
202511201800 METAR WIHH 201800Z 28007KT 9999 SCT018 24/24 Q1009 NOSIG=
202511201730 METAR WIHH 201730Z 26004KT 9999 SCT018 25/23 Q1009 NOSIG=
202511201700 METAR WIHH 201700Z 28007KT 9999 SCT018 25/23 Q1009 NOSIG=
202511201630 METAR WIHH 201630Z 24005KT 9999 SCT018 25/24 Q1009 NOSIG=
202511201600 METAR WIHH 201600Z 25005KT 9999 SCT018 25/24 Q1010 NOSIG=
202511201530 METAR WIHH 201530Z 24007KT 8000 SCT018 25/24 Q1010 NOSIG=
202511201500 METAR WIHH 201500Z 25005KT 8000 SCT018 25/24 Q1010 NOSIG=
202511201430 METAR WIHH 201430Z 24006KT 8000 SCT018 25/24 Q1010 RMK RA TO SE=
202511201400 METAR WIHH 201400Z 24008KT 8000 SCT018 25/24 Q1010 RMK RA TO SW=
202511201330 METAR WIHH 201330Z 25006KT 8000 SCT018 25/24 Q1010 RMK RA TO SW=
202511201300 METAR WIHH 201300Z 25008KT 7000 -RA SCT018 25/25 Q1010 TEMPO TL1400 4000 -RA=
202511201230 METAR WIHH 201230Z 24008KT 7000 SCT018 25/25 Q1009 TEMPO TL1400 4000 -RA=
202511201200 METAR WIHH 201200Z 25005KT 7000 SCT018 25/25 Q1009 TEMPO TL1230 4000 -RA=
202511201130 METAR WIHH 201130Z 25005KT 6000 -RA SCT016 25/25 Q1009 TEMPO TL1200 4 000 -RA=
202511201100 METAR WIHH 201100Z 27005KT 6000 -RA BKN016 25/25 Q1009 TEMPO TL1200 3 000 -RA=
202511201030 METAR WIHH 201030Z 27008KT 6000 -RA BKN016 25/25 Q1008 TEMPO TL1100 3000 -RA=
202511201000 METAR WIHH 201000Z 29014KT 6000 -RA BKN016 25/25 Q1008 TEMPO TL1100 3 000 -RA=
202511200930 METAR WIHH 200930Z 30012KT 6000 -RA BKN016 26/25 Q1008 TEMPO TL1000 3000 -RA=
202511200900 METAR WIHH 200900Z 28010KT 5000 -RA BKN015 25/25 Q1007 TEMPO TL1000 3000 -RA=
202511200830 METAR WIHH 200830Z 28010KT 5000 -RA BKN016 25/25 Q1007 TEMPO TL0900 3000 -RA=
202511200800 METAR WIHH 200800Z 27018KT 3000 -RA SCT016 25/25 Q1008 TEMPO TL0830 3000 -RA BKN016=
202511200730 METAR WIHH 200730Z 24015KT 6000 -RA SCT016 31/24 Q1007 TEMPO TL0800 2000 -RA=
202511200700 METAR WIHH 200700Z 25010KT 8000 SCT016 32/23 Q1007 RMK RA TO W=
202511200630 METAR WIHH 200630Z 26015KT 8000 SCT016 32/23 Q1007 NOSIG=
202511200600 METAR WIHH 200600Z 31010KT 8000 SCT016 32/23 Q1008 NOSIG=
202511200530 METAR WIHH 200530Z 25015KT 7000 SCT015 32/23 Q1008 RMK RA TO NE=
202511200500 METAR WIHH 200500Z 24015KT 7000 SCT015 31/23 Q1009 RMK RA TO NE=
202511200430 METAR WIHH 200430Z 28010KT 7000 FEW015 30/24 Q1009 RMK RA TO N=
202511200400 METAR WIHH 200400Z 28015KT 7000 SCT015 30/24 Q1009 RMK RA TO NW=
202511200330 METAR WIHH 200330Z 28010KT 7000 SCT015 30/24 Q1009 RMK RA TO NW=
202511200300 METAR WIHH 200300Z 30015KT 7000 SCT015 30/24 Q1010 RMK RA TO W=
202511200230 METAR WIHH 200230Z 27009KT 7000 SCT015 30/24 Q1010 RMK RA TO SW-W=
202511200200 METAR WIHH 200200Z 26010KT 7000 SCT017 29/24 Q1010 RMK RA TO SW=
202511200130 METAR WIHH 200130Z 27013KT 6000 SCT017 29/24 Q1010 RMK RA TO SW=
202511200100 METAR WIHH 200100Z 24007KT 6000 SCT017 27/24 Q1010 RMK RA TO S=
202511200030 METAR WIHH 200030Z 24004KT 6000 SCT017 27/24 Q1010 RMK RA TO S=
202511200000 METAR WIHH 200000Z 24006KT 6000 SCT018 27/24 Q1009 RMK RA TO SW=
202511192330 METAR WIHH 192330Z 24006KT 6000 SCT018 26/24 Q1009 NOSIG=
202511192300 METAR WIHH 192300Z 24003KT 6000 SCT018 25/24 Q1008 TEMPO FM2310 5000 -RA BKN015 RMK RA TO W=
202511192230 METAR WIHH 192230Z 27003KT 7000 SCT018 25/24 Q1008 TEMPO FM2300 5000 -RA BKN015 RMK RA TO SW=
202511192200 METAR WIHH 192200Z 24003KT 7000 FEW020 25/24 Q1008 NOSIG=
202511192130 METAR WIHH 192130Z 06003KT 7000 FEW020 25/24 Q1008 NOSIG=
202511192100 METAR WIHH 192100Z 19003KT 7000 FEW020 25/24 Q1007 NOSIG=
202511192030 METAR WIHH 192030Z 25004KT 7000 FEW020 25/24 Q1007 NOSIG=
202511192000 METAR WIHH 192000Z 24004KT 7000 FEW020 25/24 Q1007 NOSIG=
202511191930 METAR WIHH 191930Z 24004KT 7000 FEW020 26/23 Q1008 NOSIG=
202511191900 METAR WIHH 191900Z 21004KT 7000 FEW020 26/23 Q1008 NOSIG=
202511191830 METAR WIHH 191830Z 00000KT 3000 BR SCT020 24/24 Q1008 NOSIG=
202511191800 METAR WIHH 191800Z 24004KT 7000 FEW020 26/23 Q1008 NOSIG=
202511191730 METAR WIHH 191730Z 21004KT 7000 26/23 Q1008 NOSIG=
202511191700 METAR WIHH 191700Z 24004KT 7000 FEW020 27/23 Q1009 NOSIG=
202511191630 METAR WIHH 191630Z 24004KT 7000 FEW020 26/23 Q1009 NOSIG=
202511191600 METAR WIHH 191600Z 24003KT 7000 FEW020 26/23 Q1009 NOSIG=
202511191530 METAR WIHH 191530Z 27004KT 7000 FEW020 26/23 Q1009 NOSIG=
202511191500 METAR WIHH 191500Z 27003KT 7000 FEW020 26/23 Q1009 NOSIG=
202511191430 METAR WIHH 191430Z 27004KT 7000 26/23 Q1009 NOSIG=
202511191400 METAR WIHH 191400Z 26004KT 7000 SCT020 26/23 Q1009 NOSIG=
202511191330 METAR WIHH 191330Z 24004KT 7000 SCT020 27/24 Q1009 NOSIG=
202511191300 METAR WIHH 191300Z 27004KT 7000 SCT020 27/24 Q1009 NOSIG=
202511191230 METAR WIHH 191230Z 24007KT 7000 SCT020 26/24 Q1009 NOSIG=
202511191200 METAR WIHH 191200Z 27004KT 7000 SCT017 27/24 Q1008 NOSIG=
202511191130 METAR WIHH 191130Z 24006KT 6000 SCT017 27/24 Q1008 NOSIG=
202511191100 METAR WIHH 191100Z 26006KT 6000 SCT017 27/25 Q1008 NOSIG=
202511191030 METAR WIHH 191030Z 26007KT 6000 SCT017 27/25 Q1007 NOSIG RMK RA TO E=
202511191000 METAR WIHH 191000Z 26005KT 6000 SCT017 27/25 Q1007 NOSIG=
202511190930 METAR WIHH 190930Z 29004KT 6000 SCT017 27/24 Q1006 NOSIG=
202511190900 METAR WIHH 190900Z 00000KT 6000 BKN016 27/24 Q1006 NOSIG=
202511190830 METAR WIHH 190830Z 27005KT 6000 BKN015 26/24 Q1006 NOSIG=
202511190800 METAR WIHH 190800Z 25005KT 6000 -RA BKN015 25/24 Q1006 NOSIG=
202511190730 METAR WIHH 190730Z 24011KT 2000 -TSRA BKN015 FEW017CB 27/24 Q1006 TEMPO TL0800 1000 BKN014 RMK CB TO W=
202511190700 METAR WIHH 190700Z 31005KT 6000 BKN015 FEW017CB 31/22 Q1006 TEMPO FM0720 2000 -TSRA BKN015 RMK CB AND RA TO W UNTIL SW=
202511190630 METAR WIHH 190630Z 27004KT 6000 SCT015 FEW017CB 33/22 Q1006 NOSIG RMK CB AND RA TO W=
202511190600 METAR WIHH 190600Z 33005KT 6000 SCT015 33/22 Q1007 NOSIG RMK RA TO S AND W=
202511190530 METAR WIHH 190530Z 30005KT 6000 SCT015 FEW017CB 32/22 Q1007 RMK CB AND RA TO S=
202511190500 METAR WIHH 190500Z 27005KT 6000 SCT015 FEW017CB 31/23 Q1008 RMK CB AND RA TO S=
202511190430 METAR WIHH 190430Z 34006KT 6000 SCT015 FEW017CB 32/23 Q1008 RMK CB AND RA TO SE AND SW=
202511190400 METAR WIHH 190400Z 33006KT 6000 SCT015 FEW017CB 32/23 Q1009 RMK CB AND RA TO W=
202511190330 METAR WIHH 190330Z 24003KT 6000 SCT018 31/23 Q1009 RMK RA TO W=
202511190300 METAR WIHH 190300Z 12005KT 6000 SCT018 31/23 Q1009=
202511190230 METAR WIHH 190230Z 18004KT 6000 FEW017 30/25 Q1010=
202511190200 METAR WIHH 190200Z 09004KT 6000 FEW017 29/24 Q1010 NOSIG=
202511190130 METAR WIHH 190130Z 15004KT 5000 HZ FEW017 29/24 Q1010 NOSIG=
202511190100 METAR WIHH 190100Z 09004KT 5000 HZ FEW017 27/24 Q1009 NOSIG=
202511190030 METAR WIHH 190030Z 10003KT 5000 HZ FEW020 26/24 Q1010 NOSIG=
202511190000 METAR WIHH 190000Z 15004KT 5000 HZ FEW020 25/24 Q1009 NOSIG=
202511182330 METAR WIHH 182330Z 14003KT 4000 BR FEW020 24/24 Q1009 NOSIG=
202511182300 METAR WIHH 182300Z 13003KT 3000 BR FEW020 23/23 Q1009 NOSIG=
202511182230 METAR WIHH 182230Z 11003KT 3000 BR FEW020 23/23 Q1008 NOSIG=
202511182200 METAR WIHH 182200Z 09003KT 4000 BR FEW020 23/23 Q1008 NOSIG=
202511182130 METAR WIHH 182130Z 21003KT 4000 BR FEW020 23/23 Q1008 NOSIG=
202511182100 METAR WIHH 182100Z 18003KT 4000 BR SCT018 23/23 Q1008 NOSIG=
202511182030 METAR WIHH 182030Z 18002KT 4000 BR SCT020 23/23 Q1008 NOSIG=
202511182000 METAR WIHH NIL=
202511181930 METAR WIHH 181930Z 00000KT 3000 BR SCT020 24/24 Q1008 NOSIG=
202511181900 METAR WIHH 181900Z 00000KT 3000 BR SCT020 24/24 Q1008 NOSIG=
202511181830 METAR WIHH NIL=
202511181800 METAR WIHH 181800Z 00000KT 4000 BR SCT020 24/24 Q1008 NOSIG=
202511181730 METAR WIHH 181730Z 00000KT 6000 SCT020 24/24 Q1009 NOSIG=
202511181700 METAR WIHH 181700Z 00000KT 6000 SCT020 24/24 Q1009 NOSIG=
202511181630 METAR WIHH 181630Z 00000KT 7000 SCT020 24/24 Q1009 NOSIG=
202511181600 METAR WIHH 181600Z 00000KT 7000 SCT020 24/24 Q1009 NOSIG=
202511181530 METAR WIHH 181530Z 09003KT 7000 SCT020 24/24 Q1009 NOSIG=
202511181500 METAR WIHH 181500Z 13003KT 7000 SCT020 24/24 Q1009 NOSIG=
202511181430 METAR WIHH 181430Z 10003KT 8000 SCT020 24/24 Q1009 NOSIG=
202511181400 METAR WIHH 181400Z 07003KT 8000 SCT020 24/24 Q1009=
202511181330 METAR WIHH 181330Z 12003KT 9999 SCT020 24/23 Q1009 NOSIG=
202511181300 METAR WIHH 181300Z 32003KT 9999 SCT020 24/23 Q1008 NOSIG=
202511181230 METAR WIHH 181230Z 31003KT 9999 SCT020 24/23 Q1008 NOSIG=
202511181200 METAR WIHH 181200Z 24003KT 9999 SCT020 24/23 Q1008 RMK RA TO SE=
202511181130 METAR WIHH 181130Z 26003KT 9999 SCT020 24/23 Q1008 RMK RA TO SE=
202511181100 METAR WIHH 181100Z 26003KT 8000 SCT017 24/23 Q1007 RMK RA TO SE=
202511181030 METAR WIHH 181030Z 21005KT 7000 SCT017 24/24 Q1007 RMK RA TO SE=
202511181000 METAR WIHH 181000Z 23004KT 6000 -RA BKN017 24/24 Q1007 NOSIG=
202511180930 METAR WIHH 180930Z 23005KT 5000 -RA BKN016 23/23 Q1007 NOSIG=
202511180900 METAR WIHH 180900Z 27003KT 5000 -RA BKN016 23/23 Q1007 NOSIG=
202511180830 METAR WIHH 180830Z 22005KT 5000 -RA BKN016 23/23 Q1008=
202511180800 METAR WIHH 180800Z 26003KT 5000 -RA BKN016 23/23 Q1008 NOSIG=
202511180730 METAR WIHH 180730Z 24004KT 4000 -TSRA BKN015 FEW016CB 23/23 Q1008 TEMPO TL0800 4000 -TSRA RMK CB TO SE=
202511180700 METAR WIHH 180700Z 21003KT 3000 -TSRA BKN015 FEW016CB 23/23 Q1009 TEM PO TL0730 4000 -TSRA RMK CB TO E-S=
202511180630 METAR WIHH 180630Z 25008KT 1000 BKN014 FEW016CB 23/23 Q1009 TEMPO TL0700 3000 -TSRA RMK CB OVER THE FIELD=
202511180600 METAR WIHH 180600Z 24013KT 0800 TSRA SCT014 FEW016CB 23/23 Q1009 TEMPO TL0700 3000 -TSRA RMK CB OVER THE FIELD=
202511180530 METAR WIHH 180530Z 24012KT 0800 TSRA BKN014 FEW016CB 24/24 Q1009 TEMPO TL0600 2000 -TSRA RMK CB OVER THE FIELD=
202511180500 METAR WIHH 180500Z 25006KT 4000 -TSRA BKN015 FEW016CB 25/25 Q1009 TEM PO TL0530 2000 -TSRA RMK CB TO E-SE=
202511180430 METAR WIHH 180430Z 25007KT 2000 -TSRA BKN014 FEW016CB 26/25 Q1009 TEM PO TL0500 2000 -TSRA RMK CB TO E-SE=
202511180400 METAR WIHH 180400Z 19006KT 3000 -TSRA BKN016 FEW017CB 27/25 Q1009 TEMPO TL0415 2000 -TSRA RMK CB TO N-NE=
202511180330 METAR WIHH 180330Z 21004KT 2000 -TSRA BKN015 FEW016CB 28/25 Q1009 TEMPO TL0400 3000 -TSRA RMK CB TO NW-NE=
202511180300 METAR WIHH 180300Z 14003KT 4000 HZ FEW017CB SCT018 30/24 Q1009 TEMPO FM0310 3000 -TSRA RMK CB AND RA TO NW-SW=
202511180230 METAR WIHH 180230Z 15004KT 4000 HZ FEW017CB SCT018 30/24 Q1009 TEMPO FM0330 3000 -TSRA RMK CB AND RA TO W=
202511180200 METAR WIHH 180200Z 13004KT 4000 HZ SCT018 30/24 Q1010 RMK RA TO W=
202511180130 METAR WIHH 180130Z 12004KT 4000 HZ SCT018 29/24 Q1010 RMK RA TO NW=
202511180100 METAR WIHH 180100Z 15004KT 4000 HZ SCT018 28/24 Q1010 RMK RA TO NW=
202511180030 METAR WIHH 180030Z 14005KT 4000 HZ SCT018 28/24 Q1009 RMK RA TO NW=
202511180000 METAR WIHH 180000Z 10005KT 5000 HZ SCT018 27/24 Q1009 TEMPO FM0100 30 00 -RA SCT018=
202511172330 METAR WIHH 172330Z 10005KT 7000 SCT020 27/24 Q1009 NOSIG=
202511172300 METAR WIHH 172300Z 00000KT 7000 SCT020 26/24 Q1008 NOSIG=
202511172230 METAR WIHH 172230Z 00000KT 7000 SCT020 26/23 Q1008 NOSIG=
202511172200 METAR WIHH 172200Z 00000KT 8000 SCT020 26/23 Q1008 NOSIG=
202511172130 METAR WIHH 172130Z 00000KT 8000 SCT020 26/23 Q1008 NOSIG=
202511172100 METAR WIHH 172100Z 00000KT 8000 SCT020 26/22 Q1007 NOSIG=
202511172030 METAR WIHH 172030Z 00000KT 8000 SCT020 26/23 Q1007 NOSIG=
202511172000 METAR WIHH 172000Z 00000KT 8000 SCT020 26/22 Q1007 NOSIG=
202511171930 METAR WIHH 171930Z 00000KT 8000 SCT020 26/22 Q1007 NOSIG=
202511171900 METAR WIHH 171900Z 00000KT 8000 SCT020 27/22 Q1008 NOSIG=
202511171830 METAR WIHH 171830Z 26002KT 8000 SCT020 27/22 Q1008 NOSIG=
202511171800 METAR WIHH 171800Z 25003KT 8000 SCT018 27/22 Q1008 NOSIG=
202511171730 METAR WIHH 171730Z 25006KT 8000 SCT018 28/22 Q1008 NOSIG=
202511171700 METAR WIHH 171700Z 24002KT 8000 SCT018 28/22 Q1009 NOSIG=
202511171630 METAR WIHH 171630Z 25005KT 8000 SCT018 28/22 Q1009 NOSIG=
202511171600 METAR WIHH 171600Z 23006KT 8000 SCT018 28/22 Q1010 NOSIG=
202511171530 METAR WIHH 171530Z 24006KT 8000 FEW020 28/22 Q1010 NOSIG=
202511171500 METAR WIHH 171500Z 25008KT 8000 FEW020 29/21 Q1010 NOSIG=
202511171430 METAR WIHH 171430Z 26007KT 8000 FEW020 29/21 Q1010 NOSIG=
202511171400 METAR WIHH 171400Z 26007KT 8000 FEW020 29/21 Q1010 NOSIG=
202511171330 METAR WIHH 171330Z 25008KT 8000 FEW020 29/21 Q1010 NOSIG=
202511171300 METAR WIHH 171300Z 26008KT 8000 FEW020 29/21 Q1010 NOSIG=
202511171230 METAR WIHH 171230Z 24008KT 8000 FEW020 29/21 Q1009 NOSIG=
202511171200 METAR WIHH 171200Z 25007KT 8000 SCT020 29/21 Q1009 NOSIG=
202511171130 METAR WIHH 171130Z 21010KT 7000 SCT017 29/21 Q1009=
202511171100 METAR WIHH 171100Z 18008KT 7000 SCT017 29/22 Q1009 RMK RA TO SE=
202511171030 METAR WIHH 171030Z 24010KT 7000 SCT017 30/21 Q1008 RMK RA TO SE=
202511171000 METAR WIHH 171000Z 21015KT 7000 SCT017 30/22 Q1007 RMK RA TO SE=
202511170930 METAR WIHH 170930Z 22018KT 7000 31/23 Q1007 RMK RA TO SE=
202511170900 METAR WIHH 170900Z 21018KT 7000 31/22 Q1007 RMK RA TO SE=
202511170830 METAR WIHH 170830Z 21019KT 7000 32/22 Q1006 RMK RA TO SE=
202511170800 METAR WIHH 170800Z 24017KT 7000 FEW015CB SCT016 33/21 Q1006 RMK CB AN D RA TO SE=
202511170730 METAR WIHH 170730Z 25018KT 7000 FEW017CB 34/21 Q1006 RMK CB AND RA TO SE=
202511170700 METAR WIHH 170700Z 25025KT 7000 SCT016 37/21 Q1006 CB AND RA TO SE=
202511170630 METAR WIHH 170630Z 30010KT 7000 SCT018 34/23 Q1007 NOSIG=
202511170600 METAR WIHH 170600Z 24010KT 7000 SCT018 34/23 Q1007 NOSIG=
202511170530 METAR WIHH 170530Z 25010KT 8000 SCT018 34/21 Q1008 NOSIG=
202511170500 METAR WIHH 170500Z 23010KT 8000 SCT018 33/22 Q1008 NOSIG=
202511170430 METAR WIHH 170430Z 24012KT 8000 SCT018 33/22 Q1010 NOSIG=
202511170400 METAR WIHH 170400Z 24012KT 8000 33/22 Q1010 NOSIG=
202511170330 METAR WIHH 170330Z 24012KT 8000 SCT018 32/23 Q1010=
202511170300 METAR WIHH 170300Z 23014KT 8000 SCT018 31/23 Q1010 NOSIG=
202511170230 METAR WIHH 170230Z 24014KT 8000 SCT018 31/23 Q1011 NOSIG=
202511170200 METAR WIHH 170200Z 24013KT 8000 SCT018 30/23 Q1011 NOSIG=
202511170130 METAR WIHH 170130Z 26012KT 8000 SCT018 29/24 Q1011 NOSIG=
202511170100 METAR WIHH 170100Z 26011KT 8000 SCT018 28/23 Q1011 NOSIG=
202511170030 METAR WIHH 170030Z 25012KT 8000 SCT018 28/24 Q1010 NOSIG=
202511170000 METAR WIHH 170000Z 25015KT 8000 SCT018 28/24 Q1010 NOSIG=
202511162330 METAR WIHH 162330Z 25010KT 8000 FEW020 27/23 Q1010 NOSIG=
202511162300 METAR WIHH 162300Z 25006KT 8000 FEW020 26/24 Q1010 NOSIG=
202511162230 METAR WIHH 162230Z 23006KT 8000 FEW020 26/24 Q1010 NOSIG=
202511162200 METAR WIHH 162200Z 27005KT 8000 NSC 25/24 Q1009 NOSIG=
202511162130 METAR WIHH 162130Z 25005KT 8000 NSC 26/24 Q1009 NOSIG=
202511162100 METAR WIHH 162100Z 27005KT 8000 NSC 26/24 Q1009 NOSIG=
202511162030 METAR WIHH 162030Z 25005KT 8000 NSC 26/24 Q1009 NOSIG=
202511162000 METAR WIHH 162000Z 26008KT 8000 NSC 26/24 Q1009 NOSIG=
202511161930 METAR WIHH 161930Z 24006KT 8000 NSC 26/24 Q1009 NOSIG=
202511161900 METAR WIHH 161900Z 26007KT 8000 SCT020 26/24 Q1009 NOSIG=
202511161830 METAR WIHH 161830Z 26010KT 8000 SCT020 26/24 Q1009 NOSIG=
202511161800 METAR WIHH 161800Z 00000KT 8000 NSC 27/24 Q1010 NOSIG=
202511161730 METAR WIHH 161730Z 24007KT 8000 NSC 27/24 Q1010 NOSIG=
202511161700 METAR WIHH 161700Z 24008KT 8000 NSC 27/24 Q1010 NOSIG=
202511161630 METAR WIHH 161630Z 00000KT 8000 NSC 27/23 Q1010 NOSIG=
202511161600 METAR WIHH 161600Z 00000KT 8000 NSC 27/23 Q1011 NOSIG=
202511161530 METAR WIHH 161530Z 24006KT 7000 SCT018 27/23 Q1011 NOSIG=
202511161500 METAR WIHH 161500Z 25007KT 7000 SCT018 28/23 Q1011 NOSIG=
202511161430 METAR WIHH 161430Z 27006KT 7000 SCT018 28/23 Q1011 NOSIG=
202511161400 METAR WIHH 161400Z 26006KT 7000 SCT018 28/23 Q1011 NOSIG=
202511161330 METAR WIHH 161330Z 27006KT 7000 SCT018 28/23 Q1011 NOSIG=
202511161300 METAR WIHH 161300Z 24008KT 7000 SCT018 28/23 Q1010 NOSIG=
202511161230 METAR WIHH 161230Z 28008KT 7000 SCT018 28/23 Q1010 NOSIG=
202511161200 METAR WIHH 161200Z 28012KT 7000 SCT018 29/22 Q1010 NOSIG=
202511161130 METAR WIHH 161130Z 26008KT 7000 SCT018 29/22 Q1009 NOSIG=
202511161100 METAR WIHH 161100Z 25005KT 7000 SCT018 30/22 Q1009 NOSIG=
202511161030 METAR WIHH 161030Z 25010KT 7000 SCT018 31/22 Q1008 NOSIG=
202511161000 METAR WIHH 161000Z 25010KT 7000 SCT018 31/22 Q1008 NOSIG=
202511160930 METAR WIHH 160930Z 26007KT 7000 SCT018 32/21 Q1007 NOSIG=
202511160900 METAR WIHH 160900Z 26008KT 7000 SCT018 33/21 Q1007 NOSIG=
202511160830 METAR WIHH 160830Z 25010KT 7000 SCT017 33/21 Q1007 NOSIG=
202511160800 METAR WIHH 160800Z 25011KT 7000 SCT018 33/21 Q1007 RMK RA TO SE=
202511160730 METAR WIHH 160730Z 23013KT 7000 SCT018 33/21 Q1007 RMK RA TO E=
202511160700 METAR WIHH 160700Z 26012KT 7000 SCT018 33/21 Q1007 RMK RA TO W=
202511160630 METAR WIHH 160630Z 26014KT 7000 SCT018 33/21 Q1008 RMK RA TO E=
202511160600 METAR WIHH 160600Z 27016KT 7000 SCT018 33/21 Q1008 RMK RA TO E=
202511160530 METAR WIHH 160530Z 27008KT 7000 SCT018 33/22 Q1009 NOSIG=
202511160500 METAR WIHH 160500Z 27007KT 7000 SCT018 32/23 Q1009 NOSIG=
202511160430 METAR WIHH 160430Z 23010KT 7000 SCT018 32/24 Q1009 NOSIG=
202511160400 METAR WIHH 160400Z 22008KT 7000 SCT018 31/24 Q1010 NOSIG=
202511160330 METAR WIHH 160330Z 23007KT 7000 SCT018 30/23 Q1010 NOSIG=
202511160300 METAR WIHH 160300Z 24008KT 7000 SCT018 30/24 Q1010 NOSIG=
202511160230 METAR WIHH 160230Z 24010KT 8000 SCT018 29/24 Q1011 NOSIG=
202511160200 METAR WIHH 160200Z 26005KT 8000 SCT018 28/24 Q1011 NOSIG=
202511160130 METAR WIHH 160130Z 27008KT 8000 SCT018 28/24 Q1010 NOSIG=
202511160100 METAR WIHH 160100Z 26008KT 8000 SCT018 27/24 Q1011 NOSIG=
202511160030 METAR WIHH 160030Z 24007KT 9999 SCT018 27/23 Q1010 NOSIG=
202511160000 METAR WIHH 160000Z 21007KT 9999 SCT018 27/24 Q1010 NOSIG=
202511152330 METAR WIHH 152330Z 24005KT 9999 SCT020 27/23 Q1009 NOSIG=
202511152300 METAR WIHH 152300Z 25006KT 9999 SCT020 26/23 Q1009 NOSIG=
202511152230 METAR WIHH 152230Z 28005KT 7000 SCT020 26/23 Q1009 NOSIG=
202511152200 METAR WIHH 152200Z 24006KT 7000 SCT020 26/24 Q1009 NOSIG=
202511152130 METAR WIHH 152130Z 24008KT 8000 SCT020 26/24 Q1009 NOSIG=
202511152100 METAR WIHH 152100Z 24008KT 8000 SCT020 26/24 Q1008 NOSIG=
202511152030 METAR WIHH 152030Z 24010KT 8000 SCT020 26/24 Q1008 NOSIG=
202511152000 METAR WIHH 152000Z 25008KT 8000 26/24 Q1009 NOSIG=
202511151930 METAR WIHH 151930Z 24005KT 8000 SCT020 26/24 Q1009 NOSIG=
202511151900 METAR WIHH 151900Z 25008KT 8000 SCT020 26/24 Q1009 NOSIG=
202511151830 METAR WIHH 151830Z 25008KT 8000 SCT020 26/24 Q1009 NOSIG=
202511151800 METAR WIHH 151800Z 26010KT 8000 SCT020 27/24 Q1010 NOSIG=
202511151730 METAR WIHH 151730Z 25010KT 8000 SCT020 27/24 Q1010 NOSIG=
202511151700 METAR WIHH 151700Z 00000KT 7000 SCT018 27/24 Q1010 NOSIG=
202511151630 METAR WIHH 151630Z 25007KT 8000 SCT018 27/24 Q1010 NOSIG=
202511151600 METAR WIHH 151600Z 24007KT 7000 SCT018 27/24 Q1011 NOSIG=
202511151530 METAR WIHH 151530Z 27005KT 7000 SCT018 27/24 Q1011 NOSIG=
202511151500 METAR WIHH 151500Z 25006KT 7000 SCT018 26/24 Q1011 NOSIG=
202511151430 METAR WIHH 151430Z 24005KT 7000 SCT018 26/24 Q1011 NOSIG=
202511151400 METAR WIHH 151400Z 23003KT 7000 SCT018 26/24 Q1011 NOSIG=
202511151330 METAR WIHH 151330Z 24005KT 7000 SCT018 27/24 Q1010 NOSIG=
202511151300 METAR WIHH 151300Z 28003KT 7000 SCT018 26/24 Q1010 NOSIG=
202511151230 METAR WIHH 151230Z 26003KT 6000 SCT017 25/24 Q1010 RMK RA TO N=
202511151200 METAR WIHH 151200Z 30003KT 6000 SCT017 25/24 Q1009 RMK RA TO N=
202511151130 METAR WIHH 151130Z 32005KT 6000 -RA SCT016 FEW017CB 25/23 Q1009 RMK CB TO E=
202511151100 METAR WIHH 151100Z 34005KT 5000 -TSRA BKN015 FEW016CB 24/23 Q1009 TEMPO TL1130 3000 -TSRA RMK CB TO S-W=
202511151030 METAR WIHH 151030Z 26015KT 4000 -TSRA BKN015 FEW016CB 27/22 Q1008 TEMPO TL1045 3000 -TSRA RMK CB TO SW=
202511151000 METAR WIHH 151000Z 32006KT 6000 FEW017CB SCT018 30/24 Q1007 RMK CB AND RA TO SW-W=
202511150930 METAR WIHH 150930Z 01007KT 7000 SCT018 31/24 Q1006 RMK RA TO SW=
202511150900 METAR WIHH 150900Z 27005KT 7000 SCT018 32/22 Q1007 NOSIG=
202511150830 METAR WIHH 150830Z 34005KT 7000 SCT018 33/22 Q1007 NOSIG=
202511150800 METAR WIHH 150800Z 30006KT 7000 SCT018 33/22 Q1007 NOSIG=
202511150730 METAR WIHH 150730Z 27010KT 7000 SCT017 34/22 Q1007 NOSIG=
202511150700 METAR WIHH 150700Z 30008KT 7000 SCT017 33/23 Q1007 NOSIG=
202511150630 METAR WIHH 150630Z 27006KT 7000 SCT017 32/23 Q1008 NOSIG=
202511150600 METAR WIHH 150600Z 27005KT 7000 SCT017 32/23 Q1008 NOSIG=
202511150530 METAR WIHH 150530Z 33005KT 7000 SCT017 33/24 Q1008 NOSIG=
202511150500 METAR WIHH 150500Z 24005KT 7000 SCT017 33/24 Q1009 NOSIG=
202511150430 METAR WIHH 150430Z 27005KT 7000 SCT017 32/24 Q1009 NOSIG=
202511150400 METAR WIHH 150400Z 27005KT 7000 SCT017 32/24 Q1009 NOSIG=
202511150330 METAR WIHH 150330Z 30005KT 7000 SCT017 31/23 Q1010 NOSIG=
202511150300 METAR WIHH 150300Z 24008KT 7000 SCT017 31/23 Q1010 NOSIG=
202511150230 METAR WIHH 150230Z 27006KT 7000 FEW017 30/24 Q1010 NOSIG=
202511150200 METAR WIHH 150200Z 21009KT 7000 FEW017 30/24 Q1010 NOSIG=
202511150130 METAR WIHH 150130Z 21005KT 6000 FEW017 28/24 Q1010 NOSIG=
202511150100 METAR WIHH 150100Z 18005KT 6000 FEW017 28/24 Q1009 NOSIG=
202511150030 METAR WIHH 150030Z 20005KT 5000 HZ SCT018 26/25 Q1009 NOSIG=
202511150000 METAR WIHH 150000Z 20005KT 5000 HZ SCT018 26/25 Q1009 NOSIG=
202511142330 METAR WIHH 142330Z 24005KT 5000 HZ SCT018 24/23 Q1009 NOSIG=
202511142300 METAR WIHH 142300Z 20005KT 5000 HZ SCT018 24/22 Q1009 RMK RA TO NE=
202511142230 METAR WIHH 142230Z 25005KT 5000 HZ SCT017 24/22 Q1009 RMK RA TO NE-E=
202511142200 METAR WIHH 142200Z 29005KT 5000 -RA SCT018 25/24 Q1009 TEMPO TL2230 4 000 -RA=
202511142130 METAR WIHH 142130Z 33010KT 4000 -RA BKN018 25/24 Q1010 NOSIG=
202511142100 METAR WIHH 142100Z 24005KT 8000 SCT020 25/23 Q1010 RMK RA TO NW=
202511142030 METAR WIHH 142030Z 24005KT 8000 FEW020 25/23 Q1010 RMK RA TO NW=
202511142000 METAR WIHH 142000Z 24005KT 8000 SCT020 25/23 Q1010 NOSIG=
202511141930 METAR WIHH 141930Z 26006KT 8000 SCT020 26/23 Q1010 NOSIG=
202511141900 METAR WIHH 141900Z 25003KT 8000 SCT020 26/23 Q1010 NOSIG=
202511141830 METAR WIHH 141830Z 24004KT 8000 SCT020 26/23 Q1009 NOSIG=
202511141800 METAR WIHH 141800Z 25005KT 9999 SCT018 26/22 Q1010 NOSIG=
202511141730 METAR WIHH 141730Z 25005KT 9999 SCT018 26/22 Q1010 NOSIG=
202511141700 METAR WIHH 141700Z 23005KT 9999 SCT018 26/22 Q1010 NOSIG=
202511141630 METAR WIHH 141630Z 23005KT 9999 SCT018 26/22 Q1010 NOSIG=
202511141600 METAR WIHH 141600Z 24004KT 9999 SCT018 26/22 Q1010 NOSIG=
202511141530 METAR WIHH 141530Z 25005KT 9999 SCT018 26/22 Q1010 NOSIG=
202511141500 METAR WIHH 141500Z 27005KT 9999 SCT018 26/22 Q1010 NOSIG=
202511141430 METAR WIHH 141430Z 27003KT 9999 SCT018 26/22 Q1010 NOSIG=
202511141400 METAR WIHH 141400Z 25005KT 9999 SCT018 26/22 Q1010 NOSIG=
202511141330 METAR WIHH 141330Z 25010KT 9999 SCT018 27/22 Q1009 NOSIG=
202511141300 METAR WIHH 141300Z 21010KT 9999 SCT018 27/22 Q1009 NOSIG=
202511141230 METAR WIHH 141230Z 24010KT 9999 SCT018 27/23 Q1009 NOSIG=
202511141200 METAR WIHH 141200Z 28010KT 9999 SCT018 27/23 Q1008 NOSIG=
202511141130 METAR WIHH 141130Z 25010KT 7000 SCT018 27/23 Q1008 NOSIG=
202511141100 METAR WIHH 141100Z 23015KT 7000 SCT018 27/23 Q1008 NOSIG=
202511141030 METAR WIHH 141030Z 27010KT 7000 SCT018 27/23 Q1007 RMK RA TO NW=
202511141000 METAR WIHH 141000Z 25010KT 7000 SCT018 27/23 Q1007 RMK RA TO NW=
202511140930 METAR WIHH 140930Z 24010KT 7000 SCT018 27/23 Q1007 RMK RA TO NW=
202511140900 METAR WIHH 140900Z 28010KT 7000 SCT018 27/23 Q1007 RMK RA TO NW=
202511140830 METAR WIHH 140830Z 24012KT 7000 SCT018 28/23 Q1007 RMK RA TO NW=
202511140800 METAR WIHH 140800Z 26012KT 7000 SCT018 28/23 Q1007 RMK RA TO N=
202511140730 METAR WIHH 140730Z 24010KT 7000 SCT018 28/23 Q1007 RMK RA TO NE=
202511140700 METAR WIHH 140700Z 25015KT 7000 SCT016 FEW018CB 28/23 Q1008 TEMPO FM0 730 4000 -TSRA RMK CB AND RA TO N=
202511140630 METAR WIHH 140630Z 27015KT 7000 SCT016 FEW018CB 28/23 Q1008 TEMPO FM0700 4000 -TSRA BKN018 RMK CB AND RA TO N=
202511140600 METAR WIHH 140600Z 23020KT 7000 SCT016 FEW018CB 30/23 Q1008 TEMPO FM0 630 4000 -RA BKN018 RMK CB AND RA TO N=
202511140530 METAR WIHH 140530Z 26015KT 7000 SCT018 31/23 Q1009 TEMPO FM0600 4000 -RA BKN018 RMK RA TO NW=
202511140500 METAR WIHH 140500Z 24015KT 7000 SCT018 31/23 Q1009 NOSIG=
202511140430 METAR WIHH 140430Z 27010KT 7000 SCT018 30/23 Q1009 NOSIG=
202511140400 METAR WIHH 140400Z 26008KT 7000 SCT018 30/23 Q1009 NOSIG=
202511140330 METAR WIHH 140330Z 24006KT 7000 SCT018 30/23 Q1010 NOSIG=
202511140300 METAR WIHH 140300Z 25007KT 7000 SCT018 30/23 Q1010 TEMPO FM0330 5000 -RA RMK RA TO W=
202511140230 METAR WIHH 140230Z 27008KT 8000 SCT018 30/23 Q1010 NOSIG=
202511140200 METAR WIHH 140200Z 24010KT 8000 SCT018 29/23 Q1010 NOSIG=
202511140130 METAR WIHH 140130Z 29008KT 8000 SCT018 28/23 Q1010 NOSIG=
202511140100 METAR WIHH 140100Z 24012KT 7000 SCT017 27/23 Q1010 NOSIG=
202511140030 METAR WIHH 140030Z 24010KT 7000 SCT017 27/23 Q1010 NOSIG=
202511140000 METAR WIHH 140000Z 26008KT 7000 SCT017 26/23 Q1010 NOSIG=
202511132330 METAR WIHH 132330Z 25007KT 7000 SCT017 26/23 Q1010 NOSIG=
202511132300 METAR WIHH 132300Z 26008KT 7000 SCT016 25/23 Q1009 NOSIG=
202511132230 METAR WIHH 132230Z 23006KT 7000 SCT016 26/23 Q1009 NOSIG=
202511132200 METAR WIHH 132200Z 26004KT 8000 SCT020 26/23 Q1008 NOSIG=
202511132130 METAR WIHH 132130Z 25005KT 8000 SCT020 26/23 Q1008=
202511132100 METAR WIHH 132100Z 25005KT 8000 SCT020 26/23 Q1008 NOSIG=
202511132030 METAR WIHH 132030Z 23005KT 8000 SCT020 26/23 Q1008 NOSIG=
202511132000 METAR WIHH 132000Z 24006KT 8000 SCT020 26/23 Q1008 NOSIG=
202511131930 METAR WIHH 131930Z 25005KT 8000 SCT020 26/23 Q1008 NOSIG=
202511131900 METAR WIHH NIL=
202511131830 METAR WIHH 131830Z 26010KT 8000 SCT020 26/24 Q1010=
202511131800 METAR WIHH 131800Z 29003KT 8000 SCT020 26/23 Q1009=
202511131730 METAR WIHH 131730Z 28004KT 8000 SCT020 26/23 Q1010=
202511131700 METAR WIHH 131700Z 26006KT 8000 SCT020 26/23 Q1010=
202511131630 METAR WIHH 131630Z 25006KT 8000 SCT020 26/23 Q1011=
202511131600 METAR WIHH 131600Z 26004KT 8000 SCT020 27/23 Q1011 NOSIG=
202511131530 METAR WIHH 131530Z 26008KT 8000 SCT020 27/23 Q1011 RMK RA TO NW=
202511131500 METAR WIHH 131500Z 24004KT 8000 SCT020 27/22 Q1011 RMK RA TO NW=
202511131430 METAR WIHH 131430Z 26008KT 8000 SCT020 27/22 Q1011=
202511131400 METAR WIHH 131400Z 24010KT 8000 SCT020 27/22 Q1010 NOSIG=
202511131330 METAR WIHH 131330Z 25010KT 8000 SCT020 27/22 Q1010=
202511131300 METAR WIHH 131300Z 28007KT 8000 SCT020 27/22 Q1010=
202511131230 METAR WIHH 131230Z 27012KT 8000 SCT020 27/22 Q1010=
202511131200 METAR WIHH 131200Z 25013KT 8000 SCT020 27/22 Q1009 NOSIG=
202511131130 METAR WIHH 131130Z 24015KT 8000 SCT020 27/23 Q1009=
202511131100 METAR WIHH 131100Z 25010KT 7000 SCT018 27/23 Q1009=
202511131030 METAR WIHH 131030Z 24008KT 7000 SCT018 28/23 Q1009 NOSIG=
202511131000 METAR WIHH 131000Z 25010KT 7000 SCT018 28/23 Q1009 NOSIG=
202511130930 METAR WIHH 130930Z 24013KT 7000 SCT018 28/23 Q1008 RMK RA TO SE=
202511130900 METAR WIHH 130900Z 26015KT 7000 SCT018 29/24 Q1008 RMK RA TO NW,N=
202511130830 METAR WIHH 130830Z 27008KT 7000 SCT018 29/24 Q1008 RMK RA TO NE,SE=
202511130800 METAR WIHH 130800Z 25010KT 7000 SCT017 29/24 Q1008 NOSIG=
202511130730 METAR WIHH 130730Z 28015KT 6000 -RA SCT016 FEW017CB 31/23 Q1009 RMK CB TO N,NE=
202511130700 METAR WIHH 130700Z 28015KT 6000 -RA SCT016 FEW017CB 31/23 Q1009 RMK C B TO N,NE=
202511130630 METAR WIHH 130630Z 27010KT 7000 FEW017 SCT018CB 33/23 Q1008 RMK CB AN D RA TO NW,NE=
202511130600 METAR WIHH 130600Z 29010KT 7000 SCT017 32/22 Q1009 RMK RA TO W,N=
202511130530 METAR WIHH 130530Z 24010KT 7000 SCT017 33/23 Q1009 RMK RA TO W=
202511130500 METAR WIHH 130500Z 27010KT 7000 SCT017 32/22 Q1010 RMK RA TO W=
202511130430 METAR WIHH 130430Z 27008KT 7000 SCT017 32/22 Q1010 RMK RA TO SW AND W=
202511130400 METAR WIHH 130400Z 24010KT 8000 SCT018 31/23 Q1011 NOSIG=
202511130330 METAR WIHH 130330Z 26010KT 8000 SCT018 31/22 Q1011 NOSIG=
202511130300 METAR WIHH 130300Z 24012KT 8000 SCT018 30/22 Q1011 NOSIG=
202511130230 METAR WIHH 130230Z 24009KT 8000 SCT020 29/23 Q1011 NOSIG=
202511130200 METAR WIHH 130200Z 25007KT 8000 SCT020 29/23 Q1011 NOSIG=
202511130130 METAR WIHH 130130Z 26007KT 8000 SCT020 28/23 Q1011 NOSIG=
202511130100 METAR WIHH 130100Z 29005KT 8000 SCT020 28/23 Q1011 NOSIG=
202511130030 METAR WIHH 130030Z 30007KT 8000 SCT020 28/23 Q1011 NOSIG=
202511130000 METAR WIHH 130000Z 25008KT 8000 SCT020 27/23 Q1011 NOSIG=
202511122330 METAR WIHH 122330Z 25007KT 8000 SCT020 26/23 Q1010 NOSIG=
202511122300 METAR WIHH 122300Z 23005KT 8000 SCT020 26/23 Q1010 NOSIG=
202511122230 METAR WIHH NIL=
202511122200 METAR WIHH 122200Z 23008KT 8000 SCT020 26/22 Q1010 NOSIG=
202511122130 METAR WIHH 122130Z 24012KT 8000 SCT020 27/22 Q1009 NOSIG=
202511122100 METAR WIHH 122100Z 25010KT 8000 SCT020 27/22 Q1009 NOSIG=
202511122030 METAR WIHH 122030Z 26010KT 8000 SCT020 26/22 Q1009 NOSIG=
202511122000 METAR WIHH 122000Z 25009KT 9999 SCT020 26/22 Q1009 NOSIG=
202511121930 METAR WIHH 121930Z 25008KT 9999 SCT020 26/22 Q1009 NOSIG=
202511121900 METAR WIHH 121900Z 26007KT 9999 SCT020 26/22 Q1009 NOSIG=
202511121830 METAR WIHH 121830Z 24004KT 9999 SCT020 26/22 Q1009 NOSIG=
202511121800 METAR WIHH 121800Z 25004KT 9999 SCT020 26/22 Q1009 NOSIG=
202511121730 METAR WIHH 121730Z 25004KT 9999 SCT020 26/22 Q1009 NOSIG=
202511121700 METAR WIHH 121700Z 26004KT 9999 SCT018 26/22 Q1010 NOSIG=
202511121630 METAR WIHH 121630Z 28004KT 9999 SCT018 26/22 Q1011 NOSIG=
202511121600 METAR WIHH 121600Z 25005KT 9999 SCT018 27/23 Q1011 NOSIG=
202511121530 METAR WIHH 121530Z 27005KT 9999 SCT018 27/23 Q1011 NOSIG=
202511121500 METAR WIHH 121500Z 22008KT 9999 SCT018 27/23 Q1011 NOSIG=
202511121430 METAR WIHH 121430Z 23008KT 9999 SCT018 27/23 Q1011 NOSIG=
202511121400 METAR WIHH 121400Z 26008KT 8000 SCT018 27/23 Q1011 RMK RA TO SE=
202511121330 METAR WIHH 121330Z 22010KT 8000 SCT018 27/23 Q1011 RMK RA TO SE=
202511121300 METAR WIHH 121300Z 22010KT 8000 SCT018 27/23 Q1011 RMK RA TO SE=
202511121230 METAR WIHH 121230Z 20015KT 8000 SCT018 27/23 Q1010 RMK RA TO SE=
202511121200 METAR WIHH 121200Z 24015KT 8000 SCT018 27/23 Q1010 RMK RA TO SE=
202511121130 METAR WIHH 121130Z 25015KT 8000 SCT016 FEW018CB 28/23 Q1010 RMK CB AN D RA TO SE=
202511121100 METAR WIHH 121100Z 24012KT 8000 SCT016 FEW018CB 28/23 Q1010 RMK CB AN D RA TO SE=
202511121030 METAR WIHH 121030Z 24015KT 8000 SCT016 FEW018CB 28/22 Q1008 RMK CB AN D RA TO SE=
202511121000 METAR WIHH 121000Z 26018KT 8000 SCT016 FEW018CB 29/22 Q1008 RMK CB AN D RA TO SE=
202511120930 METAR WIHH 120930Z 26015KT 8000 SCT016 FEW018CB 29/23 Q1008 RMK CB AN D RA TO SE=
202511120900 METAR WIHH 120900Z 23020KT 8000 SCT016 FEW018CB 29/23 Q1008 RMK CB AN D RA TO SE=
202511120830 METAR WIHH 120830Z 25020KT 8000 SCT016 FEW018CB 30/22 Q1008 RMK CB AN D RA TO SE=
202511120800 METAR WIHH 120800Z 23020KT 8000 SCT016 FEW018CB 30/21 Q1008 RMK CB AND RA TO SE=
202511120730 METAR WIHH 120730Z 27020KT 8000 SCT016 FEW018CB 31/23 Q1008 RMK CB AN D RA TO SE=
202511120700 METAR WIHH 120700Z 27020KT 8000 SCT018 32/23 Q1008 RMK RA TO SE=
202511120630 METAR WIHH 120630Z 27015KT 8000 SCT018 32/23 Q1008 RMK RA TO SE=
202511120600 METAR WIHH 120600Z 24015KT 8000 SCT018 32/23 Q1008 RMK RA TO S=
202511120530 METAR WIHH 120530Z 24012KT 8000 SCT018 32/22 Q1009 NOSIG=
202511120500 METAR WIHH 120500Z 27012KT 8000 SCT018 32/22 Q1009 NOSIG=
202511120430 METAR WIHH 120430Z 24012KT 8000 SCT018 31/22 Q1010 NOSIG=
202511120400 METAR WIHH 120400Z 24015KT 8000 SCT018 31/23 Q1010 NOSIG=
202511120330 METAR WIHH 120330Z 28007KT 8000 SCT018 31/23 Q1011 NOSIG=
202511120300 METAR WIHH 120300Z 25015KT 8000 SCT018 29/22 Q1011 NOSIG=
202511120230 METAR WIHH 120230Z 24010KT 8000 SCT018 29/24 Q1011 NOSIG=
202511120200 METAR WIHH 120200Z 24013KT 8000 SCT018 28/22 Q1011 NOSIG=
202511120130 METAR WIHH 120130Z 25008KT 8000 SCT018 28/24 Q1011 NOSIG=
202511120100 METAR WIHH 120100Z 25010KT 8000 SCT018 27/23 Q1011 NOSIG=
202511120030 METAR WIHH 120030Z 25006KT 7000 SCT018 26/24 Q1011 NOSIG=
202511120000 METAR WIHH 120000Z 23007KT 6000 SCT017 26/24 Q1011 NOSIG=
202511112330 METAR WIHH 112330Z 27004KT 6000 -RA SCT017 25/24 Q1010 NOSIG=
202511112300 METAR WIHH 112300Z 25004KT 6000 -RA FEW017 25/24 Q1010 NOSIG=
202511112230 METAR WIHH 112230Z 25005KT 5000 -RA BKN017 25/24 Q1010 NOSIG=
202511112200 METAR WIHH 112200Z 28005KT 6000 -RA SCT017 25/24 Q1010 NOSIG=
202511112130 METAR WIHH 112130Z 25004KT 6000 -RA SCT017 25/24 Q1010 NOSIG=
202511112100 METAR WIHH 112100Z 27005KT 6000 RA SCT017 26/24 Q1010 NOSIG=
202511112030 METAR WIHH 112030Z 26004KT 6000 -RA SCT017 26/24 Q1010 NOSIG=
202511112000 METAR WIHH 112000Z 27003KT 6000 -RA SCT017 26/24 Q1010 NOSIG=
202511111930 METAR WIHH 111930Z 27006KT 5000 -RA SCT017 24/24 Q1010 NOSIG=
202511111900 METAR WIHH 111900Z 27006KT 7000 -RA SCT018 26/24 Q1010 TEMPO TL2000 4000 -RA=
202511111830 METAR WIHH 111830Z 26005KT 8000 SCT018 26/24 Q1010 TEMPO FM1900 4000 -RA RMK RA TO NW=
202511111800 METAR WIHH 111800Z 24004KT 8000 SCT018 26/24 Q1010 TEMPO FM1900 4000 -RA RMK RA TO NW=
202511111730 METAR WIHH 111730Z 24005KT 8000 SCT018 26/24 Q1011 NOSIG=
202511111700 METAR WIHH 111700Z 22006KT 8000 SCT018 26/23 Q1011 NOSIG=
202511111630 METAR WIHH 111630Z 23005KT 7000 SCT018 26/23 Q1011 NOSIG=
202511111600 METAR WIHH 111600Z 24005KT 7000 SCT018 26/23 Q1011 RMK RA TO NE=
202511111530 METAR WIHH 111530Z 25007KT 7000 SCT018 26/23 Q1011 RMK RA TO N=
202511111500 METAR WIHH 111500Z 27008KT 7000 SCT018 26/23 Q1011=
202511111430 METAR WIHH 111430Z 24010KT 7000 -RA SCT018 26/23 Q1011 NOSIG=
202511111400 METAR WIHH 111400Z 23010KT 7000 -RA SCT018 26/23 Q1011 NOSIG=
202511111330 METAR WIHH 111330Z 25013KT 8000 SCT018 27/23 Q1011 NOSIG=
202511111300 METAR WIHH 111300Z 22010KT 8000 SCT018 26/23 Q1010 NOSIG=
202511111230 METAR WIHH 111230Z 23008KT 7000 SCT018 26/23 Q1010 RMK RA TO SE=
202511111200 METAR WIHH 111200Z 25010KT 7000 SCT018 26/23 Q1010 RMK RA TO S=
202511111130 METAR WIHH 111130Z 25010KT 7000 SCT018 26/23 Q1010 RMK RA TO SW=
202511111100 METAR WIHH 111100Z 24012KT 7000 SCT018 26/23 Q1009 RMK RA TO SW=
202511111030 METAR WIHH 111030Z 26008KT 7000 SCT018 27/23 Q1009 NOSIG=
202511111000 METAR WIHH 111000Z 24010KT 7000 SCT017 28/23 Q1008 NOSIG=
202511110930 METAR WIHH 110930Z 24013KT 7000 SCT017 28/23 Q1008 RMK RA TO SE=
202511110900 METAR WIHH 110900Z 23013KT 6000 SCT016 FEW017CB 27/24 Q1008 RMK CB AND RA TO E-SE=
202511110830 METAR WIHH 110830Z 26010KT 6000 SCT017 30/23 Q1008 RMK RA TO W AND NE=
202511110800 METAR WIHH 110800Z 25015KT 7000 SCT017 30/23 Q1007 RMK RA TO NE-SE=
202511110730 METAR WIHH 110730Z 24015KT 6000 FEW017 30/24 Q1007 RMK RA TO NE-SE=
202511110700 METAR WIHH 110700Z 24012KT 6000 -RA SCT017 29/24 Q1007 NOSIG=
202511110630 METAR WIHH 110630Z 25012KT 6000 -TSRA SCT016 FEW017CB 29/25 Q1007 RMK CB TO E-SE=
202511110600 METAR WIHH 110600Z 23012KT 5000 -TSRA SCT016 FEW017CB 28/25 Q1008 RMK CB TO E-SE=
202511110530 METAR WIHH 110530Z 22015KT 5000 TS SCT016 FEW017CB 29/25 Q1008 TEMPO TL0600 4000 -TSRA RMK CB AND RA TO SE-S=
202511110500 METAR WIHH 110500Z 23005KT 5000 HZ SCT017 29/25 Q1009 RMK RA TO NE-E=
202511110430 METAR WIHH 110430Z 32005KT 4000 -RA SCT016 FEW017CB 27/25 Q1009 TEMPO TL0500 4000 -TSRA RMK CB TO NE=
202511110400 METAR WIHH 110400Z 28008KT 8000 SCT017 31/24 Q1010 RMK RA TO NW=
202511110330 METAR WIHH 110330Z 28010KT 8000 SCT017 31/24 Q1010 NOSIG=
202511110300 METAR WIHH 110300Z 26013KT 8000 SCT018 30/24 Q1010 NOSIG=
202511110230 METAR WIHH 110230Z 25010KT 8000 SCT018 30/24 Q1011 NOSIG=
202511110200 METAR WIHH 110200Z 23008KT 8000 SCT020 29/24 Q1011 NOSIG=
202511110130 METAR WIHH 110130Z 24012KT 8000 SCT020 28/24 Q1011 NOSIG=
202511110100 METAR WIHH 110100Z 25010KT 8000 SCT020 28/24 Q1010 NOSIG=
202511110030 METAR WIHH 110030Z 24015KT 8000 SCT018 27/23 Q1010 NOSIG=
202511110000 METAR WIHH 110000Z 24013KT 8000 SCT018 27/23 Q1009 RMK RA TO NW=
202511102330 METAR WIHH 102330Z 22010KT 8000 -RA SCT017 26/23 Q1009 NOSIG=
202511102300 METAR WIHH 102300Z 24015KT 8000 -RA SCT017 26/23 Q1009 NOSIG=
202511102230 METAR WIHH 102230Z 27010KT 8000 -RA BKN016 26/23 Q1009 NOSIG=
202511102200 METAR WIHH 102200Z 26015KT 8000 SCT016 26/23 Q1009 RMK RA TO W=
202511102130 METAR WIHH 102130Z 24005KT 8000 SCT016 26/23 Q1008 RMK RA TO W=
202511102100 METAR WIHH 102100Z 26012KT 8000 SCT016 26/23 Q1008 RMK RA TO W=
202511102030 METAR WIHH NIL=
202511102000 METAR WIHH NIL=
202511101930 METAR WIHH NIL=
202511101900 METAR WIHH NIL=
202511101830 METAR WIHH NIL=
202511101800 METAR WIHH NIL=
202511101730 METAR WIHH NIL=
202511101700 METAR WIHH NIL=
202511101630 METAR WIHH 101630Z 25010KT 9999 SCT018 28/23 Q1010 RMK RA TO N=
202511101600 METAR WIHH 101600Z 25010KT 9999 SCT018 28/23 Q1010 RMK RA TO N=
202511101530 METAR WIHH 101530Z 24011KT 9999 SCT018 28/24 Q1010 RMK RA TO W=
202511101500 METAR WIHH 101500Z 26012KT 9999 SCT018 28/24 Q1010 RMK RA TO W=
202511101430 METAR WIHH 101430Z 25003KT 9999 SCT018 28/24 Q1010 RMK RA TO SW=
202511101400 METAR WIHH 101400Z 27013KT 9999 SCT018 28/24 Q1010 RMK RA TO SW=
202511101330 METAR WIHH 101330Z 25010KT 9999 SCT018 28/23 Q1009 RMK RA TO SW=
202511101300 METAR WIHH 101300Z 24010KT 9999 SCT018 28/23 Q1009 NOSIG=
202511101230 METAR WIHH 101230Z 25012KT 9999 SCT018 28/23 Q1009 NOSIG=
202511101200 METAR WIHH 101200Z 25010KT 9999 SCT018 28/23 Q1008 NOSIG=
202511101130 METAR WIHH 101130Z 25010KT 8000 SCT018 29/23 Q1008 NOSIG=
202511101100 METAR WIHH 101100Z 24016KT 8000 SCT018 30/23 Q1007 RMK RA TO E=
202511101030 METAR WIHH 101030Z 24010KT 8000 SCT016 FEW018CB 29/23 Q1006 RMK CB AND RA TO SE=
202511101000 METAR WIHH 101000Z 25010KT 8000 SCT016 FEW018CB 31/22 Q1006 RMK CB AND RA TO SE=
202511100930 METAR WIHH 100930Z 28010KT 8000 SCT016 FEW018CB 31/22 Q1006 RMK CB AND RA TO S=
202511100900 METAR WIHH 100900Z 30005KT 8000 SCT018 32/25 Q1006 RMK RA TO SW=
202511100830 METAR WIHH 100830Z 30008KT 8000 SCT018 31/25 Q1006 RMK RA TO SW=
202511100800 METAR WIHH 100800Z 33008KT 6000 SCT016 FEW018CB 30/26 Q1006 RMK CB AN D RA TO NW=
202511100730 METAR WIHH 100730Z 31008KT 6000 -RA SCT016 FEW018CB 29/26 Q1006 RMK CB TO NW=
202511100700 METAR WIHH 100700Z 27007KT 9999 SCT020 32/24 Q1006 RMK RA TO N=
202511100630 METAR WIHH 100630Z 29006KT 9999 SCT020 32/23 Q1006 NOSIG=
202511100600 METAR WIHH 100600Z 29008KT 9999 SCT020 33/23 Q1007 NOSIG=
202511100530 METAR WIHH 100530Z 31008KT 9999 SCT020 34/23 Q1007 NOSIG=
202511100500 METAR WIHH 100500Z 25010KT 9999 SCT020 33/23 Q1008 NOSIG=
202511100430 METAR WIHH 100430Z 26010KT 9999 SCT020 31/23 Q1008 NOSIG=
202511100400 METAR WIHH 100400Z 29010KT 9999 FEW020 32/23 Q1009 NOSIG=
202511100330 METAR WIHH 100330Z 24010KT 9999 FEW020 32/23 Q1009 NOSIG=
202511100300 METAR WIHH 100300Z 25013KT 9999 FEW020 32/23 Q1010 NOSIG=
202511100230 METAR WIHH 100230Z 25013KT 9999 FEW020 30/22 Q1010 NOSIG=
202511100200 METAR WIHH 100200Z 27015KT 9999 FEW020 30/22 Q1010 NOSIG=
202511100130 METAR WIHH 100130Z 24015KT 9999 FEW020 30/23 Q1010 NOSIG=
202511100100 METAR WIHH 100100Z 24013KT 9999 FEW020 29/23 Q1010 NOSIG=
202511100030 METAR WIHH 100030Z 27013KT 9999 FEW020 28/23 Q1010 NOSIG=
202511100000 METAR WIHH 100000Z 25010KT 8000 FEW020 27/24 Q1009 NOSIG=
202511092330 METAR WIHH 092330Z 25010KT 7000 FEW020 26/23 Q1009 NOSIG=
202511092300 METAR WIHH 092300Z 25006KT 6000 SCT020 26/23 Q1009 NOSIG=
202511092230 METAR WIHH 092230Z 24004KT 7000 SCT020 25/23 Q1009 NOSIG=
202511092200 METAR WIHH 092200Z 25004KT 8000 FEW020 26/23 Q1009 NOSIG=
202511092130 METAR WIHH 092130Z 00000KT 8000 FEW020 26/24 Q1008 NOSIG=
202511092100 METAR WIHH 092100Z 00000KT 8000 FEW020 26/24 Q1008 NOSIG=
202511092030 METAR WIHH 092030Z 00000KT 8000 SCT020 26/24 Q1008 NOSIG=
202511092000 METAR WIHH 092000Z 00000KT 8000 SCT020 26/23 Q1009 NOSIG=
202511091930 METAR WIHH 091930Z 00000KT 8000 FEW020 26/23 Q1009 NOSIG=
202511091900 METAR WIHH 091900Z 00000KT 8000 FEW020 26/23 Q1009 NOSIG=
202511091830 METAR WIHH 091830Z 00000KT 8000 FEW020 26/24 Q1009 NOSIG=
202511091800 METAR WIHH 091800Z 00000KT 8000 FEW020 26/23 Q1010 NOSIG=
202511091730 METAR WIHH 091730Z 24003KT 9999 FEW020 26/23 Q1010 NOSIG=
202511091700 METAR WIHH NIL=
202511091630 METAR WIHH 091630Z 24004KT 9999 FEW020 27/22 Q1010 NOSIG=
202511091600 METAR WIHH 091600Z 23004KT 9999 FEW020 27/22 Q1010 NOSIG=
202511091530 METAR WIHH 091530Z 24005KT 9999 FEW020 27/23 Q1010 NOSIG=
202511091500 METAR WIHH 091500Z 23007KT 9999 FEW020 27/23 Q1010 NOSIG=
202511091430 METAR WIHH 091430Z 24006KT 9999 FEW020 28/22 Q1010 NOSIG=
202511091400 METAR WIHH 091400Z 25006KT 9999 SCT020 28/22 Q1010 NOSIG=
202511091330 METAR WIHH 091330Z 24005KT 9999 SCT020 28/22 Q1010 NOSIG=
202511091300 METAR WIHH 091300Z 26010KT 1000 SCT020 28/22 Q1010 NOSIG=
202511091230 METAR WIHH 091230Z 24013KT 9999 FEW020 28/22 Q1009 NOSIG=
202511091200 METAR WIHH 091200Z 26017KT 9999 SCT020 28/22 Q1009 NOSIG=
202511091130 METAR WIHH 091130Z 24013KT 8000 SCT018 29/22 Q1009 NOSIG=
202511091100 METAR WIHH 091100Z 24015KT 6000 SCT018 29/22 Q1008 NOSIG=
202511091030 METAR WIHH 091030Z 21012KT 6000 SCT018 30/22 Q1008 TEMPO FM1045 4000 -RA=
202511091000 METAR WIHH 091000Z 28007KT 7000 SCT018 31/21 Q1007 RMK RA TO NW=
202511090930 METAR WIHH 090930Z 27010KT 7000 SCT018 32/20 Q1007 NOSIG RMK CB TO NW-N=
202511090900 METAR WIHH 090900Z 24018KT 7000 SCT018 33/20 Q1006 NOSIG=
202511090830 METAR WIHH 090830Z 26013KT 7000 FEW017CB SCT018 33/21 Q1006 RMK CB AND RA TO NE-E=
202511090800 METAR WIHH 090800Z 24013KT 8000 SCT017 32/22 Q1006 RMK RA TO N=
202511090730 METAR WIHH 090730Z 22018KT 8000 SCT017 32/23 Q1006 TEMPO FM0750 3000 -RA RMK RA TO NE-N=
202511090700 METAR WIHH 090700Z 24012KT 8000 SCT018 33/22 Q1007 RMK RA TO N=
202511090630 METAR WIHH 090630Z 25008KT 8000 FEW018 33/21 Q1007 NOSIG=
202511090600 METAR WIHH 090600Z 26010KT 8000 SCT018 33/22 Q1008 NOSIG=
202511090530 METAR WIHH 090530Z 24010KT 8000 SCT018 33/22 Q1008 NOSIG=
202511090500 METAR WIHH 090500Z 26010KT 8000 SCT020 33/21 Q1009 NOSIG=
202511090430 METAR WIHH 090430Z 27007KT 9999 SCT020 33/21 Q1009 NOSIG=
202511090400 METAR WIHH 090400Z 27010KT 9999 SCT020 33/22 Q1009 NOSIG=
202511090330 METAR WIHH 090330Z 27010KT 9999 FEW020 32/22 Q1010 NOSIG=
202511090300 METAR WIHH 090300Z 24008KT 9999 FEW020 32/21 Q1009 NOSIG=
202511090230 METAR WIHH 090230Z 24010KT 9999 FEW020 31/21 Q1010 NOSIG=
202511090200 METAR WIHH 090200Z 27013KT 1000 FEW020 30/22 Q1010 NOSIG=
202511090130 METAR WIHH 090130Z 24010KT 1000 FEW020 29/23 Q1010 NOSIG=
202511090100 METAR WIHH 090100Z 27013KT 9999 FEW020 29/23 Q1010 NOSIG=
202511090030 METAR WIHH 090030Z 24010KT 9999 FEW020 29/23 Q1010 NOSIG=
202511090000 METAR WIHH 090000Z 25008KT 9999 FEW020 28/23 Q1010 NOSIG=
202511082330 METAR WIHH 082330Z 24007KT 9999 FEW020 27/23 Q1009 NOSIG=
202511082300 METAR WIHH 082300Z 26007KT 9999 SCT020 26/23 Q1009 NOSIG=
202511082230 METAR WIHH 082230Z 24007KT 9999 SCT020 26/23 Q1009 NOSIG=
202511082200 METAR WIHH 082200Z 25010KT 9999 FEW020 25/23 Q1009 NOSIG=
202511082130 METAR WIHH 082130Z 25010KT 9999 FEW020 26/23 Q1009 NOSIG=
202511082100 METAR WIHH 082100Z 25006KT 9999 FEW020 27/23 Q1009 NOSIG=
202511082030 METAR WIHH 082030Z 24008KT 9999 FEW020 27/22 Q1008 NOSIG=
202511082000 METAR WIHH 082000Z 25004KT 8000 SCT020 25/23 Q1010 NOSIG=
202511081930 METAR WIHH 081930Z 26004KT 8000 SCT020 25/23 Q1010 NOSIG=
202511081900 METAR WIHH 081900Z 23004KT 8000 SCT020 25/23 Q1010 NOSIG=
202511081830 METAR WIHH 081830Z 24005KT 8000 SCT020 25/23 Q1010 NOSIG=
202511081800 METAR WIHH 081800Z 25005KT 8000 SCT020 26/23 Q1010 NOSIG=
202511081730 METAR WIHH 081730Z 24008KT 8000 SCT020 26/23 Q1010 NOSIG=
202511081700 METAR WIHH 081700Z 25008KT 9999 SCT020 26/23 Q1010 NOSIG=
202511081630 METAR WIHH 081630Z 27006KT 9999 SCT020 26/23 Q1010 NOSIG=
202511081600 METAR WIHH 081600Z 21006KT 9999 SCT020 25/22 Q1011 NOSIG=
202511081530 METAR WIHH 081530Z 25006KT 9999 SCT018 27/22 Q1011 NOSIG=
202511081500 METAR WIHH 081500Z 27008KT 9999 SCT018 27/22 Q1011 NOSIG=
202511081430 METAR WIHH 081430Z 27007KT 9999 SCT018 26/23 Q1011 NOSIG=
202511081400 METAR WIHH 081400Z 27004KT 9999 SCT018 26/23 Q1011 NOSIG=
202511081330 METAR WIHH 081330Z 25005KT 9999 SCT018 26/23 Q1010 NOSIG=
202511081300 METAR WIHH 081300Z 25007KT 9999 SCT018 26/23 Q1010 NOSIG=
202511081230 METAR WIHH 081230Z 25005KT 9999 SCT018 26/23 Q1009 NOSIG=
202511081200 METAR WIHH 081200Z 25010KT 8000 SCT018 27/23 Q1009 NOSIG=
202511081130 METAR WIHH 081130Z 25008KT 6000 SCT017 27/23 Q1009 NOSIG=
202511081100 METAR WIHH NIL=
202511081030 METAR WIHH 081030Z 23006KT 6000 SCT017 27/24 Q1009 NOSIG=
202511081000 METAR WIHH 081000Z 24006KT 6000 SCT017 27/25 Q1008 NOSIG=
202511080930 METAR WIHH 080930Z 24010KT 6000 SCT017 27/24 Q1009 TEMPO FM1000 3000 -RA RMK RA TO N=
202511080900 METAR WIHH 080900Z 23008KT 5000 HZ BKN015 27/25 Q1009 TEMPO FM1000 30 00 -RA RMK RA TO NW=
202511080830 METAR WIHH 080830Z 29004KT 5000 HZ BKN015 27/25 Q1009 TEMPO FM0900 3000 -RA RMK RA TO NW=
202511080800 METAR WIHH 080800Z 28004KT 5000 BKN015 27/25 Q1009 TEMPO TL0900 3000 -RA=
202511080730 METAR WIHH 080730Z 28005KT 5000 -RA BKN015 25/25 Q1009 TEMPO TL0900 3000 -RA=
202511080700 METAR WIHH 080700Z 30005KT 5000 -RA SCT015 FEW017CB 25/25 Q1010 TEMPO TL0830 3000 -TSRA BKN017 RMK CB TO NW=
202511080630 METAR WIHH 080630Z 26006KT 5000 -RA BKN015 FEW017CB 25/25 Q1010 TEMPO 3000 -TSRA BKN017 RMK CB TO N=
202511080600 METAR WIHH 080600Z 25007KT 4000 -TSRA FEW015CB BKN017 25/25 Q1010 TEM PO TL0700 3000 -TSRA SCT017 RMK CB TO W=
202511080530 METAR WIHH 080530Z 25007KT 0500 -TSRA FEW015CB BKN017 25/25 Q1011 TEM PO TL0700 3000 -TSRA BKN017 RMK CB OVER THE FIELD=
202511080500 METAR WIHH 080500Z 05004KT 2000 -TSRA FEW015CB BKN017 26/24 Q1011 TEMPO TL0630 3000 -TSRA BKN017 RMK CB OVER THE FIELD=
202511080430 METAR WIHH 080430Z 26004KT 0500 -TSRA FEW015CB BKN017 26/24 Q1011 TEMPO TL0500 3000 -RA BKN017 RMK CB TO W=
202511080400 METAR WIHH 080400Z 29005KT 6000 -RA FEW017 28/23 Q1011 TEMPO TL0500 5000 -RA BKN017=
202511080330 METAR WIHH 080330Z 29005KT 8000 SCT017 28/23 Q1011 RMK RA TO NW=
202511080300 METAR WIHH 080300Z 24006KT 8000 28/23 Q1011 RMK RA TO NE=
202511080230 METAR WIHH 080230Z 24005KT 8000 SCT018 28/23 Q1011 RMK RA TO N=
202511080200 METAR WIHH 080200Z 26008KT 8000 SCT018 28/23 Q1011 RMK RA TO NE=
202511080130 METAR WIHH 080130Z 24010KT 8000 SCT018 28/23 Q1011 NOSIG=
202511080100 METAR WIHH 080100Z 27010KT 8000 SCT018 28/23 Q1011 NOSIG=
202511080030 METAR WIHH 080030Z 26007KT 8000 SCT018 28/23 Q1011 NOSIG=
202511080000 METAR WIHH 080000Z 24010KT 8000 SCT018 27/23 Q1010 NOSIG=
202511072330 METAR WIHH 072330Z 23009KT 8000 SCT018 26/23 Q1010 NOSIG=
202511072300 METAR WIHH 072300Z 24010KT 8000 SCT018 26/23 Q1009 NOSIG=
202511072230 METAR WIHH 072230Z 22011KT 7000 SCT018 26/23 Q1009 NOSIG=
202511072200 METAR WIHH 072200Z 23007KT 7000 FEW020 26/23 Q1009 NOSIG=
202511072130 METAR WIHH 072130Z 24007KT 7000 FEW020 26/24 Q1009 NOSIG=
202511072100 METAR WIHH 072100Z 24007KT 7000 FEW020 26/24 Q1009 NOSIG=
202511072030 METAR WIHH 072030Z 27008KT 7000 FEW020 27/24 Q1008 NOSIG=
202511072000 METAR WIHH 072000Z 24007KT 7000 FEW020 27/24 Q1008 NOSIG=
202511071930 METAR WIHH 071930Z 23008KT 7000 FEW020 27/24 Q1008 NOSIG=
202511071900 METAR WIHH 071900Z 25007KT 7000 FEW020 27/24 Q1009 NOSIG=
202511071830 METAR WIHH 071830Z 26009KT 7000 NSC 27/24 Q1009 NOSIG=
202511071800 METAR WIHH 071800Z 26008KT 7000 NSC 27/24 Q1009 NOSIG=
202511071730 METAR WIHH 071730Z 23005KT 7000 FEW020 27/24 Q1010 NOSIG=
202511071700 METAR WIHH 071700Z 28010KT 7000 SCT020 27/24 Q1010 NOSIG=
202511071630 METAR WIHH 071630Z 23010KT 7000 SCT020 27/24 Q1010 NOSIG=
202511071600 METAR WIHH 071600Z 23011KT 7000 SCT020 27/24 Q1010 RMK RA TO E=
202511071530 METAR WIHH 071530Z 27007KT 7000 SCT020 27/24 Q1010 NOSIG=
202511071500 METAR WIHH 071500Z 27007KT 7000 SCT016 27/24 Q1011 NOSIG=
202511071430 METAR WIHH 071430Z 26007KT 7000 SCT016 27/24 Q1010 NOSIG=
202511071400 METAR WIHH 071400Z 26010KT 7000 SCT016 28/24 Q1010 NOSIG=
202511071330 METAR WIHH 071330Z 27007KT 7000 SCT015 FEW016CB 28/24 Q1009 RMK CB TO E=
202511071300 METAR WIHH 071300Z 24008KT 7000 SCT015 FEW016CB 28/24 Q1009=
202511071230 METAR WIHH 071230Z 30010KT 6000 SCT015 FEW016CB 29/24 Q1009 RMK CB AND RA TO SE=
202511071200 METAR WIHH 071200Z 26008KT 6000 SCT015 FEW016CB 29/24 Q1008 NOSIG RMK CB AND RA TO SE=
202511071130 METAR WIHH 071130Z 24006KT 6000 SCT015 30/24 Q1008 NOSIG=
202511071100 METAR WIHH 071100Z 27007KT 6000 SCT015 FEW017CB 30/24 Q1007 RMK CB AND RA TO SE=
202511071030 METAR WIHH 071030Z 30006KT 7000 SCT017 30/23 Q1007 NOSIG=
202511071000 METAR WIHH 071000Z 27007KT 7000 SCT017 31/24 Q1005 NOSIG RMK RA TO SE=
202511070930 METAR WIHH NIL=
202511070900 METAR WIHH 070900Z 28007KT 7000 SCT017 33/24 Q1005 NOSIG=
202511070830 METAR WIHH 070830Z 03008KT 6000 SCT017 33/24 Q1005 RMK RA TO NW=
202511070800 METAR WIHH 070800Z 33008KT 7000 SCT017 34/24 Q1005 NOSIG=
202511070730 METAR WIHH 070730Z 25008KT 7000 SCT017 34/24 Q1006 NOSIG=
202511070700 METAR WIHH 070700Z 26008KT 7000 SCT018 34/24 Q1006 NOSIG=
202511070630 METAR WIHH 070630Z 25008KT 7000 SCT018 33/23 Q1007 NOSIG=
202511070600 METAR WIHH 070600Z 25008KT 7000 SCT018 33/23 Q1007 NOSIG=
202511070530 METAR WIHH 070530Z 27008KT 7000 SCT018 33/23 Q1007 NOSIG=
202511070500 METAR WIHH 070500Z 27010KT 6000 SCT018 33/23 Q1008 NOSIG=
202511070430 METAR WIHH 070430Z 25011KT 7000 SCT018 33/22 Q1008 NOSIG=
202511070400 METAR WIHH 070400Z 25012KT 7000 SCT070 32/23 Q1008 NOSIG=
202511070330 METAR WIHH 070330Z 25012KT 7000 SCT018 32/23 Q1009 NOSIG=
202511070300 METAR WIHH 070300Z 27010KT 7000 SCT018 32/23 Q1009 NOSIG=
202511070230 METAR WIHH 070230Z 24010KT 6000 FEW018 31/24 Q1010 NOSIG=
202511070200 METAR WIHH 070200Z 27010KT 6000 FEW018 30/24 Q1010 NOSIG=
202511070130 METAR WIHH 070130Z 24006KT 6000 SCT018 29/24 Q1010 NOSIG=
202511070100 METAR WIHH 070100Z 21007KT 6000 SCT018 28/24 Q1010 NOSIG=
202511070030 METAR WIHH 070030Z 21006KT 6000 SCT018 28/24 Q1010=
202511070000 METAR WIHH 070000Z 23004KT 6000 SCT018 26/24 Q1009 NOSIG=
202511062330 METAR WIHH 062330Z 23006KT 6000 SCT018 26/24 Q1009 NOSIG=
202511062300 METAR WIHH 062300Z 24004KT 6000 SCT018 25/24 Q1009 NOSIG=
202511062230 METAR WIHH 062230Z 21005KT 6000 SCT020 25/24 Q1009 NOSIG=
202511062200 METAR WIHH 062200Z 26003KT 7000 FEW020 25/24 Q1008 NOSIG=
202511062130 METAR WIHH 062130Z 24004KT 7000 FEW020 25/24 Q1008 NOSIG=
202511062100 METAR WIHH 062100Z 25004KT 7000 FEW020 25/24 Q1008 NOSIG=
202511062030 METAR WIHH 062030Z 29003KT 8000 SCT020 25/24 Q1008 NOSIG=
202511062000 METAR WIHH 062000Z 00000KT 8000 SCT020 25/24 Q1008=
202511061930 METAR WIHH 061930Z 00000KT 8000 SCT020 25/24 Q1008 NOSIG=
202511061900 METAR WIHH 061900Z 00000KT 8000 SCT020 26/24 Q1008 NOSIG=
202511061830 METAR WIHH 061830Z 19003KT 9999 SCT020 26/24 Q1009 NOSIG=
202511061800 METAR WIHH 061800Z 20003KT 9999 SCT020 26/24 Q1009 NOSIG=
202511061730 METAR WIHH 061730Z 21003KT 9999 SCT020 26/23 Q1010 NOSIG=
202511061700 METAR WIHH 061700Z 24004KT 9999 SCT020 26/23 Q1010 NOSIG=
202511061630 METAR WIHH 061630Z 23006KT 9999 SCT018 26/23 Q1010 NOSIG=
202511061600 METAR WIHH 061600Z 25008KT 9999 SCT018 26/23 Q1010 NOSIG=
202511061530 METAR WIHH 061530Z 23010KT 9999 SCT018 27/23 Q1010 NOSIG=
202511061500 METAR WIHH 061500Z 24010KT 9999 SCT018 27/23 Q1010 NOSIG=
202511061430 METAR WIHH 061430Z 25008KT 9999 SCT017 27/24 Q1010 NOSIG=
202511061400 METAR WIHH 061400Z 26008KT 9999 SCT016 27/23 Q1010=
202511061330 METAR WIHH 061330Z 25010KT 9999 SCT016 27/23 Q1010=
202511061300 METAR WIHH 061300Z 24010KT 9999 SCT016 27/23 Q1009 NOSIG=
202511061230 METAR WIHH 061230Z 27013KT 8000 SCT016 28/23 Q1009 NOSIG=
202511061200 METAR WIHH 061200Z 24006KT 8000 SCT016 28/24 Q1009 NOSIG=
202511061130 METAR WIHH 061130Z 24010KT 8000 SCT016 28/24 Q1008 NOSIG RMK RA TO SW=
202511061100 METAR WIHH 061100Z 24018KT 6000 SCT016 29/23 Q1007 NOSIG=
202511061030 METAR WIHH 061030Z 24015KT 7000 SCT016 29/23 Q1007 NOSIG=
202511061000 METAR WIHH 061000Z 24010KT 7000 SCT016 29/23 Q1007 NOSIG=
202511060930 METAR WIHH 060930Z 22017KT 7000 SCT016 30/23 Q1006 NOSIG=
202511060900 METAR WIHH 060900Z 24016KT 7000 SCT016 30/23 Q1006 NOSIG=
202511060830 METAR WIHH 060830Z 24019KT 7000 SCT016 31/23 Q1006 NOSIG=
202511060800 METAR WIHH 060800Z 24019KT 6000 SCT019 31/23 Q1006 RMK RA TO SW=
202511060730 METAR WIHH 060730Z 24018KT 6000 SCT016 30/22 Q1007 RMK RA TO SW=
202511060700 METAR WIHH 060700Z 24018KT 6000 SCT016 30/23 Q1007 RMK RA TO SW=
202511060630 METAR WIHH 060630Z 21019KT 6000 SCT016 30/24 Q1007 RMK RA TO SE=
202511060600 METAR WIHH NIL=
202511060530 METAR WIHH 060530Z 21015KT 6000 BKN016 27/25 Q1008 RMK RA TO SW=
202511060500 METAR WIHH 060500Z 24018KT 6000 -RA SCT016 32/23 Q1008 TEMPO TL0600 4 000 -RA BKN018=
202511060430 METAR WIHH 060430Z 23017KT 8000 SCT018 32/23 Q1009 NOSIG=
202511060400 METAR WIHH 060400Z 24016KT 8000 SCT018 32/23 Q1009 NOSIG=
202511060330 METAR WIHH 060330Z 24012KT 8000 SCT018 31/23 Q1010 NOSIG=
202511060300 METAR WIHH 060300Z 24015KT 8000 SCT018 31/23 Q1010 NOSIG=
202511060230 METAR WIHH 060230Z 24017KT 8000 SCT018 30/23 Q1010 NOSIG=
202511060200 METAR WIHH 060200Z 25016KT 8000 SCT018 30/23 Q1010 NOSIG=
202511060130 METAR WIHH 060130Z 24013KT 8000 SCT019 30/23 Q1010 NOSIG=
202511060100 METAR WIHH 060100Z 24015KT 8000 SCT019 28/23 Q1010 NOSIG=
202511060030 METAR WIHH 060030Z 24012KT 8000 FEW020 29/23 Q1009 NOSIG=
202511060000 METAR WIHH NIL=
202511052330 METAR WIHH 052330Z 23009KT 9999 FEW020 27/23 Q1008 NOSIG=
202511052300 METAR WIHH 052300Z 24006KT 9999 FEW020 26/23 Q1008 NOSIG=
202511052230 METAR WIHH 052230Z 25005KT 9999 FEW020 26/23 Q1008 NOSIG=
202511052200 METAR WIHH NIL=
202511052130 METAR WIHH 052130Z 24005KT 9999 FEW020 26/23 Q1008 NOSIG=
202511052100 METAR WIHH 052100Z 24008KT 9999 FEW020 26/23 Q1008 NOSIG=
202511052030 METAR WIHH 052030Z 24005KT 9999 FEW020 26/23 Q1008 NOSIG=
202511052000 METAR WIHH 052000Z 00000KT 7000 FEW020 25/23 Q1010 NOSIG=
202511051930 METAR WIHH 051930Z 00000KT 7000 25/23 Q1010 NOSIG=
202511051900 METAR WIHH 051900Z 22005KT 8000 SCT020 25/23 Q1010 NOSIG=
202511051800 METAR WIHH 051800Z 23006KT 8000 SCT020 26/23 Q1010 NOSIG=
202511051730 METAR WIHH 051730Z 24008KT 9999 SCT020 26/22 Q1010 NOSIG=
202511051700 METAR WIHH 051700Z 26010KT 9999 SCT020 26/22 Q1010 NOSIG=
202511051630 METAR WIHH 051630Z 24015KT 9999 SCT020 26/22 Q1011 NOSIG=
202511051600 METAR WIHH 051600Z 24010KT 9999 SCT020 27/21 Q1011 NOSIG=
202511051530 METAR WIHH 051530Z 25005KT 9999 SCT020 27/21 Q1011 NOSIG=
202511051500 METAR WIHH 051500Z 27008KT 9999 SCT020 28/21 Q1011 NOSIG=
202511051430 METAR WIHH 051430Z 26008KT 9999 SCT020 28/20 Q1010 NOSIG=
202511051400 METAR WIHH 051400Z 24010KT 9999 SCT020 28/20 Q1010 NOSIG=
202511051330 METAR WIHH 051330Z 24010KT 9999 SCT020 28/20 Q1010 NOSIG=
202511051300 METAR WIHH 051300Z 24010KT 9999 SCT020 28/20 Q1009 NOSIG=
202511051230 METAR WIHH 051230Z 24010KT 9999 SCT020 28/21 Q1009 NOSIG=
202511051200 METAR WIHH 051200Z 24015KT 9999 SCT020 28/21 Q1009 NOSIG=
202511051130 METAR WIHH 051130Z 24015KT 9999 SCT020 28/21 Q1007 NOSIG=
202511051100 METAR WIHH 051100Z 24015KT 8000 SCT018 29/21 Q1007 NOSIG=
202511051030 METAR WIHH 051030Z 24015KT 8000 SCT018 30/22 Q1007 NOSIG=
202511051000 METAR WIHH 051000Z 24015KT 9999 SCT018 30/22 Q1007 NOSIG=
202511050930 METAR WIHH 050930Z 24018KT 9999 SCT018 30/23 Q1007 NOSIG=
202511050900 METAR WIHH 050900Z 24015KT 9999 SCT018 31/23 Q1007 NOSIG=
202511050830 METAR WIHH 050830Z 24015KT 9999 SCT018 31/23 Q1006 NOSIG=
202511050800 METAR WIHH 050800Z 24015KT 9999 SCT018 32/23 Q1007 NOSIG=
202511050730 METAR WIHH 050730Z 24015KT 9999 SCT018 32/23 Q1007 NOSIG=
202511050700 METAR WIHH 050700Z 24015KT 9999 SCT018 32/23 Q1007 NOSIG=
202511050630 METAR WIHH 050630Z 26015KT 9999 FEW018 33/23 Q1008 NOSIG=
202511050600 METAR WIHH 050600Z 24015KT 9999 SCT018 32/23 Q1008 NOSIG=
202511050530 METAR WIHH 050530Z 25015KT 9999 SCT018 32/23 Q1008 NOSIG=
202511050500 METAR WIHH 050500Z 27015KT 9999 SCT018 31/24 Q1009 NOSIG=
202511050430 METAR WIHH 050430Z 24015KT 9999 SCT018 30/23 Q1009 NOSIG=
202511050400 METAR WIHH 050400Z 24015KT 9999 SCT018 31/23 Q1010 NOSIG=
202511050330 METAR WIHH 050330Z 24015KT 8000 SCT018 31/23 Q1010 NOSIG=
202511050300 METAR WIHH 050300Z 24015KT 8000 SCT018 30/23 Q1010 NOSIG=
202511050230 METAR WIHH 050230Z 24010KT 8000 SCT018 29/23 Q1011 NOSIG=
202511050200 METAR WIHH 050200Z 24010KT 8000 SCT018 29/23 Q1011 NOSIG=
202511050130 METAR WIHH 050130Z 24007KT 8000 SCT018 28/23 Q1011 NOSIG=
202511050100 METAR WIHH 050100Z 24004KT 8000 SCT018 27/23 Q1011 NOSIG=
202511050030 METAR WIHH 050030Z 23003KT 6000 SCT018 27/23 Q1011 NOSIG=
202511050000 METAR WIHH 050000Z 23005KT 6000 SCT018 26/24 Q1010 NOSIG=
202511042330 METAR WIHH 042330Z 00000KT 6000 SCT018 26/23 Q1010 NOSIG=
202511042300 METAR WIHH 042300Z 00000KT 6000 SCT018 26/24 Q1010 NOSIG=
202511042230 METAR WIHH 042230Z 24003KT 6000 SCT017 26/23 Q1010 NOSIG=
202511042200 METAR WIHH 042200Z 24005KT 6000 SCT018 26/23 Q1010 NOSIG=
202511042130 METAR WIHH 042130Z 28006KT 6000 SCT018 26/23 Q1010 NOSIG=
202511042100 METAR WIHH 042100Z 24008KT 6000 SCT018 26/24 Q1009 NOSIG=
202511042030 METAR COR WIHH 042030Z 24003KT 6000 SCT018 26/24 Q1009 NOSIG=
202511042000 METAR WIHH 042000Z 00000KT 6000 FEW020 25/24 Q1008 NOSIG=
202511041930 METAR WIHH 041930Z 00000KT 6000 FEW020 26/24 Q1008 NOSIG=
202511041900 METAR WIHH 041900Z 00000KT 6000 FEW020 25/24 Q1008 NOSIG=
202511041830 METAR WIHH 041830Z 00000KT 6000 FEW020 25/24 Q1009 NOSIG=
202511041800 METAR WIHH 041800Z 00000KT 6000 FEW020 25/24 Q1009 NOSIG=
202511041730 METAR WIHH 041730Z 00000KT 6000 FEW020 25/24 Q1009 NOSIG=
202511041700 METAR WIHH 041700Z 00000KT 6000 FEW020 26/24 Q1009 NOSIG=
202511041630 METAR WIHH 041630Z 00000KT 6000 FEW020 26/24 Q1010 NOSIG=
202511041600 METAR WIHH 041600Z 00000KT 6000 FEW020 26/24 Q1010 NOSIG=
202511041530 METAR WIHH 041530Z 12004KT 7000 FEW020 27/24 Q1011 NOSIG=
202511041500 METAR WIHH 041500Z 14005KT 7000 FEW020 27/24 Q1011 NOSIG=
202511041430 METAR WIHH 041430Z 00000KT 7000 FEW020 27/24 Q1011 NOSIG=
202511041400 METAR WIHH 041400Z 00000KT 7000 FEW020 28/24 Q1010 NOSIG=
202511041330 METAR WIHH 041330Z 13004KT 7000 SCT020 28/23 Q1010 NOSIG=
202511041300 METAR WIHH 041300Z 11004KT 6000 SCT020 28/23 Q1010 NOSIG=
202511041230 METAR WIHH 041230Z 11006KT 6000 SCT017 29/23 Q1009 RMK RA TO NE=
202511041200 METAR WIHH 041200Z 16005KT 6000 SCT017 29/23 Q1009 RMK RA TO E=
202511041130 METAR WIHH 041130Z 18005KT 6000 SCT016 29/23 Q1009 RMK RA TO E=
202511041100 METAR WIHH 041100Z 17005KT 6000 SCT016 30/22 Q1008 RMK RA TO N=
202511041030 METAR WIHH 041030Z 20007KT 6000 SCT016 30/22 Q1007 RMK RA TO N=
202511041000 METAR WIHH 041000Z 18008KT 6000 SCT016 31/22 Q1007 NOSIG=
202511040930 METAR WIHH 040930Z 18008KT 6000 SCT016 30/23 Q1007 RMK RA TO E=
202511040900 METAR WIHH 040900Z 18006KT 6000 SCT015 FEW016CB 30/23 Q1006 RMK CB AND RA TO SE=
202511040830 METAR WIHH NIL=
202511040800 METAR WIHH 040800Z 27008KT 6000 SCT015 FEW016CB 33/23 Q1009 RMK CB AND RA TO SE=
202511040730 METAR WIHH 040730Z 02007KT 8000 SCT016 32/25 Q1007 NOSIG=
202511040700 METAR WIHH 040700Z 34006KT 6000 -RA SCT015 FEW016CB 30/25 Q1007 RMK CB TO NE=
202511040630 METAR WIHH 040630Z 33006KT 6000 -RA BKN015 FEW016CB 28/25 Q1008 RMK CB TO NW=
202511040600 METAR WIHH 040600Z 33008KT 6000 -RA SCT015 FEW016CB 32/23 Q1008 TEMPO TL0630 3000 -TSRA BKN015 RMK CB TO NW=
202511040530 METAR WIHH 040530Z 24004KT 8000 FEW015CB SCT016 34/22 Q1008 TEMPO FM0 615 3000 -RA BKN015 RMK CB AND RA TO NW=
202511040500 METAR WIHH 040500Z 24006KT 8000 SCT015 34/22 Q1009 RMK RA TO NW=
202511040430 METAR WIHH 040430Z 24008KT 8000 SCT020 34/23 Q1009 NOSIG=
202511040400 METAR WIHH 040400Z 21004KT 8000 FEW020 33/22 Q1010 NOSIG=
202511040330 METAR WIHH 040330Z 24006KT 8000 FEW020 33/22 Q1010 NOSIG=
202511040300 METAR WIHH 040300Z 16005KT 8000 FEW020 32/22 Q1010 NOSIG=
202511040230 METAR WIHH 040230Z 14005KT 8000 FEW020 31/23 Q1010 NOSIG=
202511040200 METAR WIHH 040200Z 10006KT 8000 FEW020 30/23 Q1011 NOSIG=
202511040130 METAR WIHH 040130Z 12004KT 6000 FEW020 29/24 Q1011 NOSIG=
202511040100 METAR WIHH 040100Z 12004KT 6000 FEW020 28/23 Q1011 NOSIG=
202511040030 METAR WIHH 040030Z 19003KT 6000 FEW020 28/24 Q1011 NOSIG=
202511040000 METAR WIHH 040000Z 14003KT 5000 HZ FEW020 26/24 Q1011 NOSIG=
202511032330 METAR WIHH 032330Z 20003KT 6000 FEW020 25/24 Q1010 NOSIG=
202511032300 METAR WIHH 032300Z 00000KT 4000 BR FEW020 24/24 Q1010 NOSIG=
202511032230 METAR WIHH 032230Z 00000KT 4000 BR FEW020 24/23 Q1010 NOSIG=
202511032200 METAR WIHH 032200Z 00000KT 5000 HZ FEW020 24/23 Q1009 NOSIG=
202511032130 METAR WIHH 032130Z 00000KT 5000 HZ FEW020 24/23 Q1009 NOSIG=
202511032100 METAR WIHH NIL=
202511032030 METAR WIHH NIL=
202511032000 METAR WIHH NIL=
202511031930 METAR WIHH NIL=
202511031900 METAR WIHH NIL=
202511031830 METAR WIHH NIL=
202511031800 METAR WIHH NIL=
202511031730 METAR WIHH NIL=
202511031700 METAR WIHH 031700Z 00000KT 7000 FEW020 24/24 Q1010=
202511031630 METAR WIHH 031630Z 00000KT 7000 FEW020 25/24 Q1011 NOSIG=
202511031600 METAR WIHH 031600Z 00000KT 7000 FEW020 25/24 Q1011 NOSIG=
202511031530 METAR WIHH 031530Z 00000KT 7000 FEW020 25/24 Q1011 NOSIG=
202511031500 METAR WIHH 031500Z 00000KT 7000 FEW020 25/24 Q1011 NOSIG=
202511031430 METAR WIHH 031430Z 00000KT 8000 SCT018 25/24 Q1011 NOSIG=
202511031400 METAR WIHH 031400Z 00000KT 8000 SCT018 25/24 Q1011 NOSIG=
202511031330 METAR WIHH 031330Z 03003KT 7000 SCT018 25/24 Q1011 NOSIG=
202511031300 METAR WIHH 031300Z 06003KT 7000 SCT018 25/24 Q1011 NOSIG=
202511031230 METAR WIHH 031230Z 32003KT 7000 SCT018 25/24 Q1010 NOSIG=
202511031200 METAR WIHH 031200Z 23003KT 7000 SCT018 25/24 Q1010 NOSIG=
202511031130 METAR WIHH 031130Z 20003KT 7000 SCT018 25/23 Q1009 NOSIG=
202511031100 METAR WIHH 031100Z 19004KT 6000 SCT018 25/23 Q1009 NOSIG=
202511031030 METAR WIHH 031030Z 14003KT 6000 SCT018 25/23 Q1009 NOSIG=
202511031000 METAR WIHH 031000Z 19003KT 6000 TS FEW017 SCT018 26/24 Q1008 RMK CB AND RA TO SE=
202511030930 METAR WIHH 030930Z 00000KT 6000 TS BKN016 FEW017CB 26/24 Q1008 RMK CB AND RA TO SE=
202511030900 METAR WIHH 030900Z 15006KT 5000 -TSRA BKN016 25/24 Q1008 RMK CB TO E=
202511030830 METAR WIHH 030830Z 14005KT 5000 -TSRA BKN016 FEW017CB 25/23 Q1009 RMK CB TO SE-S=
202511030800 METAR WIHH 030800Z 18010KT 5000 -TSRA BKN016 FEW017CB 26/24 Q1008 RMK CB TO S=
202511030730 METAR WIHH 030730Z 26010KT 3000 -TSRA SCT016 FEW017CB 25/23 Q1008 RMK CB TO NW-N=
202511030700 METAR WIHH 030700Z 31010KT 6000 TS SCT016 FEW017CB 31/23 Q1007 RMK CB AND RA TO W-NW=
202511030630 METAR WIHH 030630Z 34008KT 7000 TS FEW017CB SCT018 34/24 Q1007 RMK CB AND RA TO SE-S=
202511030600 METAR WIHH 030600Z 35008KT 7000 SCT018 34/24 Q1008 NOSIG=
202511030530 METAR WIHH 030530Z 01006KT 7000 SCT018 33/23 Q1008 NOSIG=
202511030500 METAR WIHH 030500Z 34005KT 7000 SCT018 34/21 Q1009 NOSIG=
202511030430 METAR WIHH 030430Z 33004KT 7000 SCT018 33/21 Q1010 NOSIG=
202511030400 METAR WIHH 030400Z 27005KT 7000 SCT018 33/21 Q1010 NOSIG=
202511030330 METAR WIHH 030330Z 01005KT 7000 SCT020 33/22 Q1011 NOSIG=
202511030300 METAR WIHH 030300Z 21004KT 6000 FEW020 32/22 Q1011 NOSIG=
202511030230 METAR WIHH 030230Z 27003KT 6000 FEW020 30/23 Q1011 NOSIG=
202511030200 METAR WIHH 030200Z 09005KT 6000 FEW020 30/24 Q1011 NOSIG=
202511030130 METAR WIHH 030130Z 00000KT 6000 FEW020 29/24 Q1011 NOSIG=
202511030100 METAR WIHH 030100Z 00000KT 5000 HZ FEW020 29/24 Q1011 NOSIG=
202511030030 METAR WIHH 030030Z 30003KT 4000 HZ FEW020 25/24 Q1011 NOSIG=
202511030000 METAR WIHH 030000Z 00000KT 4000 BR FEW020 25/25 Q1011 NOSIG=
202511022330 METAR WIHH 022330Z 00000KT 4000 BR FEW020 24/24 Q1011 NOSIG=
202511022300 METAR WIHH 022300Z VRB02KT 5000 ////// 24/24 Q1010=
202511022230 METAR WIHH 022230Z 00000KT 4000 BR FEW020 24/24 Q1010 NOSIG=
202511022200 METAR WIHH 022200Z 00000KT 5000 BR FEW020 24/24 Q1010 NOSIG=
202511022130 METAR WIHH 022130Z 22002KT 5000 BR FEW020 24/24 Q1010 NOSIG=
202511022100 METAR WIHH 022100Z 00000KT 6000 FEW020 24/24 Q1010 NOSIG=
202511022030 METAR WIHH 022030Z 00000KT 6000 FEW020 24/24 Q1010 RMK NOSIG=
202511022000 METAR WIHH 022000Z 00000KT 6000 FEW020 24/24 Q1010 NOSIG=
202511021930 METAR WIHH NIL=
202511021900 METAR WIHH NIL=
202511021830 METAR WIHH NIL=
202511021800 METAR WIHH 021800Z 00000KT 8000 FEW020 25/24 Q1011 NOSIG=
202511021730 METAR WIHH 021730Z 20003KT 8000 FEW020 25/24 Q1011 NOSIG=
202511021700 METAR WIHH 021700Z 22004KT 8000 FEW020 25/24 Q1011 NOSIG=
202511021630 METAR WIHH 021630Z 03003KT 8000 FEW020 25/25 Q1011 NOSIG=
202511021600 METAR WIHH 021600Z 02003KT 8000 FEW020 25/24 Q1012 NOSIG=
202511021530 METAR WIHH 021530Z 30003KT 8000 FEW020 25/24 Q1012 NOSIG=
202511021500 METAR WIHH 021500Z 20003KT 8000 FEW020 25/24 Q1012 NOSIG=
202511021430 METAR WIHH 021430Z 21005KT 8000 FEW020 25/24 Q1012 NOSIG=
202511021400 METAR WIHH 021400Z 15005KT 8000 FEW020 25/24 Q1012 NOSIG=
202511021330 METAR WIHH 021330Z 24003KT 8000 FEW020 25/24 Q1012 NOSIG=
202511021300 METAR WIHH 021300Z 29003KT 7000 FEW018 26/25 Q1011 NOSIG=
202511021230 METAR WIHH 021230Z 25004KT 7000 SCT018 26/25 Q1011 NOSIG=
202511021200 METAR WIHH 021200Z 23005KT 7000 SCT018 26/25 Q1011 NOSIG=
202511021130 METAR WIHH 021130Z 21003KT 6000 BKN015 FEW017CB 26/25 Q1011 RMK CB TO SW=
202511021100 METAR WIHH 021100Z 20005KT 4000 -RA BKN015 FEW017CB 26/25 Q1010 RMK CB TO SW=
202511021030 METAR WIHH 021030Z 31005KT 4000 -RA BKN015 FEW017CB 27/24 Q1010 RMK CB TO W=
202511021000 METAR WIHH 021000Z 03006KT 5000 -RA BKN015 27/25 Q1010 NOSIG=
202511020930 METAR WIHH 020930Z 12008KT 6000 SCT017 28/24 Q1008 RMK RA TO E=
202511020900 METAR WIHH 020900Z 24005KT 6000 SCT017 28/24 Q1008 RMK RA TO E=
202511020830 METAR WIHH 020830Z 12005KT 6000 SCT017 28/24 Q1008 RMK RA TO E=
202511020800 METAR WIHH NIL=
202511020730 METAR WIHH NIL=
202511020700 METAR WIHH 020700Z 22005KT 5000 FEW015CB SCT017 28/25 Q1008 RMK CB AND RA TO S=
202511020630 METAR WIHH 020630Z 20006KT 5000 HZ FEW015CB SCT017 28/25 Q1008 RMK CB AND RA TO SW=
202511020600 METAR WIHH 020600Z 22007KT 3000 HZ FEW015CB SCT017 31/23 Q1009 RMK CB AND RA TO SW=
202511020530 METAR WIHH 020530Z 07005KT 6000 SCT018 32/23 Q1009 RMK RA TO SW=
202511020500 METAR WIHH 020500Z 06005KT 6000 SCT018 33/23 Q1010 RMK RA TO S=
202511020430 METAR WIHH 020430Z 02007KT 6000 SCT018 33/24 Q1011 RMK RA TO S=
202511020400 METAR WIHH 020400Z 06005KT 6000 SCT018 33/23 Q1011 NOSIG=
202511020330 METAR WIHH 020330Z 04006KT 6000 SCT020 32/23 Q1012 NOSIG=
202511020300 METAR WIHH 020300Z 09005KT 6000 SCT020 32/24 Q1012 NOSIG=
202511020230 METAR WIHH 020230Z 13005KT 6000 SCT020 31/24 Q1012 NOSIG=
202511020200 METAR WIHH 020200Z 17004KT 6000 FEW020 31/24 Q1012 NOSIG=
202511020130 METAR WIHH 020130Z 22004KT 6000 FEW020 28/24 Q1012 NOSIG=
202511020100 METAR WIHH 020100Z 18004KT 6000 FEW020 28/24 Q1012 NOSIG=
202511020030 METAR WIHH 020030Z 18004KT 6000 FEW020 28/24 Q1012 NOSIG=
202511020000 METAR WIHH 020000Z 21003KT 6000 FEW020 27/24 Q1011 NOSIG=
202511012330 METAR WIHH 012330Z 18003KT 6000 FEW018 26/24 Q1011 NOSIG=
202511012300 METAR WIHH 012300Z 24004KT 6000 FEW020 25/24 Q1010 NOSIG=
202511012230 METAR WIHH 012230Z 23003KT 6000 FEW020 24/24 Q1010 NOSIG=
202511012200 METAR WIHH 012200Z 00000KT 0700 NSC 25/24 Q1010=
202511012130 METAR WIHH 012130Z 00000KT 7000 NSC 25/24 Q1010 NOSIG=
202511012100 METAR WIHH 012100Z 00000KT 7000 NSC 25/24 Q1009 NOSIG=
202511012030 METAR WIHH 012030Z 00000KT 7000 NSC 25/24 Q1009 NOSIG=
202511012000 METAR WIHH 012000Z 00000KT 7000 NSC 25/24 Q1009 NOSIG=
202511011930 METAR WIHH 011930Z 00000KT 7000 FEW020 25/24 Q1009 NOSIG=
202511011900 METAR WIHH 011900Z 00000KT 7000 FEW020 25/24 Q1010 NOSIG=
202511011830 METAR WIHH 011830Z 00000KT 7000 FEW020 25/24 Q1010 NOSIG=
202511011800 METAR WIHH 011800Z 00000KT 7000 FEW020 25/24 Q1010 NOSIG=
202511011730 METAR WIHH 011730Z 00000KT 7000 FEW020 25/24 Q1011 NOSIG=
202511011700 METAR WIHH 011700Z 00000KT 7000 FEW020 25/24 Q1011 NOSIG=
202511011630 METAR WIHH 011630Z 00000KT 7000 FEW020 25/24 Q1012 NOSIG=
202511011600 METAR WIHH 011600Z 00000KT 6000 SCT020 25/24 Q1012 NOSIG=
202511011530 METAR WIHH 011530Z 00000KT 6000 SCT020 25/24 Q1012 NOSIG=
202511011500 METAR WIHH 011500Z 24004KT 6000 SCT020 25/24 Q1012 NOSIG=
202511011430 METAR WIHH 011430Z 26005KT 6000 SCT018 25/24 Q1012 NOSIG=
202511011400 METAR WIHH 011400Z 17005KT 6000 BKN018 25/24 Q1012 RMK RA TO S=
202511011330 METAR WIHH 011330Z 15005KT 6000 BKN017 25/24 Q1012 RMK RA TO S=
202511011300 METAR WIHH 011300Z 18006KT 6000 BKN017 25/24 Q1012 RMK RA TO S=
202511011230 METAR WIHH 011230Z 23006KT 6000 -RA BKN017 25/24 Q1011 NOSIG=
202511011200 METAR WIHH 011200Z 16007KT 5000 -TSRA BKN016 FEW017CB 25/24 Q1011 RMK CB TO S=
202511011130 METAR WIHH 011130Z 19010KT 5000 -TSRA BKN016 FEW017CB 26/24 Q1011 RMK CB TO E,S=
202511011100 METAR WIHH 011100Z 18011KT 5000 -TSRA BKN016 FEW017CB 28/24 Q1010 RMK CB TTO E,S=
202511011030 METAR WIHH 011030Z 21007KT 6000 TS FEW017CB 29/24 Q1009 RMK CB AND RA TO S=
202511011000 METAR WIHH 011000Z 34007KT 6000 TS FEW017CB SCT018 31/24 Q1009 RMK CB AND RA TO S=
202511010930 METAR WIHH 010930Z 33008KT 6000 TS FEW017CB SCT018 32/24 Q1008=
202511010900 METAR WIHH 010900Z 32009KT 6000 TS FEW017CB SCT018 32/23 Q1007 RMK CB AND RA TO SW=
202511010830 METAR WIHH 010830Z 36010KT 6000 SCT018 34/22 Q1007 RMK RA TO E=
202511010800 METAR WIHH 010800Z 30006KT 6000 SCT018 35/21 Q1007 NOSIG RMK RA TO E=
202511010730 METAR WIHH 010730Z 35006KT 6000 SCT018 34/22 Q1007 NOSIG=
202511010700 METAR WIHH 010700Z 02005KT 6000 SCT018 34/22 Q1007 NOSIG=
202511010630 METAR WIHH 010630Z 35005KT 6000 SCT017 34/22 Q1008 RMK RA TO NE=
202511010600 METAR WIHH 010600Z 02005KT 6000 SCT017 33/22 Q1009 NOSIG RMK RA TO NE=
202511010530 METAR WIHH 010530Z 30005KT 6000 SCT018 33/21 Q1009 NOSIG=
202511010500 METAR WIHH 010500Z 12005KT 6000 SCT018 33/22 Q1010 NOSIG=
202511010430 METAR WIHH 010430Z 22005KT 8000 SCT020 33/22 Q1010 NOSIG=
202511010400 METAR WIHH 010400Z 27005KT 8000 SCT020 33/22 Q1011 NOSIG=
202511010330 METAR WIHH 010330Z 18005KT 8000 SCT020 32/22 Q1011 NOSIG=
202511010300 METAR WIHH 010300Z 18005KT 6000 FEW020 32/22 Q1012 NOSIG=
202511010230 METAR WIHH 010230Z 27005KT 8000 FEW020 32/23 Q1009 NOSIG=
202511010200 METAR WIHH 010200Z 22005KT 8000 FEW020 31/22 Q1012 NOSIG=
202511010130 METAR WIHH NIL=
202511010100 METAR WIHH 010100Z 24004KT 8000 FEW020 28/24 Q1013 NOSIG=
202511010030 METAR WIHH 010030Z 23005KT 8000 FEW020 28/24 Q1012 NOSIG=
202511010000 METAR WIHH 010000Z 22003KT 8000 FEW020 26/24 Q1012 NOSIG=

# No short TAF reports from WIHH in databse.

###################################
#  large TAF from WIHH
###################################
202511302300 TAF WIHH 302300Z 0100/0200 11006KT 6000 FEW020
                      BECMG 0106/0110 04015KT 3000 -TSRA SCT016
                       FEW017CB
                      BECMG 0112/0114 20004KT 7000 SCT018
                      TEMPO 0120/0123 15010KT 4000 -RA BKN017=
202511301700 TAF WIHH 301700Z 3018/0118 24003KT 5000 HZ FEW020
                      BECMG 0101/0103 03007KT 7000 SCT018=
202511301100 TAF WIHH 301100Z 3012/0112 18012KT 3000 -TSRA BKN015 FEW016CB
                      BECMG 3016/3018 24003KT 5000 HZ SCT020=
202511300500 TAF WIHH 300500Z 3006/0106 02008KT 7000 SCT018
                      TEMPO 3008/3011 16014KT 2000 -TSRA BKN016
                       FEW017CB
                      BECMG 3013/3015 22005KT 5000 HZ SCT020=
202511292300 TAF WIHH 292300Z 3000/0100 22008KT 9000 SCT020
                      TEMPO 3007/3010 36015KT 2000 -TSRA FEW016CB
                       BKN018
                      BECMG 3012/3012 16005KT 6000=
202511291700 TAF WIHH 291700Z 2918/3018 12008KT 8000 SCT020
                      BECMG 2921/2923 24005KT 5000 HZ
                      TEMPO 3007/3010 36015KT 2000 -TSRA FEW016CB
                       BKN018=
202511291100 TAF WIHH 291100Z 2912/3012 07008KT 8000 SCT020
                      BECMG 2916/2918 22006KT 5000 HZ=
202511290800 TAF AMD WIHH 290800Z 2908/3006 36010KT 6000 SCT020
                      TEMPO 2908/2911 21015KT 1000 -TSRA BKN016
                       FEW018CB
                      BECMG 2913/2915 20006KT 5000 HZ=
202511290500 TAF WIHH 290500Z 2906/3006 36010KT 9000 SCT020
                      BECMG 2913/2915 20006KT=
202511282300 TAF WIHH 282300Z 2900/3000 23010KT 8000 FEW020
                      BECMG 2905/2907 35012KT SCT018=
202511281700 TAF WIHH 281700Z 2818/2918 24004KT 7000 FEW022
                      BECMG 2900/2902 04007KT 5000 HZ SCT018=
202511281100 TAF WIHH 281100Z 2812/2912 16007KT 7000 SCT018
                      BECMG 2819/2821 20003KT 5000 HZ=
202511280500 TAF WIHH 280500Z 2806/2906 25008KT 7000 SCT020
                      TEMPO 2809/2812 16010KT 4000 -RA BKN016 FEW017CB
                       BECMG 2814/2816 22004KT 5000 HZ SCT018=
202511272300 TAF COR WIHH 272300Z 2800/2900 23006KT 8000 SCT020
                      BECMG 2806/2808 34015KT 7000 SCT018=
202511271700 TAF WIHH 271700Z 2718/2818 17005KT 6000 FEW020
                      BECMG 2721/2723 00000KT 5000 HZ SCT018
                      BECMG 2801/2803 25004KT 7000=
202511271100 TAF WIHH 271100Z 2712/2812 34005KT 6000 SCT017
                      TEMPO 2712/2715 27008KT 4000 -RA BKN016 FEW017CB
                       BECMG 2716/2718 21004KT 5000 HZ SCT018=
202511270500 TAF WIHH 270500Z 2706/2806 23012KT 7000 SCT018
                      TEMPO 2709/2712 31015KT 4000 -RA BKN016 FEW017CB
                       BECMG 2713/2715 18006KT 6000 SCT020=
202511262300 TAF WIHH 262300Z 2700/2800 24008KT 9999 FEW020
                      BECMG 2705/2707 33012KT 8000 SCT018=
202511261700 TAF WIHH 261700Z 2618/2718 23005KT 8000 FEW020
                      BECMG 2701/2703 28010KT 9999 SCT020=
202511261100 TAF WIHH 261100Z 2612/2712 20007KT 9999 FEW022
                      BECMG 2619/2621 23004KT=
202511260500 TAF WIHH 260500Z 2606/2706 27012KT 8000 SCT018
                      BECMG 2612/2614 18007KT 9999 FEW020=
202511252300 TAF WIHH 252300Z 2600/2700 24010KT 8000 SCT020
                      BECMG 2614/2616 18007KT=
202511251700 TAF WIHH 251700Z 2518/2618 24010KT 8000 SCT020
                      BECMG 2521/2523 18006KT=
202511251100 TAF WIHH 251100Z 2512/2612 28010KT 8000 SCT020
                      BECMG 2521/2523 22008KT=
202511250500 TAF WIHH 250500Z 2506/2606 26010KT 8000 SCT020
                      BECMG 2520/2522 20008KT SCT020=
202511242305 TAF WIHH 242305Z 2500/2600 27008KT 9999 FEW022
                      BECMG 2505/2507 24015KT SCT020=
202511241700 TAF WIHH 241700Z 2418/2518 25005KT 8000 FEW022
                      BECMG 2501/2503 28010KT=
202511241100 TAF WIHH 241100Z 2412/2512 24008KT 9999 FEW022
                      BECMG 2418/2420 20004KT=
202511240500 TAF WIHH 240500Z 2406/2506 27010KT 9999 SCT018
                      TEMPO 2409/2412 22014KT 4000 -RA BKN016 FEW017CB
                       BECMG 2413/2415 18007KT 8000 FEW020=
202511232300 TAF WIHH 232300Z 2400/2500 26010KT 7000 SCT020
                      TEMPO 2406/2409 31015KT 4000 -RA SCT016 FEW017CB
                       BECMG 2411/2413 19006KT 8000 NSW SCT017=
202511231700 TAF WIHH 231700Z 2318/2418 28008KT 8000 FEW020
                      BECMG 2321/2323 17004KT 6000 SCT018
                      BECMG 2401/2403 26006KT=
202511231100 TAF WIHH 231100Z 2312/2412 23008KT 7000 SCT018
                      BECMG 2317/2319 16005KT 5000 HZ SCT020=
202511230500 TAF WIHH 230500Z 2306/2406 24008KT 6000 SCT018
                      TEMPO 2306/2310 32010G22KT 2000 TSRA BKN015
                       FEW017CB
                      BECMG 2313/2315 15006KT 8000 SCT020=
202511222300 TAF WIHH 222300Z 2300/2400 24008KT 6000 FEW020
                      TEMPO 2302/2305 03006KT 4000 -RA SCT018
                      TEMPO 2306/2310 09015KT 3000 -TSRA FEW015CB
                       BKN016
                      BECMG 2312/2316 17005KT 8000=
202511221700 TAF WIHH 221700Z 2218/2318 25008KT 7000 SCT020
                      BECMG 2221/2223 18005KT 5000 HZ
                      TEMPO 2307/2311 04015KT 3000 -TSRA FEW016CB
                       BKN018=
202511221100 TAF WIHH 221100Z 2212/2312 24008KT 8000 SCT020
                      BECMG 2221/2223 18005KT 5000 HZ=
202511220500 TAF COR WIHH 220500Z 2206/2306 24008KT 6000 SCT020
                      TEMPO 2206/2210 30015KT 3000 -TSRA FEW016CB
                       BKN018
                      BECMG 2212/2214 21003KT 8000=
202511212300 TAF WIHH 212300Z 2200/2300 23005KT 6000 SCT020
                      TEMPO 2206/2210 27014KT 3000 -TSRA BKN015
                       FEW017CB
                      BECMG 2212/2214 15007KT 8000 SCT018 2219/2222
                       21010KT 4000 -RA BKN016=
202511211700 TAF WIHH 211700Z 2118/2218 25005KT 8000 SCT020
                      TEMPO 2206/2210 32008KT 3000 -TSRA BKN016
                       FEW017CB
                      BECMG 2212/2214 7000 NSW SCT016=
202511211100 TAF WIHH 211100Z 2112/2212 18007KT 7000 SCT018
                      BECMG 2119/2121 16004KT 5000 HZ SCT020=
202511210500 TAF WIHH 210500Z 2106/2206 25010KT 7000 SCT018
                      TEMPO 2108/2112 18014G25KT 3000 -TSRA BKN016
                       FEW017CB
                      BECMG 2113/2115 21005KT 8000 FEW020=
202511202300 TAF WIHH 202300Z 2100/2200 21008KT 8000 SCT018
                      TEMPO 2106/2110 29015KT 3000 -TSRA BKN015
                       FEW016CB
                      BECMG 2112/2114 23008KT 6000 SCT017=
202511201700 TAF WIHH 201700Z 2018/2118 28008KT 8000 SCT020
                      BECMG 2021/2023 22004KT 5000 HZ SCT018=
202511201100 TAF WIHH 201100Z 2012/2112 30008KT 6000 -RA BKN015
                      BECMG 2013/2016 24007KT 7000 SCT018
                      BECMG 2020/2023 15004KT 4000 BR=
202511200500 TAF WIHH 200500Z 2006/2106 32012KT 7000 SCT015
                      TEMPO 2006/2010 22015KT 3000 -TSRA BKN015
                       FEW016CB
                      BECMG 2012/2015 28007KT 6000 SCT018=
202511192300 TAF WIHH 192300Z 2000/2100 25006KT 7000 SCT018
                      TEMPO 2002/2005 30010KT 4000 -RA BKN016
                      TEMPO 2006/2010 27014KT 3000 -TSRA BKN015
                       FEW016CB
                      BECMG 2012/2014 22005KT 8000 FEW020=
202511191700 TAF WIHH 191700Z 1918/2018 20005KT 7000 FEW020
                      TEMPO 1920/1923 00000KT 5000 HZ SCT018=
202511191100 TAF WIHH 191100Z 1912/2012 27007KT 7000 SCT018
                      BECMG 1918/1920 20004KT 5000 HZ=
202511190500 TAF WIHH 190500Z 1906/2006 32010KT 6000 SCT016
                      TEMPO 1906/1910 26014G25KT 2000 TSRA BKN014
                       FEW017CB
                      BECMG 1913/1915 19003KT 7000 SCT020=
202511182301 TAF WIHH 182301Z 1900/2000 18005KT 7000 SCT020
                      TEMPO 1907/1911 26012G25KT 3000 -TSRA BKN015
                       FEW017CB
                      BECMG 1912/1914 27006KT 6000 SCT018=
202511182300 TAF WIHH 182300Z 1900/2000 18005KT 7000 SCT020
                      TEMPO 1907/1911 26012G25KT -TSRA 3000 BKN015
                       FEW017CB
                      BECMG 1912/1914 27006KT 6000 SCT018=
202511181700 TAF WIHH 181700Z 1818/1918 25004KT 6000 SCT020
                      BECMG 1820/1823 17003KT 3000 BR SCT018
                      BECMG 1901/1903 28005KT=
202511181100 TAF WIHH 181100Z 1812/1912 22006KT 7000 SCT017
                      BECMG 1818/1820 18003KT 6000 SCT020=
202511180500 TAF WIHH 180500Z 1806/1906 32007KT 2000 -TSRA BKN015 FEW017CB
                      BECMG 1812/1814 26006KT 6000 SCT018
                      BECMG 1818/1820 18003KT 3000 BR=
202511172300 TAF WIHH 172300Z 1800/1900 25010KT 8000 SCT020
                      TEMPO 1802/1805 -RA BKN016 FEW017CB
                      TEMPO 1806/1810 21015KT 4000 -TSRA BKN015
                       FEW018CB
                      BECMG 1812/1814 27006KT 7000 NSW=
202511171700 TAF WIHH 171700Z 1718/1818 23005KT 8000 SCT020
                      TEMPO 1801/1804 -RA BKN016 FEW017CB
                      TEMPO 1806/1810 21005KT 4000 -TSRA BKN015
                       FEW018CB
                      BECMG 1812/1815 21003KT 7000 NSW=
202511171100 TAF WIHH 171100Z 1712/1812 21010KT 8000 SCT020
                      BECMG 1717/1719 25008KT 6000=
202511170500 TAF WIHH 170500Z 1706/1806 24010KT 8000 SCT020
                      TEMPO 1708/1711 27012G22KT 3000 -TSRA FEW016CB
                       BKN017
                      BECMG 1713/1715 22008KT 6000=
202511162300 TAF WIHH 162300Z 1700/1800 24010KT 8000 SCT020
                      TEMPO 1708/1711 27012G22KT 4000 -TSRA FEW016CB
                       BKN017=
202511161700 TAF WIHH 161700Z 1618/1718 24010KT 7000 SCT020
                      TEMPO 1707/1710 27012G22KT 4000 -TSRA FEW016CB
                       BKN017=
202511161100 TAF WIHH 161100Z 1612/1712 27010KT 8000 SCT020
                      BECMG 1620/1622 21008KT=
202511160500 TAF WIHH 160500Z 1606/1706 23010KT 8000 SCT020
                      TEMPO 1606/1610 34015KT 3000 -TSRA FEW017CB
                       BKN018
                      BECMG 1612/1614 28008KT 6000 SCT016=
202511152300 TAF WIHH 152300Z 1600/1700 27010KT 8000 SCT018
                      TEMPO 1606/1610 21014G25KT 3000 -TSRA BKN016
                       FEW017CB
                      BECMG 1612/1614 23005KT 6000 SCT020=
202511151700 TAF WIHH 151700Z 1518/1618 27005KT 7000 SCT018
                      TEMPO 1606/1610 22014G25KT 4000 -TSRA BKN016
                       FEW017CB=
202511151100 TAF WIHH 151100Z 1512/1612 28015KT 4000 -TSRA BKN016 FEW017CB
                      BECMG 1514/1516 22005KT 6000 SCT018=
202511150500 TAF WIHH 150500Z 1506/1606 30010KT 7000 SCT018
                      TEMPO 1508/1512 27014G25KT 3000 -TSRA BKN016
                       FEW017CB
                      BECMG 1514/1516 21005KT 5000 HZ=
202511142301 TAF WIHH 142301Z 1500/1600 29010KT 6000 SCT018
                      TEMPO 1507/1511 24015G25KT 3000 -TSRA BKN015
                       FEW017CB
                      BECMG 1512/1514 19005KT 5000 HZ SCT020=
202511142300 TAF WIHH 142300Z 1500/1600 29010KT 6000 SCT018
                      TEMPO 1507/1511 24015G25KT 3000 -TSRA BKN015
                       FEW017CB
                      BECMG 1512/14 190005 5000 HZ SCT020=
202511141700 TAF WIHH 141700Z 1418/1518 29010KT 8000 SCT018
                      BECMG 1520/1523 23004KT 5000 HZ SCT018
                      BECMG 1501/1503 7000 SCT020=
202511141100 TAF WIHH 141100Z 1412/1512 29013KT 7000 SCT018
                      TEMPO 1413/1416 22010KT 4000 -RA BKN017
                      BECMG 1417/1420 6000 SCT020=
202511140500 TAF WIHH 140500Z 1406/1506 25010KT 7000 SCT018
                      TEMPO 1407/1411 32015KT 4000 -TSRA BKN015
                       FEW017CB
                      BECMG 1413/1416 23007KT 6000 SCT017=
202511132300 TAF WIHH 132300Z 1400/1500 25010KT 8000 SCT020
                      TEMPO 1406/1410 29015KT 3000 -TSRA FEW017CB
                       BKN018=
202511131700 TAF WIHH 131700Z 1318/1418 24008KT 8000 SCT020
                      TEMPO 1406/1409 28015KT 3000 -RA FEW017CB
                       BKN018=
202511131100 TAF WIHH 131100Z 1312/1412 24010KT 7000 SCT020
                      BECMG 1314/1316 22010KT 9999=
202511130500 TAF WIHH 130500Z 1306/1406 25010KT 8000 SCT020
                      TEMPO 1307/1310 4000 -TSRA FEW017CB BKN018
                       BECMG 1312/1314 22010KT 9999=
202511122300 TAF WIHH 122300Z 1300/1400 24010KT 8000 SCT018
                      TEMPO 1303/1306 27014G25KT 4000 -RA
                      TEMPO 1307/1310 3000 -TSRA BKN016 FEW018CB
                       BECMG 1312/1314 20008KT 5000 HZ=
202511121700 TAF WIHH 121700Z 1218/1318 25004KT 8000 SCT020
                      BECMG 1301/1303 27012KT=
202511121100 TAF WIHH 121100Z 1212/1312 22010KT 8000 SCT018
                      TEMPO 1212/1215 4000 -RA BKN016 FEW018CB
                       BECMG 1216/1218 25005KT 5000 HZ=
202511120500 TAF WIHH 120500Z 1206/1306 25014G25KT 8000 SCT018
                      TEMPO 1210/1214 4000 -TSRA BKN015 FEW016CB
                       BECMG 1215/1217 21005KT 5000 HZ=
202511112301 TAF WIHH 112301Z 1200/1300 21008KT 7000 SCT020
                      TEMPO 1209/1212 27015KT 3000 -TSRA BKN015
                       FEW017CB
                      BECMG 1213/1216 6000 SCT018
                      TEMPO 1218/1221 24007KT 4000 -RA BKN018=
202511112300 TAF WIHH 112300Z 1200/1300 21008KT 7000 SCT020
                      TEMPO 1209/1212 27015KT 3000 -TSRA BKN15
                       FEW017CB
                      BECMG 1213/1216 6000 SCT018
                      TEMPO 1218/1221 24007KT 4000 -RA BKN018=
202511111700 TAF WIHH 111700Z 1118/1218 23008KT 7000 SCT017
                      TEMPO 1119/1122 29006KT 4000 -RA BKN017
                      BECMG 1200/1203 22005KT 6000 SCT020=
202511111100 TAF COR WIHH 111100Z 1112/1212 32010KT 7000 SCT017
                      TEMPO 1112/1115 25006KT 4000 -RA BKN017
                      BECMG 1116/1119 7000 SCT020=
202511110500 TAF WIHH 110500Z 1106/1206 25008KT 5000 HZ SCT017
                      TEMPO 1106/1110 33015KT 3000 -TSRA BKN016
                       FEW017CB
                      TEMPO 1112/1115 23008KT 4000 -RA BKN017
                      BECMG 1117/1120 6000=
202511102301 TAF WIHH 102301Z 1100/1200 25010KT 8000 SCT020
                      TEMPO 1100/1103 5000 -TSRA FEW017CB BKN018
                       TEMPO 1106/1110 31015KT 3000 -TSRA FEW015CB
                       BKN016
                      BECMG 1112/1114 27010KT 9999 SCT018=
202511102300 TAF WIHH 102300Z 1100/1200 25010KT 8000 SCT020
                      TEMPO 1100/1103 5000 -TSRA FEW017CB BKN18
                       TEMPO 1106/1110 31015KT 3000 -TSRA FEW015CB
                       BKN016
                      BECMG 1112/1114 27010KT 9999 SCT018=
202511101700 TAF WIHH 101700Z 1018/1118 24006KT 7000 SCT020
                      TEMPO 1107/1110 31015KT 3000 -TSRA FEW016CB
                       BKN018=
202511101100 TAF WIHH 101100Z 1012/1112 24008KT 8000 SCT018
                      BECMG 1021/1023 27005KT 5000 HZ FEW020=
202511100501 TAF WIHH 100501Z 1006/1106 28010KT 8000 SCT020
                      TEMPO 1007/1011 22012G25KT 3000 -TSRA BKN015
                       FEW017CB
                      TEMPO 1013/1017 28006KT 3000 -TSRA BKN014
                       FEW017CB
                      BECMG 1018/1022 25005KT 7000 SCT016
                      TEMPO 1100/1104 19010KT 3000 -TSRA BKN015
                       FEW016CB=
202511100500 TAF WIHH 100500Z 1006/1106 28010KT 8000 SCT020
                      TEMPO 1007/1011 22012G25KT 3000 -TSRA BKN015
                       FEW017CB
                      TEMPO 1013/1017 28006KT 3000 -TSRA BKN014
                       FEW017CB
                      BECMG 1018/1022 25005KT 7000 SCT016
                      TEMPO 1100/1104 19010KT 3000 -TSRA BKN015
                       FEW016CB=
202511092300 TAF WIHH 092300Z 1000/1100 23007KT 6000 SCT018
                      TEMPO 1002/1004 32010KT 4000 -RA BKN017
                      TEMPO 1006/1011 27012G25KT 3000 -TSRA BKN015
                       FEW017CB
                      BECMG 1013/1016 22005KT 7000=
202511091700 TAF WIHH 091700Z 0918/1018 2508KT 8000 FEW020
                      BECMG 0921/0923 17003KT 6000 SCT020
                      BECMG 1001/1003 23006KT 7000=
202511091100 TAF WIHH 091100Z 0912/1012 22010KT 6000 SCT018
                      TEMPO 0912/0915 29017KT 3000 -RA BKN016 FEW017
                       BECMG 0916/0919 23006KT 7000 SCT020=
202511090500 TAF WIHH 090500Z 0906/1006 33008KT 8000 SCT020
                      TEMPO 0907/0911 27015KT 3000 -TSRA BKN016
                       FEW017
                      BECMG 0913/0916 21006KT 7000 SCT018=
202511082300 TAF WIHH 082300Z 0900/1000 23007KT 7000 SCT020
                      TEMPO 0906/0910 30012KT 3000 -TSRA BKN015
                       FEW017
                      BECMG 0913/0916 24005KT 8000 SCT018=
202511081700 TAF WIHH 081700Z 0818/0918 29005KT 8000 SCT020
                      BECMG 0821/0823 21003KT 5000 HZ SCT018
                      BECMG 0901/0903 26007KT=
202511081100 TAF WIHH 081100Z 0812/0912 28005KT 6000 SCT017
                      TEMPO 0812/0815 21006KT 4000 -RA BKN016 FEW017CB
                       BECMG 0817/0820 27006KT 6000 NSW SCT018=
202511080501 TAF WIHH 080501Z 0806/0906 34006KT 4000 -RA BKN014
                      TEMPO 0808/0811 27012G22KT 3000 -TSRA BKN015
                       FEW017CB
                      BECMG 0813/0816 20005KT 7000 SCT018=
202511080500 TAF WIHH 080500Z 0806/0906 34006KT 4000 -RA BKNT014
                      TEMPO 0808/0711 27012G22KT 3000 -TSRA BKN015
                       FEW017CB
                      BECMG 0813/0816 20005KT 7000 SCT018=
202511072301 TAF WIHH 072301Z 0800/0900 25010KT 7000 SCT020
                      TEMPO 0802/0805 4000 -RA BKN018
                      TEMPO 0808/0811 27012G22KT 3000 -TSRA FEW016CB
                       BKN017=
202511072300 TAF WIHH 072300Z 0800/0900 25010KT 7000 SCT020
                      TEMPO 0802/0805 4000 -RA BKN018
                      TEMPO 0808/0711 27012G22KT 3000 -TSRA FEW016CB
                       BKN017=
202511071701 TAF WIHH 071701Z 0718/0818 21006KT 7000 SCT020
                      BECMG 0721/0723 27005KT 5000 HZ
                      TEMPO 0808/0811 24015KT 3000 -TSRA FEW016CB
                       BKN018=
202511071700 TAF WIHH 071700Z 0718/0818 21006KT 7000 SCT020
                      BECMG 0721/0723 27005KT 5000 HZ
                      TEMPO 0808/0711 24015KT 3000 -TSRA FEW016CB
                       BKN018=
202511071100 TAF WIHH 071100Z 0712/0812 24010KT 7000 SCT020
                      TEMPO 0712/0715 4000 -RA BKN016
                      BECMG 0717/0719 21005KT 5000 HZ=
202511070500 TAF WIHH 070500Z 0706/0806 24010KT 6000 SCT020
                      TEMPO 0707/0710 24013G23KT 3000 -TSRA FEW016CB
                       BKN018
                      BECMG 0712/0714 27010KT 8000 SCT016=
202511062300 TAF WIHH 062300Z 0700/0800 27010KT 7000 SCT020
                      TEMPO 0706/0710 22014G25KT 3000 -TSRA BKN016
                       FEW017CB
                      TEMPO 0718/0722 09008KT 4000 -TSRA SCT016
                       FEW018CB=
202511061700 TAF WIHH 061700Z 0618/0718 22005KT 8000 FEW020
                      BECMG 0701/0703 23010KT SCT020=
202511061100 TAF WIHH 061100Z 0612/0712 24010KT 8000 SCT020
                      BECMG 0618/0620 20005KT FEW020=
202511060500 TAF WIHH 060500Z 0606/0706 23016G25KT 8000 SCT018
                      TEMPO 0608/0612 3000 -TSRA BKN016 FEW017CB
                       BECMG 0614/0616 27006KT 6000 SCT020=
202511052300 TAF WIHH 052300Z 0600/0700 25006KT 9000 SCT020
                      TEMPO 0608/0612 32010G20KT 3000 -TSRA BKN015
                       FEW017CB
                      BECMG 0613/0615 18005KT 6000 SCT018=
202511051700 TAF WIHH 051700Z 0518/0618 27008KT 8000 SCT020
                      BECMG 0521/0523 15003KT 6000 SCT018
                      BECMG 0601/0603 23006KT=
202511051100 TAF WIHH 051100Z 0512/0612 26010KT 8000 SCT018
                      BECMG 0516/0519 18007KT 6000 SCT020=
202511050500 TAF WIHH 050500Z 0506/0606 30008KT 8000 SCT018
                      TEMPO 0509/0513 21010G20KT 3000 -RA BKN015
                       FEW017CB
                      BECMG 0515/0518 15005KT 13004KT 6000 SCT020=
202511042300 TAF WIHH 042300Z 0500/0600 14006KT 7000 SCT020
                      TEMPO 0501/0504 24008KT 4000 -RA BKN018
                      TEMPO 0506/0510 33010G20KT 3000 -TSRA FEW016CB
                       BKN017
                      BECMG 0512/0514 18005KT 5000 HZ=
202511041700 TAF WIHH 041700Z 0418/0518 18005KT 6000 FEW020
                      BECMG 0421/0423 VRB02KT 5000 HZ
                      TEMPO 0507/0510 33013KT 3000 -TSRA FEW016CB
                       BKN017=
202511041100 TAF WIHH 041100Z 0412/0512 20006KT 6000 SCT018
                      BECMG 0421/0423 VRB02KT 5000 HZ FEW020
                      BECMG 0502/0504 12005KT 7000=
202511040500 TAF WIHH 040500Z 0406/0506 34008KT 8000 SCT020
                      TEMPO 0408/0412 26015KT 3000 -TSRA FEW017CB
                       BKN018
                      BECMG 0414/0416 20005KT 6000 SCT020=
202511032300 TAF WIHH 032300Z 0400/0500 20005KT 5000 HZ FEW020
                      BECMG 0402/0404 28007KT 7000 SCT018
                      TEMPO 0408/0412 24012G22KT 3000 -TSRA BKN016
                       FEW017CB
                      BECMG 0414/0416 18003KT 6000 SCT020=
202511031700 TAF WIHH 031700Z 0318/0418 00000KT 5000 HZ FEW020
                      TEMPO 0407/0410 24012G25KT 2000 TSRA BKN015
                       FEW016CB=
202511031100 TAF WIHH 031100Z 0312/0412 12006KT 7000 SCT018
                      BECMG 0318/0320 20003KT 5000 HZ FEW020=
202511030500 TAF WIHH 030500Z 0306/0406 24010G22KT 7000 SCT018
                      TEMPO 0307/0311 3000 TSRA BKN015 FEW017CB
                       BECMG 0314/0316 14006KT 6000 SCT020=
202511022300 TAF WIHH 022300Z 0300/0400 16005KT 5000 HZ FEW020
                      BECMG 0301/0303 32010KT 7000 SCT018
                      TEMPO 0306/0310 23014KT 2000 TSRA BKN015
                       FEW017CB
                      BECMG 0312/0314 12006KT 6000 SCT020=
202511021700 TAF WIHH 021700Z 0218/0318 22003KT 7000 FEW020
                      BECMG 0221/0223 15005KT 5000 HZ
                      TEMPO 0306/0309 30014KT 3000 -TSRA BKN016
                       FEW017CB=
202511021100 TAF WIHH 021100Z 0212/0312 23006KT 4000 -RA BKN015 FEW017CB
                      BECMG 0214/0216 16003KT 5000 HZ SCT020=
202511020550 TAF COR WIHH 020550Z 0206/0306 03010KT 7000 SCT018
                      TEMPO 0206/0210 22012G24KT 3000 -TSRA BKN015
                       FEW016CB
                      BECMG 0214/0216 16003KT 5000 HZ FEW020=
202511020500 TAF WIHH 020500Z 0206/0306 03010KT 7000 SCT018
                      TEMPO 0208/0312 22012G24KT 3000 -TSRA BKN015
                       FEW016CB
                      BECMG 0214/0216 16003KT 5000 HZ FEW020=
202511012300 TAF WIHH 012300Z 0200/0300 22006KT 7000 SCT020
                      TEMPO 0203/0206 18005KT 4000 -RA BKN018
                      TEMPO 0209/0212 35015KT 3000 TSRA FEW016CB
                       BKN017
                      BECMG 0214/0216 26005KT 5000 HZ=
202511011700 TAF WIHH 011700Z 0118/0218 34008KT 6000 SCT020
                      BECMG 0121/0123 VRB02KT 5000 HZ FEW022
                      TEMPO 0207/0210 34015KT 3000 FEW016CB BKN018=
202511011100 TAF WIHH 011100Z 0112/0212 34008KT 8000 SCT020
                      TEMPO 0113/0116 12010KT 4000 -RA BKN018
                      BECMG 0117/0119 VRB02KT 5000 HZ FEW022=
202511010500 TAF WIHH 010500Z 0106/0206 34008KT 8000 SCT020
                      TEMPO 0108/0111 22010G25KT 3000 -TSRA FEW015CB
                       BKN016
                      TEMPO 0113/0116 12010KT 4000 -RA BKN018
                      BECMG 0117/0119 VRB02KT 5000 HZ FEW022=
