##########################################################
# Query made at 05/05/2026 03:32:48 UTC
# Time interval: from 11/01/2022 00:00  to 11/30/2022 23:59  UTC
##########################################################

##########################################################
# WIHH, Jakarta Halim Perdanakusuma (Indonesia)
# WMO index: 96747. WIGOS ID: Unknown
# Latitude 06-15S. Longitude 106-54E. Altitude 30 m.
##########################################################

###################################
#  METAR/SPECI from WIHH
###################################
202211302330 METAR WIHH NIL=
202211302300 METAR WIHH NIL=
202211302230 METAR WIHH NIL=
202211302200 METAR WIHH NIL=
202211302130 METAR WIHH NIL=
202211302100 METAR WIHH NIL=
202211302030 METAR WIHH NIL=
202211302000 METAR WIHH NIL=
202211301930 METAR WIHH NIL=
202211301900 METAR WIHH NIL=
202211301830 METAR WIHH NIL=
202211301800 METAR WIHH NIL=
202211301730 METAR WIHH NIL=
202211301700 METAR WIHH NIL=
202211301630 METAR WIHH NIL=
202211301600 METAR WIHH NIL=
202211301530 METAR WIHH NIL=
202211301500 METAR WIHH NIL=
202211301430 METAR WIHH NIL=
202211301400 METAR WIHH NIL=
202211301330 METAR WIHH NIL=
202211301300 METAR WIHH NIL=
202211301230 METAR WIHH NIL=
202211301200 METAR WIHH NIL=
202211301130 METAR WIHH NIL=
202211301100 METAR WIHH NIL=
202211301030 METAR WIHH NIL=
202211301000 METAR WIHH NIL=
202211300930 METAR WIHH NIL=
202211300900 METAR WIHH NIL=
202211300830 METAR WIHH NIL=
202211300800 METAR WIHH NIL=
202211300730 METAR WIHH NIL=
202211300700 METAR WIHH NIL=
202211300630 METAR WIHH NIL=
202211300600 METAR WIHH NIL=
202211300530 METAR WIHH NIL=
202211300500 METAR WIHH NIL=
202211300430 METAR WIHH NIL=
202211300400 METAR WIHH NIL=
202211300330 METAR WIHH NIL=
202211300300 METAR WIHH NIL=
202211300230 METAR WIHH NIL=
202211300200 METAR WIHH NIL=
202211300130 METAR WIHH NIL=
202211300100 METAR WIHH NIL=
202211300030 METAR WIHH NIL=
202211300000 METAR WIHH NIL=
202211292330 METAR WIHH NIL=
202211292300 METAR WIHH NIL=
202211292230 METAR WIHH NIL=
202211292200 METAR WIHH NIL=
202211292130 METAR WIHH NIL=
202211292100 METAR WIHH NIL=
202211292030 METAR WIHH NIL=
202211292000 METAR WIHH NIL=
202211291930 METAR WIHH NIL=
202211291900 METAR WIHH NIL=
202211291830 METAR WIHH NIL=
202211291800 METAR WIHH NIL=
202211291730 METAR WIHH NIL=
202211291700 METAR WIHH NIL=
202211291630 METAR WIHH NIL=
202211291600 METAR WIHH NIL=
202211291530 METAR WIHH NIL=
202211291500 METAR WIHH NIL=
202211291430 METAR WIHH NIL=
202211291400 METAR WIHH NIL=
202211291330 METAR WIHH NIL=
202211291300 METAR WIHH NIL=
202211291230 METAR WIHH NIL=
202211291200 METAR WIHH NIL=
202211291130 METAR WIHH NIL=
202211291100 METAR WIHH NIL=
202211291030 METAR WIHH NIL=
202211291000 METAR WIHH NIL=
202211290930 METAR WIHH NIL=
202211290900 METAR WIHH NIL=
202211290830 METAR WIHH NIL=
202211290800 METAR WIHH NIL=
202211290730 METAR WIHH NIL=
202211290700 METAR WIHH NIL=
202211290630 METAR WIHH NIL=
202211290600 METAR WIHH NIL=
202211290530 METAR WIHH NIL=
202211290500 METAR WIHH NIL=
202211290430 METAR WIHH NIL=
202211290400 METAR WIHH NIL=
202211290330 METAR WIHH NIL=
202211290300 METAR WIHH NIL=
202211290230 METAR WIHH NIL=
202211290200 METAR WIHH NIL=
202211290130 METAR WIHH NIL=
202211290100 METAR WIHH NIL=
202211290030 METAR WIHH NIL=
202211290000 METAR WIHH NIL=
202211282330 METAR WIHH NIL=
202211282300 METAR WIHH NIL=
202211282230 METAR WIHH NIL=
202211282200 METAR WIHH NIL=
202211282130 METAR WIHH NIL=
202211282100 METAR WIHH NIL=
202211282030 METAR WIHH NIL=
202211282000 METAR WIHH NIL=
202211281930 METAR WIHH NIL=
202211281900 METAR WIHH NIL=
202211281830 METAR WIHH NIL=
202211281800 METAR WIHH NIL=
202211281730 METAR WIHH NIL=
202211281700 METAR WIHH NIL=
202211281630 METAR WIHH NIL=
202211281600 METAR WIHH NIL=
202211281530 METAR WIHH NIL=
202211281500 METAR WIHH NIL=
202211281430 METAR WIHH NIL=
202211281400 METAR WIHH NIL=
202211281330 METAR WIHH NIL=
202211281300 METAR WIHH NIL=
202211281230 METAR WIHH NIL=
202211281200 METAR WIHH NIL=
202211281130 METAR WIHH NIL=
202211281100 METAR WIHH NIL=
202211281030 METAR WIHH NIL=
202211281000 METAR WIHH NIL=
202211280930 METAR WIHH NIL=
202211280900 METAR WIHH NIL=
202211280830 METAR WIHH NIL=
202211280800 METAR WIHH NIL=
202211280730 METAR WIHH NIL=
202211280700 METAR WIHH NIL=
202211280630 METAR WIHH NIL=
202211280600 METAR WIHH NIL=
202211280530 METAR WIHH NIL=
202211280500 METAR WIHH NIL=
202211280430 METAR WIHH NIL=
202211280400 METAR WIHH NIL=
202211280330 METAR WIHH NIL=
202211280300 METAR WIHH NIL=
202211280230 METAR WIHH NIL=
202211280200 METAR WIHH NIL=
202211280130 METAR WIHH NIL=
202211280100 METAR WIHH NIL=
202211280030 METAR WIHH NIL=
202211280000 METAR WIHH NIL=
202211272330 METAR WIHH NIL=
202211272300 METAR WIHH NIL=
202211272230 METAR WIHH NIL=
202211272200 METAR WIHH NIL=
202211272130 METAR WIHH NIL=
202211272100 METAR WIHH NIL=
202211272030 METAR WIHH NIL=
202211272000 METAR WIHH NIL=
202211271930 METAR WIHH NIL=
202211271900 METAR WIHH NIL=
202211271830 METAR WIHH NIL=
202211271800 METAR WIHH NIL=
202211271730 METAR WIHH NIL=
202211271700 METAR WIHH NIL=
202211271630 METAR WIHH NIL=
202211271600 METAR WIHH NIL=
202211271530 METAR WIHH NIL=
202211271500 METAR WIHH NIL=
202211271430 METAR WIHH NIL=
202211271400 METAR WIHH NIL=
202211271330 METAR WIHH NIL=
202211271300 METAR WIHH NIL=
202211271230 METAR WIHH NIL=
202211271200 METAR WIHH NIL=
202211271130 METAR WIHH NIL=
202211271100 METAR WIHH NIL=
202211271030 METAR WIHH NIL=
202211271000 METAR WIHH NIL=
202211270930 METAR WIHH NIL=
202211270900 METAR WIHH NIL=
202211270830 METAR WIHH NIL=
202211270800 METAR WIHH NIL=
202211270730 METAR WIHH NIL=
202211270700 METAR WIHH NIL=
202211270630 METAR WIHH NIL=
202211270600 METAR WIHH NIL=
202211270530 METAR WIHH NIL=
202211270500 METAR WIHH NIL=
202211270430 METAR WIHH NIL=
202211270400 METAR WIHH NIL=
202211270330 METAR WIHH NIL=
202211270300 METAR WIHH NIL=
202211270230 METAR WIHH NIL=
202211270200 METAR WIHH NIL=
202211270130 METAR WIHH NIL=
202211270100 METAR WIHH NIL=
202211270030 METAR WIHH NIL=
202211270000 METAR WIHH NIL=
202211262330 METAR WIHH NIL=
202211262300 METAR WIHH NIL=
202211262230 METAR WIHH NIL=
202211262200 METAR WIHH NIL=
202211262130 METAR WIHH NIL=
202211262100 METAR WIHH NIL=
202211262030 METAR WIHH NIL=
202211262000 METAR WIHH NIL=
202211261930 METAR WIHH NIL=
202211261900 METAR WIHH NIL=
202211261830 METAR WIHH NIL=
202211261800 METAR WIHH NIL=
202211261730 METAR WIHH NIL=
202211261700 METAR WIHH NIL=
202211261630 METAR WIHH NIL=
202211261600 METAR WIHH NIL=
202211261530 METAR WIHH NIL=
202211261500 METAR WIHH NIL=
202211261430 METAR WIHH NIL=
202211261400 METAR WIHH NIL=
202211261330 METAR WIHH NIL=
202211261300 METAR WIHH NIL=
202211261230 METAR WIHH NIL=
202211261200 METAR WIHH NIL=
202211261130 METAR WIHH NIL=
202211261100 METAR WIHH NIL=
202211261030 METAR WIHH NIL=
202211261000 METAR WIHH NIL=
202211260930 METAR WIHH NIL=
202211260900 METAR WIHH NIL=
202211260830 METAR WIHH NIL=
202211260800 METAR WIHH NIL=
202211260730 METAR WIHH NIL=
202211260700 METAR WIHH NIL=
202211260630 METAR WIHH NIL=
202211260600 METAR WIHH NIL=
202211260530 METAR WIHH NIL=
202211260500 METAR WIHH NIL=
202211260430 METAR WIHH NIL=
202211260400 METAR WIHH NIL=
202211260330 METAR WIHH NIL=
202211260300 METAR WIHH NIL=
202211260230 METAR WIHH NIL=
202211260200 METAR WIHH NIL=
202211260130 METAR WIHH NIL=
202211260100 METAR WIHH NIL=
202211260030 METAR WIHH NIL=
202211260000 METAR WIHH NIL=
202211252330 METAR WIHH NIL=
202211252300 METAR WIHH NIL=
202211252230 METAR WIHH NIL=
202211252200 METAR WIHH NIL=
202211252130 METAR WIHH NIL=
202211252100 METAR WIHH NIL=
202211252030 METAR WIHH NIL=
202211252000 METAR WIHH NIL=
202211251930 METAR WIHH NIL=
202211251900 METAR WIHH NIL=
202211251830 METAR WIHH NIL=
202211251800 METAR WIHH NIL=
202211251730 METAR WIHH NIL=
202211251700 METAR WIHH NIL=
202211251630 METAR WIHH NIL=
202211251600 METAR WIHH NIL=
202211251530 METAR WIHH NIL=
202211251500 METAR WIHH NIL=
202211251430 METAR WIHH NIL=
202211251400 METAR WIHH NIL=
202211251330 METAR WIHH NIL=
202211251300 METAR WIHH NIL=
202211251230 METAR WIHH NIL=
202211251200 METAR WIHH NIL=
202211251130 METAR WIHH NIL=
202211251100 METAR WIHH NIL=
202211251030 METAR WIHH NIL=
202211251000 METAR WIHH NIL=
202211250930 METAR WIHH NIL=
202211250900 METAR WIHH NIL=
202211250830 METAR WIHH NIL=
202211250800 METAR WIHH NIL=
202211250730 METAR WIHH NIL=
202211250700 METAR WIHH NIL=
202211250630 METAR WIHH NIL=
202211250600 METAR WIHH NIL=
202211250530 METAR WIHH NIL=
202211250500 METAR WIHH NIL=
202211250430 METAR WIHH NIL=
202211250400 METAR WIHH NIL=
202211250330 METAR WIHH NIL=
202211250300 METAR WIHH NIL=
202211250230 METAR WIHH NIL=
202211250200 METAR WIHH NIL=
202211250130 METAR WIHH NIL=
202211250100 METAR WIHH NIL=
202211250030 METAR WIHH NIL=
202211250000 METAR WIHH NIL=
202211242330 METAR WIHH NIL=
202211242300 METAR WIHH NIL=
202211242230 METAR WIHH NIL=
202211242200 METAR WIHH NIL=
202211242130 METAR WIHH NIL=
202211242100 METAR WIHH NIL=
202211242030 METAR WIHH NIL=
202211242000 METAR WIHH NIL=
202211241930 METAR WIHH NIL=
202211241900 METAR WIHH NIL=
202211241830 METAR WIHH NIL=
202211241800 METAR WIHH NIL=
202211241730 METAR WIHH NIL=
202211241700 METAR WIHH NIL=
202211241630 METAR WIHH NIL=
202211241600 METAR WIHH NIL=
202211241530 METAR WIHH NIL=
202211241500 METAR WIHH NIL=
202211241430 METAR WIHH NIL=
202211241400 METAR WIHH NIL=
202211241330 METAR WIHH NIL=
202211241300 METAR WIHH NIL=
202211241230 METAR WIHH NIL=
202211241200 METAR WIHH NIL=
202211241130 METAR WIHH NIL=
202211241100 METAR WIHH NIL=
202211241030 METAR WIHH NIL=
202211241000 METAR WIHH NIL=
202211240930 METAR WIHH NIL=
202211240900 METAR WIHH 240900Z 24005KT 6000 SCT018 27/24 Q1007 RMK RA TO SW=
202211240830 METAR WIHH 240830Z 23006KT 5000 -RA SCT018 25/23 Q1008 NOSIG=
202211240800 METAR WIHH 240800Z 21010KT 4000 -RA BKN018 27/24 Q1008 TEMPO TL0830 4000 -RA BKN016=
202211240730 METAR WIHH 240730Z 27012KT 6000 SCT018 30/23 Q1007 RMK RA TO S-SW=
202211240700 METAR WIHH 240700Z 28012KT 5000 -RA SCT018 30/23 Q1008 NOSIG=
202211240630 METAR WIHH NIL=
202211240600 METAR WIHH 240600Z 29009KT 6000 SCT018 30/22 Q1008 RMK RA TO E=
202211240530 METAR WIHH 240530Z 24012KT 6000 SCT018 31/23 Q1008 RMK RA TO E=
202211240500 METAR WIHH 240500Z 28010KT 6000 SCT018 32/23 Q1009 NOSIG=
202211240430 METAR WIHH NIL=
202211240400 METAR WIHH 240400Z 24015KT 6000 SCT018 32/23 Q1010 NOSIG=
202211240330 METAR WIHH 240330Z 24015KT 6000 SCT018 29/23 Q1010 RMK RA TO SE=
202211240300 METAR WIHH 240300Z 24011KT 6000 SCT018 29/23 Q1010 NOSIG=
202211240230 METAR WIHH 240230Z 27008KT 6000 SCT018 30/23 Q1010 NOSIG=
202211240200 METAR WIHH 240200Z 27006KT 6000 SCT018 29/23 Q1011 NOSIG=
202211240130 METAR WIHH 240130Z 24004KT 6000 SCT018 29/24 Q1011 NOSIG=
202211240100 METAR WIHH NIL=
202211240030 METAR WIHH 240030Z 27008KT 6000 SCT020 27/23 Q1010 RMK RA TO SE=
202211240000 METAR WIHH NIL=
202211232330 METAR WIHH NIL=
202211232300 METAR WIHH NIL=
202211232230 METAR WIHH NIL=
202211232200 METAR WIHH NIL=
202211232130 METAR WIHH NIL=
202211232100 METAR WIHH NIL=
202211232030 METAR WIHH NIL=
202211232000 METAR WIHH NIL=
202211231930 METAR WIHH NIL=
202211231900 METAR WIHH NIL=
202211231830 METAR WIHH NIL=
202211231800 METAR WIHH NIL=
202211231730 METAR WIHH NIL=
202211231700 METAR WIHH NIL=
202211231630 METAR WIHH NIL=
202211231600 METAR WIHH NIL=
202211231530 METAR WIHH NIL=
202211231500 METAR WIHH NIL=
202211231430 METAR WIHH NIL=
202211231400 METAR WIHH NIL=
202211231330 METAR WIHH NIL=
202211231300 METAR WIHH NIL=
202211231230 METAR WIHH NIL=
202211231200 METAR WIHH NIL=
202211231130 METAR WIHH NIL=
202211231100 METAR WIHH NIL=
202211231030 METAR WIHH NIL=
202211231000 METAR WIHH NIL=
202211230930 METAR WIHH 230930Z 16003KT 6000 -RA SCT020 29/23 Q1007 NOSIG=
202211230900 METAR WIHH 230900Z 33003KT 6000 SCT020 30/23 Q1006 RMK RA TO NE=
202211230830 METAR WIHH 230830Z 27005KT 6000 FEW018CB SCT020 30/23 Q1006 RMK CB AND RA TO NW=
202211230800 METAR WIHH NIL=
202211230730 METAR WIHH NIL=
202211230700 METAR WIHH 230700Z 24008KT 6000 FEW018CB SCT020 31/23 Q1007 RMK CB AND RA TO SE=
202211230630 METAR WIHH NIL=
202211230600 METAR WIHH NIL=
202211230530 METAR WIHH 230530Z 27005KT 6000 SCT020 32/23 Q1008 RMK RA TO W=
202211230500 METAR WIHH 230500Z 27005KT 6000 SCT020 33/23 Q1008 RMK RA TO NE=
202211230430 METAR WIHH NIL=
202211230400 METAR WIHH NIL=
202211230330 METAR WIHH 230330Z 26005KT 6000 SCT020 31/23 Q1009 NOSIG=
202211230300 METAR WIHH 230300Z 22003KT 6000 FEW020 31/22 Q1010 NOSIG=
202211230230 METAR WIHH 230230Z 22003KT 6000 FEW020 31/21 Q1010 NOSIG=
202211230200 METAR WIHH 230200Z 10003KT 6000 FEW022 30/21 Q1010 NOSIG=
202211230130 METAR WIHH 230130Z 23004KT 6000 FEW022 30/21 Q1010 NOSIG=
202211230100 METAR WIHH 230100Z 20004KT 6000 FEW022 29/22 Q1010 NOSIG=
202211230030 METAR WIHH 230030Z 24003KT 6000 FEW022 28/23 Q1010 NOSIG=
202211230000 METAR WIHH NIL=
202211222330 METAR WIHH NIL=
202211222300 METAR WIHH NIL=
202211222230 METAR WIHH NIL=
202211222200 METAR WIHH NIL=
202211222130 METAR WIHH NIL=
202211222100 METAR WIHH NIL=
202211222030 METAR WIHH NIL=
202211222000 METAR WIHH NIL=
202211221930 METAR WIHH NIL=
202211221900 METAR WIHH NIL=
202211221830 METAR WIHH NIL=
202211221800 METAR WIHH NIL=
202211221730 METAR WIHH NIL=
202211221700 METAR WIHH NIL=
202211221630 METAR WIHH NIL=
202211221600 METAR WIHH NIL=
202211221530 METAR WIHH NIL=
202211221500 METAR WIHH NIL=
202211221430 METAR WIHH NIL=
202211221400 METAR WIHH NIL=
202211221330 METAR WIHH NIL=
202211221300 METAR WIHH NIL=
202211221230 METAR WIHH NIL=
202211221200 METAR WIHH NIL=
202211221130 METAR WIHH NIL=
202211221100 METAR WIHH NIL=
202211221030 METAR WIHH NIL=
202211221000 METAR WIHH NIL=
202211220930 METAR WIHH NIL=
202211220900 METAR WIHH NIL=
202211220830 METAR WIHH NIL=
202211220800 METAR WIHH 220800Z 26017KT 8000 SCT018 32/24 Q1005 NOSIG=
202211220730 METAR WIHH 220730Z 26017KT 8000 SCT018 32/24 Q1005 NOSIG=
202211220700 METAR WIHH 220700Z 24017KT 8000 SCT018 33/23 Q1005 NOSIG=
202211220630 METAR WIHH 220630Z 24017KT 8000 SCT018 34/23 Q1005 NOSIG=
202211220600 METAR WIHH NIL=
202211220530 METAR WIHH 220530Z 26012KT 8000 SCT018 33/22 Q1007 NOSIG=
202211220500 METAR WIHH 220500Z 25011KT 8000 SCT018 33/22 Q1007 NOSIG=
202211220430 METAR WIHH NIL=
202211220400 METAR WIHH 220400Z 25010KT 8000 FEW020 33/23 Q1008 NOSIG=
202211220330 METAR WIHH NIL=
202211220300 METAR WIHH NIL=
202211220230 METAR WIHH 220230Z 25012KT 8000 FEW020 31/23 Q1009 NOSIG=
202211220200 METAR WIHH NIL=
202211220130 METAR WIHH 220130Z 23008KT 7000 FEW020 30/23 Q1009 NOSIG=
202211220100 METAR WIHH NIL=
202211220030 METAR WIHH NIL=
202211220000 METAR WIHH NIL=
202211212330 METAR WIHH NIL=
202211212300 METAR WIHH NIL=
202211212230 METAR WIHH NIL=
202211212200 METAR WIHH NIL=
202211212130 METAR WIHH NIL=
202211212100 METAR WIHH NIL=
202211212030 METAR WIHH NIL=
202211212000 METAR WIHH NIL=
202211211930 METAR WIHH NIL=
202211211900 METAR WIHH NIL=
202211211830 METAR WIHH NIL=
202211211800 METAR WIHH NIL=
202211211730 METAR WIHH NIL=
202211211700 METAR WIHH NIL=
202211211630 METAR WIHH NIL=
202211211600 METAR WIHH NIL=
202211211530 METAR WIHH NIL=
202211211500 METAR WIHH NIL=
202211211430 METAR WIHH NIL=
202211211400 METAR WIHH NIL=
202211211330 METAR WIHH NIL=
202211211300 METAR WIHH NIL=
202211211230 METAR WIHH NIL=
202211211200 METAR WIHH NIL=
202211211130 METAR WIHH NIL=
202211211100 METAR WIHH NIL=
202211211030 METAR WIHH NIL=
202211211000 METAR WIHH 211000Z 24015KT 8000 FEW020 31/21 Q1005 NOSIG=
202211210930 METAR WIHH 210930Z 24015KT 8000 FEW020 31/21 Q1004 NOSIG=
202211210900 METAR WIHH 210900Z 24015KT 8000 FEW020 32/21 Q1004 NOSIG=
202211210830 METAR WIHH 210830Z 24015KT 7000 FEW020 32/21 Q1004 NOSIG=
202211210800 METAR WIHH 210800Z 24012KT 7000 SCT018 33/21 Q1004 NOSIG=
202211210730 METAR WIHH NIL=
202211210700 METAR WIHH 210700Z 24015KT 7000 SCT018 33/23 Q1005 NOSIG=
202211210630 METAR WIHH 210630Z 27015KT 7000 SCT018 33/23 Q1005 NOSIG=
202211210600 METAR WIHH 210600Z 27015KT 7000 SCT018 33/23 Q1006 NOSIG=
202211210530 METAR WIHH 210530Z 24015KT 7000 SCT018 33/22 Q1006 NOSIG=
202211210500 METAR WIHH 210500Z 27008KT 7000 SCT018 33/22 Q1006 NOSIG=
202211210430 METAR WIHH 210430Z 24010KT 7000 FEW020 33/23 Q1007 NOSIG=
202211210400 METAR WIHH 210400Z 27010KT 7000 FEW020 33/23 Q1007 NOSIG=
202211210330 METAR WIHH 210330Z 30008KT 7000 FEW020 31/21 Q1007 NOSIG=
202211210300 METAR WIHH 210300Z 24008KT 7000 FEW020 31/21 Q1008 NOSIG=
202211210230 METAR WIHH 210230Z 27008KT 7000 FEW020 31/22 Q1008 NOSIG=
202211210200 METAR WIHH 210200Z 27008KT 7000 FEW020 29/22 Q1008 NOSIG=
202211210130 METAR WIHH 210130Z 24010KT 7000 FEW020 29/23 Q1008 NOSIG=
202211210100 METAR WIHH 210100Z 24010KT 7000 FEW020 29/23 Q1008 NOSIG=
202211210030 METAR WIHH 210030Z 24005KT 7000 FEW020 27/23 Q1008 NOSIG=
202211210000 METAR WIHH NIL=
202211202330 METAR WIHH NIL=
202211202300 METAR WIHH NIL=
202211202230 METAR WIHH NIL=
202211202200 METAR WIHH NIL=
202211202130 METAR WIHH NIL=
202211202100 METAR WIHH NIL=
202211202030 METAR WIHH NIL=
202211202000 METAR WIHH NIL=
202211201930 METAR WIHH NIL=
202211201900 METAR WIHH NIL=
202211201830 METAR WIHH NIL=
202211201800 METAR WIHH NIL=
202211201730 METAR WIHH NIL=
202211201700 METAR WIHH NIL=
202211201630 METAR WIHH NIL=
202211201600 METAR WIHH NIL=
202211201530 METAR WIHH NIL=
202211201500 METAR WIHH NIL=
202211201430 METAR WIHH NIL=
202211201400 METAR WIHH NIL=
202211201330 METAR WIHH NIL=
202211201300 METAR WIHH NIL=
202211201230 METAR WIHH NIL=
202211201200 METAR WIHH NIL=
202211201130 METAR WIHH NIL=
202211201100 METAR WIHH NIL=
202211201030 METAR WIHH NIL=
202211201000 METAR WIHH NIL=
202211200930 METAR WIHH NIL=
202211200900 METAR WIHH NIL=
202211200800 METAR WIHH NIL=
202211200730 METAR WIHH NIL=
202211200700 METAR WIHH NIL=
202211200630 METAR WIHH NIL=
202211200600 METAR WIHH NIL=
202211200530 METAR WIHH NIL=
202211200500 METAR WIHH NIL=
202211200430 METAR WIHH NIL=
202211200400 METAR WIHH NIL=
202211200330 METAR WIHH NIL=
202211200300 METAR WIHH NIL=
202211200230 METAR WIHH NIL=
202211200200 METAR WIHH NIL=
202211200130 METAR WIHH NIL=
202211200100 METAR WIHH NIL=
202211200030 METAR WIHH NIL=
202211200000 METAR WIHH NIL=
202211192330 METAR WIHH NIL=
202211192300 METAR WIHH NIL=
202211192230 METAR WIHH NIL=
202211192200 METAR WIHH NIL=
202211192130 METAR WIHH NIL=
202211192100 METAR WIHH NIL=
202211192030 METAR WIHH NIL=
202211192000 METAR WIHH NIL=
202211191930 METAR WIHH NIL=
202211191900 METAR WIHH NIL=
202211191800 METAR WIHH NIL=
202211191730 METAR WIHH NIL=
202211191700 METAR WIHH NIL=
202211191630 METAR WIHH NIL=
202211191600 METAR WIHH NIL=
202211191530 METAR WIHH NIL=
202211191500 METAR WIHH NIL=
202211191430 METAR WIHH NIL=
202211191400 METAR WIHH NIL=
202211191330 METAR WIHH NIL=
202211191300 METAR WIHH NIL=
202211191230 METAR WIHH NIL=
202211191200 METAR WIHH NIL=
202211191130 METAR WIHH NIL=
202211191100 METAR WIHH NIL=
202211191030 METAR WIHH NIL=
202211191000 METAR WIHH NIL=
202211190930 METAR WIHH NIL=
202211190900 METAR WIHH NIL=
202211190830 METAR WIHH NIL=
202211190800 METAR WIHH NIL=
202211190730 METAR WIHH NIL=
202211190700 METAR WIHH NIL=
202211190630 METAR WIHH NIL=
202211190600 METAR WIHH NIL=
202211190530 METAR WIHH NIL=
202211190500 METAR WIHH NIL=
202211190430 METAR WIHH NIL=
202211190400 METAR WIHH NIL=
202211190330 METAR WIHH NIL=
202211190300 METAR WIHH NIL=
202211190230 METAR WIHH NIL=
202211190200 METAR WIHH NIL=
202211190130 METAR WIHH NIL=
202211190100 METAR WIHH NIL=
202211190030 METAR WIHH NIL=
202211190000 METAR WIHH NIL=
202211182330 METAR WIHH NIL=
202211182300 METAR WIHH NIL=
202211182230 METAR WIHH NIL=
202211182200 METAR WIHH NIL=
202211182130 METAR WIHH NIL=
202211182100 METAR WIHH NIL=
202211182030 METAR WIHH NIL=
202211182000 METAR WIHH NIL=
202211181930 METAR WIHH NIL=
202211181900 METAR WIHH NIL=
202211181830 METAR WIHH NIL=
202211181800 METAR WIHH NIL=
202211181730 METAR WIHH NIL=
202211181700 METAR WIHH NIL=
202211181630 METAR WIHH NIL=
202211181600 METAR WIHH NIL=
202211181530 METAR WIHH NIL=
202211181500 METAR WIHH NIL=
202211181430 METAR WIHH NIL=
202211181400 METAR WIHH NIL=
202211181330 METAR WIHH NIL=
202211181300 METAR WIHH NIL=
202211181230 METAR WIHH NIL=
202211181200 METAR WIHH NIL=
202211181130 METAR WIHH NIL=
202211181100 METAR WIHH NIL=
202211181030 METAR WIHH NIL=
202211181000 METAR WIHH 181000Z 27015KT 6000 SCT020 27/24 Q1006 RMK RA TO SE=
202211180930 METAR WIHH 180930Z 25015KT 6000 SCT020 27/24 Q1006 RMK RA TO NE-E=
202211180900 METAR WIHH 180900Z 24015KT 6000 SCT020 28/24 Q1005 RMK RA TO N-SE=
202211180830 METAR WIHH 180830Z 27008KT 7000 SCT020 31/23 Q1005 NOSIG=
202211180800 METAR WIHH 180800Z 33007KT 7000 SCT020 32/22 Q1005 NOSIG=
202211180730 METAR WIHH 180730Z 28007KT 7000 SCT020 32/22 Q1005 NOSIG=
202211180700 METAR WIHH 180700Z 26010KT 7000 SCT020 32/22 Q1005 NOSIG=
202211180630 METAR WIHH 180630Z 27010KT 7000 SCT020 32/22 Q1005 NOSIG=
202211180600 METAR WIHH 180600Z 26010KT 7000 SCT020 32/22 Q1006 NOSIG=
202211180530 METAR WIHH 180530Z 26010KT 7000 SCT018 32/23 Q1006 NOSIG=
202211180500 METAR WIHH 180500Z 28010KT 7000 SCT018 32/22 Q1007 NOSIG=
202211180430 METAR WIHH 180430Z 24010KT 7000 SCT020 32/22 Q1007 NOSIG=
202211180400 METAR WIHH 180400Z 26006KT 7000 FEW020 32/22 Q1007 NOSIG=
202211180330 METAR WIHH 180330Z 23007KT 7000 FEW020 31/23 Q1008 NOSIG=
202211180300 METAR WIHH 180300Z 26006KT 7000 FEW020 30/24 Q1008 NOSIG=
202211180230 METAR WIHH 180230Z 28005KT 7000 FEW020 30/24 Q1008 NOSIG=
202211180200 METAR WIHH 180200Z 22008KT 6000 FEW020 29/24 Q1009 NOSIG=
202211180130 METAR WIHH 180130Z 23006KT 6000 FEW020 28/24 Q1009 NOSIG=
202211180100 METAR WIHH 180100Z 24007KT 6000 FEW020 28/24 Q1009 NOSIG=
202211180030 METAR WIHH 180030Z 25005KT 6000 FEW020 27/24 Q1009 NOSIG=
202211180000 METAR WIHH NIL=
202211172330 METAR WIHH NIL=
202211172300 METAR WIHH NIL=
202211172230 METAR WIHH NIL=
202211172200 METAR WIHH NIL=
202211172130 METAR WIHH NIL=
202211172100 METAR WIHH NIL=
202211172030 METAR WIHH NIL=
202211172000 METAR WIHH NIL=
202211171930 METAR WIHH NIL=
202211171900 METAR WIHH NIL=
202211171830 METAR WIHH NIL=
202211171800 METAR WIHH NIL=
202211171730 METAR WIHH NIL=
202211171700 METAR WIHH NIL=
202211171630 METAR WIHH NIL=
202211171600 METAR WIHH NIL=
202211171530 METAR WIHH NIL=
202211171500 METAR WIHH NIL=
202211171430 METAR WIHH NIL=
202211171400 METAR WIHH NIL=
202211171330 METAR WIHH NIL=
202211171300 METAR WIHH NIL=
202211171230 METAR WIHH NIL=
202211171200 METAR WIHH NIL=
202211171130 METAR WIHH NIL=
202211171100 METAR WIHH NIL=
202211171030 METAR WIHH NIL=
202211171000 METAR WIHH NIL=
202211170930 METAR WIHH NIL=
202211170900 METAR WIHH NIL=
202211170830 METAR WIHH NIL=
202211170800 METAR WIHH NIL=
202211170730 METAR WIHH NIL=
202211170700 METAR WIHH NIL=
202211170630 METAR WIHH NIL=
202211170600 METAR WIHH 170600Z 24008KT 6000 -RA SCT018 26/23 Q1008 NOSIG=
202211170530 METAR WIHH NIL=
202211170500 METAR WIHH 170500Z 24007KT 6000 -RA SCT018 25/24 Q1008 NOSIG=
202211170430 METAR WIHH 170430Z 22012KT 5000 -RA SCT018 25/24 Q1009 NOSIG=
202211170400 METAR WIHH 170400Z 25010KT 5000 -RA SCT018 25/24 Q1009 NOSIG=
202211170330 METAR WIHH 170330Z 25007KT 4000 -RA SCT018 25/25 Q1009 RMK CB TO NE=
202211170300 METAR WIHH 170300Z 25008KT 4000 -RA FEW017CB SCT018 25/25 Q1009 RMK CB TO NE=
202211170230 METAR WIHH 170230Z 25008KT 4000 -RA SCT018 25/25 Q1009 NOSIG=
202211170200 METAR WIHH 170200Z 23004KT 4000 -RA SCT018 25/25 Q1009 NOSIG=
202211170130 METAR WIHH 170130Z 22004KT 4000 -RA SCT018 25/25 Q1009 NOSIG=
202211170100 METAR WIHH NIL=
202211170030 METAR WIHH NIL=
202211170000 METAR WIHH NIL=
202211162330 METAR WIHH NIL=
202211162300 METAR WIHH NIL=
202211162230 METAR WIHH NIL=
202211162200 METAR WIHH NIL=
202211162130 METAR WIHH NIL=
202211162100 METAR WIHH NIL=
202211162030 METAR WIHH NIL=
202211162000 METAR WIHH NIL=
202211161930 METAR WIHH NIL=
202211161900 METAR WIHH NIL=
202211161830 METAR WIHH NIL=
202211161800 METAR WIHH NIL=
202211161730 METAR WIHH NIL=
202211161700 METAR WIHH NIL=
202211161630 METAR WIHH NIL=
202211161600 METAR WIHH NIL=
202211161530 METAR WIHH NIL=
202211161500 METAR WIHH NIL=
202211161430 METAR WIHH NIL=
202211161400 METAR WIHH NIL=
202211161330 METAR WIHH NIL=
202211161300 METAR WIHH NIL=
202211161230 METAR WIHH NIL=
202211161200 METAR WIHH NIL=
202211161130 METAR WIHH NIL=
202211161100 METAR WIHH NIL=
202211161030 METAR WIHH NIL=
202211161000 METAR WIHH NIL=
202211160930 METAR WIHH NIL=
202211160900 METAR WIHH NIL=
202211160830 METAR WIHH NIL=
202211160800 METAR WIHH 160800Z 02007KT 6000 SCT020 32/22 Q1005 NOSIG=
202211160730 METAR WIHH 160730Z 34008KT 6000 SCT020 32/23 Q1005 NOSIG=
202211160700 METAR WIHH 160700Z 36008KT 6000 SCT020 32/23 Q1005 NOSIG=
202211160630 METAR WIHH 160630Z 01009KT 6000 FEW018CB SCT020 33/23 Q1005 NOSIG=
202211160600 METAR WIHH 160600Z 02008KT 6000 FEW018CB SCT020 33/23 Q1006 RMK CB AND RA TO S=
202211160530 METAR WIHH 160530Z 33008KT 6000 FEW018CB SCT020 33/23 Q1006 RMK CB AND RA TO S=
202211160500 METAR WIHH 160500Z 35007KT 6000 SCT020 33/23 Q1007 RMK RA TO S AND W=
202211160430 METAR WIHH 160430Z 33004KT 6000 SCT020 32/23 Q1007 NOSIG=
202211160400 METAR WIHH 160400Z 28004KT 6000 SCT020 32/23 Q1007 NOSIG=
202211160330 METAR WIHH 160330Z 27004KT 6000 SCT020 32/23 Q1008 NOSIG=
202211160300 METAR WIHH 160300Z 00000KT 6000 SCT020 31/23 Q1008 NOSIG=
202211160230 METAR WIHH 160230Z 21003KT 6000 FEW022 31/23 Q1008 NOSIG=
202211160200 METAR WIHH 160200Z 35003KT 6000 FEW022 30/23 Q1009 NOSIG=
202211160130 METAR WIHH 160130Z 24007KT 6000 FEW022 29/23 Q1009 NOSIG=
202211160100 METAR WIHH 160100Z 26005KT 5000 HZ FEW022 29/24 Q1009 NOSIG=
202211160030 METAR WIHH 160030Z 00000KT 5000 HZ FEW022 28/25 Q1008 NOSIG=
202211160000 METAR WIHH NIL=
202211152330 METAR WIHH NIL=
202211152300 METAR WIHH NIL=
202211152230 METAR WIHH NIL=
202211152200 METAR WIHH NIL=
202211152130 METAR WIHH NIL=
202211152100 METAR WIHH NIL=
202211152030 METAR WIHH NIL=
202211152000 METAR WIHH NIL=
202211151930 METAR WIHH NIL=
202211151900 METAR WIHH NIL=
202211151830 METAR WIHH NIL=
202211151800 METAR WIHH NIL=
202211151730 METAR WIHH NIL=
202211151700 METAR WIHH NIL=
202211151630 METAR WIHH NIL=
202211151600 METAR WIHH NIL=
202211151530 METAR WIHH NIL=
202211151500 METAR WIHH NIL=
202211151430 METAR WIHH NIL=
202211151400 METAR WIHH NIL=
202211151330 METAR WIHH NIL=
202211151300 METAR WIHH NIL=
202211151230 METAR WIHH NIL=
202211151200 METAR WIHH NIL=
202211151130 METAR WIHH NIL=
202211151100 METAR WIHH NIL=
202211151030 METAR WIHH NIL=
202211151000 METAR WIHH NIL=
202211150930 METAR WIHH NIL=
202211150900 METAR WIHH NIL=
202211150830 METAR WIHH 150830Z 24012KT 6000 SCT020 30/24 Q1006 RMK RA TO SW=
202211150800 METAR WIHH 150800Z 28010KT 6000 SCT020 30/24 Q1006 NOSIG=
202211150730 METAR WIHH 150730Z 25011KT 6000 SCT020 31/25 Q1006 NOSIG=
202211150700 METAR WIHH 150700Z 30006KT 6000 SCT020 32/24 Q1006 NOSIG=
202211150630 METAR WIHH 150630Z 27008KT 6000 SCT020 32/25 Q1006 NOSIG=
202211150600 METAR WIHH NIL=
202211150530 METAR WIHH 150530Z 27007KT 6000 SCT020 31/24 Q1007 RMK RA TO NE=
202211150500 METAR WIHH NIL=
202211150430 METAR WIHH 150430Z 28007KT 6000 SCT020 30/25 Q1008 RMK RA TO NE=
202211150400 METAR WIHH 150400Z 26010KT 6000 SCT020 30/25 Q1009 NOSIG=
202211150330 METAR WIHH 150330Z 24008KT 5000 HZ SCT020 31/25 Q1009 NOSIG=
202211150300 METAR WIHH 150300Z 24007KT 5000 HZ SCT020 31/25 Q1009 NOSIG=
202211150230 METAR WIHH 150230Z 27004KT 5000 HZ SCT020 30/25 Q1009 NOSIG=
202211150200 METAR WIHH 150200Z 31006KT 5000 HZ FEW020 30/25 Q1009 NOSIG=
202211150130 METAR WIHH 150130Z 25005KT 5000 HZ FEW020 29/25 Q1010 NOSIG=
202211150100 METAR WIHH NIL=
202211150030 METAR WIHH NIL=
202211150000 METAR WIHH NIL=
202211142330 METAR WIHH NIL=
202211142300 METAR WIHH NIL=
202211142230 METAR WIHH NIL=
202211142200 METAR WIHH NIL=
202211142130 METAR WIHH NIL=
202211142100 METAR WIHH NIL=
202211142030 METAR WIHH NIL=
202211142000 METAR WIHH NIL=
202211141930 METAR WIHH NIL=
202211141900 METAR WIHH NIL=
202211141830 METAR WIHH NIL=
202211141800 METAR WIHH NIL=
202211141730 METAR WIHH NIL=
202211141700 METAR WIHH NIL=
202211141630 METAR WIHH NIL=
202211141600 METAR WIHH NIL=
202211141530 METAR WIHH NIL=
202211141500 METAR WIHH NIL=
202211141430 METAR WIHH NIL=
202211141400 METAR WIHH NIL=
202211141330 METAR WIHH NIL=
202211141300 METAR WIHH NIL=
202211141230 METAR WIHH NIL=
202211141200 METAR WIHH NIL=
202211141130 METAR WIHH NIL=
202211141100 METAR WIHH NIL=
202211141030 METAR WIHH NIL=
202211141000 METAR WIHH NIL=
202211140930 METAR WIHH NIL=
202211140900 METAR WIHH NIL=
202211140830 METAR WIHH 140830Z 31004KT 5000 HZ SCT018 31/23 Q1005 RMK RA TO S=
202211140800 METAR WIHH 140800Z 32004KT 5000 HZ FEW017CB SCT018 31/23 Q1005 RMK CB AND RA TO SE=
202211140730 METAR WIHH 140730Z 35003KT 5000 HZ FEW017CB SCT018 30/24 Q1005 RMK CB AND RA TO SW=
202211140700 METAR WIHH NIL=
202211140630 METAR WIHH NIL=
202211140600 METAR WIHH NIL=
202211140530 METAR WIHH 140530Z 03003KT 6000 SCT020 33/23 Q1007 NOSIG=
202211140500 METAR WIHH NIL=
202211140430 METAR WIHH 140430Z 12006KT 6000 SCT020 33/24 Q1008 NOSIG=
202211140400 METAR WIHH 140400Z 12003KT 6000 SCT020 32/24 Q1009 NOSIG=
202211140330 METAR WIHH NIL=
202211140300 METAR WIHH 140300Z 31003KT 6000 SCT020 31/23 Q1009 NOSIG=
202211140230 METAR WIHH NIL=
202211140200 METAR WIHH 140200Z 27003KT 6000 FEW020 29/22 Q1010 NOSIG=
202211140130 METAR WIHH 140130Z 26003KT 5000 HZ FEW020 29/23 Q1010 NOSIG=
202211140100 METAR WIHH 140100Z 22005KT 4000 HZ FEW020 27/24 Q1010 NOSIG=
202211140030 METAR WIHH NIL=
202211140000 METAR WIHH NIL=
202211132330 METAR WIHH NIL=
202211132300 METAR WIHH NIL=
202211132230 METAR WIHH NIL=
202211132200 METAR WIHH NIL=
202211132130 METAR WIHH NIL=
202211132100 METAR WIHH NIL=
202211132030 METAR WIHH NIL=
202211132000 METAR WIHH NIL=
202211131930 METAR WIHH NIL=
202211131900 METAR WIHH NIL=
202211131830 METAR WIHH NIL=
202211131800 METAR WIHH NIL=
202211131730 METAR WIHH NIL=
202211131700 METAR WIHH NIL=
202211131630 METAR WIHH NIL=
202211131600 METAR WIHH NIL=
202211131530 METAR WIHH NIL=
202211131500 METAR WIHH NIL=
202211131430 METAR WIHH NIL=
202211131400 METAR WIHH NIL=
202211131330 METAR WIHH NIL=
202211131300 METAR WIHH NIL=
202211131230 METAR WIHH NIL=
202211131200 METAR WIHH NIL=
202211131130 METAR WIHH NIL=
202211131100 METAR WIHH NIL=
202211131030 METAR WIHH NIL=
202211131000 METAR WIHH NIL=
202211130930 METAR WIHH NIL=
202211130900 METAR WIHH NIL=
202211130830 METAR WIHH NIL=
202211130800 METAR WIHH NIL=
202211130730 METAR WIHH NIL=
202211130700 METAR WIHH NIL=
202211130630 METAR WIHH NIL=
202211130600 METAR WIHH NIL=
202211130530 METAR WIHH NIL=
202211130500 METAR WIHH NIL=
202211130430 METAR WIHH NIL=
202211130400 METAR WIHH NIL=
202211130330 METAR WIHH NIL=
202211130300 METAR WIHH NIL=
202211130230 METAR WIHH NIL=
202211130200 METAR WIHH NIL=
202211130130 METAR WIHH NIL=
202211130100 METAR WIHH NIL=
202211130030 METAR WIHH NIL=
202211130000 METAR WIHH NIL=
202211122330 METAR WIHH NIL=
202211122300 METAR WIHH NIL=
202211122230 METAR WIHH NIL=
202211122200 METAR WIHH NIL=
202211122130 METAR WIHH NIL=
202211122100 METAR WIHH NIL=
202211122030 METAR WIHH NIL=
202211122000 METAR WIHH NIL=
202211121930 METAR WIHH NIL=
202211121900 METAR WIHH NIL=
202211121830 METAR WIHH NIL=
202211121800 METAR WIHH NIL=
202211121730 METAR WIHH NIL=
202211121700 METAR WIHH NIL=
202211121630 METAR WIHH NIL=
202211121600 METAR WIHH NIL=
202211121530 METAR WIHH NIL=
202211121500 METAR WIHH NIL=
202211121430 METAR WIHH NIL=
202211121400 METAR WIHH NIL=
202211121330 METAR WIHH NIL=
202211121300 METAR WIHH NIL=
202211121230 METAR WIHH NIL=
202211121200 METAR WIHH NIL=
202211121130 METAR WIHH NIL=
202211121100 METAR WIHH NIL=
202211121030 METAR WIHH NIL=
202211121000 METAR WIHH NIL=
202211120930 METAR WIHH NIL=
202211120900 METAR WIHH NIL=
202211120830 METAR WIHH NIL=
202211120800 METAR WIHH NIL=
202211120730 METAR WIHH NIL=
202211120700 METAR WIHH NIL=
202211120630 METAR WIHH NIL=
202211120600 METAR WIHH NIL=
202211120530 METAR WIHH NIL=
202211120500 METAR WIHH NIL=
202211120430 METAR WIHH NIL=
202211120400 METAR WIHH NIL=
202211120330 METAR WIHH NIL=
202211120300 METAR WIHH NIL=
202211120230 METAR WIHH NIL=
202211120200 METAR WIHH NIL=
202211120130 METAR WIHH NIL=
202211120100 METAR WIHH NIL=
202211120030 METAR WIHH NIL=
202211120000 METAR WIHH NIL=
202211112330 METAR WIHH NIL=
202211112300 METAR WIHH NIL=
202211112230 METAR WIHH NIL=
202211112200 METAR WIHH NIL=
202211112130 METAR WIHH NIL=
202211112100 METAR WIHH NIL=
202211112030 METAR WIHH NIL=
202211112000 METAR WIHH NIL=
202211111930 METAR WIHH NIL=
202211111900 METAR WIHH NIL=
202211111830 METAR WIHH NIL=
202211111800 METAR WIHH NIL=
202211111730 METAR WIHH NIL=
202211111700 METAR WIHH NIL=
202211111630 METAR WIHH NIL=
202211111600 METAR WIHH NIL=
202211111530 METAR WIHH NIL=
202211111500 METAR WIHH NIL=
202211111430 METAR WIHH NIL=
202211111400 METAR WIHH NIL=
202211111330 METAR WIHH NIL=
202211111300 METAR WIHH NIL=
202211111230 METAR WIHH NIL=
202211111200 METAR WIHH NIL=
202211111130 METAR WIHH NIL=
202211111100 METAR WIHH NIL=
202211111030 METAR WIHH NIL=
202211111000 METAR WIHH NIL=
202211110930 METAR WIHH NIL=
202211110900 METAR WIHH NIL=
202211110830 METAR WIHH NIL=
202211110800 METAR WIHH NIL=
202211110730 METAR WIHH NIL=
202211110700 METAR WIHH NIL=
202211110630 METAR WIHH 110630Z 27012KT 6000 SCT020 30/22 Q1007 RMK RA TO S=
202211110600 METAR WIHH NIL=
202211110530 METAR WIHH NIL=
202211110500 METAR WIHH NIL=
202211110430 METAR WIHH NIL=
202211110400 METAR WIHH 110400Z 23005KT 6000 SCT020 31/22 Q1010 NOSIG=
202211110330 METAR WIHH NIL=
202211110300 METAR WIHH 110300Z 23003KT 5000 HZ SCT020 30/23 Q1010 NOSIG=
202211110230 METAR WIHH 110230Z 15003KT 5000 HZ SCT020 29/23 Q1010 NOSIG=
202211110200 METAR WIHH 110200Z 14004KT 5000 HZ SCT020 28/23 Q1010 NOSIG=
202211110130 METAR WIHH NIL=
202211110100 METAR WIHH 110100Z 24003KT 6000 SCT020 28/23 Q1010 NOSIG=
202211110030 METAR WIHH NIL=
202211110000 METAR WIHH NIL=
202211102330 METAR WIHH NIL=
202211102300 METAR WIHH NIL=
202211102230 METAR WIHH NIL=
202211102200 METAR WIHH NIL=
202211102130 METAR WIHH NIL=
202211102100 METAR WIHH NIL=
202211102030 METAR WIHH NIL=
202211102000 METAR WIHH NIL=
202211101930 METAR WIHH NIL=
202211101900 METAR WIHH NIL=
202211101830 METAR WIHH NIL=
202211101800 METAR WIHH NIL=
202211101730 METAR WIHH NIL=
202211101700 METAR WIHH NIL=
202211101630 METAR WIHH NIL=
202211101600 METAR WIHH NIL=
202211101530 METAR WIHH NIL=
202211101500 METAR WIHH NIL=
202211101430 METAR WIHH NIL=
202211101400 METAR WIHH NIL=
202211101330 METAR WIHH NIL=
202211101300 METAR WIHH NIL=
202211101230 METAR WIHH NIL=
202211101200 METAR WIHH NIL=
202211101130 METAR WIHH NIL=
202211101100 METAR WIHH NIL=
202211101030 METAR WIHH NIL=
202211101000 METAR WIHH NIL=
202211100930 METAR WIHH NIL=
202211100900 METAR WIHH 100900Z 25005KT 5000 HZ SCT020 30/26 Q1006 RMK RA TO N=
202211100830 METAR WIHH NIL=
202211100800 METAR WIHH NIL=
202211100730 METAR WIHH NIL=
202211100700 METAR WIHH 100700Z 05008KT 6000 FEW018CB SCT020 32/24 Q1007 RMK CB AND RA TO NW=
202211100630 METAR WIHH 100630Z 25006KT 6000 SCT020 31/24 Q1007 NOSIG=
202211100600 METAR WIHH NIL=
202211100530 METAR WIHH NIL=
202211100500 METAR WIHH 100500Z 26004KT 6000 SCT020 30/24 Q1009 NOSIG=
202211100430 METAR WIHH 100430Z 27006KT 6000 SCT020 30/24 Q1009 NOSIG=
202211100400 METAR WIHH 100400Z 29005KT 6000 SCT020 30/24 Q1009 NOSIG=
202211100330 METAR WIHH NIL=
202211100300 METAR WIHH 100300Z 23005KT 6000 SCT020 29/24 Q1010 NOSIG=
202211100230 METAR WIHH NIL=
202211100200 METAR WIHH 100200Z 24006KT 6000 SCT020 28/25 Q1011 NOSIG=
202211100130 METAR WIHH 100130Z 26004KT 6000 SCT020 28/25 Q1011 NOSIG=
202211100100 METAR WIHH 100100Z 27004KT 6000 SCT020 28/24 Q1011 NOSIG=
202211100030 METAR WIHH 100030Z 24006KT 6000 FEW020 27/24 Q1010 NOSIG=
202211100000 METAR WIHH NIL=
202211092330 METAR WIHH NIL=
202211092300 METAR WIHH NIL=
202211092230 METAR WIHH NIL=
202211092200 METAR WIHH NIL=
202211092130 METAR WIHH NIL=
202211092100 METAR WIHH NIL=
202211092030 METAR WIHH NIL=
202211092000 METAR WIHH NIL=
202211091930 METAR WIHH NIL=
202211091900 METAR WIHH NIL=
202211091830 METAR WIHH NIL=
202211091800 METAR WIHH NIL=
202211091730 METAR WIHH NIL=
202211091700 METAR WIHH NIL=
202211091630 METAR WIHH NIL=
202211091600 METAR WIHH NIL=
202211091530 METAR WIHH NIL=
202211091500 METAR WIHH NIL=
202211091430 METAR WIHH NIL=
202211091400 METAR WIHH NIL=
202211091330 METAR WIHH NIL=
202211091300 METAR WIHH NIL=
202211091230 METAR WIHH NIL=
202211091200 METAR WIHH NIL=
202211091130 METAR WIHH NIL=
202211091100 METAR WIHH NIL=
202211091030 METAR WIHH NIL=
202211091000 METAR WIHH NIL=
202211090930 METAR WIHH NIL=
202211090900 METAR WIHH 090900Z 24008KT 6000 SCT020 29/24 Q1007 RMK RA TO E=
202211090830 METAR WIHH 090830Z 24012KT 5000 HZ FEW018CB SCT020 29/24 Q1007 RMK CB TO E AND RA TO E-S=
202211090800 METAR WIHH NIL=
202211090730 METAR WIHH 090730Z 27014KT 5000 HZ FEW018CB SCT019 31/22 Q1007 RMK CB TO SE AND RA TO NE-S=
202211090700 METAR WIHH 090700Z 24010KT 5000 HZ FEW018CB SCT019 31/22 Q1008 RMK CB TO NE AND RA TO NE-S=
202211090630 METAR WIHH 090630Z 24005KT 6000 SCT019 31/23 Q1008 RMK RA TO SE-S=
202211090600 METAR WIHH 090600Z 27006KT 5000 HZ SCT019 32/23 Q1009 RMK RA TO E AND SW=
202211090530 METAR WIHH 090530Z 24006KT 6000 SCT020 32/23 Q1009 RMK RA TO E=
202211090500 METAR WIHH 090500Z 24003KT 6000 SCT020 32/23 Q1010 NOSIG=
202211090430 METAR WIHH 090430Z 27003KT 6000 SCT020 32/23 Q1010 NOSIG=
202211090400 METAR WIHH 090400Z 25003KT 6000 SCT020 32/23 Q1010 NOSIG=
202211090330 METAR WIHH 090330Z 24005KT 6000 FEW020 30/23 Q1011 NOSIG=
202211090300 METAR WIHH 090300Z 12003KT 5000 HZ FEW020 30/23 Q1011 NOSIG=
202211090230 METAR WIHH 090230Z 00000KT 5000 HZ FEW020 30/23 Q1011 NOSIG=
202211090200 METAR WIHH 090200Z 00000KT 5000 HZ FEW020 29/23 Q1011 NOSIG=
202211090130 METAR WIHH 090130Z 20003KT 5000 HZ FEW020 28/24 Q1011 NOSIG=
202211090100 METAR WIHH 090100Z 24003KT 5000 HZ FEW020 27/24 Q1011 NOSIG=
202211090030 METAR WIHH NIL=
202211090000 METAR WIHH NIL=
202211082330 METAR WIHH NIL=
202211082300 METAR WIHH NIL=
202211082230 METAR WIHH NIL=
202211082200 METAR WIHH NIL=
202211082130 METAR WIHH NIL=
202211082100 METAR WIHH NIL=
202211082030 METAR WIHH NIL=
202211082000 METAR WIHH NIL=
202211081930 METAR WIHH NIL=
202211081900 METAR WIHH NIL=
202211081830 METAR WIHH NIL=
202211081800 METAR WIHH NIL=
202211081730 METAR WIHH NIL=
202211081700 METAR WIHH NIL=
202211081630 METAR WIHH NIL=
202211081600 METAR WIHH NIL=
202211081530 METAR WIHH NIL=
202211081500 METAR WIHH NIL=
202211081430 METAR WIHH NIL=
202211081400 METAR WIHH NIL=
202211081330 METAR WIHH NIL=
202211081300 METAR WIHH NIL=
202211081230 METAR WIHH NIL=
202211081200 METAR WIHH NIL=
202211081130 METAR WIHH NIL=
202211081100 METAR WIHH NIL=
202211081030 METAR WIHH NIL=
202211081000 METAR WIHH NIL=
202211080930 METAR WIHH NIL=
202211080900 METAR WIHH NIL=
202211080830 METAR WIHH NIL=
202211080800 METAR WIHH 080800Z 12008KT 5000 HZ FEW018CB SCT020 28/23 Q1008 RMK CB AND RA TO SW=
202211080730 METAR WIHH NIL=
202211080700 METAR WIHH 080700Z 11012KT 5000 HZ FEW018CB BKN018 27/23 Q1009 RMK CB AND RA TO SE=
202211080630 METAR WIHH NIL=
202211080600 METAR WIHH NIL=
202211080530 METAR WIHH NIL=
202211080500 METAR WIHH 080500Z 27003KT 5000 -RA SCT020 30/24 Q1010 NOSIG=
202211080430 METAR WIHH NIL=
202211080400 METAR WIHH NIL=
202211080330 METAR WIHH 080330Z 09005KT 5000 HZ SCT020 31/23 Q1011 NOSIG=
202211080300 METAR WIHH 080300Z 10003KT 5000 HZ FEW020 31/22 Q1012 NOSIG=
202211080230 METAR WIHH 080230Z 14004KT 5000 HZ FEW020 30/23 Q1012 NOSIG=
202211080200 METAR WIHH 080200Z 16003KT 4000 HZ FEW020 29/23 Q1012 NOSIG=
202211080130 METAR WIHH NIL=
202211080100 METAR WIHH 080100Z 20003KT 4000 HZ FEW020 27/25 Q1011 NOSIG=
202211080030 METAR WIHH 080030Z 18003KT 4000 HZ FEW022 27/25 Q1011 NOSIG=
202211080000 METAR WIHH NIL=
202211072330 METAR WIHH NIL=
202211072300 METAR WIHH NIL=
202211072230 METAR WIHH NIL=
202211072200 METAR WIHH NIL=
202211072130 METAR WIHH NIL=
202211072100 METAR WIHH NIL=
202211072030 METAR WIHH NIL=
202211072000 METAR WIHH NIL=
202211071930 METAR WIHH NIL=
202211071900 METAR WIHH NIL=
202211071830 METAR WIHH NIL=
202211071800 METAR WIHH NIL=
202211071730 METAR WIHH NIL=
202211071700 METAR WIHH NIL=
202211071630 METAR WIHH NIL=
202211071600 METAR WIHH NIL=
202211071530 METAR WIHH NIL=
202211071500 METAR WIHH NIL=
202211071430 METAR WIHH NIL=
202211071400 METAR WIHH NIL=
202211071330 METAR WIHH NIL=
202211071300 METAR WIHH NIL=
202211071230 METAR WIHH NIL=
202211071200 METAR WIHH NIL=
202211071130 METAR WIHH NIL=
202211071100 METAR WIHH NIL=
202211071030 METAR WIHH NIL=
202211071000 METAR WIHH NIL=
202211070930 METAR WIHH NIL=
202211070900 METAR WIHH 070900Z 25005KT 5000 HZ SCT020 29/25 Q1008 NOSIG=
202211070830 METAR WIHH NIL=
202211070800 METAR WIHH 070800Z 24006KT 5000 HZ SCT020 29/26 Q1008 RMK RA TO SE=
202211070730 METAR WIHH 070730Z 21003KT 5000 HZ SCT020 29/26 Q1009 RMK RA TO SE=
202211070700 METAR WIHH 070700Z 27003KT 5000 HZ FEW018CB SCT020 29/26 Q1009 RMK CB AND RA TO SE=
202211070630 METAR WIHH 070630Z 32003KT 5000 HZ SCT020 28/25 Q1009 RMK RA TO SE=
202211070600 METAR WIHH 070600Z 24003KT 5000 HZ SCT018 28/26 Q1010 RMK RA TO E=
202211070530 METAR WIHH 070530Z 26004KT 5000 HZ SCT018 27/26 Q1010 RMK RA TO SE=
202211070500 METAR WIHH 070500Z 28003KT 5000 HZ SCT018 27/26 Q1011 RMK RA TO SE=
202211070430 METAR WIHH 070430Z 27003KT 5000 TS FEW017CB SCT018 27/26 Q1011 RMK CB AND RA TO SW=
202211070400 METAR WIHH 070400Z 30003KT 5000 TS FEW017CB SCT018 26/25 Q1012 RMK CB AND RA TO W=
202211070330 METAR WIHH 070330Z 30003KT 3000 -TSRA FEW017CB SCT018 26/26 Q1012 RMK CB TO NW=
202211070300 METAR WIHH 070300Z 11006KT 4000 TS FEW018CB SCT020 29/26 Q1012 RMK CB AND RA TO N=
202211070230 METAR WIHH 070230Z 12006KT 4000 HZ SCT020 29/26 Q1012 NOSIG=
202211070200 METAR WIHH 070200Z 18003KT 3000 HZ SCT020 29/26 Q1012 NOSIG=
202211070130 METAR WIHH 070130Z 12004KT 3000 HZ SCT020 28/26 Q1012 NOSIG=
202211070100 METAR WIHH 070100Z 09003KT 3000 HZ SCT020 27/24 Q1012 NOSIG=
202211070030 METAR WIHH NIL=
202211070000 METAR WIHH NIL=
202211062330 METAR WIHH NIL=
202211062300 METAR WIHH NIL=
202211062230 METAR WIHH NIL=
202211062200 METAR WIHH NIL=
202211062130 METAR WIHH NIL=
202211062100 METAR WIHH NIL=
202211062030 METAR WIHH NIL=
202211062000 METAR WIHH NIL=
202211061930 METAR WIHH NIL=
202211061900 METAR WIHH NIL=
202211061830 METAR WIHH NIL=
202211061800 METAR WIHH NIL=
202211061730 METAR WIHH NIL=
202211061700 METAR WIHH NIL=
202211061630 METAR WIHH NIL=
202211061600 METAR WIHH NIL=
202211061530 METAR WIHH NIL=
202211061500 METAR WIHH NIL=
202211061430 METAR WIHH NIL=
202211061400 METAR WIHH NIL=
202211061330 METAR WIHH NIL=
202211061300 METAR WIHH NIL=
202211061230 METAR WIHH NIL=
202211061200 METAR WIHH NIL=
202211061130 METAR WIHH NIL=
202211061100 METAR WIHH NIL=
202211061030 METAR WIHH NIL=
202211061000 METAR WIHH NIL=
202211060930 METAR WIHH NIL=
202211060900 METAR WIHH NIL=
202211060830 METAR WIHH NIL=
202211060800 METAR WIHH NIL=
202211060730 METAR WIHH NIL=
202211060700 METAR WIHH NIL=
202211060630 METAR WIHH NIL=
202211060600 METAR WIHH NIL=
202211060530 METAR WIHH NIL=
202211060500 METAR WIHH NIL=
202211060430 METAR WIHH NIL=
202211060400 METAR WIHH NIL=
202211060330 METAR WIHH NIL=
202211060300 METAR WIHH NIL=
202211060230 METAR WIHH NIL=
202211060200 METAR WIHH NIL=
202211060130 METAR WIHH NIL=
202211060100 METAR WIHH NIL=
202211060030 METAR WIHH NIL=
202211060000 METAR WIHH NIL=
202211052330 METAR WIHH NIL=
202211052300 METAR WIHH NIL=
202211052230 METAR WIHH NIL=
202211052200 METAR WIHH NIL=
202211052130 METAR WIHH NIL=
202211052100 METAR WIHH NIL=
202211052030 METAR WIHH NIL=
202211052000 METAR WIHH NIL=
202211051930 METAR WIHH NIL=
202211051900 METAR WIHH NIL=
202211051830 METAR WIHH NIL=
202211051800 METAR WIHH NIL=
202211051730 METAR WIHH NIL=
202211051700 METAR WIHH NIL=
202211051630 METAR WIHH NIL=
202211051600 METAR WIHH NIL=
202211051530 METAR WIHH NIL=
202211051500 METAR WIHH NIL=
202211051430 METAR WIHH NIL=
202211051400 METAR WIHH NIL=
202211051330 METAR WIHH NIL=
202211051300 METAR WIHH NIL=
202211051230 METAR WIHH NIL=
202211051200 METAR WIHH NIL=
202211051130 METAR WIHH NIL=
202211051100 METAR WIHH NIL=
202211051030 METAR WIHH NIL=
202211051000 METAR WIHH NIL=
202211050930 METAR WIHH NIL=
202211050900 METAR WIHH NIL=
202211050830 METAR WIHH NIL=
202211050800 METAR WIHH NIL=
202211050730 METAR WIHH NIL=
202211050700 METAR WIHH NIL=
202211050630 METAR WIHH NIL=
202211050600 METAR WIHH NIL=
202211050530 METAR WIHH NIL=
202211050500 METAR WIHH NIL=
202211050430 METAR WIHH NIL=
202211050400 METAR WIHH NIL=
202211050330 METAR WIHH NIL=
202211050300 METAR WIHH NIL=
202211050230 METAR WIHH NIL=
202211050200 METAR WIHH NIL=
202211050130 METAR WIHH NIL=
202211050100 METAR WIHH NIL=
202211050030 METAR WIHH NIL=
202211050000 METAR WIHH NIL=
202211042330 METAR WIHH NIL=
202211042300 METAR WIHH NIL=
202211042230 METAR WIHH NIL=
202211042200 METAR WIHH NIL=
202211042130 METAR WIHH NIL=
202211042100 METAR WIHH NIL=
202211042030 METAR WIHH NIL=
202211042000 METAR WIHH NIL=
202211041930 METAR WIHH NIL=
202211041900 METAR WIHH NIL=
202211041830 METAR WIHH NIL=
202211041800 METAR WIHH NIL=
202211041730 METAR WIHH NIL=
202211041700 METAR WIHH NIL=
202211041630 METAR WIHH NIL=
202211041600 METAR WIHH NIL=
202211041530 METAR WIHH NIL=
202211041500 METAR WIHH NIL=
202211041430 METAR WIHH NIL=
202211041400 METAR WIHH NIL=
202211041330 METAR WIHH NIL=
202211041300 METAR WIHH NIL=
202211041230 METAR WIHH NIL=
202211041200 METAR WIHH NIL=
202211041130 METAR WIHH NIL=
202211041100 METAR WIHH NIL=
202211041030 METAR WIHH NIL=
202211041000 METAR WIHH NIL=
202211040930 METAR WIHH NIL=
202211040900 METAR WIHH NIL=
202211040830 METAR WIHH NIL=
202211040800 METAR WIHH 040800Z 36006KT 5000 HZ SCT020 33/23 Q1007 NOSIG=
202211040730 METAR WIHH NIL=
202211040700 METAR WIHH 040700Z 05006KT 5000 HZ SCT020 33/22 Q1008 NOSIG=
202211040630 METAR WIHH NIL=
202211040600 METAR WIHH NIL=
202211040530 METAR WIHH NIL=
202211040500 METAR WIHH NIL=
202211040430 METAR WIHH 040430Z 29003KT 6000 SCT020 33/22 Q1011 RMK RA TO N=
202211040400 METAR WIHH 040400Z 03004KT 6000 SCT020 33/22 Q1011 RMK RA TO NE=
202211040330 METAR WIHH NIL=
202211040300 METAR WIHH 040300Z 15003KT 6000 SCT020 33/22 Q1012 NOSIG=
202211040230 METAR WIHH NIL=
202211040200 METAR WIHH NIL=
202211040130 METAR WIHH 040130Z 18005KT 5000 HZ FEW020 30/23 Q1012 NOSIG=
202211040100 METAR WIHH 040100Z 14004KT 4000 HZ SCT020 28/24 Q1012 NOSIG=
202211040030 METAR WIHH NIL=
202211040000 METAR WIHH NIL=
202211032330 METAR WIHH NIL=
202211032300 METAR WIHH NIL=
202211032230 METAR WIHH NIL=
202211032200 METAR WIHH NIL=
202211032130 METAR WIHH NIL=
202211032100 METAR WIHH NIL=
202211032030 METAR WIHH NIL=
202211032000 METAR WIHH NIL=
202211031930 METAR WIHH NIL=
202211031900 METAR WIHH NIL=
202211031830 METAR WIHH NIL=
202211031800 METAR WIHH NIL=
202211031730 METAR WIHH NIL=
202211031700 METAR WIHH NIL=
202211031630 METAR WIHH NIL=
202211031600 METAR WIHH NIL=
202211031530 METAR WIHH NIL=
202211031500 METAR WIHH NIL=
202211031430 METAR WIHH NIL=
202211031400 METAR WIHH NIL=
202211031330 METAR WIHH NIL=
202211031300 METAR WIHH NIL=
202211031230 METAR WIHH NIL=
202211031200 METAR WIHH NIL=
202211031130 METAR WIHH NIL=
202211031100 METAR WIHH NIL=
202211031030 METAR WIHH NIL=
202211031000 METAR WIHH NIL=
202211030930 METAR WIHH NIL=
202211030900 METAR WIHH NIL=
202211030830 METAR WIHH NIL=
202211030800 METAR WIHH 030800Z 36003KT 3000 TSRA FEW018CB BKN017 23/23 Q1008 RMK CB OTF=
202211030730 METAR WIHH NIL=
202211030700 METAR WIHH NIL=
202211030630 METAR WIHH NIL=
202211030600 METAR WIHH NIL=
202211030530 METAR WIHH NIL=
202211030500 METAR WIHH 030500Z 05006KT 5000 HZ SCT020 32/22 Q1009 NOSIG=
202211030430 METAR WIHH NIL=
202211030400 METAR WIHH NIL=
202211030330 METAR WIHH NIL=
202211030300 METAR WIHH 030300Z 03008KT 5000 HZ SCT020 31/23 Q1011 NOSIG=
202211030230 METAR WIHH 030230Z 09005KT 4000 HZ SCT020 30/24 Q1011 NOSIG=
202211030200 METAR WIHH NIL=
202211030130 METAR WIHH 030130Z 06006KT 4000 HZ FEW020 30/24 Q1011 NOSIG=
202211030100 METAR WIHH 030100Z 09003KT 4000 HZ FEW020 29/24 Q1011 NOSIG=
202211030030 METAR WIHH NIL=
202211030000 METAR WIHH NIL=
202211022330 METAR WIHH NIL=
202211022300 METAR WIHH NIL=
202211022230 METAR WIHH NIL=
202211022200 METAR WIHH NIL=
202211022130 METAR WIHH NIL=
202211022100 METAR WIHH NIL=
202211022030 METAR WIHH NIL=
202211022000 METAR WIHH NIL=
202211021930 METAR WIHH NIL=
202211021900 METAR WIHH NIL=
202211021830 METAR WIHH NIL=
202211021800 METAR WIHH NIL=
202211021730 METAR WIHH NIL=
202211021700 METAR WIHH NIL=
202211021630 METAR WIHH NIL=
202211021600 METAR WIHH NIL=
202211021530 METAR WIHH NIL=
202211021500 METAR WIHH NIL=
202211021430 METAR WIHH NIL=
202211021400 METAR WIHH NIL=
202211021330 METAR WIHH NIL=
202211021300 METAR WIHH NIL=
202211021230 METAR WIHH NIL=
202211021200 METAR WIHH NIL=
202211021130 METAR WIHH NIL=
202211021100 METAR WIHH NIL=
202211021030 METAR WIHH NIL=
202211021000 METAR WIHH NIL=
202211020930 METAR WIHH NIL=
202211020900 METAR WIHH NIL=
202211020830 METAR WIHH NIL=
202211020800 METAR WIHH NIL=
202211020730 METAR WIHH 020730Z 33004KT 5000 HZ SCT020 33/23 Q1006 RMK RA TO S=
202211020700 METAR WIHH NIL=
202211020630 METAR WIHH NIL=
202211020600 METAR WIHH 020600Z 35005KT 5000 HZ SCT020 33/22 Q1007 NOSIG=
202211020530 METAR WIHH 020530Z 12003KT 5000 HZ SCT020 33/22 Q1008 NOSIG=
202211020500 METAR WIHH 020500Z 07006KT 5000 HZ SCT020 33/22 Q1008 NOSIG=
202211020430 METAR WIHH 020430Z 18003KT 5000 HZ SCT020 33/22 Q1009 NOSIG=
202211020400 METAR WIHH 020400Z 01005KT 5000 HZ SCT020 33/23 Q1010 NOSIG=
202211020330 METAR WIHH NIL=
202211020300 METAR WIHH 020300Z 03006KT 5000 HZ SCT020 31/23 Q1010 NOSIG=
202211020230 METAR WIHH 020230Z 04003KT 5000 HZ SCT020 30/23 Q1010 NOSIG=
202211020200 METAR WIHH 020200Z 10003KT 5000 HZ FEW020 30/23 Q1011 NOSIG=
202211020130 METAR WIHH 020130Z 04003KT 4000 HZ FEW020 29/23 Q1011 NOSIG=
202211020100 METAR WIHH 020100Z 11003KT 4000 HZ FEW020 28/24 Q1011 NOSIG=
202211020030 METAR WIHH NIL=
202211020000 METAR WIHH NIL=
202211012330 METAR WIHH NIL=
202211012300 METAR WIHH NIL=
202211012230 METAR WIHH NIL=
202211012200 METAR WIHH NIL=
202211012130 METAR WIHH NIL=
202211012100 METAR WIHH NIL=
202211012030 METAR WIHH NIL=
202211012000 METAR WIHH NIL=
202211011930 METAR WIHH NIL=
202211011900 METAR WIHH NIL=
202211011830 METAR WIHH NIL=
202211011800 METAR WIHH NIL=
202211011730 METAR WIHH NIL=
202211011700 METAR WIHH NIL=
202211011630 METAR WIHH NIL=
202211011600 METAR WIHH NIL=
202211011530 METAR WIHH NIL=
202211011500 METAR WIHH NIL=
202211011430 METAR WIHH NIL=
202211011400 METAR WIHH NIL=
202211011330 METAR WIHH NIL=
202211011300 METAR WIHH NIL=
202211011230 METAR WIHH NIL=
202211011200 METAR WIHH NIL=
202211011130 METAR WIHH NIL=
202211011100 METAR WIHH NIL=
202211011030 METAR WIHH NIL=
202211011000 METAR WIHH NIL=
202211010930 METAR WIHH NIL=
202211010900 METAR WIHH NIL=
202211010830 METAR WIHH NIL=
202211010800 METAR WIHH 010800Z 33003KT 6000 SCT020 33/23 Q1006 RMK RA TO S=
202211010730 METAR WIHH NIL=
202211010700 METAR WIHH 010700Z 34004KT 6000 SCT020 33/23 Q1007 NOSIG=
202211010630 METAR WIHH 010630Z 33008KT 6000 SCT020 33/24 Q1007 NOSIG=
202211010600 METAR WIHH 010600Z 01008KT 6000 SCT020 33/24 Q1008 NOSIG=
202211010530 METAR WIHH 010530Z 26003KT 6000 SCT020 32/23 Q1008 NOSIG=
202211010500 METAR WIHH 010500Z 18003KT 6000 SCT020 33/22 Q1009 NOSIG=
202211010430 METAR WIHH NIL=
202211010400 METAR WIHH 010400Z 10007KT 6000 SCT020 33/23 Q1009 NOSIG=
202211010330 METAR WIHH 010330Z 08005KT 6000 SCT020 31/23 Q1010 NOSIG=
202211010300 METAR WIHH 010300Z 15005KT 6000 SCT020 32/23 Q1010 NOSIG=
202211010230 METAR WIHH NIL=
202211010200 METAR WIHH 010200Z 13004KT 6000 FEW022 31/24 Q1011 NOSIG=
202211010130 METAR WIHH NIL=
202211010100 METAR WIHH 010100Z 13005KT 6000 FEW022 29/23 Q1011 NOSIG=
202211010030 METAR WIHH 010030Z 12006KT 5000 HZ FEW022 28/24 Q1010 NOSIG=
202211010000 METAR WIHH 010000Z 12006KT 5000 HZ SCT020 27/24 Q1010 NOSIG=

# No short TAF reports from WIHH in databse.

###################################
#  large TAF from WIHH
###################################
202211302300 TAF WIHH 302300Z 0100/0200 18006KT 6000 FEW020
                      TEMPO 0109/0112 30012KT 3000 -TSRA FEW017CB
                       BKN018
                      BECMG 0113/0115 VRB03KT 5000 HZ SCT020=
202211301700 TAF WIHH 301700Z 3018/0118 12005KT 5000 HZ FEW020
                      BECMG 0103/0105 03006KT 6000 SCT020
                      TEMPO 0109/0112 27010KT 4000 -RA BKN018=
202211301100 TAF WIHH 301100Z 3012/0112 09006KT 5000 HZ SCT020
                      TEMPO 3012/3014 27010KT 4000 -RA BKN018
                      BECMG 3015/3017 21004KT 6000 SCT020
                      BECMG 3023/0101 00000KT 4000 BR FEW020=
202211300500 TAF WIHH 300500Z 3006/0106 18006KT 6000 SCT020
                      TEMPO 3008/3011 27012KT 4000 -RA BKN018
                      BECMG 3012/3014 21004KT 5000 HZ
                      BECMG 3019/3021 00000KT FEW020=
202211292300 TAF WIHH 292300Z 3000/0100 24005KT 6000 FEW022
                      BECMG 3002/3004 06008KT SCT020
                      TEMPO 3009/3012 34012KT 4000 -RA FEW018CB
                       BECMG 3013/3015 30005KT 5000 HZ=
202211291700 TAF WIHH 291700Z 2918/3018 23004KT 5000 HZ SCT020
                      BECMG 3001/3003 06008KT 6000 SCT020
                      TEMPO 3009/3012 34012KT 4000 -RA FEW017CB=
202211291100 TAF WIHH 291100Z 2912/3012 15005KT 6000 SCT020
                      BECMG 2914/2916 VRB03KT 4000 HZ=
202211290500 TAF WIHH 290500Z 2906/3006 01008KT 6000 SCT020
                      TEMPO 2909/2912 34012KT 2000 TSRA FEW017CB
                       BKN018
                      BECMG 2915/2917 16003KT 4000 BR FEW022=
202211282300 TAF WIHH 282300Z 2900/3000 21008KT 6000 FEW020
                      TEMPO 2908/2911 18012KT 3000 -TSRA FEW017CB
                       BKN018
                      BECMG 2913/2915 12005KT SCT020=
202211281700 TAF WIHH 281700Z 2818/2918 15005KT 6000 SCT020
                      BECMG 2903/2905 24004KT
                      TEMPO 2907/2910 12012KT 3000 -RA BKN018=
202211281100 TAF WIHH 281100Z 2812/2912 12006KT 3000 -RA BKN018
                      BECMG 2814/2816 06003KT BR SCT020
                      BECMG 2823/2901 00000KT 5000 HZ FEW020=
202211280500 TAF WIHH 280500Z 2806/2906 21006KT 6000 SCT020
                      TEMPO 2809/2812 27010KT 4000 -RA FEW017CB
                       BECMG 2813/2815 03004KT 5000 HZ
                      BECMG 2819/2821 00000KT FEW020=
202211272300 TAF WIHH 272300Z 2800/2900 24008KT 6000 SCT020
                      TEMPO 2809/2813 15010KT 3000 -TSRA FEW016CB
                       BKN017
                      BECMG 2814/2816 00000KT 5000 HZ=
202211271700 TAF WIHH 271700Z 2718/2818 09003KT 5000 HZ SCT018
                      BECMG 2801/2803 18012KT 6000
                      TEMPO 2810/2813 03008KT 3000 -TSRA FEW016CB
                       BECMG 2814/2816 00000KT 4000 BR=
202211271100 TAF WIHH 271100Z 2712/2812 06008KT 6000 SCT018
                      TEMPO 2712/2714 33010KT 3000 -RA FEW017CB
                       BECMG 2715/2717 15004KT 5000 HZ=
202211270500 TAF WIHH 270500Z 2706/2806 09008KT 5000 HZ SCT018
                      TEMPO 2709/2712 15012KT 2500 TSRA FEW016CB
                       BKN017
                      BECMG 2715/2717 03004KT 3000 BR=
202211262300 TAF WIHH 262300Z 2700/2800 35005KT 3000 HZ FEW022
                      BECMG 2702/2704 6000 SCT020
                      TEMPO 2707/2711 23010KT 4000 -TSRA FEW017CB
                       SCT018
                      BECMG 2712/2714 VRB03KT 5000 HZ=
202211261700 TAF WIHH 261700Z 2618/2718 16003KT 3000 BR FEW022
                      BECMG 2702/2704 06006KT 6000 SCT020=
202211261100 TAF WIHH 261100Z 2612/2712 15005KT 4000 -RA SCT020
                      BECMG 2614/2616 VRB03KT 5000 HZ FEW022=
202211260500 TAF WIHH 260500Z 2606/2706 35005KT 6000 SCT020
                      TEMPO 2608/2611 16010KT 4000 -RA FEW017CB
                       BECMG 2612/2614 14005KT 5000 HZ FEW022=
202211252300 TAF WIHH 252300Z 2600/2700 21006KT 5000 HZ SCT020
                      TEMPO 2607/2610 27010KT 4000 -RA FEW017CB
                       BECMG 2611/2613 VRB03KT 6000 FEW020=
202211251700 TAF WIHH 251700Z 2518/2618 09006KT 5000 HZ SCT020
                      BECMG 2523/2601 00000KT 3000 BR FEW020
                      TEMPO 2606/2609 34010KT 4000 -RA BKN018=
202211251100 TAF WIHH 251100Z 2512/2612 12005KT 5000 HZ SCT020
                      TEMPO 2513/2515 09006KT 4000 -RA BKN018
                      BECMG 2516/2518 21003KT 3000 BR=
202211250500 TAF WIHH 250500Z 2506/2606 18006KT 5000 HZ SCT020
                      TEMPO 2507/2511 24012KT 3000 -TSRA FEW017CB
                       BKN018
                      BECMG 2513/2515 15005KT=
202211242300 TAF WIHH 242300Z 2500/2600 21006KT 7000 FEW020
                      TEMPO 2507/2510 28010KT 3000 TSRA FEW016CB
                       BKN017
                      BECMG 2511/2513 5000 HZ=
202211241700 TAF WIHH 241700Z 2418/2518 20004KT 6000 FEW020
                      BECMG 2501/2503 28012KT
                      TEMPO 2506/2509 3000 -TSRA FEW016CB SCT017=
202211241100 TAF WIHH 241100Z 2412/2512 20005KT 6000 SCT018
                      TEMPO 2419/2422 3000 -RA FEW017CB
                      BECMG 2423/2501 26012KT 5000 HZ=
202211240500 TAF WIHH 240500Z 2406/2506 23012KT 6000 SCT018
                      TEMPO 2408/2411 29010G25KT 3000 -TSRA FEW016CB
                       BKN017
                      BECMG 2412/2414 16005KT 5000 HZ
                      TEMPO 2419/2423 24006KT 3000 -RA FEW017CB=
202211232300 TAF WIHH 232300Z 2400/2500 28007KT 6000 FEW022
                      TEMPO 2407/2411 23012KT 4000 -TSRA FEW017CB
                       SCT018
                      BECMG 2412/2414 15005KT 5000 HZ SCT020=
202211231700 TAF WIHH 231700Z 2318/2418 24005KT 5000 HZ FEW022
                      TEMPO 2407/2411 32012KT 4000 -TSRA FEW017CB
                       SCT018=
202211231100 TAF WIHH 231100Z 2312/2412 22006KT 5000 HZ SCT020
                      BECMG 2314/2316 27005KT FEW022=
202211230500 TAF WIHH 230500Z 2306/2406 25008KT 6000 SCT018
                      TEMPO 2307/2310 27012KT 4000 -RA
                      BECMG 2311/2313 22005KT 5000 HZ FEW022=
202211222300 TAF WIHH 222300Z 2300/2400 24006KT 6000 SCT020
                      TEMPO 2307/2310 27012KT 4000 -RA BKN018
                      BECMG 2311/2313 5000 HZ=
202211221700 TAF WIHH 221700Z 2218/2318 24006KT 6000 SCT020
                      BECMG 2301/2303 18004KT 5000 HZ FEW020
                      TEMPO 2305/2308 21012KT 4000 -RA FEW017CB=
202211221100 TAF WIHH 221100Z 2212/2312 24008KT 7000 FEW020
                      BECMG 2223/2301 30006KT 6000=
202211220500 TAF WIHH 220500Z 2206/2306 27008KT 7000 SCT020
                      TEMPO 2208/2211 24012KT 4000 -RA
                      BECMG 2213/2215 5000 HZ
                      BECMG 2219/2221 21005KT 6000=
202211212300 TAF WIHH 212300Z 2200/2300 24008KT 7000 FEW020
                      TEMPO 2208/2211 30012KT 4000 -RA SCT017
                      BECMG 2215/2217 18004KT 5000 HZ=
202211211700 TAF WIHH 211700Z 2118/2218 22005KT 6000 FEW022
                      BECMG 2201/2203 28012KT
                      TEMPO 2208/2211 4000 -RA SCT017=
202211211100 TAF WIHH 211100Z 2112/2212 25012KT 7000 SCT022
                      BECMG 2115/2117 18005KT 5000 HZ=
202211210500 TAF WIHH 210500Z 2106/2206 24012KT 7000 SCT020
                      BECMG 2113/2115 18005KT 5000 HZ=
202211202300 TAF WIHH 202300Z 2100/2200 22008KT 6000 FEW022
                      BECMG 2104/2106 28012KT SCT020
                      BECMG 2112/2114 20005KT 5000 HZ=
202211201700 TAF WIHH 201700Z 2018/2118 22004KT 5000 HZ FEW022
                      BECMG 2100/2102 25008KT 6000=
202211201100 TAF WIHH 201100Z 2012/2112 27008KT 6000 FEW022
                      BECMG 2015/2017 21005KT 5000 HZ=
202211200500 TAF WIHH 200500Z 2006/2106 25012G24KT 7000 FEW022
                      BECMG 2013/2015 21005KT 5000 HZ=
202211192300 TAF WIHH 192300Z 2000/2100 24008KT 7000 FEW020
                      TEMPO 2006/2009 27012KT 4000 -RA FEW017CB
                       SCT018
                      BECMG 2010/2012 21010KT 6000 SCT020=
202211191700 TAF WIHH 191700Z 1918/2018 27006KT 6000 FEW020
                      BECMG 2003/2005 24008KT SCT020=
202211191100 TAF WIHH 191100Z 1912/2012 24008KT 6000 FEW020
                      BECMG 1921/1923 21003KT 5000 HZ=
202211190500 TAF WIHH 190500Z 1906/2006 24008KT 6000 SCT020
                      TEMPO 1908/1911 27010KT 4000 -RA BKN018
                      BECMG 1912/1914 34007KT
                      BECMG 1918/1920 VRB03KT 5000 HZ FEW020=
202211182300 TAF WIHH 182300Z 1900/2000 28008KT 7000 SCT020
                      TEMPO 1908/1911 34010KT 4000 -RA FEW018CB
                       BECMG 1914/1916 22004KT 5000 HZ=
202211181700 TAF WIHH 181700Z 1818/1918 22005KT 6000 SCT020
                      TEMPO 1819/1821 4000 -RA
                      BECMG 1822/1900 29010KT 5000 HZ=
202211181100 TAF WIHH 181100Z 1812/1912 26012KT 6000 SCT018
                      BECMG 1815/1817 20005KT 5000 HZ=
202211180500 TAF WIHH 180500Z 1806/1906 28012KT 7000 FEW020
                      TEMPO 1809/1812 4000 -RA FEW017CB SCT018
                       BECMG 1813/1815 20005KT 5000 HZ=
202211172308 TAF AMD WIHH 172308Z 1800/1900 24008KT 7000 FEW022
                      TEMPO 1807/1810 31012KT 4000 -RA FEW017CB
                       SCT018
                      BECMG 1811/1813 27005KT 5000 HZ SCT020=
202211172300 TAF WIHH 172300Z 1800/1900 24008KT 7000 FEW022
                      TEMPO 1807/1810 31012KT 4000 -RA FEW017CB
                       SCT018
                      BECMG 1812/1814 27005KT 5000 HZ SCT020=
202211171700 TAF WIHH 171700Z 1718/1818 23005KT 5000 HZ FEW022
                      TEMPO 1806/1810 27012KT 4000 -RA FEW017CB
                       SCT018=
202211171100 TAF WIHH 171100Z 1712/1812 23006KT 6000 SCT020
                      BECMG 1714/1716 5000 HZ FEW022=
202211170500 TAF WIHH 170500Z 1706/1806 25010KT 6000 SCT018
                      TEMPO 1708/1711 30012KT 4000 -RA FEW017CB
                       BECMG 1712/1714 23008KT 5000 HZ FEW020=
202211162300 TAF WIHH 162300Z 1700/1800 34006KT 4000 -RA BKN018
                      BECMG 1702/1704 21004KT 5000 HZ SCT020
                      TEMPO 1707/1710 27010KT 3000 -TSRA FEW017CB
                       BKN018
                      BECMG 1712/1714 03005KT 6000 FEW020=
202211161800 TAF AMD WIHH 161800Z 1618/1718 30006KT 5000 HZ SCT020
                      TEMPO 1619/1622 24010KT 2000 TSRA FEW016CB
                       BKN017
                      BECMG 1702/1704 03004KT 6000
                      TEMPO 1707/1710 27012KT 3000 -TSRA FEW017CB
                       BKN018
                      BECMG 1712/1714 VRB03KT FEW020=
202211161700 TAF WIHH 161700Z 1618/1718 30006KT 5000 HZ FEW020
                      BECMG 1702/1704 24007KT 6000 SCT020
                      TEMPO 1706/1709 27012G20KT 2000 TSRA FEW017CB
                       BKN018
                      BECMG 1711/1713 VRB03KT SCT018=
202211161100 TAF WIHH 161100Z 1612/1712 27008KT 6000 FEW020
                      TEMPO 1619/1622 24008KT 4000 -RA SCT018
                      BECMG 1700/1702 34003KT 5000 HZ
                      TEMPO 1706/1709 30012G20KT 2000 TSRA FEW017CB
                       BKN018=
202211160500 TAF WIHH 160500Z 1606/1706 24010KT 5000 HZ SCT020
                      TEMPO 1609/1612 27014KT 3000 -TSRA FEW017CB
                       BKN018
                      BECMG 1613/1615 34005KT
                      TEMPO 1619/1622 21008KT 4000 -RA BKN020
                      BECMG 1623/1701 02003KT 3000 BR FEW020
                      TEMPO 1704/1706 30012G20KT 2000 TSRA FEW016CB
                       BKN017=
202211152300 TAF WIHH 152300Z 1600/1700 28006KT 6000 FEW020
                      TEMPO 1606/1609 35010KT 3000 -TSRA FEW016CB
                       SCT017
                      BECMG 1611/1613 00000KT 5000 HZ=
202211151700 TAF WIHH 151700Z 1518/1618 28006KT 6000 FEW020
                      BECMG 1520/1522 5000 HZ=
202211151100 TAF WIHH 151100Z 1512/1612 24010KT 6000 SCT020
                      BECMG 1514/1516 30004KT 5000 HZ=
202211150500 TAF WIHH 150500Z 1506/1606 28010KT 6000 SCT020
                      TEMPO 1506/1510 36012KT 3000 TSRA FEW016CB
                       BKN017
                      BECMG 1513/1515 21004KT 5000 HZ=
202211142300 TAF WIHH 142300Z 1500/1600 27006KT 4000 HZ FEW022
                      BECMG 1502/1504 6000 SCT020
                      TEMPO 1508/1511 30012KT 3000 -TSRA FEW017CB
                       SCT018
                      BECMG 1513/1515 24003KT 5000 HZ=
202211141700 TAF WIHH 141700Z 1418/1518 21003KT 5000 HZ FEW022
                      BECMG 1501/1503 26008KT 6000=
202211141100 TAF WIHH 141100Z 1412/1512 17005KT 6000 SCT020
                      BECMG 1414/1416 26003KT 5000 HZ=
202211140500 TAF WIHH 140500Z 1406/1506 35007KT 6000 SCT020
                      TEMPO 1408/1411 26012KT 4000 -RA FEW018CB
                       BECMG 1413/1415 20003KT 5000 HZ FEW022=
202211132300 TAF WIHH 132300Z 1400/1500 24006KT 6000 FEW020
                      TEMPO 1406/1409 18012KT 2000 TSRA FEW017CB
                       BKN018
                      BECMG 1411/1413 15005KT 5000 HZ SCT020=
202211131700 TAF WIHH 131700Z 1318/1418 22005KT 5000 HZ SCT020
                      BECMG 1402/1404 34006KT 6000
                      TEMPO 1407/1411 24010KT 3000 -TSRA FEW017CB
                       BKN018=
202211131100 TAF WIHH 131100Z 1312/1412 18006KT 5000 HZ SCT018
                      TEMPO 1313/1316 24008KT 4000 -RA BKN018
                      BECMG 1317/1319 34003KT
                      BECMG 1323/1401 00000KT 4000 BR FEW020=
202211130500 TAF WIHH 130500Z 1306/1406 21006KT 5000 HZ SCT020
                      TEMPO 1306/1310 24012KT 2000 TSRA FEW017CB
                       BKN018
                      BECMG 1312/1314 30004KT 6000
                      BECMG 1319/1321 00000KT 4000 BR FEW020=
202211122300 TAF WIHH 122300Z 1300/1400 22007KT 6000 FEW020
                      TEMPO 1307/1310 30012KT 3000 -TSRA FEW016CB
                       BKN017
                      BECMG 1313/1315 15003KT 5000 HZ=
202211121700 TAF WIHH 121700Z 1218/1318 29003KT 5000 HZ FEW020
                      TEMPO 1221/1300 3000 -RA FEW017CB SCT018
                       TEMPO 1306/1309 21010KT 2000 TSRA FEW016CB
                       BKN017=
202211121100 TAF WIHH 121100Z 1212/1312 20005KT 4000 HZ SCT020
                      BECMG 1214/1216 5000 HZ
                      TEMPO 1220/1223 3000 -RA FEW017CB=
202211120500 TAF WIHH 120500Z 1206/1306 22010KT 6000 SCT020
                      TEMPO 1208/1212 28010KT 3000 -TSRA FEW017CB
                       BECMG 1214/1216 15003KT 5000 HZ=
202211112300 TAF WIHH 112300Z 1200/1300 23006KT 7000 FEW022
                      BECMG 1202/1204 06008KT SCT020
                      TEMPO 1206/1210 34012KT 3000 -TSRA FEW017CB
                       BKN018
                      BECMG 1212/1214 20004KT 5000 HZ=
202211111700 TAF WIHH 111700Z 1118/1218 24006KT 6000 FEW022
                      TEMPO 1205/1208 26012KT 4000 -RA FEW017CB
                       SCT018=
202211111100 TAF WIHH 111100Z 1112/1212 24008KT 6000 FEW022
                      BECMG 1116/1118 VRB03KT 5000 HZ SCT020=
202211110500 TAF WIHH 110500Z 1106/1206 28005KT 6000 FEW020
                      TEMPO 1108/1111 23010KT 4000 -RA FEW017CB
                       SCT018
                      BECMG 1113/1115 VRB03KT 5000 HZ FEW022=
202211102300 TAF WIHH 102300Z 1100/1200 24006KT 6000 FEW020
                      TEMPO 1107/1111 06010KT 3000 -TSRA FEW017CB
                       BKN018
                      BECMG 1113/1115 15005KT 5000 HZ SCT020=
202211101700 TAF WIHH 101700Z 1018/1118 21005KT 6000 FEW020
                      BECMG 1104/1106 18006KT SCT020=
202211101100 TAF WIHH 101100Z 1012/1112 24006KT 5000 HZ SCT020
                      BECMG 1016/1018 VRB03KT
                      BECMG 1023/1101 34003KT 6000 FEW022=
202211100500 TAF WIHH 100500Z 1006/1106 27006KT 6000 SCT020
                      TEMPO 1007/1010 24012KT 3000 RA FEW017CB
                       BECMG 1011/1013 12005KT 5000 HZ
                      BECMG 1018/1020 00000KT FEW020=
202211092300 TAF WIHH 092300Z 1000/1100 28006KT 6000 FEW020
                      TEMPO 1006/1009 22012KT 3000 -TSRA FEW016CB
                       SCT017
                      BECMG 1012/1014 00000KT 5000 HZ=
202211091700 TAF WIHH 091700Z 0918/1018 28004KT 5000 HZ FEW020
                      BECMG 1001/1003 22010KT 7000
                      TEMPO 1007/1010 3000 -TSRA FEW017CB SCT018=
202211091100 TAF WIHH 091100Z 0912/1012 24007KT 6000 SCT020
                      BECMG 0914/0916 00000KT 4000 HZ
                      BECMG 1001/1003 25010KT 7000
                      TEMPO 1007/1010 2500 -TSRA FEW016CB BKN017=
202211090500 TAF WIHH 090500Z 0906/1006 22010KT 6000 SCT020
                      TEMPO 0906/0910 29010G25KT 2000 TSRA FEW016CB
                       BKN017
                      BECMG 0913/0915 00000KT 4000 HZ=
202211082300 TAF WIHH 082300Z 0900/1000 23005KT 3000 BR FEW022
                      BECMG 0902/0904 6000 SCT020
                      TEMPO 0907/0911 30010KT 4000 -TSRA FEW017CB
                       BKN018
                      BECMG 0912/0914 00000KT 5000 HZ=
202211081700 TAF WIHH 081700Z 0818/0918 25003KT 4000 HZ SCT018
                      BECMG 0822/0900 00000KT 3000 BR FEW022
                      BECMG 0901/0903 28008KT 6000 SCT020=
202211081100 TAF WIHH 081100Z 0812/0912 26005KT 4000 -RA FEW017CB BKN017
                      BECMG 0814/0816 VRB03KT 5000 HZ SCT020=
202211080500 TAF WIHH 080500Z 0806/0906 25006KT 4000 -TSRA FEW017CB SCT020
                      BECMG 0810/0812 22003KT 4000 HZ
                      BECMG 0816/0818 00000KT 3000 BR FEW022=
202211072300 TAF WIHH 072300Z 0800/0900 15004KT 3000 BR FEW022
                      BECMG 0801/0803 06008KT 5000 HZ SCT020
                      TEMPO 0805/0809 35010KT 3000 -TSRA FEW017CB
                       BKN018
                      BECMG 0811/0813 23005KT 5000 HZ=
202211071700 TAF WIHH 071700Z 0718/0818 VRB03KT 3000 BR FEW022
                      BECMG 0802/0804 02008KT 6000=
202211071100 TAF WIHH 071100Z 0712/0812 20005KT 3000 -RA FEW018CB BKN020
                      BECMG 0714/0716 15003KT 4000 HZ SCT018=
202211070500 TAF WIHH 070500Z 0706/0806 36008KT 6000 SCT018
                      TEMPO 0707/0711 04010KT 3000 -TSRA FEW017CB
                       BKN018
                      BECMG 0712/0714 18004KT 5000 HZ=
202211062300 TAF WIHH 062300Z 0700/0800 09008KT 4000 -RA BKN018
                      BECMG 0701/0703 VRB03KT 6000 SCT020
                      TEMPO 0708/0711 21012KT 2000 TSRA FEW017CB
                       BECMG 0713/0715 00000KT 5000 HZ FEW020=
202211061700 TAF WIHH 061700Z 0618/0718 15005KT 5000 HZ SCT020
                      TEMPO 0618/0620 09006KT 4000 -RA
                      BECMG 0621/0623 00000KT 3000 BR FEW020
                      BECMG 0702/0704 6000=
202211061100 TAF WIHH 061100Z 0612/0712 24005KT 5000 HZ SCT020
                      TEMPO 0616/0619 15006KT 4000 -RA BKN018
                      BECMG 0620/0622 00000KT 3000 BR FEW020=
202211060500 TAF WIHH 060500Z 0606/0706 15006KT 5000 HZ SCT020
                      TEMPO 0608/0611 12012KT 3000 -TSRA FEW017CB
                       BKN018
                      TEMPO 0613/0616 34005KT 4000 -RA=
202211052300 TAF WIHH 052300Z 0600/0700 18006KT 5000 HZ FEW020
                      TEMPO 0606/0610 12012KT 3000 -TSRA FEW017CB
                       BKN018
                      BECMG 0612/0614 21005KT SCT018=
202211051700 TAF WIHH 051700Z 0518/0618 21005KT 4000 HZ FEW020
                      BECMG 0602/0604 06004KT 5000 SCT020=
202211051100 TAF WIHH 051100Z 0512/0612 24005KT 5000 HZ SCT020
                      TEMPO 0514/0517 15008KT 3000 -RA BKN018
                      BECMG 0519/0521 00000KT 4000 BR FEW020=
202211050500 TAF WIHH 050500Z 0506/0606 18006KT 5000 HZ SCT020
                      TEMPO 0506/0509 24010KT 3000 -TSRA FEW017CB
                       BKN018
                      BECMG 0510/0512 03004KT
                      BECMG 0517/0519 00000KT 4000 BR FEW020=
202211042300 TAF WIHH 042300Z 0500/0600 15006KT 6000 FEW020
                      TEMPO 0506/0509 24010KT 3000 -TSRA FEW017CB
                       BKN018
                      BECMG 0512/0514 05004KT 5000 HZ SCT020=
202211041700 TAF WIHH 041700Z 0418/0518 24005KT 5000 HZ SCT020
                      TEMPO 0418/0421 06006KT 4000 -RA
                      BECMG 0422/0500 00000KT 3000 BR FEW020
                      BECMG 0503/0505 6000=
202211041100 TAF WIHH 041100Z 0412/0512 24006KT 3000 -RA BKN018
                      BECMG 0414/0416 VRB03KT 5000 HZ SCT020
                      BECMG 0422/0500 00000KT BR FEW020=
202211040500 TAF WIHH 040500Z 0406/0506 12006KT 5000 HZ SCT020
                      TEMPO 0406/0409 21012KT 2000 TSRA FEW017CB
                       BKN018
                      BECMG 0412/0414 30005KT SCT018
                      BECMG 0419/0421 00000KT 3000 BR FEW020=
202211032300 TAF WIHH 032300Z 0400/0500 36008KT 4000 HZ FEW022
                      TEMPO 0406/0409 14010KT 3000 -TSRA FEW017CB
                       SCT018
                      BECMG 0411/0413 18004KT 5000 HZ=
202211031700 TAF WIHH 031700Z 0318/0418 12003KT 4000 HZ FEW022
                      BECMG 0322/0400 18005KT 3000 BR=
202211031100 TAF WIHH 031100Z 0312/0412 24006KT 4000 HZ SCT020
                      TEMPO 0314/0317 11005KT 3000 -RA BKN018
                      BECMG 0322/0400 18003KT 3000 BR FEW022=
202211030500 TAF WIHH 030500Z 0306/0406 02010KT 6000 SCT020
                      TEMPO 0307/0311 3000 -TSRA FEW017CB BKN018
                       TEMPO 0316/0319 25008KT 4000 -RA SCT018=
202211022300 TAF WIHH 022300Z 0300/0400 10004KT 6000 FEW022
                      BECMG 0302/0304 02008KT SCT020
                      TEMPO 0307/0310 34012KT 4000 -TSRA FEW017CB
                       BKN018
                      BECMG 0312/0314 23005KT 5000 HZ=
202211021700 TAF WIHH 021700Z 0218/0318 23004KT 5000 HZ FEW022
                      BECMG 0301/0303 02008KT 6000 SCT020=
202211021100 TAF WIHH 021100Z 0212/0312 VRB04KT 5000 HZ SCT018
                      BECMG 0215/0217 15005KT FEW022=
202211020500 TAF WIHH 020500Z 0206/0306 04008KT 6000 SCT020
                      TEMPO 0208/0211 12010KT 4000 -RA
                      TEMPO 0216/0219 18007KT 3000 -TSRA FEW018CB
                       BKN019=
202211012300 TAF WIHH 012300Z 0200/0300 21006KT 6000 FEW020
                      TEMPO 0208/0211 15012KT 4000 -RA SCT018
                      TEMPO 0215/0218 06010KT 3000 -TSRA FEW017CB
                       BKN018=
202211011700 TAF WIHH 011700Z 0118/0218 13005KT 5000 HZ FEW020
                      BECMG 0203/0205 21006KT 6000 SCT020=
202211011100 TAF WIHH 011100Z 0112/0212 06006KT 5000 HZ SCT020
                      TEMPO 0115/0118 12008KT 4000 -RA BKN018
                      BECMG 0119/0121 VRB03KT FEW020=
202211010500 TAF WIHH 010500Z 0106/0206 18006KT 6000 SCT020
                      TEMPO 0109/0112 12008KT 3000 -RA BKN018
                      TEMPO 0115/0118 24005KT 4000 -RA SCT018=
