##########################################################
# Query made at 05/05/2026 03:28:22 UTC
# Time interval: from 09/01/2023 00:00  to 09/30/2023 23:59  UTC
##########################################################

##########################################################
# WIHH, Jakarta Halim Perdanakusuma (Indonesia)
# WMO index: 96747. WIGOS ID: Unknown
# Latitude 06-15S. Longitude 106-54E. Altitude 30 m.
##########################################################

###################################
#  METAR/SPECI from WIHH
###################################
202309302330 METAR WIHH 302330Z 00000KT 4000 HZ FEW020 25/22 Q1012 NOSIG=
202309302300 METAR WIHH 302300Z 00000KT 4000 HZ FEW020 24/22 Q1012 NOSIG=
202309302230 METAR WIHH 302230Z 00000KT 5000 HZ FEW020 24/22 Q1011 NOSIG=
202309302200 METAR WIHH 302200Z 00000KT 5000 HZ NSC 24/22 Q1011 NOSIG=
202309302130 METAR WIHH 302130Z 21003KT 5000 HZ FEW020 25/22 Q1011 NOSIG=
202309302100 METAR WIHH NIL=
202309302030 METAR WIHH NIL=
202309302000 METAR WIHH NIL=
202309301930 METAR WIHH NIL=
202309301900 METAR WIHH NIL=
202309301830 METAR WIHH NIL=
202309301800 METAR WIHH NIL=
202309301730 METAR WIHH NIL=
202309301700 METAR WIHH NIL=
202309301630 METAR WIHH NIL=
202309301600 METAR WIHH NIL=
202309301530 METAR WIHH 301530Z 21003KT 6000 FEW020 28/22 Q1012 NOSIG=
202309301500 METAR WIHH 301500Z 24003KT 6000 FEW020 28/22 Q1012 NOSIG=
202309301430 METAR WIHH 301430Z 21004KT 6000 SCT020 27/22 Q1012 NOSIG=
202309301400 METAR WIHH 301400Z 19006KT 6000 FEW020 28/22 Q1012 NOSIG=
202309301330 METAR WIHH 301330Z 31003KT 6000 FEW020 29/22 Q1012 NOSIG=
202309301300 METAR WIHH 301300Z 31003KT 6000 SCT020 29/23 Q1012 NOSIG=
202309301230 METAR WIHH 301230Z 33005KT 6000 SCT020 30/23 Q1011 RMK RA TO SW=
202309301200 METAR WIHH 301200Z 32005KT 6000 FEW020 29/23 Q1010 RMK RA TO SW=
202309301130 METAR WIHH 301130Z 33005KT 6000 FEW020 29/23 Q1010 RMK RA TO SW=
202309301100 METAR WIHH 301100Z 32005KT 6000 FEW020 30/23 Q1010 RMK RA TO S=
202309301030 METAR WIHH 301030Z 34008KT 6000 FEW022 31/22 Q1009 NOSIG=
202309301000 METAR WIHH 301000Z 34010KT 6000 NSC 32/21 Q1009 NOSIG=
202309300930 METAR WIHH 300930Z 35010KT 6000 NSC 32/21 Q1009 NOSIG=
202309300900 METAR WIHH 300900Z 35010KT 6000 SCT020 33/21 Q1009 NOSIG=
202309300830 METAR WIHH NIL=
202309300800 METAR WIHH 300800Z 36012KT 6000 SCT020 34/22 Q1009 NOSIG=
202309300730 METAR WIHH 300730Z 03013KT 6000 SCT020 35/22 Q1009 NOSIG=
202309300700 METAR WIHH 300700Z 03012KT 6000 SCT020 34/22 Q1009 NOSIG=
202309300630 METAR WIHH 300630Z 36010KT 6000 SCT020 34/23 Q1010 NOSIG=
202309300600 METAR WIHH 300600Z 03010KT 6000 SCT020 34/21 Q1010 NOSIG=
202309300530 METAR WIHH 300530Z 03008KT 6000 SCT020 34/21 Q1011 NOSIG=
202309300500 METAR WIHH 300500Z 31005KT 6000 SCT020 35/19 Q1011 NOSIG=
202309300430 METAR WIHH 300430Z 18005KT 6000 SCT020 34/19 Q1012 NOSIG=
202309300400 METAR WIHH 300400Z 21005KT 6000 FEW020 34/20 Q1012 NOSIG=
202309300330 METAR WIHH 300330Z 14006KT 6000 FEW020 33/20 Q1013 NOSIG=
202309300300 METAR WIHH 300300Z 17005KT 6000 NSC 32/20 Q1013 NOSIG=
202309300230 METAR WIHH 300230Z 20005KT 6000 NSC 32/21 Q1013 NOSIG=
202309300200 METAR WIHH 300200Z 16005KT 6000 NSC 31/21 Q1014 NOSIG=
202309300130 METAR WIHH 300130Z 16005KT 6000 NSC 30/21 Q1014 NOSIG=
202309300100 METAR WIHH 300100Z 16007KT 6000 NSC 29/21 Q1014 NOSIG=
202309300030 METAR WIHH 300030Z 17005KT 6000 NSC 28/21 Q1013 NOSIG=
202309300000 METAR WIHH 300000Z 22004KT 6000 NSC 27/21 Q1013 NOSIG=
202309292330 METAR WIHH 292330Z 22004KT 6000 NSC 26/21 Q1013 NOSIG=
202309292300 METAR WIHH 292300Z 21006KT 6000 FEW020 26/21 Q1013 NOSIG=
202309292230 METAR WIHH 292230Z 21004KT 6000 FEW020 26/21 Q1013 NOSIG=
202309292200 METAR WIHH 292200Z 21003KT 6000 FEW020 25/21 Q1012 NOSIG=
202309292130 METAR WIHH 292130Z 22002KT 6000 NSC 25/21 Q1012 NOSIG=
202309292100 METAR WIHH NIL=
202309292030 METAR WIHH NIL=
202309292000 METAR WIHH NIL=
202309291930 METAR WIHH NIL=
202309291900 METAR WIHH NIL=
202309291830 METAR WIHH NIL=
202309291800 METAR WIHH NIL=
202309291730 METAR WIHH NIL=
202309291700 METAR WIHH 291700Z 09003KT 6000 NSC 26/22 Q1013 NOSIG=
202309291630 METAR WIHH NIL=
202309291600 METAR WIHH 291600Z 00000KT 6000 NSC 26/22 Q1013 NOSIG=
202309291530 METAR WIHH 291530Z 00000KT 6000 NSC 27/22 Q1013 NOSIG=
202309291500 METAR WIHH 291500Z 00000KT 6000 NSC 27/23 Q1013 NOSIG=
202309291430 METAR WIHH 291430Z 00000KT 6000 NSC 27/22 Q1013 NOSIG=
202309291400 METAR WIHH 291400Z 00000KT 6000 NSC 27/22 Q1013 NOSIG=
202309291330 METAR WIHH 291330Z 00000KT 6000 NSC 28/22 Q1013 NOSIG=
202309291300 METAR WIHH 291300Z 00000KT 6000 NSC 28/22 Q1012 NOSIG=
202309291230 METAR WIHH 291230Z 02003KT 6000 NSC 29/22 Q1012 NOSIG=
202309291200 METAR WIHH 291200Z 02006KT 7000 NSC 29/21 Q1012 NOSIG=
202309291130 METAR WIHH 291130Z 06012KT 7000 FEW020 30/20 Q1011 NOSIG=
202309291100 METAR WIHH 291100Z 03012KT 7000 FEW020 31/19 Q1011 NOSIG=
202309291030 METAR WIHH 291030Z 03014KT 8000 FEW020 32/18 Q1010 NOSIG=
202309291000 METAR WIHH 291000Z 03014KT 8000 NSC 33/18 Q1010 NOSIG=
202309290930 METAR WIHH 290930Z 04017KT 8000 NSC 34/15 Q1010 NOSIG=
202309290900 METAR WIHH 290900Z 06017KT 8000 NSC 35/14 Q1009 NOSIG=
202309290830 METAR WIHH 290830Z 04020KT 8000 NSC 36/13 Q1009 NOSIG=
202309290800 METAR WIHH 290800Z 05020KT 7000 NSC 36/12 Q1009 NOSIG=
202309290730 METAR WIHH 290730Z 07019KT 7000 NSC 37/12 Q1010 NOSIG=
202309290700 METAR WIHH 290700Z 05019KT 7000 NSC 37/12 Q1010 NOSIG=
202309290630 METAR WIHH 290630Z 06020KT 7000 NSC 37/12 Q1010 NOSIG=
202309290600 METAR WIHH 290600Z 09022KT 7000 NSC 37/12 Q1011 NOSIG=
202309290530 METAR WIHH 290530Z 09019KT 7000 NSC 37/13 Q1011 NOSIG=
202309290500 METAR WIHH 290500Z 07023KT 7000 NSC 37/12 Q1011 NOSIG=
202309290430 METAR WIHH 290430Z 07019KT 7000 NSC 36/13 Q1012 NOSIG=
202309290400 METAR WIHH 290400Z 07018KT 7000 NSC 36/13 Q1013 NOSIG=
202309290330 METAR WIHH 290330Z 09016KT 6000 NSC 35/17 Q1013 NOSIG=
202309290300 METAR WIHH 290300Z 12011KT 6000 NSC 33/20 Q1014 NOSIG=
202309290230 METAR WIHH 290230Z 08009KT 6000 NSC 32/21 Q1014 NOSIG=
202309290200 METAR WIHH 290200Z 10004KT 6000 NSC 31/22 Q1014 NOSIG=
202309290130 METAR WIHH 290130Z 14004KT 6000 NSC 30/22 Q1014 NOSIG=
202309290100 METAR WIHH 290100Z 06003KT 6000 NSC 29/21 Q1014 NOSIG=
202309290030 METAR WIHH 290030Z 25003KT 6000 NSC 28/20 Q1014 NOSIG=
202309290000 METAR WIHH 290000Z 25005KT 6000 NSC 27/21 Q1013 NOSIG=
202309282330 METAR WIHH 282330Z 24004KT 6000 NSC 25/21 Q1013 NOSIG=
202309282300 METAR WIHH 282300Z 23003KT 6000 NSC 24/20 Q1012 NOSIG=
202309282230 METAR WIHH 282230Z 23002KT 6000 NSC 24/20 Q1012 NOSIG=
202309282200 METAR WIHH 282200Z 23003KT 6000 NSC 24/20 Q1012 NOSIG=
202309282130 METAR WIHH 282130Z 22003KT 6000 NSC 25/20 Q1012 NOSIG=
202309282100 METAR WIHH 282100Z 26003KT 6000 NSC 25/20 Q1011 NOSIG=
202309282030 METAR WIHH NIL=
202309282000 METAR WIHH NIL=
202309281930 METAR WIHH NIL=
202309281900 METAR WIHH NIL=
202309281830 METAR WIHH NIL=
202309281800 METAR WIHH NIL=
202309281730 METAR WIHH NIL=
202309281700 METAR WIHH 281700Z 00000KT 6000 NSC 27/21 Q1012 NOSIG=
202309281630 METAR WIHH 281630Z 12003KT 7000 NSC 27/21 Q1012 NOSIG=
202309281600 METAR WIHH 281600Z 12003KT 7000 NSC 27/21 Q1012 NOSIG=
202309281530 METAR WIHH 281530Z 10003KT 7000 NSC 28/21 Q1012 NOSIG=
202309281500 METAR WIHH 281500Z 11006KT 7000 NSC 28/22 Q1012 NOSIG=
202309281430 METAR WIHH 281430Z 06005KT 7000 NSC 29/21 Q1011 NOSIG=
202309281400 METAR WIHH 281400Z 07008KT 7000 NSC 29/21 Q1011 NOSIG=
202309281330 METAR WIHH 281330Z 05007KT 7000 NSC 29/20 Q1011 NOSIG=
202309281300 METAR WIHH 281300Z 07005KT 7000 NSC 29/20 Q1011 NOSIG=
202309281230 METAR WIHH 281230Z 07010KT 7000 NSC 29/19 Q1010 NOSIG=
202309281200 METAR WIHH 281200Z 07012KT 7000 NSC 30/18 Q1010 NOSIG=
202309281130 METAR WIHH 281130Z 05015KT 7000 NSC 30/18 Q1009 NOSIG=
202309281100 METAR WIHH 281100Z 08015KT 7000 NSC 31/18 Q1009 NOSIG=
202309281030 METAR WIHH 281030Z 05015KT 7000 NSC 32/17 Q1008 NOSIG=
202309281000 METAR WIHH NIL=
202309280930 METAR WIHH NIL=
202309280900 METAR WIHH 280900Z 06014KT 7000 NSC 34/17 Q1007 NOSIG=
202309280830 METAR WIHH 280830Z 07020KT 7000 NSC 35/17 Q1007 NOSIG=
202309280800 METAR WIHH 280800Z 07020KT 7000 NSC 35/17 Q1008 NOSIG=
202309280730 METAR WIHH 280730Z 06022KT 7000 NSC 35/16 Q1008 NOSIG=
202309280700 METAR WIHH 280700Z 05022KT 7000 NSC 36/17 Q1008 NOSIG=
202309280630 METAR WIHH 280630Z 07015KT 7000 NSC 36/16 Q1006 NOSIG=
202309280600 METAR WIHH 280600Z 04022KT 7000 NSC 36/15 Q1006 NOSIG=
202309280530 METAR WIHH 280530Z 08020KT 7000 NSC 36/15 Q1010 NOSIG=
202309280500 METAR WIHH 280500Z 04020KT 7000 NSC 36/15 Q1010 NOSIG=
202309280430 METAR WIHH 280430Z 08017KT 7000 NSC 36/13 Q1011 NOSIG=
202309280400 METAR WIHH 280400Z 09015KT 7000 NSC 35/15 Q1011 NOSIG=
202309280330 METAR WIHH 280330Z 05015KT 6000 NSC 35/15 Q1012 NOSIG=
202309280300 METAR WIHH 280300Z 02008KT 6000 NSC 33/17 Q1012 NOSIG=
202309280230 METAR WIHH 280230Z 15008KT 6000 NSC 32/20 Q1013 NOSIG=
202309280200 METAR WIHH 280200Z 15005KT 6000 NSC 31/20 Q1013 NOSIG=
202309280130 METAR WIHH 280130Z 26005KT 6000 NSC 30/20 Q1013 NOSIG=
202309280100 METAR WIHH 280100Z 21005KT 6000 NSC 29/20 Q1013 NOSIG=
202309280030 METAR WIHH 280030Z 22006KT 6000 NSC 28/20 Q1013 NOSIG=
202309280000 METAR WIHH 280000Z 24005KT 6000 NSC 26/21 Q1012 NOSIG=
202309272330 METAR WIHH 272330Z 23003KT 6000 NSC 24/21 Q1012 NOSIG=
202309272300 METAR WIHH 272300Z 22003KT 6000 NSC 24/20 Q1011 NOSIG=
202309272230 METAR WIHH 272230Z 25003KT 6000 NSC 24/21 Q1011 NOSIG=
202309272200 METAR WIHH 272200Z 23003KT 6000 NSC 24/21 Q1011 NOSIG=
202309272130 METAR WIHH 272130Z 23003KT 6000 NSC 24/20 Q1011 NOSIG=
202309272100 METAR WIHH 272100Z 25004KT 6000 NSC 24/20 Q1010 NOSIG=
202309272030 METAR WIHH NIL=
202309272000 METAR WIHH NIL=
202309271930 METAR WIHH NIL=
202309271900 METAR WIHH NIL=
202309271830 METAR WIHH NIL=
202309271800 METAR WIHH NIL=
202309271730 METAR WIHH NIL=
202309271700 METAR WIHH 271700Z 15002KT CAVOK 26/20 Q1011 NOSIG=
202309271630 METAR WIHH 271630Z 00000KT CAVOK 27/20 Q1011 NOSIG=
202309271600 METAR WIHH 271600Z 00000KT CAVOK 27/20 Q1011 NOSIG=
202309271530 METAR WIHH 271530Z 24003KT CAVOK 27/20 Q1011 NOSIG=
202309271500 METAR WIHH 271500Z 21003KT CAVOK 27/20 Q1011 NOSIG=
202309271430 METAR WIHH 271430Z 09008KT CAVOK 29/21 Q1011 NOSIG=
202309271400 METAR WIHH 271400Z 10008KT CAVOK 29/20 Q1011 NOSIG=
202309271330 METAR WIHH 271330Z 09010KT CAVOK 29/20 Q1011 NOSIG=
202309271300 METAR WIHH 271300Z 09010KT CAVOK 29/20 Q1010 NOSIG=
202309271230 METAR WIHH 271230Z 06010KT CAVOK 30/19 Q1010 NOSIG=
202309271200 METAR WIHH 271200Z 06010KT 9000 NSC 30/19 Q1009 NOSIG=
202309271130 METAR WIHH 271130Z 06012KT 9000 NSC 30/18 Q1009 NOSIG=
202309271100 METAR WIHH 271100Z 06015KT 9000 NSC 31/18 Q1008 NOSIG=
202309271030 METAR WIHH 271030Z 06015KT 9000 NSC 31/16 Q1008 NOSIG=
202309271000 METAR WIHH 271000Z 06018KT 9000 NSC 33/15 Q1007 NOSIG=
202309270930 METAR WIHH 270930Z 03019KT 9999 FEW020 33/15 Q1007 NOSIG=
202309270900 METAR WIHH 270900Z 04018KT 9999 FEW020 34/15 Q1007 NOSIG=
202309270830 METAR WIHH 270830Z 06018KT 9999 FEW022 35/14 Q1007 NOSIG=
202309270800 METAR WIHH 270800Z 07018KT 9999 FEW022 35/13 Q1007 NOSIG=
202309270730 METAR WIHH 270730Z 03018KT 9999 FEW022 35/15 Q1007 NOSIG=
202309270700 METAR WIHH 270700Z 05018KT 9999 FEW022 36/16 Q1008 NOSIG=
202309270630 METAR WIHH 270630Z 03018KT 9999 FEW022 36/16 Q1008 NOSIG=
202309270600 METAR WIHH 270600Z 04018KT 9000 FEW020 36/15 Q1009 NOSIG=
202309270530 METAR WIHH 270530Z 06018KT 8000 FEW022 36/14 Q1009 NOSIG=
202309270500 METAR WIHH 270500Z 09016KT 7000 FEW020 36/13 Q1010 NOSIG=
202309270430 METAR WIHH 270430Z 06015KT 6000 NSC 35/14 Q1010 NOSIG=
202309270400 METAR WIHH 270400Z 12010KT 6000 NSC 34/16 Q1011 NOSIG=
202309270330 METAR WIHH 270330Z 03006KT 6000 NSC 34/16 Q1011 NOSIG=
202309270300 METAR WIHH 270300Z 13007KT 6000 NSC 32/18 Q1012 NOSIG=
202309270230 METAR WIHH 270230Z 16004KT 6000 NSC 32/18 Q1012 NOSIG=
202309270200 METAR WIHH 270200Z 18005KT 6000 NSC 31/19 Q1012 NOSIG=
202309270130 METAR WIHH 270130Z 21005KT 6000 NSC 29/20 Q1013 NOSIG=
202309270100 METAR WIHH 270100Z 22006KT 6000 NSC 28/20 Q1012 NOSIG=
202309270030 METAR WIHH 270030Z 22005KT 6000 NSC 27/20 Q1012 NOSIG=
202309270000 METAR WIHH 270000Z 21004KT 6000 NSC 25/20 Q1012 NOSIG=
202309262330 METAR WIHH 262330Z 23003KT 6000 NSC 24/20 Q1011 NOSIG=
202309262300 METAR WIHH 262300Z 25003KT 6000 NSC 24/20 Q1011 NOSIG=
202309262230 METAR WIHH 262230Z 23003KT 6000 NSC 23/19 Q1010 NOSIG=
202309262200 METAR WIHH 262200Z 24002KT 6000 NSC 23/19 Q1010 NOSIG=
202309262130 METAR WIHH 262130Z 24002KT 6000 NSC 23/19 Q1010 NOSIG=
202309262100 METAR WIHH 262100Z 00000KT 6000 NSC 24/19 Q1010 NOSIG=
202309262030 METAR WIHH NIL=
202309262000 METAR WIHH NIL=
202309261930 METAR WIHH NIL=
202309261900 METAR WIHH NIL=
202309261830 METAR WIHH NIL=
202309261800 METAR WIHH NIL=
202309261730 METAR WIHH NIL=
202309261700 METAR WIHH NIL=
202309261630 METAR WIHH NIL=
202309261600 METAR WIHH NIL=
202309261530 METAR WIHH NIL=
202309261500 METAR WIHH 261500Z 00000KT 6000 FEW020 27/19 Q1011 NOSIG=
202309261430 METAR WIHH 261430Z 08003KT 6000 FEW020 29/18 Q1011 NOSIG=
202309261400 METAR WIHH 261400Z 06004KT 6000 FEW020 30/18 Q1011 NOSIG=
202309261330 METAR WIHH 261330Z 04005KT 6000 SCT020 30/18 Q1011 NOSIG=
202309261300 METAR WIHH 261300Z 07005KT 6000 SCT020 30/17 Q1010 NOSIG=
202309261230 METAR WIHH 261230Z 05006KT 6000 SCT020 30/17 Q1010 NOSIG=
202309261200 METAR WIHH 261200Z 06008KT 6000 SCT020 31/17 Q1009 NOSIG=
202309261130 METAR WIHH 261130Z 07010KT 6000 SCT020 31/17 Q1009 NOSIG=
202309261100 METAR WIHH 261100Z 05010KT 6000 SCT020 31/17 Q1008 NOSIG=
202309261030 METAR WIHH 261030Z 03011KT 6000SCT020 31/18 Q1008 NOSIG=
202309261000 METAR WIHH 261000Z 05014KT 7000 NSC 32/19 Q1008 NOSIG=
202309260930 METAR WIHH 260930Z 02014KT 7000 NSC 33/19 Q1007 NOSIG=
202309260900 METAR WIHH 260900Z 03013KT 7000 FEW020 34/18 Q1007 NOSIG=
202309260830 METAR WIHH 260830Z 01014KT 7000 FEW020 34/18 Q1007 NOSIG=
202309260800 METAR WIHH 260800Z 02014KT 7000 FEW020 35/17 Q1007 NOSIG=
202309260730 METAR WIHH NIL=
202309260700 METAR WIHH NIL=
202309260630 METAR WIHH 260630Z 02013KT 6000 FEW020 36/16 Q1008 NOSIG=
202309260600 METAR WIHH 260600Z 09011KT 6000 FEW020 36/16 Q1008 NOSIG=
202309260530 METAR WIHH 260530Z 11011KT 6000 FEW020 35/16 Q1009 NOSIG=
202309260500 METAR WIHH 260500Z 03013KT 6000 FEW020 36/15 Q1009 NOSIG=
202309260430 METAR WIHH 260430Z 06014KT 6000 FEW020 35/17 Q1010 NOSIG=
202309260400 METAR WIHH 260400Z 08012KT 6000 FEW020 35/17 Q1010 NOSIG=
202309260330 METAR WIHH 260330Z 09012KT 6000 NSC 34/17 Q1011 NOSIG=
202309260300 METAR WIHH 260300Z 10007KT 6000 NSC 33/17 Q1011 NOSIG=
202309260230 METAR WIHH 260230Z 11007KT 6000 NSC 32/18 Q1012 NOSIG=
202309260200 METAR WIHH 260200Z 11007KT 6000 NSC 31/18 Q1012 NOSIG=
202309260130 METAR WIHH 260130Z 12006KT 5000 HZ NSC 29/19 Q1012 NOSIG=
202309260100 METAR WIHH 260100Z 12006KT 5000 HZ NSC 29/19 Q1012 NOSIG=
202309260030 METAR WIHH NIL=
202309260000 METAR WIHH 260000Z 13002KT 6000 NSC 26/22 Q1011 NOSIG=
202309252330 METAR WIHH 252330Z 17003KT 6000 NSC 25/21 Q1011 NOSIG=
202309252300 METAR WIHH 252300Z 00000KT 6000 NSC 24/21 Q1010 NOSIG=
202309252230 METAR WIHH 252230Z 18003KT 6000 NSC 24/21 Q1010 NOSIG=
202309252200 METAR WIHH 252200Z 24003KT 6000 NSC 25/21 Q1010 NOSIG=
202309252130 METAR WIHH 252130Z 22002KT 6000 NSC 25/21 Q1011 NOSIG=
202309252100 METAR WIHH 252100Z 22002KT 6000 NSC 25/21 Q1011 NOSIG=
202309252030 METAR WIHH NIL=
202309252000 METAR WIHH NIL=
202309251930 METAR WIHH NIL=
202309251900 METAR WIHH NIL=
202309251830 METAR WIHH NIL=
202309251800 METAR WIHH NIL=
202309251730 METAR WIHH NIL=
202309251700 METAR WIHH NIL=
202309251630 METAR WIHH NIL=
202309251600 METAR WIHH NIL=
202309251530 METAR WIHH 251530Z 22007KT 7000 NSC 27/21 Q1011 NOSIG=
202309251500 METAR WIHH 251500Z 24004KT 7000 NSC 27/22 Q1011 NOSIG=
202309251430 METAR WIHH 251430Z 00000KT 7000 NSC 27/22 Q1010 NOSIG=
202309251400 METAR WIHH 251400Z 31002KT 7000 NSC 28/22 Q1010 NOSIG=
202309251330 METAR WIHH 251330Z 00000KT 7000 NSC 28/22 Q1010 NOSIG=
202309251300 METAR WIHH 251300Z 00000KT 7000 NSC 28/22 Q1010 NOSIG=
202309251230 METAR WIHH 251230Z 30002KT 7000 NSC 29/22 Q1010 NOSIG=
202309251200 METAR WIHH 251200Z 25002KT 7000 NSC 29/21 Q1009 NOSIG=
202309251130 METAR WIHH 251130Z 02003KT 7000 NSC 30/21 Q1009 NOSIG=
202309251100 METAR WIHH 251100Z 04010KT 6000 NSC 32/19 Q1007 NOSIG=
202309251030 METAR WIHH 251030Z 04010KT 6000 NSC 32/19 Q1007 NOSIG=
202309251000 METAR WIHH 251000Z 04015KT 6000 NSC 34/18 Q1007 NOSIG=
202309250930 METAR WIHH 250930Z 03015KT 6000 FEW020 34/17 Q1007 NOSIG=
202309250900 METAR WIHH 250900Z 03015KT 6000 FEW020 35/17 Q1007 NOSIG=
202309250830 METAR WIHH 250830Z 02015KT 6000 FEW020 36/18 Q1007 NOSIG=
202309250800 METAR WIHH 250800Z 36015KT 6000 SCT020 35/20 Q1007 NOSIG=
202309250730 METAR WIHH 250730Z 06015KT 6000 FEW020 37/14 Q1007 NOSIG=
202309250700 METAR WIHH 250700Z 07018KT 6000 FEW020 37/15 Q1007 NOSIG=
202309250630 METAR WIHH 250630Z 07018KT 6000 FEW020 37/16 Q1008 NOSIG=
202309250600 METAR WIHH 250600Z 07018KT 6000 SCT020 37/17 Q1008 NOSIG=
202309250530 METAR WIHH 250530Z 06012KT 6000 SCT020 37/17 Q1008 NOSIG=
202309250500 METAR WIHH 250500Z 25004KT 6000 SCT020 36/17 Q1009 NOSIG=
202309250430 METAR WIHH 250430Z 12007KT 6000 FEW020 36/17 Q1010 NOSIG=
202309250400 METAR WIHH 250400Z 13007KT 6000 NSC 35/18 Q1010 NOSIG=
202309250330 METAR WIHH 250330Z 19004KT 6000 NSC 34/18 Q1011 NOSIG=
202309250300 METAR WIHH 250300Z 02005KT 6000 NSC 33/18 Q1011 NOSIG=
202309250230 METAR WIHH NIL=
202309250200 METAR WIHH 250200Z 13003KT 6000 NSC 32/19 Q1012 NOSIG=
202309250130 METAR WIHH 250130Z 00000KT 6000 NSC 30/19 Q1012 NOSIG=
202309250100 METAR WIHH 250100Z 22003KT 6000 NSC 29/20 Q1012 NOSIG=
202309250030 METAR WIHH 250030Z 22003KT 6000 NSC 28/21 Q1012 NOSIG=
202309250000 METAR WIHH 250000Z 22003KT 6000 NSC 26/21 Q1012 NOSIG=
202309242330 METAR WIHH 242330Z 25003KT 6000 NSC 25/21 Q1011 NOSIG=
202309242300 METAR WIHH 242300Z 23003KT 6000 NSC 24/20 Q1011 NOSIG=
202309242230 METAR WIHH 242230Z 00000KT 6000 NSC 23/20 Q1011 NOSIG=
202309242200 METAR WIHH 242200Z 00000KT 6000 NSC 24/20 Q1011 NOSIG=
202309242130 METAR WIHH 242130Z 00000KT 6000 NSC 23/20 Q1011 NOSIG=
202309242100 METAR WIHH 242100Z 00000KT 6000 NSC 24/20 Q1010 NOSIG=
202309242030 METAR WIHH NIL=
202309242000 METAR WIHH NIL=
202309241930 METAR WIHH NIL=
202309241900 METAR WIHH NIL=
202309241830 METAR WIHH NIL=
202309241800 METAR WIHH NIL=
202309241730 METAR WIHH NIL=
202309241700 METAR WIHH 241700Z 00000KT 6000 NSC 25/20 Q1011 NOSIG=
202309241630 METAR WIHH 241630Z 12003KT 6000 NSC 27/20 Q1012 NOSIG=
202309241600 METAR WIHH 241600Z 14003KT 6000 NSC 27/20 Q1012 NOSIG=
202309241530 METAR WIHH 241530Z 16003KT 6000 NSC 27/20 Q1012 NOSIG=
202309241500 METAR WIHH 241500Z 14003KT 6000 NSC 28/20 Q1012 NOSIG=
202309241430 METAR WIHH 241430Z 16003KT 6000 NSC 28/19 Q1011 NOSIG=
202309241400 METAR WIHH 241400Z 14003KT 6000 FEW020 28/20 Q1011 NOSIG=
202309241330 METAR WIHH 241330Z 19003KT 6000 SCT020 28/22 Q1011 NOSIG=
202309241300 METAR WIHH 241300Z 00000KT 6000 SCT020 29/23 Q1011 NOSIG=
202309241230 METAR WIHH 241230Z 30003KT 6000 SCT020 29/22 Q1010 NOSIG=
202309241200 METAR WIHH 241200Z 34003KT 6000 SCT020 29/22 Q1010 RMK RA TO SW=
202309241130 METAR WIHH 241130Z 36005KT 6000 SCT020 30/22 Q1009 RMK RA TO SW=
202309241100 METAR WIHH 241100Z 36008KT 6000 SCT020 30/22 Q1009 RMK RA TO S=
202309241030 METAR WIHH 241030Z 36010KT 6000 FEW020 30/22 Q1008 RMK RA TO S=
202309241000 METAR WIHH 241000Z 01010KT 7000 NSC 31/22 Q1008 NOSIG=
202309240930 METAR WIHH 240930Z 33010KT 7000 NSC 31/22 Q1008 NOSIG=
202309240900 METAR WIHH 240900Z 01010KT 7000 FEW022 33/22 Q1007 NOSIG=
202309240830 METAR WIHH 240830Z 33010KT 7000 FEW022 33/23 Q1007 NOSIG=
202309240800 METAR WIHH 240800Z 01010KT 7000 FEW020 33/22 Q1007 NOSIG=
202309240730 METAR WIHH 240730Z 03015KT 6000 FEW020 33/22 Q1007 NOSIG=
202309240700 METAR WIHH 240700Z 03012KT 6000 SCT020 34/22 Q1007 NOSIG=
202309240630 METAR WIHH 240630Z 03012KT 6000 SCT020 34/21 Q1008 NOSIG=
202309240600 METAR WIHH 240600Z 34010KT 6000 SCT020 34/21 Q1008 NOSIG=
202309240530 METAR WIHH 240530Z 03010KT 6000 SCT020 35/19 Q1008 NOSIG=
202309240500 METAR WIHH 240500Z 09005KT 6000 SCT020 34/18 Q1009 NOSIG=
202309240430 METAR WIHH 240430Z 13010KT 6000 FEW020 34/18 Q1010 NOSIG=
202309240400 METAR WIHH 240400Z 03008KT 6000 FEW020 34/19 Q1010 NOSIG=
202309240330 METAR WIHH 240330Z 12005KT 6000 FEW020 33/19 Q1011 NOSIG=
202309240300 METAR WIHH 240300Z 15008KT 6000 NSC 32/20 Q1012 NOSIG=
202309240230 METAR WIHH 240230Z 17007KT 6000 NSC 32/20 Q1012 NOSIG=
202309240200 METAR WIHH 240200Z 11003KT 6000 NSC 31/20 Q1012 NOSIG=
202309240130 METAR WIHH 240130Z 18005KT 6000 FEW020 30/21 Q1012 NOSIG=
202309240100 METAR WIHH 240100Z 24003KT 6000 FEW020 29/20 Q1012 NOSIG=
202309240030 METAR WIHH 240030Z 21003KT 6000 FEW020 27/21 Q1012 NOSIG=
202309240000 METAR WIHH 240000Z 23005KT 6000 FEW020 25/20 Q1012 NOSIG=
202309232330 METAR WIHH 232330Z 22003KT 6000 FEW020 25/21 Q1011 NOSIG=
202309232300 METAR WIHH 232300Z 23003KT 6000 FEW020 24/20 Q1011 NOSIG=
202309232230 METAR WIHH 232230Z 22003KT 6000 FEW020 24/20 Q1011 NOSIG=
202309232200 METAR WIHH 232200Z 21003KT 6000 FEW020 25/20 Q1011 NOSIG=
202309232130 METAR WIHH 232130Z 00000KT 6000 FEW020 25/20 Q1011 NOSIG=
202309232100 METAR WIHH 232100Z 22002KT 6000 FEW020 25/20 Q1011 NOSIG=
202309232030 METAR WIHH NIL=
202309232000 METAR WIHH NIL=
202309231930 METAR WIHH NIL=
202309231900 METAR WIHH NIL=
202309231830 METAR WIHH NIL=
202309231800 METAR WIHH NIL=
202309231730 METAR WIHH NIL=
202309231700 METAR WIHH 231700Z 00000KT 6000 FEW020 26/22 Q1011 NOSIG=
202309231630 METAR WIHH 231630Z 00000KT 6000 FEW020 26/22 Q1011 NOSIG=
202309231600 METAR WIHH 231600Z 00000KT 6000 FEW020 26/22 Q1011 NOSIG=
202309231530 METAR WIHH 231530Z 00000KT 6000 FEW020 27/22 Q1011 NOSIG=
202309231500 METAR WIHH 231500Z 00000KT 6000 FEW020 27/22 Q1011 NOSIG=
202309231430 METAR WIHH 231430Z 14003KT 6000 FEW020 28/22 Q1011 NOSIG=
202309231400 METAR WIHH 231400Z 06003KT 6000 FEW020 28/22 Q1011 NOSIG=
202309231330 METAR WIHH 231330Z 06004KT 6000 FEW020 28/22 Q1010 NOSIG=
202309231300 METAR WIHH 231300Z 07005KT 6000 FEW020 28/22 Q1010 NOSIG=
202309231230 METAR WIHH 231230Z 07006KT 6000 FEW020 29/22 Q1010 NOSIG=
202309231200 METAR WIHH 231200Z 04007KT 6000 FEW020 29/22 Q1009 NOSIG=
202309231130 METAR WIHH 231130Z 04007KT 6000 FEW020 29/22 Q1008 NOSIG=
202309231100 METAR WIHH 231100Z 03011KT 6000 SCT020 29/22 Q1008 NOSIG=
202309231030 METAR WIHH 231030Z 36011KT 6000 FEW020 30/21 Q1008 NOSIG=
202309231000 METAR WIHH 231000Z 02012KT 6000 FEW020 31/20 Q1007 NOSIG=
202309230930 METAR WIHH 230930Z 06012KT 6000 FEW020 32/20 Q1007 NOSIG=
202309230900 METAR WIHH 230900Z 02010KT 6000 SCT020 32/20 Q1007 NOSIG=
202309230830 METAR WIHH 230830Z 03012KT 6000 SCT018 32/20 Q1007 NOSIG=
202309230800 METAR WIHH 230800Z 03012KT 6000 SCT018 33/20 Q1007 NOSIG=
202309230730 METAR WIHH 230730Z 02010KT 6000 SCT018 34/19 Q1007 NOSIG=
202309230700 METAR WIHH 230700Z 03012KT 6000 SCT018 33/19 Q1008 NOSIG=
202309230630 METAR WIHH 230630Z 05010KT 6000 SCT018 33/19 Q1008 NOSIG=
202309230600 METAR WIHH 230600Z 03009KT 6000 SCT018 33/19 Q1008 NOSIG=
202309230530 METAR WIHH 230530Z 13007KT 6000 SCT018 33/18 Q1009 NOSIG=
202309230500 METAR WIHH 230500Z 14004KT 6000 SCT018 32/18 Q1010 NOSIG=
202309230430 METAR WIHH 230430Z 04005KT 5000 HZ SCT018 33/20 Q1010 NOSIG=
202309230400 METAR WIHH 230400Z 09006KT 5000 HZ SCT020 31/21 Q1011 NOSIG=
202309230330 METAR WIHH 230330Z 03008KT 5000 HZ SCT020 31/21 Q1011 NOSIG=
202309230300 METAR WIHH 230300Z 10005KT 6000 SCT020 31/21 Q1012 NOSIG=
202309230230 METAR WIHH 230230Z 07003KT 6000 SCT020 31/21 Q1012 NOSIG=
202309230200 METAR WIHH 230200Z 00000KT 6000 FEW020 31/21 Q1012 NOSIG=
202309230130 METAR WIHH 230130Z 00000KT 6000 NSC 29/21 Q1012 NOSIG=
202309230100 METAR WIHH 230100Z 00000KT 6000 NSC 29/21 Q1012 NOSIG=
202309230030 METAR WIHH 230030Z 17005KT 6000 NSC 28/21 Q1012 NOSIG=
202309230000 METAR WIHH 230000Z 19002KT 6000 NSC 27/19 Q1012 NOSIG=
202309222330 METAR WIHH 222330Z 00000KT 6000 SCT020 25/19 Q1012 NOSIG=
202309222300 METAR WIHH 222300Z 20002KT 6000 SCT020 25/19 Q1011 NOSIG=
202309222230 METAR WIHH 222230Z 23002KT 6000 SCT020 24/19 Q1011 NOSIG=
202309222200 METAR WIHH NIL=
202309222130 METAR WIHH NIL=
202309222100 METAR WIHH NIL=
202309222030 METAR WIHH NIL=
202309222000 METAR WIHH NIL=
202309221930 METAR WIHH NIL=
202309221900 METAR WIHH NIL=
202309221830 METAR WIHH NIL=
202309221800 METAR WIHH NIL=
202309221730 METAR WIHH NIL=
202309221700 METAR WIHH NIL=
202309221630 METAR WIHH 221630Z 12002KT 7000 SCT020 28/21 Q1012 NOSIG=
202309221600 METAR WIHH 221600Z 06004KT 7000 NSC 29/21 Q1012 NOSIG=
202309221530 METAR WIHH 221530Z 06004KT 7000 NSC 28/22 Q1012 NOSIG=
202309221500 METAR WIHH 221500Z 08004KT 7000 NSC 28/22 Q1012 NOSIG=
202309221430 METAR WIHH 221430Z 08007KT 7000 NSC 28/22 Q1012 NOSIG=
202309221400 METAR WIHH 221400Z 07007KT 7000 NSC 28/22 Q1011 NOSIG=
202309221330 METAR WIHH 221330Z 06006KT 7000 NSC 29/22 Q1011 NOSIG=
202309221300 METAR WIHH 221300Z 06008KT 7000 NSC 29/21 Q1011 NOSIG=
202309221230 METAR WIHH 221230Z 04012KT 7000 FEW020 29/22 Q1010 NOSIG=
202309221200 METAR WIHH 221200Z 06012KT 7000 FEW020 29/22 Q1010 NOSIG=
202309221130 METAR WIHH 221130Z 05010KT 6000 FEW020 29/23 Q1009 NOSIG=
202309221100 METAR WIHH 221100Z 04008KT 6000 SCT020 30/24 Q1009 NOSIG=
202309221030 METAR WIHH 221030Z 01012KT 6000 SCT020 31/22 Q1008 NOSIG=
202309221000 METAR WIHH 221000Z 02012KT 6000 SCT020 31/22 Q1008 NOSIG=
202309220930 METAR WIHH 220930Z 01012KT 6000 SCT020 32/22 Q1007 NOSIG=
202309220900 METAR WIHH 220900Z 36012KT 6000 SCT020 32/22 Q1007 NOSIG=
202309220830 METAR WIHH 220830Z 34006KT 7000 FEW020 33/23 Q1007 NOSIG=
202309220800 METAR WIHH 220800Z 36010KT 7000 SCT020 33/22 Q1007 NOSIG=
202309220730 METAR WIHH 220730Z 02010KT 7000 SCT020 33/23 Q1007 NOSIG=
202309220700 METAR WIHH 220700Z 03015KT 7000 SCT020 34/22 Q1007 NOSIG=
202309220630 METAR WIHH 220630Z 04012KT 7000 SCT020 34/22 Q1008 NOSIG=
202309220600 METAR WIHH 220600Z 25007KT 7000 SCT020 35/17 Q1008 NOSIG=
202309220530 METAR WIHH 220530Z 23013KT 7000 SCT020 36/17 Q1009 NOSIG=
202309220500 METAR WIHH 220500Z 24012KT 7000 SCT020 35/17 Q1009 NOSIG=
202309220430 METAR WIHH 220430Z 24012KT 7000 SCT020 35/17 Q1010 NOSIG=
202309220400 METAR WIHH 220400Z 23012KT 7000 FEW020 34/18 Q1010 NOSIG=
202309220330 METAR WIHH 220330Z 20012KT 7000 FEW020 34/18 Q1011 NOSIG=
202309220300 METAR WIHH 220300Z 11004KT 6000 FEW020 33/18 Q1011 NOSIG=
202309220230 METAR WIHH 220230Z 11004KT 6000 NSC 32/20 Q1012 NOSIG=
202309220200 METAR WIHH 220200Z 09003KT 6000 NSC 31/20 Q1012 NOSIG=
202309220130 METAR WIHH 220130Z 18003KT 6000 NSC 31/20 Q1012 NOSIG=
202309220100 METAR WIHH NIL=
202309220030 METAR WIHH 220030Z 18003KT 6000 NSC 28/19 Q1012 NOSIG=
202309220000 METAR WIHH 220000Z 22003KT 6000 NSC 26/20 Q1012 NOSIG=
202309212330 METAR WIHH 212330Z 22004KT 5000 HZ FEW022 24/20 Q1012 NOSIG=
202309212300 METAR WIHH 212300Z 28003KT 5000 HZ FEW020 24/20 Q1011 NOSIG=
202309212230 METAR WIHH 212230Z 22003KT 5000 HZ FEW020 24/20 Q1011 NOSIG=
202309212200 METAR WIHH 212200Z 18003KT 5000 HZ FEW020 24/20 Q1011 NOSIG=
202309212130 METAR WIHH 212130Z 19003KT 5000 HZ FEW020 25/20 Q1011 NOSIG=
202309212100 METAR WIHH 212100Z 19003KT 5000 HZ SCT020 24/20 Q1010 NOSIG=
202309212030 METAR WIHH NIL=
202309212000 METAR WIHH NIL=
202309211930 METAR WIHH NIL=
202309211900 METAR WIHH NIL=
202309211830 METAR WIHH NIL=
202309211800 METAR WIHH NIL=
202309211730 METAR WIHH NIL=
202309211700 METAR WIHH NIL=
202309211630 METAR WIHH NIL=
202309211600 METAR WIHH NIL=
202309211530 METAR WIHH 211530Z 15005KT 5000 HZ SCT020 27/23 Q1011 NOSIG=
202309211500 METAR WIHH 211500Z 15003KT 5000 HZ SCT020 28/23 Q1011 NOSIG=
202309211430 METAR WIHH 211430Z 06008KT 5000 HZ SCT020 29/23 Q1011 NOSIG=
202309211400 METAR WIHH 211400Z 06008KT 5000 HZ SCT020 29/23 Q1011 RMK RA TO NE=
202309211330 METAR WIHH 211330Z 06005KT 5000 HZ SCT020 30/22 Q1011 RMK RA TO NE=
202309211300 METAR WIHH 211300Z 07004KT 5000 HZ SCT020 30/22 Q1011 RMK RA TO N AND E=
202309211230 METAR WIHH 211230Z 03004KT 5000 HZ SCT020 30/22 Q1010 RMK RA TO N AND E=
202309211200 METAR WIHH 211200Z 36005KT 5000 HZ SCT020 30/22 Q1010 RMK RA TO SE AND SW=
202309211130 METAR WIHH 211130Z 01005KT 5000 HZ SCT020 30/22 Q1009 RMK RA TO SE AND SW=
202309211100 METAR WIHH 211100Z 01005KT 5000 HZ SCT020 30/22 Q1009 RMK RA TO SE AND SW=
202309211030 METAR WIHH 211030Z 33005KT 5000 HZ SCT020 30/22 Q1009 RMK RA TO SE AND SW=
202309211000 METAR WIHH 211000Z 02008KT 5000 HZ SCT020 30/22 Q1008 RMK RA TO NE AND SE=
202309210930 METAR WIHH 210930Z 32005KT 5000 HZ SCT020 31/22 Q1008 RMK RA TO SW=
202309210900 METAR WIHH 210900Z 32005KT 5000 HZ SCT020 32/22 Q1008 RMK RA TO S=
202309210830 METAR WIHH 210830Z 36008KT 5000 HZ SCT020 33/22 Q1007 NOSIG=
202309210800 METAR WIHH 210800Z 02010KT 5000 HZ SCT020 33/22 Q1007 NOSIG=
202309210730 METAR WIHH 210730Z 01010KT 5000 HZ SCT020 34/22 Q1007 NOSIG=
202309210700 METAR WIHH 210700Z 36010KT 5000 HZ SCT020 34/22 Q1008 NOSIG=
202309210630 METAR WIHH 210630Z 02013KT 5000 HZ SCT020 35/22 Q1008 NOSIG=
202309210600 METAR WIHH 210600Z 36012KT 5000 HZ SCT020 34/23 Q1008 NOSIG=
202309210530 METAR WIHH 210530Z 02008KT 5000 HZ SCT020 34/22 Q1009 NOSIG=
202309210500 METAR WIHH NIL=
202309210430 METAR WIHH NIL=
202309210400 METAR WIHH 210400Z 19006KT 5000 HZ FEW020 34/21 Q1010 NOSIG=
202309210330 METAR WIHH 210330Z 09004KT 5000 HZ FEW020 34/21 Q1011 NOSIG=
202309210300 METAR WIHH 210300Z 34004KT 5000 HZ FEW020 32/21 Q1012 NOSIG=
202309210230 METAR WIHH 210230Z 04005KT 5000 HZ NSC 32/22 Q1012 NOSIG=
202309210200 METAR WIHH 210200Z 12005KT 5000 HZ NSC 31/22 Q1012 NOSIG=
202309210130 METAR WIHH 210130Z 24005KT 6000 NSC 30/22 Q1012 NOSIG=
202309210100 METAR WIHH 210100Z 18005KT 6000 NSC 29/20 Q1012 NOSIG=
202309210030 METAR WIHH 210030Z 20005KT 6000 NSC 28/21 Q1012 NOSIG=
202309210000 METAR WIHH 210000Z 21003KT 6000 FEW020 27/22 Q1012 NOSIG=
202309202330 METAR WIHH 202330Z 24004KT 6000 FEW020 26/22 Q1011 NOSIG=
202309202300 METAR WIHH 202300Z 22003KT 6000 FEW020 25/21 Q1011 NOSIG=
202309202230 METAR WIHH 202230Z 21003KT 6000 FEW020 25/21 Q1011 NOSIG=
202309202200 METAR WIHH 202200Z 00000KT 6000 NSC 26/21 Q1011 NOSIG=
202309202130 METAR WIHH 202130Z 18003KT 6000 NSC 26/21 Q1011 NOSIG=
202309202100 METAR WIHH 202100Z 20005KT 6000 NSC 27/21 Q1010 NOSIG=
202309202030 METAR WIHH NIL=
202309202000 METAR WIHH NIL=
202309201930 METAR WIHH NIL=
202309201900 METAR WIHH NIL=
202309201830 METAR WIHH NIL=
202309201800 METAR WIHH NIL=
202309201730 METAR WIHH NIL=
202309201700 METAR WIHH 201700Z 01003KT 6000 SCT020 26/23 Q1011 NOSIG=
202309201630 METAR WIHH 201630Z 02003KT 6000 SCT020 26/23 Q1011 NOSIG=
202309201600 METAR WIHH 201600Z 20003KT 6000 SCT020 27/22 Q1011 NOSIG=
202309201530 METAR WIHH 201530Z 20003KT 6000 SCT020 27/22 Q1011 NOSIG=
202309201500 METAR WIHH 201500Z 19003KT 6000 SCT020 27/22 Q1011 NOSIG=
202309201430 METAR WIHH 201430Z 20003KT 6000 FEW020 27/22 Q1011 NOSIG=
202309201400 METAR WIHH 201400Z 09003KT 6000 FEW020 28/23 Q1010 NOSIG=
202309201330 METAR WIHH 201330Z 04004KT 6000 FEW020 29/23 Q1010 NOSIG=
202309201300 METAR WIHH 201300Z 06006KT 6000 SCT020 29/23 Q1010 NOSIG=
202309201230 METAR WIHH 201230Z 06005KT 6000 SCT020 29/23 Q1010 NOSIG=
202309201200 METAR WIHH 201200Z 05005KT 6000 SCT020 29/22 Q1009 NOSIG=
202309201130 METAR WIHH 201130Z 04006KT 6000 SCT020 30/22 Q1009 NOSIG=
202309201100 METAR WIHH 201100Z 04011KT 6000 FEW020 30/21 Q1008 NOSIG=
202309201030 METAR WIHH 201030Z 04011KT 6000 FEW020 31/21 Q1008 NOSIG=
202309201000 METAR WIHH 201000Z 05013KT 6000 FEW020 32/21 Q1007 NOSIG=
202309200930 METAR WIHH 200930Z 02012KT 6000 FEW020 33/21 Q1007 NOSIG=
202309200900 METAR WIHH 200900Z 03012KT 6000 FEW020 33/21 Q1007 NOSIG=
202309200830 METAR WIHH 200830Z 03016KT 6000 FEW020 34/21 Q1007 NOSIG=
202309200800 METAR WIHH 200800Z 03012KT 6000 FEW020 35/21 Q1007 NOSIG=
202309200730 METAR WIHH NIL=
202309200700 METAR WIHH 200700Z 01011KT 6000 SCT020 35/22 Q1007 NOSIG=
202309200630 METAR WIHH 200630Z 03010KT 6000 SCT020 34/22 Q1008 NOSIG=
202309200600 METAR WIHH 200600Z 04005KT 6000 SCT020 36/20 Q1008 NOSIG=
202309200530 METAR WIHH 200530Z 31005KT 6000 SCT020 35/20 Q1008 NOSIG=
202309200500 METAR WIHH 200500Z 11010KT 6000 SCT020 35/20 Q1009 NOSIG=
202309200430 METAR WIHH 200430Z 14005KT 6000 SCT020 33/20 Q1010 NOSIG=
202309200400 METAR WIHH 200400Z 12006KT 6000 FEW020 34/21 Q1010 NOSIG=
202309200330 METAR WIHH 200330Z 09006KT 6000 FEW020 33/21 Q1011 NOSIG=
202309200300 METAR WIHH 200300Z 04005KT 6000 FEW020 33/21 Q1012 NOSIG=
202309200230 METAR WIHH 200230Z 05003KT 5000 HZ FEW020 31/21 Q1012 NOSIG=
202309200200 METAR WIHH 200200Z 11003KT 4000 HZ NSC 31/22 Q1012 NOSIG=
202309200130 METAR WIHH 200130Z 06006KT 5000 HZ NSC 30/22 Q1012 NOSIG=
202309200100 METAR WIHH 200100Z 11003KT 5000 HZ NSC 29/23 Q1012 NOSIG=
202309200030 METAR WIHH 200030Z 13002KT 6000 NSC 28/23 Q1012 NOSIG=
202309200000 METAR WIHH 200000Z 12002KT 6000 NSC 26/23 Q1011 NOSIG=
202309192330 METAR WIHH 192330Z 00000KT 6000 NSC 25/21 Q1011 NOSIG=
202309192300 METAR WIHH 192300Z 00000KT 6000 NSC 24/21 Q1011 NOSIG=
202309192230 METAR WIHH 192230Z 00000KT 6000 NSC 24/21 Q1011 NOSIG=
202309192200 METAR WIHH 192200Z 00000KT 6000 NSC 24/21 Q1011 NOSIG=
202309192130 METAR WIHH 192130Z 17003KT 6000 NSC 24/21 Q1010 NOSIG=
202309192100 METAR WIHH 192100Z 00000KT 6000 NSC 24/21 Q1010 NOSIG=
202309192030 METAR WIHH NIL=
202309192000 METAR WIHH NIL=
202309191930 METAR WIHH NIL=
202309191900 METAR WIHH NIL=
202309191830 METAR WIHH NIL=
202309191800 METAR WIHH NIL=
202309191730 METAR WIHH NIL=
202309191700 METAR WIHH 191700Z 00000KT 6000 FEW020 27/22 Q1011 NOSIG=
202309191630 METAR WIHH 191630Z 00000KT 7000 FEW020 26/22 Q1012 NOSIG=
202309191600 METAR WIHH 191600Z 00000KT 7000 FEW020 27/22 Q1012 NOSIG=
202309191530 METAR WIHH 191530Z 23003KT 6000 SCT020 27/22 Q1012 NOSIG=
202309191500 METAR WIHH 191500Z 22007KT 6000 SCT020 27/22 Q1012 NOSIG=
202309191430 METAR WIHH 191430Z 23010KT 6000 SCT020 27/22 Q1011 NOSIG=
202309191400 METAR WIHH 191400Z 20003KT 5000 HZ SCT018 27/22 Q1011 NOSIG=
202309191330 METAR WIHH 191330Z 21004KT 5000 HZ SCT018 27/23 Q1011 NOSIG=
202309191300 METAR WIHH 191300Z 21006KT 5000 HZ SCT018 28/23 Q1011 NOSIG=
202309191230 METAR WIHH 191230Z 24005KT 5000 HZ SCT018 28/23 Q1011 NOSIG=
202309191200 METAR WIHH 191200Z 22007KT 5000 HZ SCT018 28/23 Q1010 NOSIG=
202309191130 METAR WIHH 191130Z 23003KT 5000 HZ SCT018 28/23 Q1010 NOSIG=
202309191100 METAR WIHH 191100Z 05004KT 5000 HZ SCT018 30/22 Q1009 NOSIG=
202309191030 METAR WIHH 191030Z 03008KT 5000 HZ SCT018 30/22 Q1009 NOSIG=
202309191000 METAR WIHH 191000Z 03006KT 5000 HZ SCT018 30/22 Q1008 RMK RA TO SW=
202309190930 METAR WIHH 190930Z 36007KT 5000 HZ BKN018 31/21 Q1008 RMK RA TO SW=
202309190900 METAR WIHH 190900Z 03008KT 5000 HZ SCT018 31/22 Q1008 RMK RA TO SW=
202309190830 METAR WIHH 190830Z 02010KT 5000 HZ BKN018 31/22 Q1008 RMK RA TO SW=
202309190800 METAR WIHH 190800Z 03010KT 5000 HZ BKN018 32/21 Q1008 RMK RA TO W=
202309190730 METAR WIHH 190730Z 03010KT 5000 HZ BKN018 32/22 Q1008 RMK RA TO W=
202309190700 METAR WIHH 190700Z 01010KT 5000 HZ BKN018 32/23 Q1008 RMK RA TO N-NE=
202309190630 METAR WIHH 190630Z 36005KT 5000 HZ BKN018 32/22 Q1009 RMK RA TO NW AND NE=
202309190600 METAR WIHH 190600Z 02007KT 5000 HZ BKN018 32/22 Q1009 NOSIG=
202309190530 METAR WIHH 190530Z 02007KT 5000 HZ BKN018 32/22 Q1010 RMK RA TO NE=
202309190500 METAR WIHH 190500Z 07003KT 5000 HZ BKN018 32/22 Q1010 RMK RA TO NE=
202309190430 METAR WIHH 190430Z 32003KT 5000 HZ BKN018 32/22 Q1010 TEMPO FM0435 4000 -RA RMK RA TO NE-E=
202309190400 METAR WIHH 190400Z 19003KT 5000 HZ BKN020 32/22 Q1011 TEMPO FM0415 4000 -RA BKN018 RMK RA TO NE-E=
202309190330 METAR WIHH 190330Z 26005KT 5000 HZ SCT020 31/23 Q1011 NOSIG=
202309190300 METAR WIHH 190300Z 24002KT 5000 HZ SCT020 31/22 Q1011 NOSIG=
202309190230 METAR WIHH 190230Z 33003KT 5000 HZ SCT020 32/22 Q1012 NOSIG=
202309190200 METAR WIHH 190200Z 18003KT 5000 HZ SCT020 32/23 Q1012 NOSIG=
202309190130 METAR WIHH 190130Z 13003KT 5000 HZ SCT020 31/23 Q1012 NOSIG=
202309190100 METAR WIHH 190100Z 18003KT 5000 HZ FEW020 30/23 Q1011 NOSIG=
202309190030 METAR WIHH NIL=
202309190000 METAR WIHH 190000Z 21003KT 4000 HZ FEW020 27/23 Q1011 NOSIG=
202309182330 METAR WIHH 182330Z 21003KT 4000 HZ SCT020 26/23 Q1011 NOSIG=
202309182300 METAR WIHH 182300Z 24003KT 4000 HZ SCT020 26/23 Q1010 NOSIG=
202309182230 METAR WIHH 182230Z 22003KT 5000 HZ SCT020 26/23 Q1010 NOSIG=
202309182200 METAR WIHH 182200Z 22004KT 5000 HZ SCT020 26/23 Q1010 NOSIG=
202309182130 METAR WIHH 182130Z 24003KT 5000 HZ SCT020 26/23 Q1010 NOSIG=
202309182100 METAR WIHH NIL=
202309182030 METAR WIHH NIL=
202309182000 METAR WIHH NIL=
202309181930 METAR WIHH NIL=
202309181900 METAR WIHH NIL=
202309181830 METAR WIHH NIL=
202309181800 METAR WIHH NIL=
202309181730 METAR WIHH NIL=
202309181700 METAR WIHH NIL=
202309181630 METAR WIHH NIL=
202309181600 METAR WIHH NIL=
202309181530 METAR WIHH NIL=
202309181500 METAR WIHH 181500Z 21004KT 6000 SCT020 27/23 Q1010 NOSIG=
202309181430 METAR WIHH 181430Z 07003KT 6000 SCT020 28/23 Q1010 NOSIG=
202309181400 METAR WIHH 181400Z 06006KT 6000 SCT020 29/24 Q1010 NOSIG=
202309181330 METAR WIHH 181330Z 06006KT 6000 SCT020 29/24 Q1010 NOSIG=
202309181300 METAR WIHH 181300Z 03005KT 6000 SCT020 29/24 Q1010 NOSIG=
202309181230 METAR WIHH 181230Z 33005KT 6000 SCT020 29/24 Q1010 NOSIG=
202309181200 METAR WIHH 181200Z 33005KT 6000 SCT020 29/23 Q1009 NOSIG=
202309181130 METAR WIHH 181130Z 36004KT 5000 HZ SCT020 30/23 Q1009 NOSIG=
202309181100 METAR WIHH 181100Z 36004KT 5000 HZ SCT020 30/23 Q1008 RMK RA TO S=
202309181030 METAR WIHH 181030Z 34010KT 5000 HZ SCT020 30/23 Q1008 RMK RA TO SE=
202309181000 METAR WIHH 181000Z 01010KT 5000 HZ SCT020 31/22 Q1008 RMK RA TO SE=
202309180930 METAR WIHH 180930Z 03010KT 5000 HZ SCT020 32/22 Q1007 RMK RA TO SE=
202309180900 METAR WIHH 180900Z 03010KT 5000 HZ FEW018CB SCT020 32/22 Q1007 RMK CB AND RA TO SE=
202309180830 METAR WIHH NIL=
202309180800 METAR WIHH NIL=
202309180730 METAR WIHH 180730Z 36011KT 5000 HZ SCT020 33/23 Q1008 RMK RA TO SE=
202309180700 METAR WIHH 180700Z 02011KT 5000 HZ SCT020 32/22 Q1008 RMK RA TO SE=
202309180630 METAR WIHH 180630Z 02008KT 6000 SCT020 34/22 Q1009 NOSIG=
202309180600 METAR WIHH 180600Z 02008KT 6000 SCT020 34/22 Q1009 NOSIG=
202309180530 METAR WIHH 180530Z 27003KT 6000 SCT020 35/20 Q1009 NOSIG=
202309180500 METAR WIHH 180500Z 14006KT 6000 SCT020 34/20 Q1009 NOSIG=
202309180430 METAR WIHH 180430Z 16005KT 6000 FEW020 35/19 Q1010 NOSIG=
202309180400 METAR WIHH 180400Z 06005KT 6000 NSC 34/19 Q1011 NOSIG=
202309180330 METAR WIHH 180330Z 24007KT 6000 NSC 34/19 Q1011 NOSIG=
202309180300 METAR WIHH 180300Z 18008KT 6000 NSC 33/20 Q1011 NOSIG=
202309180230 METAR WIHH 180230Z 23005KT 6000 NSC 32/21 Q1012 NOSIG=
202309180200 METAR WIHH 180200Z 21005KT 6000 NSC 31/21 Q1012 NOSIG=
202309180130 METAR WIHH 180130Z 30005KT 6000 NSC 30/21 Q1012 NOSIG=
202309180100 METAR WIHH 180100Z 22005KT 6000 NSC 29/21 Q1011 NOSIG=
202309180030 METAR WIHH 180030Z 20003KT 6000 NSC 28/22 Q1011 NOSIG=
202309180000 METAR WIHH 180000Z 21003KT 6000 NSC 27/23 Q1011 NOSIG=
202309172330 METAR WIHH 172330Z 20004KT 6000 NSC 26/22 Q1011 NOSIG=
202309172300 METAR WIHH 172300Z 22004KT 6000 NSC 26/22 Q1011 NOSIG=
202309172230 METAR WIHH 172230Z 22004KT 6000 FEW020 26/22 Q1010 NOSIG=
202309172200 METAR WIHH NIL=
202309172130 METAR WIHH 172130Z 21005KT 6000 FEW020 26/22 Q1010 NOSIG=
202309172100 METAR WIHH 172100Z 20003KT 6000 FEW020 26/22 Q1010 NOSIG=
202309172030 METAR WIHH NIL=
202309172000 METAR WIHH NIL=
202309171930 METAR WIHH NIL=
202309171900 METAR WIHH NIL=
202309171830 METAR WIHH NIL=
202309171800 METAR WIHH NIL=
202309171730 METAR WIHH NIL=
202309171700 METAR WIHH 171700Z 19004KT 6000 SCT018 28/22 Q1011 NOSIG=
202309171630 METAR WIHH NIL=
202309171600 METAR WIHH 171600Z 12003KT 6000 SCT020 26/21 Q1012 NOSIG=
202309171530 METAR WIHH NIL=
202309171500 METAR WIHH 171500Z 09003KT 6000 SCT020 29/21 Q1012 NOSIG=
202309171430 METAR WIHH 171430Z 10003KT 6000 SCT020 29/21 Q1012 NOSIG=
202309171400 METAR WIHH 171400Z 04003KT 6000 SCT020 29/21 Q1012 NOSIG=
202309171330 METAR WIHH 171330Z 03005KT 6000 SCT020 29/21 Q1011 NOSIG=
202309171300 METAR WIHH 171300Z 03003KT 6000 SCT020 29/22 Q1010 RMK RA TO SE AND NW=
202309171230 METAR WIHH 171230Z 01005KT 6000 SCT020 29/22 Q1010 RMK RA TO SE AND W=
202309171200 METAR WIHH 171200Z 02004KT 6000 SCT020 30/22 Q1010 RMK RA TO SW=
202309171130 METAR WIHH 171130Z 01006KT 6000 SCT020 30/19 Q1009 RMK RA TO S=
202309171100 METAR WIHH 171100Z 02010KT 6000 SCT020 30/20 Q1008 NOSIG=
202309171030 METAR WIHH 171030Z 03010KT 7000 SCT020 31/20 Q1008 NOSIG=
202309171000 METAR WIHH 171000Z 03012KT 7000 SCT020 33/20 Q1007 NOSIG=
202309170930 METAR WIHH 170930Z 05013KT 6000 SCT020 33/19 Q1007 NOSIG=
202309170900 METAR WIHH 170900Z 05013KT 6000 SCT020 33/19 Q1007 NOSIG=
202309170830 METAR WIHH 170830Z 05012KT 6000 SCT020 33/20 Q1007 RMK RA TO SW=
202309170800 METAR WIHH 170800Z 03012KT 6000 SCT018 34/21 Q1007 RMK RA TO S=
202309170730 METAR WIHH 170730Z 04008KT 6000 SCT018 34/21 Q1007 RMK RA TO S AND W=
202309170700 METAR WIHH 170700Z 30005KT 6000 SCT018 32/22 Q1008 RMK RA TO NW=
202309170630 METAR WIHH 170630Z 34006KT 5000 HZ SCT018 32/23 Q1008 RMK RA TO W=
202309170600 METAR WIHH 170600Z 01008KT 6000 SCT020 35/20 Q1009 NOSIG=
202309170530 METAR WIHH 170530Z 01008KT 6000 SCT020 35/20 Q1009 NOSIG=
202309170500 METAR WIHH 170500Z 04007KT 6000 SCT020 34/20 Q1010 NOSIG=
202309170430 METAR WIHH 170430Z 04008KT 6000 SCT020 35/20 Q1010 NOSIG=
202309170400 METAR WIHH 170400Z 06005KT 6000 SCT020 34/20 Q1011 NOSIG=
202309170330 METAR WIHH 170330Z 12007KT 6000 FEW020 33/20 Q1011 NOSIG=
202309170300 METAR WIHH 170300Z 21004KT 6000 FEW020 32/21 Q1012 NOSIG=
202309170230 METAR WIHH 170230Z 19004KT 6000 FEW020 31/21 Q1012 NOSIG=
202309170200 METAR WIHH 170200Z 26005KT 6000 NSC 31/22 Q1012 NOSIG=
202309170130 METAR WIHH 170130Z 21005KT 6000 NSC 30/22 Q1012 NOSIG=
202309170100 METAR WIHH 170100Z 18006KT 6000 NSC 29/22 Q1012 NOSIG=
202309170030 METAR WIHH 170030Z 22006KT 6000 NSC 27/22 Q1012 NOSIG=
202309170000 METAR WIHH 170000Z 25002KT 6000 NSC 26/22 Q1011 NOSIG=
202309162330 METAR WIHH 162330Z 24002KT 6000 NSC 25/21 Q1011 NOSIG=
202309162300 METAR WIHH 162300Z 23003KT 6000 NSC 24/21 Q1011 NOSIG=
202309162230 METAR WIHH 162230Z 20004KT 6000 NSC 24/21 Q1010 NOSIG=
202309162200 METAR WIHH 162200Z 24002KT 6000 NSC 25/22 Q1010 NOSIG=
202309162130 METAR WIHH 162130Z 24003KT 6000 NSC 25/22 Q1010 NOSIG=
202309162100 METAR WIHH 162100Z 25002KT 6000 NSC 25/23 Q1010 NOSIG=
202309162030 METAR WIHH NIL=
202309162000 METAR WIHH NIL=
202309161930 METAR WIHH NIL=
202309161900 METAR WIHH NIL=
202309161830 METAR WIHH NIL=
202309161800 METAR WIHH NIL=
202309161730 METAR WIHH NIL=
202309161700 METAR WIHH 161700Z 00000KT 5000 HZ NSC 26/23 Q1012 NOSIG=
202309161630 METAR WIHH 161630Z 12005KT 6000 NSC 27/23 Q1012 NOSIG=
202309161600 METAR WIHH 161600Z 12005KT 6000 NSC 27/23 Q1012 NOSIG=
202309161530 METAR WIHH 161530Z 12005KT 6000 NSC 28/23 Q1012 NOSIG=
202309161500 METAR WIHH 161500Z 10005KT 6000 NSC 28/23 Q1012 NOSIG=
202309161430 METAR WIHH 161430Z 10005KT 6000 NSC 28/23 Q1012 NOSIG=
202309161400 METAR WIHH 161400Z 10005KT 7000 FEW020 28/22 Q1012 NOSIG=
202309161330 METAR WIHH 161330Z 10004KT 7000 FEW020 29/22 Q1012 NOSIG=
202309161300 METAR WIHH 161300Z 10004KT 7000 NSC 29/22 Q1011 NOSIG=
202309161230 METAR WIHH 161230Z 06005KT 7000 NSC 29/22 Q1011 NOSIG=
202309161200 METAR WIHH 161200Z 06007KT 7000 NSC 29/22 Q1010 NOSIG=
202309161130 METAR WIHH 161130Z 07006KT 6000 NSC 30/22 Q1010 NOSIG=
202309161100 METAR WIHH 161100Z 06012KT 6000 NSC 30/21 Q1009 NOSIG=
202309161030 METAR WIHH 161030Z 04012KT 6000 NSC 31/21 Q1009 NOSIG=
202309161000 METAR WIHH 161000Z 01012KT 6000 NSC 31/20 Q1009 NOSIG=
202309160930 METAR WIHH 160930Z 03020KT 6000 NSC 32/20 Q1008 NOSIG=
202309160900 METAR WIHH 160900Z 02015KT 6000 NSC 32/21 Q1008 NOSIG=
202309160830 METAR WIHH 160830Z 03015KT 6000 FEW020 33/21 Q1008 NOSIG=
202309160800 METAR WIHH 160800Z 04015KT 6000 FEW020 34/21 Q1008 NOSIG=
202309160730 METAR WIHH 160730Z 04015KT 6000 SCT020 34/21 Q1008 NOSIG=
202309160700 METAR WIHH 160700Z 04015KT 6000 SCT020 34/22 Q1009 NOSIG=
202309160630 METAR WIHH 160630Z 03015KT 6000 SCT020 35/21 Q1009 NOSIG=
202309160600 METAR WIHH 160600Z 06014KT 6000 SCT020 35/20 Q1010 NOSIG=
202309160530 METAR WIHH 160530Z 03015KT 6000 SCT020 34/20 Q1010 NOSIG=
202309160500 METAR WIHH 160500Z 03015KT 6000 SCT020 35/20 Q1010 NOSIG=
202309160430 METAR WIHH 160430Z 03010KT 7000 FEW020 35/20 Q1011 NOSIG=
202309160400 METAR WIHH 160400Z 04010KT 6000 FEW020 33/20 Q1011 NOSIG=
202309160330 METAR WIHH 160330Z 04010KT 6000 FEW020 33/20 Q1012 NOSIG=
202309160300 METAR WIHH 160300Z 36005KT 6000 NSC 33/20 Q1012 NOSIG=
202309160230 METAR WIHH 160230Z 08004KT 6000 NSC 32/20 Q1012 NOSIG=
202309160200 METAR WIHH 160200Z 05003KT 6000 NSC 31/20 Q1012 NOSIG=
202309160130 METAR WIHH 160130Z 33002KT 5000 HZ NSC 30/20 Q1012 NOSIG=
202309160100 METAR WIHH 160100Z 23004KT 5000 HZ NSC 29/21 Q1012 NOSIG=
202309160030 METAR WIHH 160030Z 18004KT 5000 HZ NSC 28/21 Q1012 NOSIG=
202309160000 METAR WIHH 160000Z 24003KT 5000 HZ NSC 26/21 Q1012 NOSIG=
202309152330 METAR WIHH 152330Z 22003KT 4000 HZ NSC 25/21 Q1011 NOSIG=
202309152300 METAR WIHH 152300Z 23003KT 4000 HZ NSC 24/21 Q1011 NOSIG=
202309152230 METAR WIHH 152230Z 20004KT 4000 HZ NSC 24/21 Q1011 NOSIG=
202309152200 METAR WIHH 152200Z 00000KT 4000 HZ NSC 24/21 Q1011 NOSIG=
202309152130 METAR WIHH 152130Z 00000KT 5000 HZ NSC 24/21 Q1011 NOSIG=
202309152100 METAR WIHH 152100Z 02003KT 5000 HZ NSC 25/21 Q1011 NOSIG=
202309152030 METAR WIHH NIL=
202309152000 METAR WIHH NIL=
202309151930 METAR WIHH NIL=
202309151900 METAR WIHH NIL=
202309151830 METAR WIHH NIL=
202309151800 METAR WIHH NIL=
202309151730 METAR WIHH NIL=
202309151700 METAR WIHH 151700Z 15003KT 6000 NSC 27/21 Q1012 NOSIG=
202309151630 METAR WIHH 151630Z 15003KT 6000 NSC 27/21 Q1012 NOSIG=
202309151600 METAR WIHH 151600Z 14003KT 6000 NSC 28/21 Q1012 NOSIG=
202309151530 METAR WIHH 151530Z 12005KT 6000 NSC 28/21 Q1012 NOSIG=
202309151500 METAR WIHH 151500Z 09005KT 6000 NSC 28/21 Q1012 NOSIG=
202309151430 METAR WIHH 151430Z 10005KT 6000 NSC 28/21 Q1012 NOSIG=
202309151400 METAR WIHH 151400Z 07005KT 7000 NSC 29/21 Q1012 NOSIG=
202309151330 METAR WIHH 151330Z 06006KT 7000 NSC 29/21 Q1012 NOSIG=
202309151300 METAR WIHH 151300Z 06006KT 7000 NSC 29/21 Q1011 NOSIG=
202309151230 METAR WIHH 151230Z 07008KT 7000 NSC 29/21 Q1011 NOSIG=
202309151200 METAR WIHH 151200Z 07010KT 7000 NSC 29/20 Q1010 NOSIG=
202309151130 METAR WIHH 151130Z 06008KT 7000 NSC 30/19 Q1010 NOSIG=
202309151100 METAR WIHH 151100Z 06007KT 7000 NSC 30/19 Q1009 NOSIG=
202309151030 METAR WIHH 151030Z 06012KT 7000 NSC 31/21 Q1009 NOSIG=
202309151000 METAR WIHH 151000Z 05012KT 7000 NSC 31/20 Q1008 NOSIG=
202309150930 METAR WIHH 150930Z 05010KT 7000 NSC 32/21 Q1008 NOSIG=
202309150900 METAR WIHH 150900Z 01010KT 7000 NSC 33/21 Q1008 NOSIG=
202309150830 METAR WIHH 150830Z 03013KT 7000 NSC 34/20 Q1008 NOSIG=
202309150800 METAR WIHH NIL=
202309150700 METAR WIHH NIL=
202309150600 METAR WIHH 150600Z 05013KT 6000 FEW020 35/19 Q1010 NOSIG=
202309150530 METAR WIHH 150530Z 06010KT 6000 SCT020 34/19 Q1010 NOSIG=
202309150500 METAR WIHH 150500Z 06010KT 6000 SCT020 33/19 Q1010 NOSIG=
202309150430 METAR WIHH 150430Z 04010KT 6000 FEW020 34/19 Q1011 NOSIG=
202309150400 METAR WIHH 150400Z 11010KT 6000 FEW020 34/19 Q1011 NOSIG=
202309150330 METAR WIHH 150330Z 08005KT 6000 NSC 33/18 Q1012 NOSIG=
202309150300 METAR WIHH 150300Z 15006KT 6000 NSC 32/19 Q1012 NOSIG=
202309150230 METAR WIHH 150230Z 18008KT 6000 FEW020 31/20 Q1013 NOSIG=
202309150200 METAR WIHH 150200Z 21008KT 6000 NSC 31/20 Q1013 NOSIG=
202309150130 METAR WIHH 150130Z 21004KT 5000 HZ FEW020 30/20 Q1013 NOSIG=
202309150100 METAR WIHH 150100Z 19004KT 5000 HZ NSC 28/20 Q1013 NOSIG=
202309150030 METAR WIHH 150030Z 19005KT 5000 HZ NSC 27/21 Q1013 NOSIG=
202309150000 METAR WIHH 150000Z 14003KT 5000 HZ NSC 26/21 Q1012 NOSIG=
202309142330 METAR WIHH 142330Z 00000KT 5000 HZ NSC 25/21 Q1012 NOSIG=
202309142300 METAR WIHH 142300Z 21004KT 5000 HZ NSC 24/21 Q1011 NOSIG=
202309142230 METAR WIHH 142230Z 00000KT 5000 HZ NSC 24/21 Q1011 NOSIG=
202309142200 METAR WIHH 142200Z 00000KT 5000 HZ NSC 24/21 Q1011 NOSIG=
202309142130 METAR WIHH 142130Z 27002KT 5000 HZ NSC 24/21 Q1011 NOSIG=
202309142100 METAR WIHH 142100Z 27002KT 5000 HZ NSC 24/21 Q1010 NOSIG=
202309142030 METAR WIHH NIL=
202309142000 METAR WIHH NIL=
202309141930 METAR WIHH NIL=
202309141900 METAR WIHH NIL=
202309141830 METAR WIHH NIL=
202309141800 METAR WIHH NIL=
202309141730 METAR WIHH NIL=
202309141700 METAR WIHH NIL=
202309141630 METAR WIHH NIL=
202309141600 METAR WIHH NIL=
202309141530 METAR WIHH NIL=
202309141500 METAR WIHH 141500Z 10003KT 6000 FEW020 28/22 Q1012 NOSIG=
202309141430 METAR WIHH 141430Z 08003KT 6000 FEW020 28/22 Q1012 NOSIG=
202309141400 METAR WIHH 141400Z 11003KT 6000 FEW020 29/22 Q1012 NOSIG=
202309141330 METAR WIHH 141330Z 09004KT 6000 FEW020 29/22 Q1011 NOSIG=
202309141300 METAR WIHH 141300Z 08004KT 6000 FEW020 29/22 Q1011 NOSIG=
202309141230 METAR WIHH 141230Z 08007KT 6000 SCT020 29/21 Q1010 NOSIG=
202309141200 METAR WIHH 141200Z 03011KT 6000 SCT020 29/21 Q1010 NOSIG=
202309141130 METAR WIHH 141130Z 06012KT 6000 SCT020 30/22 Q1010 NOSIG=
202309141100 METAR WIHH 141100Z 04010KT 6000 SCT020 30/21 Q1010 NOSIG=
202309141030 METAR WIHH 141030Z 04010KT 6000 SCT020 31/21 Q1009 RMK RA TO SW=
202309141000 METAR WIHH 141000Z 05012KT 6000 SCT020 31/21 Q1009 RMK RA TO SW=
202309140930 METAR WIHH 140930Z 05013KT 6000 SCT020 32/21 Q1009 RMK RA TO S=
202309140900 METAR WIHH 140900Z 04014KT 6000 SCT020 32/21 Q1009 RMK RA TO SE=
202309140830 METAR WIHH 140830Z 06012KT 6000 SCT020 33/20 Q1009 NOSIG=
202309140800 METAR WIHH 140800Z 03012KT 6000 SCT020 33/20 Q1009 NOSIG=
202309140730 METAR WIHH 140730Z 05013KT 6000 SCT020 34/19 Q1009 NOSIG=
202309140700 METAR WIHH 140700Z 04013KT 6000 SCT020 34/18 Q1010 NOSIG=
202309140630 METAR WIHH 140630Z 06007KT 6000 SCT020 33/17 Q1011 NOSIG=
202309140600 METAR WIHH 140600Z 06007KT 6000 SCT020 33/17 Q1011 NOSIG=
202309140530 METAR WIHH 140530Z 08008KT 6000 SCT020 34/17 Q1011 NOSIG=
202309140500 METAR WIHH 140500Z 03005KT 6000 SCT020 33/17 Q1011 NOSIG=
202309140430 METAR WIHH 140430Z 05004KT 7000 FEW020 34/16 Q1012 NOSIG=
202309140400 METAR WIHH 140400Z 05005KT 7000 FEW020 33/17 Q1012 NOSIG=
202309140330 METAR WIHH 140330Z 10005KT 7000 FEW020 32/17 Q1013 NOSIG=
202309140300 METAR WIHH 140300Z 27004KT 7000 FEW020 32/18 Q1013 NOSIG=
202309140230 METAR WIHH 140230Z 23007KT 7000 NSC 31/19 Q1013 NOSIG=
202309140200 METAR WIHH 140200Z 22004KT 7000 NSC 30/19 Q1014 NOSIG=
202309140130 METAR WIHH NIL=
202309140100 METAR WIHH 140100Z 18006KT 7000 NSC 28/10 Q1013 NOSIG=
202309140030 METAR WIHH NIL=
202309140000 METAR WIHH 140000Z 20005KT 7000 NSC 26/20 Q1013 NOSIG=
202309132330 METAR WIHH 132330Z 22004KT 7000 NSC 24/19 Q1012 NOSIG=
202309132300 METAR WIHH 132300Z 22004KT 7000 NSC 24/19 Q1012 NOSIG=
202309132230 METAR WIHH 132230Z 22003KT 6000 NSC 24/19 Q1012 NOSIG=
202309132200 METAR WIHH 132200Z 25005KT 6000 NSC 25/19 Q1011 NOSIG=
202309132130 METAR WIHH 132130Z 27004KT 6000 NSC 25/19 Q1011 NOSIG=
202309132100 METAR WIHH NIL=
202309132030 METAR WIHH NIL=
202309132000 METAR WIHH NIL=
202309131930 METAR WIHH NIL=
202309131900 METAR WIHH NIL=
202309131830 METAR WIHH NIL=
202309131800 METAR WIHH NIL=
202309131730 METAR WIHH NIL=
202309131700 METAR WIHH NIL=
202309131630 METAR WIHH NIL=
202309131600 METAR WIHH NIL=
202309131530 METAR WIHH NIL=
202309131500 METAR WIHH 131500Z 18002KT 7000 FEW020 27/20 Q1012 NOSIG=
202309131430 METAR WIHH 131430Z 06004KT 7000 FEW020 29/20 Q1012 NOSIG=
202309131400 METAR WIHH 131400Z 04005KT 7000 FEW020 29/20 Q1012 NOSIG=
202309131330 METAR WIHH 131330Z 07005KT 7000 FEW020 29/20 Q1011 NOSIG=
202309131300 METAR WIHH 131300Z 07007KT 7000 FEW020 30/19 Q1011 NOSIG=
202309131230 METAR WIHH 131230Z 06006KT 7000 SCT020 30/19 Q1010 NOSIG=
202309131200 METAR WIHH 131200Z 06006KT 7000 SCT020 30/19 Q1010 NOSIG=
202309131130 METAR WIHH 131130Z 05010KT 7000 FEW020 30/18 Q1009 NOSIG=
202309131100 METAR WIHH 131100Z 06008KT 7000 SCT020 31/18 Q1009 NOSIG=
202309131030 METAR WIHH 131030Z 08006KT 7000 SCT020 31/21 Q1009 NOSIG=
202309131000 METAR WIHH 131000Z 03010KT 7000 SCT020 31/21 Q1009 NOSIG=
202309130930 METAR WIHH 130930Z 05007KT 7000 SCT020 32/20 Q1008 NOSIG=
202309130900 METAR WIHH 130900Z 05012KT 6000 SCT020 33/20 Q1008 NOSIG=
202309130830 METAR WIHH 130830Z 04010KT 7000 SCT020 33/21 Q1009 NOSIG=
202309130800 METAR WIHH 130800Z 36010KT 7000 SCT020 33/21 Q1009 NOSIG=
202309130730 METAR WIHH 130730Z 02010KT 6000 SCT020 34/21 Q1009 NOSIG=
202309130700 METAR WIHH 130700Z 05010KT 6000 SCT020 34/22 Q1009 NOSIG=
202309130630 METAR WIHH 130630Z 05010KT 6000 SCT020 34/22 Q1010 NOSIG=
202309130600 METAR WIHH 130600Z 35005KT 6000 SCT020 33/22 Q1010 NOSIG=
202309130530 METAR WIHH 130530Z 03006KT 6000 SCT020 34/21 Q1011 NOSIG=
202309130500 METAR WIHH 130500Z 03006KT 6000 SCT020 35/21 Q1011 NOSIG=
202309130430 METAR WIHH 130430Z 05006KT 6000 SCT020 35/19 Q1012 NOSIG=
202309130400 METAR WIHH NIL=
202309130330 METAR WIHH 130330Z 15003KT 6000 FEW020 33/20 Q1013 NOSIG=
202309130300 METAR WIHH 130300Z 12005KT 6000 FEW020 32/20 Q1013 NOSIG=
202309130230 METAR WIHH 130230Z 24005KT 6000 NSC 31/20 Q1013 NOSIG=
202309130200 METAR WIHH 130200Z 24005KT 6000 NSC 31/20 Q1013 NOSIG=
202309130130 METAR WIHH 130130Z 15008KT 6000 NSC 30/21 Q1013 NOSIG=
202309130100 METAR WIHH 130100Z 19005KT 6000 NSC 29/21 Q1013 NOSIG=
202309130030 METAR WIHH 130030Z 18007KT 6000 NSC 28/21 Q1013 NOSIG=
202309130000 METAR WIHH 130000Z 20006KT 6000 NSC 27/21 Q1013 NOSIG=
202309122330 METAR WIHH 122330Z 21008KT 6000 NSC 26/21 Q1013 NOSIG=
202309122300 METAR WIHH 122300Z 25003KT 6000 NSC 25/22 Q1012 NOSIG=
202309122230 METAR WIHH 122230Z 22003KT 6000 NSC 24/21 Q1012 NOSIG=
202309122200 METAR WIHH 122200Z 22004KT 6000 NSC 25/22 Q1012 NOSIG=
202309122130 METAR WIHH NIL=
202309122100 METAR WIHH 122100Z 20006KT 6000 NSC 26/21 Q1012 NOSIG=
202309122030 METAR WIHH NIL=
202309122000 METAR WIHH NIL=
202309121930 METAR WIHH NIL=
202309121900 METAR WIHH NIL=
202309121830 METAR WIHH NIL=
202309121800 METAR WIHH NIL=
202309121730 METAR WIHH NIL=
202309121700 METAR WIHH 121700Z 15003KT 6000 NSC 27/23 Q1013 NOSIG=
202309121630 METAR WIHH 121630Z 12003KT 6000 NSC 27/23 Q1013 NOSIG=
202309121600 METAR WIHH 121600Z 12006KT 6000 NSC 28/23 Q1013 NOSIG=
202309121530 METAR WIHH 121530Z 11006KT 6000 NSC 28/23 Q1013 NOSIG=
202309121500 METAR WIHH 121500Z 12005KT 6000 NSC 28/23 Q1013 NOSIG=
202309121430 METAR WIHH 121430Z 10005KT 6000 NSC 28/23 Q1013 NOSIG=
202309121400 METAR WIHH 121400Z 10006KT 7000 NSC 28/23 Q1012 NOSIG=
202309121330 METAR WIHH 121330Z 09006KT 8000 NSC 29/23 Q1012 NOSIG=
202309121300 METAR WIHH 121300Z 09005KT 8000 NSC 29/22 Q1012 NOSIG=
202309121230 METAR WIHH 121230Z 08010KT 8000 NSC 29/22 Q1011 NOSIG=
202309121200 METAR WIHH 121200Z 05010KT 9000 NSC 29/22 Q1011 NOSIG=
202309121130 METAR WIHH 121130Z 06010KT 9000 NSC 30/21 Q1010 NOSIG=
202309121100 METAR WIHH 121100Z 06013KT 9000 NSC 30/21 Q1010 NOSIG=
202309121030 METAR WIHH 121030Z 07015KT CAVOK 31/20 Q1009 NOSIG=
202309121000 METAR WIHH 121000Z 07015KT CAVOK 32/20 Q1009 NOSIG=
202309120930 METAR WIHH 120930Z 06015KT 9000 NSC 33/20 Q1009 NOSIG=
202309120900 METAR WIHH 120900Z 06018KT 9000 NSC 34/19 Q1010 NOSIG=
202309120830 METAR WIHH NIL=
202309120800 METAR WIHH 120800Z 03018KT 9000 NSC 35/19 Q1009 NOSIG=
202309120730 METAR WIHH 120730Z 05018KT 9000 NSC 35/18 Q1010 NOSIG=
202309120700 METAR WIHH 120700Z 03018KT 8000 FEW020 35/18 Q1010 NOSIG=
202309120630 METAR WIHH 120630Z 03018KT 7000 FEW020 35/18 Q1010 NOSIG=
202309120600 METAR WIHH 120600Z 03018KT 6000 FEW020 36/19 Q1011 NOSIG=
202309120530 METAR WIHH 120530Z 08016KT 7000 FEW020 35/19 Q1011 NOSIG=
202309120500 METAR WIHH 120500Z 06015KT 7000 FEW020 35/18 Q1012 NOSIG=
202309120430 METAR WIHH 120430Z 06018KT 7000 FEW020 35/19 Q1012 NOSIG=
202309120400 METAR WIHH NIL=
202309120330 METAR WIHH 120330Z 08015KT 6000 FEW020 35/18 Q1012 NOSIG=
202309120300 METAR WIHH 120300Z 08012KT 6000 NSC 34/19 Q1013 NOSIG=
202309120230 METAR WIHH 120230Z 14008KT 6000 NSC 33/20 Q1013 NOSIG=
202309120200 METAR WIHH 120200Z 15005KT 6000 NSC 32/20 Q1013 NOSIG=
202309120130 METAR WIHH 120130Z 18003KT 6000 NSC 30/20 Q1013 NOSIG=
202309120100 METAR WIHH 120100Z 22003KT 6000 NSC 29/21 Q1013 NOSIG=
202309120030 METAR WIHH 120030Z 18003KT 6000 NSC 27/21 Q1013 NOSIG=
202309120000 METAR WIHH 120000Z 22003KT 6000 NSC 26/21 Q1012 NOSIG=
202309112330 METAR WIHH 112330Z 23003KT 6000 NSC 25/21 Q1012 NOSIG=
202309112300 METAR WIHH 112300Z 24003KT 5000 HZ FEW020 24/21 Q1012 NOSIG=
202309112230 METAR WIHH 112230Z 23003KT 5000 HZ FEW020 24/21 Q1012 NOSIG=
202309112200 METAR WIHH 112200Z 25003KT 6000 FEW020 24/21 Q1012 NOSIG=
202309112130 METAR WIHH 112130Z 22003KT 6000 FEW020 25/21 Q1012 NOSIG=
202309112100 METAR WIHH 112100Z 25002KT 6000 NSC 25/21 Q1011 NOSIG=
202309112030 METAR WIHH NIL=
202309112000 METAR WIHH NIL=
202309111930 METAR WIHH NIL=
202309111900 METAR WIHH NIL=
202309111830 METAR WIHH NIL=
202309111800 METAR WIHH NIL=
202309111730 METAR WIHH NIL=
202309111700 METAR WIHH 111700Z 15003KT 6000 NSC 26/21 Q1013 NOSIG=
202309111630 METAR WIHH 111630Z 15002KT 7000 NSC 26/21 Q1013 NOSIG=
202309111600 METAR WIHH 111600Z 17002KT 7000 NSC 26/20 Q1013 NOSIG=
202309111530 METAR WIHH 111530Z 00000KT 7000 FEW020 27/20 Q1013 NOSIG=
202309111500 METAR WIHH 111500Z 00000KT 7000 FEW020 27/20 Q1013 NOSIG=
202309111430 METAR WIHH 111430Z 19003KT 7000 FEW020 28/20 Q1013 NOSIG=
202309111400 METAR WIHH 111400Z 12003KT 8000 FEW020 28/20 Q1012 NOSIG=
202309111330 METAR WIHH 111330Z 07006KT 8000 FEW020 29/20 Q1012 NOSIG=
202309111300 METAR WIHH 111300Z 05007KT 8000 FEW020 29/20 Q1012 NOSIG=
202309111230 METAR WIHH 111230Z 06012KT 8000 FEW020 30/20 Q1011 NOSIG=
202309111200 METAR WIHH 111200Z 06010KT 8000 FEW020 30/20 Q1011 NOSIG=
202309111130 METAR WIHH 111130Z 04011KT 7000 FEW020 31/19 Q1010 NOSIG=
202309111100 METAR WIHH 111100Z 05015KT 7000 FEW020 31/19 Q1010 NOSIG=
202309111030 METAR WIHH 111030Z 05017KT 7000 FEW020 32/18 Q1009 NOSIG=
202309111000 METAR WIHH 111000Z 07022KT 7000 FEW020 33/18 Q1009 NOSIG=
202309110930 METAR WIHH 110930Z 06023KT 7000 FEW020 33/18 Q1009 NOSIG=
202309110900 METAR WIHH 110900Z 06016KT 7000 FEW020 34/17 Q1009 NOSIG=
202309110830 METAR WIHH 110830Z 06023KT 7000 FEW020 35/18 Q1009 NOSIG=
202309110800 METAR WIHH 110800Z 07022KT 7000 FEW020 35/18 Q1009 NOSIG=
202309110730 METAR WIHH 110730Z 07020KT 7000 FEW020 35/18 Q1009 NOSIG=
202309110700 METAR WIHH 110700Z 06018KT 7000 FEW020 35/18 Q1009 NOSIG=
202309110630 METAR WIHH 110630Z 07017KT 7000 SCT020 35/18 Q1009 NOSIG=
202309110600 METAR WIHH 110600Z 05015KT 7000 SCT020 35/18 Q1010 NOSIG=
202309110530 METAR WIHH 110530Z 06010KT 6000 SCT020 33/18 Q1011 NOSIG=
202309110500 METAR WIHH 110500Z 10011KT 6000 SCT020 34/19 Q1011 NOSIG=
202309110430 METAR WIHH 110430Z 07006KT 6000 FEW020 34/19 Q1011 NOSIG=
202309110400 METAR WIHH 110400Z 19005KT 6000 FEW020 33/19 Q1012 NOSIG=
202309110330 METAR WIHH 110330Z 12005KT 6000 FEW020 32/20 Q1012 NOSIG=
202309110300 METAR WIHH 110300Z 10007KT 5000 HZ FEW020 31/20 Q1013 NOSIG=
202309110230 METAR WIHH 110230Z 18007KT 5000 HZ FEW020 31/22 Q1013 NOSIG=
202309110200 METAR WIHH 110200Z 12004KT 4000 HZ FEW020 30/22 Q1013 NOSIG=
202309110130 METAR WIHH 110130Z 10004KT 4000 HZ NSC 29/22 Q1013 NOSIG=
202309110100 METAR WIHH 110100Z 16005KT 4000 HZ NSC 28/22 Q1013 NOSIG=
202309110030 METAR WIHH 110030Z 16004KT 4000 HZ FEW020 27/22 Q1013 NOSIG=
202309110000 METAR WIHH 110000Z 00000KT 5000 HZ NSC 26/23 Q1013 NOSIG=
202309102330 METAR WIHH 102330Z 00000KT 5000 HZ NSC 25/21 Q1012 NOSIG=
202309102300 METAR WIHH 102300Z 17002KT 5000 HZ NSC 24/21 Q1012 NOSIG=
202309102230 METAR WIHH 102230Z 22002KT 5000 HZ NSC 24/22 Q1011 NOSIG=
202309102200 METAR WIHH 102200Z 00000KT 5000 HZ NSC 24/22 Q1011 NOSIG=
202309102130 METAR WIHH NIL=
202309102100 METAR WIHH NIL=
202309102030 METAR WIHH NIL=
202309102000 METAR WIHH NIL=
202309101930 METAR WIHH NIL=
202309101900 METAR WIHH NIL=
202309101830 METAR WIHH NIL=
202309101800 METAR WIHH NIL=
202309101730 METAR WIHH NIL=
202309101700 METAR WIHH NIL=
202309101630 METAR WIHH NIL=
202309101600 METAR WIHH NIL=
202309101530 METAR WIHH NIL=
202309101500 METAR WIHH 101500Z 03003KT 6000 FEW020 28/22 Q1012 NOSIG=
202309101430 METAR WIHH 101430Z 03004KT 6000 SCT020 28/22 Q1012 NOSIG=
202309101400 METAR WIHH 101400Z 03006KT 6000 SCT020 29/22 Q1012 NOSIG=
202309101330 METAR WIHH 101330Z 02003KT 7000 NSC 28/22 Q1012 NOSIG=
202309101300 METAR WIHH 101300Z 36005KT 8000 NSC 29/22 Q1011 NOSIG=
202309101230 METAR WIHH 101230Z 36007KT 6000 NSC 29/21 Q1011 NOSIG=
202309101200 METAR WIHH 101200Z 36007KT 6000 NSC 29/21 Q1011 NOSIG=
202309101130 METAR WIHH 101130Z 01005KT 6000 NSC 29/21 Q1010 NOSIG=
202309101100 METAR WIHH 101100Z 35007KT 6000 FEW020 29/20 Q1010 NOSIG=
202309101030 METAR WIHH 101030Z 35010KT 6000 FEW020 30/20 Q1009 NOSIG=
202309101000 METAR WIHH 101000Z 33010KT 6000 FEW020 31/20 Q1009 NOSIG=
202309100930 METAR WIHH 100930Z 01012KT 6000 FEW020 31/21 Q1009 NOSIG=
202309100900 METAR WIHH 100900Z 36015KT 6000 FEW020 32/21 Q1009 NOSIG=
202309100830 METAR WIHH 100830Z 36010KT 6000 FEW020 32/21 Q1008 NOSIG=
202309100800 METAR WIHH 100800Z 36010KT 6000 FEW020 32/21 Q1009 NOSIG=
202309100730 METAR WIHH 100730Z 35012KT 5000 HZ SCT020 33/21 Q1009 NOSIG=
202309100700 METAR WIHH 100700Z 35010KT 5000 HZ SCT020 34/21 Q1009 NOSIG=
202309100630 METAR WIHH 100630Z 03010KT 5000 HZ SCT020 34/21 Q1010 NOSIG=
202309100600 METAR WIHH 100600Z 36005KT 5000 HZ SCT020 33/21 Q1010 NOSIG=
202309100530 METAR WIHH 100530Z 32007KT 5000 HZ SCT020 34/22 Q1010 NOSIG=
202309100500 METAR WIHH 100500Z 36010KT 5000 HZ SCT020 32/21 Q1011 NOSIG=
202309100430 METAR WIHH 100430Z 03010KT 6000 SCT020 32/21 Q1012 NOSIG=
202309100400 METAR WIHH 100400Z 23003KT 6000 SCT020 32/21 Q1012 NOSIG=
202309100330 METAR WIHH 100330Z 03003KT 6000 FEW020 32/20 Q1013 NOSIG=
202309100300 METAR WIHH 100300Z 17003KT 6000 NSC 31/20 Q1013 NOSIG=
202309100230 METAR WIHH NIL=
202309100200 METAR WIHH 100200Z 19003KT 6000 NSC 30/21 Q1013 NOSIG=
202309100130 METAR WIHH 100130Z 21005KT 6000 NSC 28/20 Q1013 NOSIG=
202309100100 METAR WIHH 100100Z 22005KT 6000 FEW020 28/20 Q1013 NOSIG=
202309100030 METAR WIHH 100030Z 21004KT 6000 FEW020 25/20 Q1012 NOSIG=
202309100000 METAR WIHH 100000Z 21004KT 6000 FEW020 25/20 Q1012 NOSIG=
202309092330 METAR WIHH 092330Z 21003KT 6000 FEW020 24/20 Q1012 NOSIG=
202309092300 METAR WIHH 092300Z 24003KT 6000 FEW020 24/20 Q1012 NOSIG=
202309092230 METAR WIHH 092230Z 21003KT 6000 SCT020 24/19 Q1012 NOSIG=
202309092200 METAR WIHH 092200Z 21003KT 6000 SCT020 24/19 Q1012 NOSIG=
202309092130 METAR WIHH 092130Z 24004KT 6000 SCT020 28/19 Q1011 NOSIG=
202309092100 METAR WIHH 092100Z 24004KT 6000 SCT020 28/19 Q1011 NOSIG=
202309092030 METAR WIHH NIL=
202309092000 METAR WIHH NIL=
202309091930 METAR WIHH NIL=
202309091900 METAR WIHH NIL=
202309091830 METAR WIHH NIL=
202309091800 METAR WIHH NIL=
202309091730 METAR WIHH NIL=
202309091700 METAR WIHH NIL=
202309091630 METAR WIHH NIL=
202309091600 METAR WIHH NIL=
202309091530 METAR WIHH NIL=
202309091500 METAR WIHH 091500Z 04003KT 6000 SCT020 28/22 Q1012 NOSIG=
202309091430 METAR WIHH 091430Z 06003KT 6000 SCT020 29/22 Q1012 NOSIG=
202309091400 METAR WIHH 091400Z 02005KT 6000 SCT020 28/22 Q1012 NOSIG=
202309091330 METAR WIHH 091330Z 01004KT 6000 SCT020 28/22 Q1011 NOSIG=
202309091300 METAR WIHH 091300Z 05005KT 6000 SCT020 29/22 Q1011 NOSIG=
202309091230 METAR WIHH 091230Z 03008KT 6000 SCT020 29/22 Q1011 NOSIG=
202309091200 METAR WIHH 091200Z 03008KT 6000 SCT020 29/22 Q1010 NOSIG=
202309091130 METAR WIHH 091130Z 03008KT 6000 SCT020 29/21 Q1010 NOSIG=
202309091100 METAR WIHH 091100Z 05008KT 6000 SCT020 29/21 Q1009 NOSIG=
202309091030 METAR WIHH 091030Z 03012KT 6000 SCT020 30/22 Q1009 NOSIG=
202309091000 METAR WIHH 091000Z 03012KT 6000 SCT020 30/21 Q1008 NOSIG=
202309090930 METAR WIHH 090930Z 03011KT 6000 SCT020 31/22 Q1008 NOSIG=
202309090900 METAR WIHH 090900Z 03011KT 6000 SCT020 32/22 Q1008 NOSIG=
202309090830 METAR WIHH 090830Z 04012KT 5000 HZ SCT020 32/22 Q1008 NOSIG=
202309090800 METAR WIHH 090800Z 04012KT 5000 HZ SCT020 33/22 Q1008 NOSIG=
202309090730 METAR WIHH 090730Z 04012KT 5000 HZ SCT020 33/22 Q1008 NOSIG=
202309090700 METAR WIHH 090700Z 04012KT 5000 HZ SCT020 34/22 Q1008 NOSIG=
202309090630 METAR WIHH 090630Z 03010KT 5000 HZ SCT020 33/22 Q1008 NOSIG=
202309090600 METAR WIHH 090600Z 01008KT 5000 HZ SCT020 33/22 Q1009 NOSIG=
202309090530 METAR WIHH 090530Z 03008KT 5000 HZ SCT020 34/22 Q1009 NOSIG=
202309090500 METAR WIHH 090500Z 33008KT 6000 SCT020 34/21 Q1010 NOSIG=
202309090430 METAR WIHH 090430Z 21004KT 6000 SCT020 34/21 Q1010 NOSIG=
202309090400 METAR WIHH 090400Z 06008KT 6000 SCT020 33/21 Q1011 NOSIG=
202309090330 METAR WIHH 090330Z 11006KT 6000 SCT020 33/22 Q1011 NOSIG=
202309090300 METAR WIHH 090300Z 17003KT 6000 FEW020 32/22 Q1012 NOSIG=
202309090230 METAR WIHH 090230Z 21004KT 5000 HZ FEW020 31/21 Q1012 NOSIG=
202309090200 METAR WIHH 090200Z 15004KT 5000 HZ FEW020 31/21 Q1012 NOSIG=
202309090130 METAR WIHH 090130Z 15004KT 5000 HZ FEW020 30/22 Q1012 NOSIG=
202309090100 METAR WIHH 090100Z 20005KT 4000 HZ FEW020 28/22 Q1012 NOSIG=
202309090030 METAR WIHH 090030Z 26004KT 4000 HZ FEW020 27/23 Q1012 NOSIG=
202309090000 METAR WIHH 090000Z 22004KT 4000 HZ FEW020 26/23 Q1012 NOSIG=
202309082330 METAR WIHH 082330Z 24005KT 4000 HZ FEW020 25/22 Q1011 NOSIG=
202309082300 METAR WIHH 082300Z 23004KT 4000 HZ FEW020 25/22 Q1011 NOSIG=
202309082230 METAR WIHH 082230Z 22003KT 5000 HZ FEW020 25/23 Q1011 NOSIG=
202309082200 METAR WIHH 082200Z 19003KT 5000 HZ FEW020 25/23 Q1011 NOSIG=
202309082130 METAR WIHH 082130Z 18003KT 5000 HZ FEW020 25/23 Q1010 NOSIG=
202309082100 METAR WIHH NIL=
202309082030 METAR WIHH NIL=
202309082000 METAR WIHH NIL=
202309081930 METAR WIHH NIL=
202309081900 METAR WIHH NIL=
202309081830 METAR WIHH NIL=
202309081800 METAR WIHH NIL=
202309081730 METAR WIHH NIL=
202309081700 METAR WIHH 081700Z 12003KT 6000 FEW020 28/23 Q1011 NOSIG=
202309081630 METAR WIHH 081630Z 12003KT 6000 FEW020 28/23 Q1011 NOSIG=
202309081600 METAR WIHH 081600Z 12003KT 6000 FEW020 28/23 Q1011 NOSIG=
202309081530 METAR WIHH 081530Z 09005KT 6000 FEW018 28/23 Q1011 NOSIG=
202309081500 METAR WIHH 081500Z 07006KT 6000 SCT018 29/23 Q1011 NOSIG=
202309081430 METAR WIHH 081430Z 10004KT 6000 SCT018 29/23 Q1012 NOSIG=
202309081400 METAR WIHH 081400Z 12003KT 6000 SCT018 29/23 Q1012 NOSIG=
202309081330 METAR WIHH 081330Z 10005KT 6000 SCT018 29/23 Q1012 NOSIG=
202309081300 METAR WIHH 081300Z 08008KT 6000 SCT018 29/23 Q1011 NOSIG=
202309081230 METAR WIHH 081230Z 09006KT 6000 SCT018 29/23 Q1011 NOSIG=
202309081200 METAR WIHH 081200Z 09007KT 6000 SCT020 29/23 Q1010 NOSIG=
202309081130 METAR WIHH 081130Z 07007KT 6000 SCT020 29/23 Q1010 NOSIG=
202309081100 METAR WIHH 081100Z 06006KT 6000 SCT020 30/23 Q1010 NOSIG=
202309081030 METAR WIHH 081030Z 04010KT 6000 SCT020 30/23 Q1009 NOSIG=
202309081000 METAR WIHH 081000Z 07011KT 6000 FEW020 31/23 Q1009 NOSIG=
202309080930 METAR WIHH 080930Z 03013KT 6000 SCT020 32/23 Q1008 NOSIG=
202309080900 METAR WIHH 080900Z 04014KT 6000 SCT020 33/22 Q1008 NOSIG=
202309080830 METAR WIHH 080830Z 04015KT 6000 SCT020 33/22 Q1008 NOSIG=
202309080800 METAR WIHH NIL=
202309080730 METAR WIHH NIL=
202309080700 METAR WIHH 080700Z 01013KT 6000 SCT020 35/21 Q1008 NOSIG=
202309080630 METAR WIHH NIL=
202309080600 METAR WIHH 080600Z 07009KT 5000 HZ SCT020 34/21 Q1009 NOSIG=
202309080530 METAR WIHH 080530Z 20004KT 5000 HZ SCT020 34/21 Q1010 NOSIG=
202309080500 METAR WIHH 080500Z 12006KT 5000 HZ SCT020 35/21 Q1010 NOSIG=
202309080430 METAR WIHH 080430Z 06008KT 5000 HZ FEW020 34/21 Q1011 NOSIG=
202309080400 METAR WIHH 080400Z 04011KT 5000 HZ FEW020 33/21 Q1011 NOSIG=
202309080330 METAR WIHH 080330Z 04005KT 5000 HZ NSC 33/21 Q1012 NOSIG=
202309080300 METAR WIHH 080300Z 07005KT 5000 HZ NSC 32/21 Q1012 NOSIG=
202309080230 METAR WIHH 080230Z 05005KT 5000 HZ NSC 31/21 Q1013 NOSIG=
202309080200 METAR WIHH 080200Z 06005KT 6000 NSC 30/21 Q1013 NOSIG=
202309080130 METAR WIHH 080130Z 10005KT 5000 HZ NSC 30/21 Q1013 NOSIG=
202309080100 METAR WIHH 080100Z 11004KT 5000 HZ NSC 29/21 Q1013 NOSIG=
202309080030 METAR WIHH 080030Z 13004KT 5000 HZ NSC 28/22 Q1013 NOSIG=
202309080000 METAR WIHH 080000Z 14003KT 5000 HZ NSC 26/22 Q1012 NOSIG=
202309072330 METAR WIHH 072330Z 16003KT 5000 HZ NSC 25/22 Q1012 NOSIG=
202309072300 METAR WIHH 072300Z 13002KT 5000 HZ NSC 25/22 Q1012 NOSIG=
202309072230 METAR WIHH 072230Z 18002KT 5000 HZ NSC 24/22 Q1011 NOSIG=
202309072200 METAR WIHH 072200Z 00000KT 5000 HZ NSC 25/22 Q1011 NOSIG=
202309072130 METAR WIHH 072130Z 22002KT 4000 HZ NSC 24/22 Q1011 NOSIG=
202309072100 METAR WIHH 072100Z 14002KT 4000 HZ NSC 26/22 Q1011 NOSIG=
202309072030 METAR WIHH NIL=
202309072000 METAR WIHH NIL=
202309071930 METAR WIHH NIL=
202309071900 METAR WIHH NIL=
202309071830 METAR WIHH NIL=
202309071800 METAR WIHH NIL=
202309071730 METAR WIHH NIL=
202309071700 METAR WIHH 071700Z 15002KT 6000 FEW020 26/21 Q1012 NOSIG=
202309071630 METAR WIHH 071630Z 13002KT 7000 NSC 27/21 Q1012 NOSIG=
202309071600 METAR WIHH 071600Z 13002KT 7000 NSC 27/21 Q1012 NOSIG=
202309071530 METAR WIHH 071530Z 10003KT 7000 NSC 28/21 Q1012 NOSIG=
202309071500 METAR WIHH 071500Z 14003KT 7000 NSC 28/21 Q1012 NOSIG=
202309071430 METAR WIHH 071430Z 08005KT 8000 FEW020 29/21 Q1012 NOSIG=
202309071400 METAR WIHH 071400Z 08005KT 8000 FEW020 29/22 Q1012 NOSIG=
202309071330 METAR WIHH 071330Z 04003KT 7000 FEW020 29/22 Q1011 NOSIG=
202309071300 METAR WIHH 071300Z 04003KT 7000 FEW020 29/22 Q1011 NOSIG=
202309071230 METAR WIHH 071230Z 04005KT 7000 FEW020 29/21 Q1011 NOSIG=
202309071200 METAR WIHH 071200Z 03007KT 7000 NSC 29/21 Q1010 NOSIG=
202309071130 METAR WIHH 071130Z 05006KT 7000 NSC 30/22 Q1010 NOSIG=
202309071100 METAR WIHH 071100Z 33004KT 6000 FEW020 30/22 Q1009 NOSIG=
202309071030 METAR WIHH 071030Z 03007KT 7000 NSC 31/22 Q1009 NOSIG=
202309071000 METAR WIHH 071000Z 36005KT 7000 NSC 31/23 Q1009 NOSIG=
202309070930 METAR WIHH 070930Z 36010KT 7000 NSC 31/23 Q1009 NOSIG=
202309070900 METAR WIHH 070900Z 36009KT 7000 NSC 32/22 Q1009 NOSIG=
202309070830 METAR WIHH 070830Z 03003KT 7000 SCT020 33/23 Q1009 NOSIG=
202309070800 METAR WIHH 070800Z 34006KT 7000 SCT020 34/23 Q1009 NOSIG=
202309070730 METAR WIHH 070730Z 33012KT 7000 SCT020 34/23 Q1009 NOSIG=
202309070700 METAR WIHH 070700Z 35010KT 6000 SCT020 34/23 Q1009 NOSIG=
202309070630 METAR WIHH 070630Z 02007KT 6000 SCT020 34/22 Q1010 NOSIG=
202309070600 METAR WIHH 070600Z 04010KT 6000 SCT020 34/22 Q1010 NOSIG=
202309070530 METAR WIHH 070530Z 01007KT 6000 SCT020 33/22 Q1011 NOSIG=
202309070500 METAR WIHH 070500Z 27005KT 6000 SCT020 32/22 Q1011 NOSIG=
202309070430 METAR WIHH 070430Z 09006KT 6000 FEW020 33/21 Q1011 NOSIG=
202309070400 METAR WIHH 070400Z 31003KT 6000 FEW020 34/21 Q1012 NOSIG=
202309070330 METAR WIHH 070330Z 19005KT 6000 FEW020 33/22 Q1013 NOSIG=
202309070300 METAR WIHH 070300Z 19005KT 6000 NSC 32/21 Q1013 NOSIG=
202309070230 METAR WIHH 070230Z 07002KT 6000 NSC 31/20 Q1013 NOSIG=
202309070200 METAR WIHH 070200Z 19002KT 6000 NSC 30/21 Q1013 NOSIG=
202309070130 METAR WIHH 070130Z 11003KT 6000 NSC 30/21 Q1013 NOSIG=
202309070100 METAR WIHH 070100Z 16003KT 6000 NSC 29/21 Q1013 NOSIG=
202309070030 METAR WIHH 070030Z 17003KT 6000 NSC 27/21 Q1013 NOSIG=
202309070000 METAR WIHH 070000Z 00000KT 6000 NSC 26/21 Q1012 NOSIG=
202309062330 METAR WIHH 062330Z 24003KT 5000 HZ NSC 24/20 Q1012 NOSIG=
202309062300 METAR WIHH 062300Z 00000KT 6000 FEW020 25/20 Q1011 NOSIG=
202309062230 METAR WIHH NIL=
202309062200 METAR WIHH NIL=
202309062130 METAR WIHH NIL=
202309062100 METAR WIHH 062100Z 00000KT 6000 FEW020 25/20 Q1011 NOSIG=
202309062030 METAR WIHH NIL=
202309062000 METAR WIHH NIL=
202309061930 METAR WIHH NIL=
202309061900 METAR WIHH NIL=
202309061830 METAR WIHH NIL=
202309061800 METAR WIHH NIL=
202309061730 METAR WIHH NIL=
202309061700 METAR WIHH NIL=
202309061630 METAR WIHH NIL=
202309061600 METAR WIHH NIL=
202309061530 METAR WIHH 061530Z 00000KT 7000 FEW020 27/20 Q1012 NOSIG=
202309061500 METAR WIHH 061500Z 00000KT 7000 FEW020 27/20 Q1012 NOSIG=
202309061430 METAR WIHH 061430Z 00000KT 7000 FEW020 27/20 Q1012 NOSIG=
202309061400 METAR WIHH 061400Z 33003KT 7000 FEW020 28/20 Q1012 NOSIG=
202309061330 METAR WIHH 061330Z 05004KT 7000 FEW020 29/19 Q1012 NOSIG=
202309061300 METAR WIHH 061300Z 05003KT 7000 FEW020 29/19 Q1011 NOSIG=
202309061230 METAR WIHH 061230Z 05005KT 8000 NSC 30/19 Q1011 NOSIG=
202309061200 METAR WIHH 061200Z 03008KT 8000 NSC 30/19 Q1011 NOSIG=
202309061130 METAR WIHH NIL=
202309061100 METAR WIHH 061100Z 03010KT 6000 NSC 31/18 Q1009 NOSIG=
202309061030 METAR WIHH 061030Z 03013KT 6000 NSC 31/19 Q1009 NOSIG=
202309061000 METAR WIHH 061000Z 04012KT 6000 NSC 32/20 Q1009 NOSIG=
202309060930 METAR WIHH 060930Z 03014KT 6000 NSC 33/20 Q1008 NOSIG=
202309060900 METAR WIHH 060900Z 03010KT 6000 NSC 34/21 Q1008 NOSIG=
202309060830 METAR WIHH 060830Z 03010KT 6000 NSC 34/21 Q1008 NOSIG=
202309060800 METAR WIHH 060800Z 03010KT 6000 FEW020 34/20 Q1008 NOSIG=
202309060730 METAR WIHH 060730Z 03010KT 6000 FEW020 34/20 Q1008 NOSIG=
202309060700 METAR WIHH 060700Z 04010KT 6000 FEW020 35/19 Q1009 NOSIG=
202309060630 METAR WIHH NIL=
202309060600 METAR WIHH 060600Z 06010KT 6000 FEW020 34/19 Q1009 NOSIG=
202309060530 METAR WIHH 060530Z 08008KT 6000 SCT020 35/18 Q1010 NOSIG=
202309060500 METAR WIHH 060500Z 03009KT 6000 SCT020 34/19 Q1010 NOSIG=
202309060430 METAR WIHH 060430Z 04006KT 6000 FEW020 34/19 Q1011 NOSIG=
202309060400 METAR WIHH 060400Z 12004KT 6000 FEW020 33/19 Q1011 NOSIG=
202309060330 METAR WIHH 060330Z 16003KT 6000 NSC 32/19 Q1012 NOSIG=
202309060300 METAR WIHH 060300Z 09003KT 6000 NSC 31/19 Q1012 NOSIG=
202309060230 METAR WIHH 060230Z 12005KT 6000 NSC 31/20 Q1013 NOSIG=
202309060200 METAR WIHH 060200Z 18005KT 6000 NSC 30/19 Q1013 NOSIG=
202309060130 METAR WIHH 060130Z 22008KT 6000 NSC 29/20 Q1013 NOSIG=
202309060100 METAR WIHH 060100Z 16006KT 6000 NSC 28/19 Q1012 NOSIG=
202309060030 METAR WIHH 060030Z 18005KT 6000 FEW020 26/19 Q1012 NOSIG=
202309060000 METAR WIHH 060000Z 20005KT 6000 FEW020 25/19 Q1012 NOSIG=
202309052330 METAR WIHH 052330Z 23004KT 6000 FEW020 24/19 Q1012 NOSIG=
202309052300 METAR WIHH 052300Z 24004KT 6000 FEW020 23/19 Q1011 NOSIG=
202309052230 METAR WIHH 052230Z 24003KT 6000 FEW020 23/19 Q1011 NOSIG=
202309052200 METAR WIHH 052200Z 25003KT 6000 FEW020 23/19 Q1011 NOSIG=
202309052130 METAR WIHH 052130Z 24003KT 6000 FEW020 23/19 Q1011 NOSIG=
202309052100 METAR WIHH NIL=
202309052030 METAR WIHH NIL=
202309052000 METAR WIHH NIL=
202309051930 METAR WIHH NIL=
202309051900 METAR WIHH NIL=
202309051830 METAR WIHH NIL=
202309051800 METAR WIHH NIL=
202309051730 METAR WIHH NIL=
202309051700 METAR WIHH NIL=
202309051630 METAR WIHH NIL=
202309051600 METAR WIHH NIL=
202309051530 METAR WIHH NIL=
202309051500 METAR WIHH 051500Z 16003KT 6000 NSC 27/21 Q1012 NOSIG=
202309051430 METAR WIHH 051430Z 11003KT 6000 NSC 27/21 Q1012 NOSIG=
202309051400 METAR WIHH 051400Z 10003KT 6000 NSC 27/20 Q1012 NOSIG=
202309051330 METAR WIHH 051330Z 08005KT 6000 NSC 28/20 Q1011 NOSIG=
202309051300 METAR WIHH 051300Z 07004KT 6000 NSC 28/20 Q1011 NOSIG=
202309051230 METAR WIHH 051230Z 07006KT 6000 FEW020 28/20 Q1011 NOSIG=
202309051200 METAR WIHH 051200Z 09009KT 6000 FEW020 29/19 Q1010 NOSIG=
202309051130 METAR WIHH 051130Z 04010KT 6000 FEW020 29/19 Q1009 NOSIG=
202309051100 METAR WIHH 051100Z 04011KT 6000 FEW020 30/18 Q1009 NOSIG=
202309051030 METAR WIHH 051030Z 05015KT 6000 FEW020 31/18 Q1009 NOSIG=
202309051000 METAR WIHH 051000Z 04014KT 6000 FEW020 32/18 Q1009 NOSIG=
202309050930 METAR WIHH 050930Z 04014KT 6000 FEW020 33/19 Q1008 NOSIG=
202309050900 METAR WIHH 050900Z 06014KT 6000 FEW020 33/18 Q1008 NOSIG=
202309050830 METAR WIHH 050830Z 06016KT 6000 FEW020 34/17 Q1008 NOSIG=
202309050800 METAR WIHH 050800Z 07015KT 6000 FEW020 34/17 Q1008 NOSIG=
202309050730 METAR WIHH 050730Z 05015KT 6000 FEW020 34/18 Q1008 NOSIG=
202309050700 METAR WIHH 050700Z 07015KT 6000 FEW020 34/16 Q1009 NOSIG=
202309050630 METAR WIHH 050630Z 06014KT 6000 FEW020 34/17 Q1009 NOSIG=
202309050600 METAR WIHH 050600Z 03014KT 6000 FEW020 34/17 Q1009 NOSIG=
202309050530 METAR WIHH 050530Z 04015KT 6000 FEW020 34/17 Q1010 NOSIG=
202309050500 METAR WIHH 050500Z 11011KT 6000 FEW020 33/16 Q1010 NOSIG=
202309050430 METAR WIHH 050430Z 08010KT 6000 NSC 34/17 Q1011 NOSIG=
202309050400 METAR WIHH 050400Z 06010KT 6000 NSC 32/17 Q1011 NOSIG=
202309050330 METAR WIHH 050330Z 04010KT 6000 NSC 32/16 Q1011 NOSIG=
202309050300 METAR WIHH 050300Z 12011KT 6000 NSC 31/16 Q1011 NOSIG=
202309050230 METAR WIHH 050230Z 11007KT 6000 NSC 31/16 Q1012 NOSIG=
202309050200 METAR WIHH 050200Z 16005KT 6000 NSC 30/17 Q1012 NOSIG=
202309050130 METAR WIHH 050130Z 11004KT 5000 HZ NSC 29/18 Q1011 NOSIG=
202309050100 METAR WIHH 050100Z 16003KT 5000 HZ NSC 27/19 Q1011 NOSIG=
202309050030 METAR WIHH 050030Z 00000KT 5000 HZ NSC 26/19 Q1011 NOSIG=
202309050000 METAR WIHH 050000Z 00000KT 5000 HZ NSC 24/20 Q1011 NOSIG=
202309042330 METAR WIHH 042330Z 00000KT 5000 HZ NSC 22/19 Q1011 NOSIG=
202309042300 METAR WIHH 042300Z 00000KT 4000 HZ NSC 22/19 Q1011 NOSIG=
202309042230 METAR WIHH 042230Z 00000KT 4000 HZ NSC 22/19 Q1010 NOSIG=
202309042200 METAR WIHH 042200Z 17002KT 4000 HZ NSC 21/19 Q1010 NOSIG=
202309042130 METAR WIHH 042130Z 00000KT 4000 HZ NSC 22/20 Q1010 NOSIG=
202309042100 METAR WIHH 042100Z 23002KT 4000 HZ NSC 22/20 Q1010 NOSIG=
202309042030 METAR WIHH NIL=
202309042000 METAR WIHH NIL=
202309041930 METAR WIHH NIL=
202309041900 METAR WIHH NIL=
202309041830 METAR WIHH NIL=
202309041800 METAR WIHH NIL=
202309041730 METAR WIHH NIL=
202309041700 METAR WIHH 041700Z 15003KT 5000 HZ FEW022 24/20 Q1010 NOSIG=
202309041630 METAR WIHH 041630Z 15004KT 6000 NSC 25/20 Q1010 NOSIG=
202309041600 METAR WIHH 041600Z 15004KT 6000 NSC 25/20 Q1010 NOSIG=
202309041530 METAR WIHH 041530Z 15004KT 7000 NSC 25/20 Q1010 NOSIG=
202309041500 METAR WIHH 041500Z 15002KT 7000 NSC 25/20 Q1010 NOSIG=
202309041430 METAR WIHH 041430Z 00000KT 7000 NSC 26/20 Q1010 NOSIG=
202309041400 METAR WIHH 041400Z 10003KT 7000 NSC 27/20 Q1010 NOSIG=
202309041330 METAR WIHH 041330Z 05004KT 7000 NSC 28/20 Q1010 NOSIG=
202309041300 METAR WIHH 041300Z 09005KT 7000 NSC 28/20 Q1009 NOSIG=
202309041230 METAR WIHH 041230Z 04006KT 7000 NSC 28/19 Q1009 NOSIG=
202309041200 METAR WIHH 041200Z 05006KT 7000 NSC 28/19 Q1008 NOSIG=
202309041130 METAR WIHH 041130Z 04012KT 7000 NSC 29/19 Q1008 NOSIG=
202309041100 METAR WIHH 041100Z 04012KT 7000 FEW020 29/19 Q1007 NOSIG=
202309041030 METAR WIHH 041030Z 03012KT 7000 FEW020 30/19 Q1007 NOSIG=
202309041000 METAR WIHH 041000Z 04012KT 7000 FEW020 30/19 Q1007 NOSIG=
202309040930 METAR WIHH 040930Z 03013KT 7000 FEW020 31/19 Q1007 NOSIG=
202309040900 METAR WIHH 040900Z 05014KT 7000 FEW020 32/19 Q1006 NOSIG=
202309040830 METAR WIHH 040830Z 05012KT 7000 FEW020 32/18 Q1006 NOSIG=
202309040800 METAR WIHH 040800Z 09012KT 7000 FEW020 33/18 Q1006 NOSIG=
202309040730 METAR WIHH 040730Z 04012KT 7000 FEW020 34/18 Q1007 NOSIG=
202309040700 METAR WIHH 040700Z 03012KT 7000 FEW020 34/17 Q1007 NOSIG=
202309040630 METAR WIHH 040630Z 02012KT 7000 FEW020 34/17 Q1007 NOSIG=
202309040600 METAR WIHH 040600Z 03012KT 7000 FEW020 33/17 Q1008 NOSIG=
202309040530 METAR WIHH 040530Z 24010KT 7000 NSC 34/15 Q1008 NOSIG=
202309040500 METAR WIHH 040500Z 06010KT 7000 NSC 34/15 Q1009 NOSIG=
202309040430 METAR WIHH 040430Z 05010KT 7000 NSC 33/16 Q1009 NOSIG=
202309040400 METAR WIHH 040400Z 12013KT 7000 NSC 32/16 Q1009 NOSIG=
202309040330 METAR WIHH 040330Z 06013KT 7000 NSC 32/15 Q1010 NOSIG=
202309040300 METAR WIHH 040300Z 09006KT 7000 NSC 32/16 Q1010 NOSIG=
202309040230 METAR WIHH 040230Z 09010KT 7000 NSC 31/16 Q1011 NOSIG=
202309040200 METAR WIHH 040200Z 08004KT 6000 NSC 30/17 Q1011 NOSIG=
202309040130 METAR WIHH 040130Z 12003KT 6000 NSC 29/19 Q1011 NOSIG=
202309040100 METAR WIHH 040100Z 15003KT 6000 NSC 27/19 Q1010 NOSIG=
202309040030 METAR WIHH 040030Z 14003KT 6000 NSC 26/19 Q1010 NOSIG=
202309040000 METAR WIHH 040000Z 18003KT 6000 NSC 23/19 Q1010 NOSIG=
202309032330 METAR WIHH 032330Z 21003KT 6000 FEW020 23/18 Q1010 NOSIG=
202309032300 METAR WIHH 032300Z 19003KT 6000 FEW020 23/18 Q1009 NOSIG=
202309032230 METAR WIHH NIL=
202309032200 METAR WIHH 032200Z 17003KT 6000 FEW020 24/18 Q1009 NOSIG=
202309032130 METAR WIHH 032130Z 20004KT 6000 FEW020 24/18 Q1009 NOSIG=
202309032100 METAR WIHH 032100Z 20003KT 6000 FEW020 24/18 Q1009 NOSIG=
202309032030 METAR WIHH NIL=
202309032000 METAR WIHH NIL=
202309031930 METAR WIHH NIL=
202309031900 METAR WIHH NIL=
202309031830 METAR WIHH NIL=
202309031800 METAR WIHH NIL=
202309031730 METAR WIHH NIL=
202309031700 METAR WIHH 031700Z 23005KT 6000 SCT020 26/20 Q1010 NOSIG=
202309031630 METAR WIHH 031630Z 21004KT 6000 SCT020 27/21 Q1010 NOSIG=
202309031600 METAR WIHH 031600Z 23005KT 6000 SCT020 27/21 Q1010 NOSIG=
202309031530 METAR WIHH NIL=
202309031500 METAR WIHH 031500Z 06005KT 6000 SCT020 28/22 Q1010 NOSIG=
202309031430 METAR WIHH 031430Z 04006KT 6000 SCT020 28/22 Q1010 NOSIG=
202309031400 METAR WIHH 031400Z 06006KT 6000 SCT020 28/21 Q1010 NOSIG=
202309031330 METAR WIHH 031330Z 06006KT 6000 SCT020 28/21 Q1010 NOSIG=
202309031300 METAR WIHH 031300Z 06006KT 6000 SCT020 29/20 Q1009 NOSIG=
202309031230 METAR WIHH 031230Z 05004KT 6000 SCT020 29/21 Q1009 NOSIG=
202309031200 METAR WIHH 031200Z 04008KT 6000 SCT020 29/21 Q1009 NOSIG=
202309031130 METAR WIHH 031130Z 05008KT 6000 SCT020 29/21 Q1008 NOSIG=
202309031100 METAR WIHH 031100Z 05008KT 6000 SCT020 30/20 Q1008 NOSIG=
202309031030 METAR WIHH 031030Z 06010KT 5000 HZ SCT020 30/20 Q1007 NOSIG=
202309031000 METAR WIHH 031000Z 05005KT 5000 HZ SCT020 31/19 Q1006 NOSIG=
202309030930 METAR WIHH 030930Z 04012KT 5000 HZ SCT020 32/19 Q1006 NOSIG=
202309030900 METAR WIHH 030900Z 04012KT 5000 HZ SCT020 33/19 Q1006 NOSIG=
202309030830 METAR WIHH 030830Z 04008KT 5000 HZ SCT020 34/18 Q1006 NOSIG=
202309030800 METAR WIHH 030800Z 06008KT 5000 HZ SCT020 34/18 Q1006 NOSIG=
202309030730 METAR WIHH NIL=
202309030700 METAR WIHH NIL=
202309030630 METAR WIHH NIL=
202309030600 METAR WIHH 030600Z 06008KT 5000 HZ SCT020 35/20 Q1008 NOSIG=
202309030530 METAR WIHH 030530Z 11008KT 5000 HZ SCT020 33/18 Q1009 NOSIG=
202309030500 METAR WIHH 030500Z 20004KT 5000 HZ FEW020 33/18 Q1009 NOSIG=
202309030430 METAR WIHH 030430Z 16005KT 5000 HZ FEW020 33/19 Q1010 NOSIG=
202309030400 METAR WIHH 030400Z 21005KT 5000 HZ FEW020 32/20 Q1010 NOSIG=
202309030330 METAR WIHH 030330Z 21005KT 5000 HZ FEW020 32/20 Q1010 NOSIG=
202309030300 METAR WIHH 030300Z 10006KT 4000 HZ FEW020 31/20 Q1011 NOSIG=
202309030230 METAR WIHH 030230Z 14005KT 4000 HZ FEW020 30/21 Q1011 NOSIG=
202309030200 METAR WIHH 030200Z 11006KT 4000 HZ NSC 30/21 Q1011 NOSIG=
202309030130 METAR WIHH 030130Z 15006KT 4000 HZ NSC 29/22 Q1011 NOSIG=
202309030100 METAR WIHH 030100Z 19003KT 4000 HZ FEW020 27/22 Q1011 NOSIG=
202309030030 METAR WIHH 030030Z 15003KT 4000 HZ FEW020 26/21 Q1011 NOSIG=
202309030000 METAR WIHH 030000Z 00000KT 4000 HZ FEW020 25/22 Q1011 NOSIG=
202309022330 METAR WIHH 022330Z 18003KT 5000 HZ FEW020 25/22 Q1011 NOSIG=
202309022300 METAR WIHH 022300Z 00000KT 5000 HZ FEW020 24/22 Q1011 NOSIG=
202309022230 METAR WIHH 022230Z 00000KT 5000 HZ FEW020 25/21 Q1011 NOSIG=
202309022200 METAR WIHH 022200Z 00000KT 5000 HZ FEW020 25/21 Q1010 NOSIG=
202309022130 METAR WIHH NIL=
202309022100 METAR WIHH NIL=
202309022030 METAR WIHH NIL=
202309022000 METAR WIHH NIL=
202309021930 METAR WIHH NIL=
202309021900 METAR WIHH NIL=
202309021830 METAR WIHH NIL=
202309021800 METAR WIHH NIL=
202309021730 METAR WIHH NIL=
202309021700 METAR WIHH 021700Z 00000KT 5000 HZ SCT020 27/23 Q1011 NOSIG=
202309021630 METAR WIHH 021630Z 00000KT 5000 HZ SCT020 27/23 Q1011 NOSIG=
202309021600 METAR WIHH 021600Z 07003KT 6000 SCT020 27/23 Q1011 NOSIG=
202309021530 METAR WIHH 021530Z 06003KT 6000 SCT020 28/23 Q1011 NOSIG=
202309021500 METAR WIHH 021500Z 04003KT 6000 SCT020 28/23 Q1011 NOSIG=
202309021430 METAR WIHH 021430Z 04004KT 6000 SCT020 29/23 Q1010 NOSIG=
202309021400 METAR WIHH 021400Z 04006KT 6000 SCT020 29/23 Q1010 NOSIG=
202309021330 METAR WIHH 021330Z 04005KT 6000 SCT020 29/23 Q1010 NOSIG=
202309021300 METAR WIHH 021300Z 02005KT 6000 SCT020 29/22 Q1010 NOSIG=
202309021230 METAR WIHH 021230Z 35006KT 6000 SCT020 29/22 Q1010 NOSIG=
202309021200 METAR WIHH 021200Z 35005KT 6000 SCT020 29/22 Q1009 NOSIG=
202309021130 METAR WIHH 021130Z 35006KT 6000 SCT020 29/22 Q1009 NOSIG=
202309021100 METAR WIHH 021100Z 36005KT 6000 SCT020 29/22 Q1008 NOSIG=
202309021030 METAR WIHH 021030Z 34007KT 6000 SCT020 29/22 Q1008 NOSIG=
202309021000 METAR WIHH 021000Z 31006KT 6000 SCT020 30/21 Q1008 NOSIG=
202309020930 METAR WIHH 020930Z 01004KT 6000 SCT020 31/21 Q1008 NOSIG=
202309020900 METAR WIHH 020900Z 02006KT 6000 SCT020 32/21 Q1008 NOSIG=
202309020830 METAR WIHH NIL=
202309020800 METAR WIHH 020800Z 33004KT 6000 SCT020 33/21 Q1008 NOSIG=
202309020730 METAR WIHH 020730Z 03006KT 6000 SCT020 33/21 Q1008 NOSIG=
202309020700 METAR WIHH 020700Z 34005KT 5000 HZ SCT020 33/21 Q1008 NOSIG=
202309020630 METAR WIHH 020630Z 35007KT 5000 HZ SCT020 33/21 Q1008 NOSIG=
202309020600 METAR WIHH 020600Z 22004KT 5000 HZ SCT020 33/21 Q1009 NOSIG=
202309020530 METAR WIHH 020530Z 21003KT 6000 SCT020 32/21 Q1009 NOSIG=
202309020500 METAR WIHH 020500Z 15003KT 6000 SCT020 33/20 Q1010 NOSIG=
202309020430 METAR WIHH 020430Z 36003KT 6000 SCT020 33/21 Q1010 NOSIG=
202309020400 METAR WIHH 020400Z 35003KT 6000 SCT020 31/21 Q1011 NOSIG=
202309020330 METAR WIHH 020330Z 17003KT 5000 HZ SCT020 31/21 Q1011 NOSIG=
202309020300 METAR WIHH 020300Z 04003KT 5000 HZ SCT020 31/21 Q1012 NOSIG=
202309020230 METAR WIHH 020230Z 22003KT 5000 HZ SCT020 30/22 Q1012 NOSIG=
202309020200 METAR WIHH 020200Z 26003KT 5000 HZ SCT020 29/22 Q1012 NOSIG=
202309020130 METAR WIHH 020130Z 15003KT 5000 HZ SCT020 29/22 Q1012 NOSIG=
202309020100 METAR WIHH 020100Z 15004KT 5000 HZ FEW020 28/23 Q1011 NOSIG=
202309020030 METAR WIHH 020030Z 14004KT 5000 HZ FEW020 27/23 Q1011 NOSIG=
202309020000 METAR WIHH 020000Z 17004KT 5000 HZ FEW020 26/23 Q1011 NOSIG=
202309012330 METAR WIHH 012330Z 17003KT 5000 HZ FEW020 25/22 Q1011 NOSIG=
202309012300 METAR WIHH 012300Z 15002KT 5000 HZ FEW020 25/23 Q1011 NOSIG=
202309012230 METAR WIHH 012230Z 00000KT 5000 HZ FEW020 25/23 Q1010 NOSIG=
202309012200 METAR WIHH 012200Z 00000KT 5000 HZ SCT020 25/21 Q1010 NOSIG=
202309012130 METAR WIHH 012130Z 25002KT 5000 HZ FEW020 25/21 Q1010 NOSIG=
202309012100 METAR WIHH 012100Z 25003KT 5000 HZ FEW020 25/22 Q1010 NOSIG=
202309012030 METAR WIHH NIL=
202309012000 METAR WIHH NIL=
202309011930 METAR WIHH NIL=
202309011900 METAR WIHH NIL=
202309011830 METAR WIHH NIL=
202309011800 METAR WIHH NIL=
202309011730 METAR WIHH NIL=
202309011700 METAR WIHH 011700Z 15003KT 5000 HZ SCT020 26/22 Q1011 NOSIG=
202309011630 METAR WIHH 011630Z 12003KT 5000 HZ FEW020 26/22 Q1011 NOSIG=
202309011600 METAR WIHH 011600Z 09003KT 6000 FEW020 26/22 Q1011 NOSIG=
202309011530 METAR WIHH 011530Z 07003KT 6000 FEW020 27/22 Q1011 NOSIG=
202309011500 METAR WIHH 011500Z 06002KT 6000 FEW020 26/22 Q1010 NOSIG=
202309011430 METAR WIHH 011430Z 00000KT 6000 FEW020 26/22 Q1010 NOSIG=
202309011400 METAR WIHH 011400Z 00000KT 6000 SCT020 27/21 Q1010 NOSIG=
202309011330 METAR WIHH 011330Z 00000KT 6000 SCT020 27/22 Q1010 NOSIG=
202309011300 METAR WIHH 011300Z 33002KT 6000 SCT020 28/21 Q1010 NOSIG=
202309011230 METAR WIHH 011230Z 32002KT 6000 SCT020 28/21 Q1010 NOSIG=
202309011200 METAR WIHH 011200Z 36002KT 6000 SCT020 29/22 Q1010 NOSIG=
202309011130 METAR WIHH 011130Z 02003KT 6000 FEW020 29/21 Q1009 NOSIG=
202309011100 METAR WIHH 011100Z 36004KT 6000 FEW020 29/22 Q1009 NOSIG=
202309011030 METAR WIHH 011030Z 36010KT 6000 FEW020 30/22 Q1008 NOSIG=
202309011000 METAR WIHH 011000Z 02010KT 6000 FEW020 31/22 Q1008 NOSIG=
202309010930 METAR WIHH 010930Z 02010KT 6000 SCT020 31/22 Q1008 NOSIG=
202309010900 METAR WIHH 010900Z 36008KT 6000 SCT020 32/22 Q1008 NOSIG=
202309010830 METAR WIHH 010830Z 04013KT 6000 SCT020 32/22 Q1008 NOSIG=
202309010800 METAR WIHH 010800Z 02013KT 6000 SCT020 33/22 Q1008 NOSIG=
202309010730 METAR WIHH 010730Z 35006KT 6000 SCT020 34/22 Q1009 NOSIG=
202309010700 METAR WIHH 010700Z 33007KT 6000 SCT020 34/22 Q1009 NOSIG=
202309010630 METAR WIHH 010630Z 36007KT 5000 HZ SCT020 34/22 Q1009 NOSIG=
202309010600 METAR WIHH 010600Z 32007KT 5000 HZ SCT020 33/22 Q1010 NOSIG=
202309010530 METAR WIHH 010530Z 34005KT 5000 HZ SCT020 33/22 Q1010 NOSIG=
202309010500 METAR WIHH 010500Z 04005KT 5000 HZ SCT020 32/21 Q1011 NOSIG=
202309010430 METAR WIHH 010430Z 14004KT 4000 HZ SCT020 32/21 Q1011 NOSIG=
202309010400 METAR WIHH 010400Z 18002KT 4000 HZ SCT020 32/21 Q1012 NOSIG=
202309010330 METAR WIHH 010330Z 17004KT 5000 HZ SCT020 31/22 Q1012 NOSIG=
202309010300 METAR WIHH 010300Z 09003KT 5000 HZ SCT020 30/21 Q1013 NOSIG=
202309010230 METAR WIHH 010230Z 18003KT 5000 HZ FEW020 29/22 Q1013 NOSIG=
202309010200 METAR WIHH 010200Z 06003KT 5000 HZ FEW020 29/22 Q1013 NOSIG=
202309010130 METAR WIHH 010130Z 06003KT 4000 HZ FEW020 29/22 Q1013 NOSIG=
202309010100 METAR WIHH 010100Z 12003KT 3000 HZ NSC 27/22 Q1013 NOSIG=
202309010030 METAR WIHH 010030Z 15003KT 3000 HZ NSC 26/21 Q1012 NOSIG=
202309010000 METAR WIHH 010000Z 00000KT 5000 HZ NSC 24/21 Q1012 NOSIG=

# No short TAF reports from WIHH in databse.

###################################
#  large TAF from WIHH
###################################
202309302300 TAF WIHH 302300Z 0100/0200 11010KT 7000 FEW022
                      BECMG 0105/0107 02015KT SCT020
                      BECMG 0115/0117 VRB03KT 5000 HZ=
202309301700 TAF WIHH 301700Z 3018/0118 17004KT 6000 FEW022
                      BECMG 0104/0106 03012KT=
202309301100 TAF WIHH 301100Z 3012/0112 21006KT 7000 SCT020
                      BECMG 3016/3018 16003KT 5000 HZ FEW022=
202309300500 TAF WIHH 300500Z 3006/0106 03014KT 7000 SCT020
                      BECMG 3016/3018 16003KT 5000 HZ=
202309292300 TAF WIHH 292300Z 3000/0100 06014KT 7000 FEW022
                      BECMG 3016/3018 04005KT=
202309291700 TAF WIHH 291700Z 2918/3018 21004KT 6000 FEW022
                      BECMG 3000/3002 33012KT=
202309291100 TAF WIHH 291100Z 2912/3012 03008KT 8000 FEW020
                      BECMG 2916/2918 16004KT=
202309290500 TAF WIHH 290500Z 2906/3006 02016G26KT 8000 FEW020
                      BECMG 2912/2914 10006KT=
202309282300 TAF WIHH 282300Z 2900/3000 07015KT 8000 FEW020
                      BECMG 2915/2917 15003KT=
202309281700 TAF WIHH 281700Z 2818/2918 15003KT 7000 FEW020
                      BECMG 2903/2905 06015KT=
202309281100 TAF WIHH 281100Z 2812/2912 06013KT 7000 FEW020
                      BECMG 2815/2817 15003KT=
202309280500 TAF WIHH 280500Z 2806/2906 06016KT 8000 FEW020
                      BECMG 2815/2817 15004KT=
202309272300 TAF WIHH 272300Z 2800/2900 06015KT 8000 SCT020
                      BECMG 2815/2817 15003KT=
202309271700 TAF WIHH 271700Z 2718/2818 15003KT 7000 FEW020
                      BECMG 2803/2805 06015KT=
202309271100 TAF WIHH 271100Z 2712/2812 06013KT 8000 FEW020
                      BECMG 2715/2717 15003KT=
202309270500 TAF WIHH 270500Z 2706/2806 05015KT 7000 FEW020
                      BECMG 2715/2717 15004KT=
202309262300 TAF WIHH 262300Z 2700/2800 07010KT 7000 FEW022
                      BECMG 2706/2708 02015KT SCT020
                      BECMG 2712/2714 12006KT=
202309261700 TAF WIHH 261700Z 2618/2718 18003KT 6000 FEW022
                      BECMG 2700/2702 09008KT=
202309261100 TAF WIHH 261100Z 2612/2712 06008KT 6000 SCT020
                      BECMG 2614/2616 21004KT FEW022=
202309260500 TAF WIHH 260500Z 2606/2706 03015KT 7000 SCT020
                      BECMG 2614/2616 21005KT FEW022=
202309252300 TAF WIHH 252300Z 2600/2700 10010KT 7000 FEW022
                      BECMG 2605/2607 02015KT SCT020
                      BECMG 2614/2616 22004KT=
202309251700 TAF WIHH 251700Z 2518/2618 23004KT 6000 FEW022
                      BECMG 2600/2602 10010KT=
202309251100 TAF WIHH 251100Z 2512/2612 05008KT 7000 FEW022
                      BECMG 2516/2517 23004KT 5000 HZ=
202309250500 TAF WIHH 250500Z 2506/2606 02014KT 7000 SCT020
                      BECMG 2514/2516 23006KT 5000 HZ=
202309242300 TAF WIHH 242300Z 2500/2600 15004KT 7000 SCT020
                      BECMG 2504/2506 02015KT
                      BECMG 2515/2517 18003KT=
202309241700 TAF WIHH 241700Z 2418/2518 15003KT 6000 SCT020
                      BECMG 2503/2505 03015KT=
202309241100 TAF WIHH 241100Z 2412/2512 03007KT 6000 SCT020
                      BECMG 2415/2417 00000KT=
202309240500 TAF WIHH 240500Z 2406/2506 02013KT 7000 SCT020
                      BECMG 2415/2417 16003KT=
202309232300 TAF WIHH 232300Z 2400/2500 18004KT 7000 SCT020
                      BECMG 2404/2406 02015KT
                      BECMG 2415/2417 15003KT=
202309231700 TAF WIHH 231700Z 2318/2418 15003KT 6000 FEW020
                      BECMG 2402/2404 06013KT=
202309231100 TAF WIHH 231100Z 2312/2412 06013KT 7000 FEW020
                      BECMG 2316/2318 15003KT=
202309230500 TAF WIHH 230500Z 2306/2406 06015KT 5000 HZ SCT018
                      TEMPO 2307/2310 SHRA
                      BECMG 2315/2317 15004KT=
202309222300 TAF WIHH 222300Z 2300/2400 06010KT 7000 FEW022
                      BECMG 2305/2307 34015KT SCT020
                      BECMG 2316/2318 22003KT=
202309221700 TAF WIHH 221700Z 2218/2318 17004KT 5000 HZ FEW022
                      BECMG 2301/2303 03012KT 7000 NSW=
202309221100 TAF WIHH 221100Z 2212/2312 03008KT 7000 FEW022
                      BECMG 2216/2218 20004KT 5000 HZ=
202309220500 TAF WIHH 220500Z 2206/2306 01014KT 7000 SCT020
                      BECMG 2215/2217 12005KT 5000 HZ FEW022=
202309212300 TAF WIHH 212300Z 2200/2300 21006KT 5000 HZ FEW020
                      BECMG 2202/2204 03012KT 7000 SCT020
                      BECMG 2213/2215 10003KT=
202309211700 TAF WIHH 211700Z 2118/2218 21003KT 4000 HZ FEW022
                      BECMG 2201/2203 03008KT 7000 SCT020=
202309211100 TAF WIHH 211100Z 2112/2212 05006KT 6000 SCT020
                      BECMG 2116/2118 17003KT 5000 HZ FEW022=
202309210500 TAF WIHH 210500Z 2106/2206 34010KT 6000 SCT020
                      BECMG 2112/2114 03008KT
                      BECMG 2117/2119 13003KT 5000 HZ FEW022=
202309202300 TAF WIHH 202300Z 2100/2200 15004KT 7000 SCT020
                      BECMG 2105/2107 02015KT
                      BECMG 2115/2117 00000KT=
202309201700 TAF WIHH 201700Z 2018/2118 36003KT 6000 SCT020
                      BECMG 2101/2103 09015KT=
202309201100 TAF WIHH 201100Z 2012/2112 02010KT 6000 SCT020
                      BECMG 2015/2017 00000KT=
202309200500 TAF WIHH 200500Z 2006/2106 03006KT 7000 SCT018
                      TEMPO 2009/2012 20016KT 3000 SHRA FEW016CB=
202309192300 TAF WIHH 192300Z 2000/2100 12006KT 7000 SCT018
                      TEMPO 2007/2010 03016KT 3000 SHRA FEW016CB
                       BECMG 2015/2017 00000KT=
202309191700 TAF WIHH 191700Z 1918/2018 15003KT 4000 HZ SCT020
                      BECMG 2002/2004 06013KT 7000 NSW=
202309191100 TAF WIHH 191100Z 1912/2012 05008KT 5000 HZ SCT018
                      BECMG 1915/1917 00000KT=
202309190500 TAF WIHH 190500Z 1906/2006 06008KT 6000 SCT018
                      TEMPO 1906/1909 3000 RA BKN015
                      BECMG 1914/1916 00000KT=
202309182300 TAF WIHH 182300Z 1900/2000 07008KT 5000 HZ SCT020
                      BECMG 1904/1906 36010KT 7000
                      TEMPO 1908/1911 28012KT 4000 SHRA=
202309181700 TAF WIHH 181700Z 1818/1918 23004KT 5000 HZ FEW022
                      BECMG 1901/1903 33008KT 7000 NSW=
202309181100 TAF WIHH 181100Z 1812/1912 03008KT 7000 SCT020
                      BECMG 1815/1817 15005KT 5000 HZ=
202309180500 TAF WIHH 180500Z 1806/1906 36014KT 7000 SCT018
                      TEMPO 1808/1811 4000 SHRA
                      BECMG 1814/1816 14005KT 5000 HZ=
202309172300 TAF WIHH 172300Z 1800/1900 17008KT 7000 FEW020
                      TEMPO 1808/1811 35012KT 4000 SHRA SCT020
                       BECMG 1813/1815 12005KT 5000 HZ=
202309171700 TAF WIHH 171700Z 1718/1818 23004KT 5000 HZ SCT020
                      BECMG 1800/1802 16008KT 7000 NSW=
202309171100 TAF WIHH 171100Z 1712/1812 06007KT 7000 SCT020
                      BECMG 1715/1717 22003KT 5000 HZ FEW022=
202309170500 TAF WIHH 170500Z 1706/1806 03014KT 7000 SCT020
                      BECMG 1716/1718 22003KT 5000 HZ=
202309162300 TAF WIHH 162300Z 1700/1800 06006KT 8000 SCT020
                      TEMPO 1707/1710 21016KT 4000 SHRA
                      BECMG 1716/1718 00000KT=
202309161700 TAF WIHH 161700Z 1618/1718 15003KT 6000 FEW020
                      BECMG 1703/1705 06015KT=
202309161100 TAF WIHH 161100Z 1612/1712 03012KT 7000 FEW020
                      BECMG 1615/1617 15002KT=
202309160500 TAF WIHH 160500Z 1606/1706 05015KT 8000 SCT020
                      BECMG 1615/1617 15003KT 4000 HZ=
202309152300 TAF WIHH 152300Z 1600/1700 06013KT 8000 SCT020
                      BECMG 1616/1618 15003KT 4000 HZ=
202309151700 TAF WIHH 151700Z 1518/1618 15003KT 6000 FEW020
                      BECMG 1603/1605 06015KT=
202309151100 TAF WIHH 151100Z 1512/1612 09013KT 7000 FEW020
                      BECMG 1515/1517 15003KT=
202309150500 TAF WIHH 150500Z 1506/1606 06015KT 7000 SCT020
                      BECMG 1515/1517 15003KT=
202309142300 TAF WIHH 142300Z 1500/1600 09008KT 7000 FEW022
                      BECMG 1505/1507 03014KT SCT020=
202309141700 TAF COR WIHH 141700Z 1418/1518 24003KT 5000 HZ FEW022
                      BECMG 1500/1502 09008KT 7000 NSW=
202309141100 TAF WIHH 141100Z 1412/1512 06008KT 7000 SCT020
                      BECMG 1416/1418 22003KT 5000 HZ FEW022=
202309140500 TAF WIHH 140500Z 1406/1506 03014KT 7000 SCT020
                      BECMG 1415/1417 23004KT FEW022=
202309132300 TAF WIHH 132300Z 1400/1500 10008KT 7000 FEW022
                      BECMG 1405/1407 02015KT SCT020=
202309131700 TAF WIHH 131700Z 1318/1418 22003KT 5000 HZ FEW022
                      BECMG 1401/1403 10008KT 7000 SCT020=
202309131100 TAF WIHH 131100Z 1312/1412 05006KT 7000 SCT020
                      BECMG 1316/1318 21003KT 5000 HZ FEW022=
202309130500 TAF WIHH 130500Z 1306/1406 03014KT 7000 SCT020
                      BECMG 1316/1318 21004KT 5000 HZ=
202309122300 TAF WIHH 122300Z 1300/1400 05015KT 8000 SCT020
                      BECMG 1315/1317 15003KT=
202309121700 TAF WIHH 121700Z 1218/1318 15003KT 7000 FEW020
                      BECMG 1302/1304 06015KT=
202309121100 TAF WIHH 121100Z 1212/1312 06015KT 8000 FEW022
                      BECMG 1216/1218 15004KT=
202309120500 TAF WIHH 120500Z 1206/1306 05016KT 7000 SCT020
                      BECMG 1216/1218 15004KT=
202309112300 TAF WIHH 112300Z 1200/1300 05015KT 7000 SCT020
                      BECMG 1216/1218 15003KT=
202309111700 TAF WIHH 111700Z 1118/1218 15005KT 6000 FEW020
                      BECMG 1203/1205 06015KT=
202309111100 TAF WIHH 111100Z 1112/1212 07015KT 7000 FEW020
                      BECMG 1116/1118 15003KT=
202309110500 TAF WIHH 110500Z 1106/1206 02013KT 7000 SCT020
                      BECMG 1116/1118 15003KT=
202309102300 TAF WIHH 102300Z 1100/1200 09008KT 5000 HZ FEW022
                      BECMG 1103/1105 03012KT 7000 SCT020
                      BECMG 1116/1118 18004KT=
202309101700 TAF WIHH 101700Z 1018/1118 23003KT 5000 HZ FEW022
                      BECMG 1101/1103 09010KT 7000 NSW=
202309101100 TAF WIHH 101100Z 1012/1112 35008KT 7000 FEW022
                      BECMG 1015/1017 22004KT 5000 HZ=
202309100500 TAF WIHH 100500Z 1006/1106 03012KT 7000 SCT018
                      TEMPO 1009/1012 33015KT 4000 -RA
                      BECMG 1015/1017 16004KT 5000 HZ FEW022=
202309092300 TAF WIHH 092300Z 1000/1100 02010KT 7000 SCT020
                      TEMPO 1009/1012 33012KT 4000 -RA
                      BECMG 1015/1017 16004KT 5000 HZ=
202309091700 TAF WIHH 091700Z 0918/1018 23003KT 5000 HZ FEW022
                      BECMG 1003/1005 03014KT 7000 SCT020=
202309091100 TAF WIHH 091100Z 0912/1012 05008KT 7000 SCT020
                      BECMG 0915/0917 18003KT 5000 HZ=
202309090500 TAF WIHH 090500Z 0906/1006 04010KT 7000 SCT018
                      TEMPO 0909/0912 32015KT 4000 -RA
                      BECMG 0915/0917 18003KT 5000 HZ=
202309082300 TAF WIHH 082300Z 0900/1000 05006KT 7000 SCT018
                      TEMPO 0909/0912 21016KT 3000 -RA
                      BECMG 0916/0918 00000KT 4000 HZ=
202309081700 TAF WIHH 081700Z 0818/0918 00000KT 6000 SCT020
                      BECMG 0901/0903 09013KT=
202309081100 TAF WIHH 081100Z 0812/0912 09008KT 6000 SCT020
                      BECMG 0815/0817 00000KT=
202309080500 TAF WIHH 080500Z 0806/0906 04013KT 7000 SCT020
                      BECMG 0815/0817 12003KT=
202309072300 TAF WIHH 072300Z 0800/0900 03013KT 7000 SCT020
                      BECMG 0815/0817 12003KT=
202309071700 TAF WIHH 071700Z 0718/0818 15004KT 6000 FEW020
                      BECMG 0803/0805 03015KT=
202309071100 TAF WIHH 071100Z 0712/0812 06008KT 6000 FEW020
                      BECMG 0716/0718 00000KT=
202309070500 TAF WIHH 070500Z 0706/0806 09015KT 6000 SCT020
                      BECMG 0715/0717 18005KT=
202309062300 TAF WIHH 062300Z 0700/0800 12012KT 6000 SCT020
                      BECMG 0706/0709 03015KT 8000 NSW=
202309061700 TAF WIHH 061700Z 0618/0718 22003KT 5000 HZ FEW022
                      BECMG 0701/0703 33006KT 7000 NSW=
202309061100 TAF WIHH 061100Z 0612/0712 06008KT 6000 FEW022
                      BECMG 0616/0618 22004KT 4000 HZ=
202309060500 TAF WIHH 060500Z 0606/0706 03014KT 7000 FEW020
                      BECMG 0616/0618 22005KT 4000 HZ=
202309052300 TAF WIHH 052300Z 0600/0700 12015KT 6000 FEW020
                      BECMG 0612/0614 21005KT 5000 HZ=
202309051700 TAF WIHH 051700Z 0518/0618 21003KT 4000 HZ FEW022
                      BECMG 0602/0604 04010KT 7000=
202309051100 TAF WIHH 051100Z 0512/0612 06008KT 7000 FEW022
                      BECMG 0516/0518 21004KT 5000 HZ=
202309050500 TAF WIHH 050500Z 0506/0606 03012KT 7000 SCT020
                      BECMG 0516/0518 21004KT 5000 HZ=
202309042300 TAF WIHH 042300Z 0500/0600 08013KT 7000 SCT020
                      BECMG 0516/0518 15003KT 4000 HZ=
202309041700 TAF WIHH 041700Z 0418/0518 15003KT 4000 HZ FEW020
                      BECMG 0501/0503 09013KT 7000 NSW=
202309041100 TAF WIHH 041100Z 0412/0512 03013KT 7000 FEW020
                      BECMG 0416/0418 15003KT 4000 HZ=
202309040500 TAF WIHH 040500Z 0406/0506 06015KT 7000 SCT020
                      BECMG 0416/0418 15003KT 4000 HZ=
202309032300 TAF WIHH 032300Z 0400/0500 10008KT 7000 FEW022
                      BECMG 0404/0406 03014KT SCT020
                      BECMG 0415/0417 18004KT 5000 HZ=
202309031700 TAF WIHH 031700Z 0318/0418 22004KT 5000 HZ SCT020
                      BECMG 0401/0403 10008KT 7000 NSW=
202309031100 TAF WIHH 031100Z 0312/0412 03008KT 6000 FEW022
                      BECMG 0315/0317 20003KT 4000 HZ=
202309030500 TAF WIHH 030500Z 0306/0406 03012KT 7000 SCT020
                      BECMG 0315/0317 20003KT 5000 HZ=
202309022300 TAF WIHH 022300Z 0300/0400 09013KT 7000 SCT020
                      BECMG 0316/0318 16003KT 4000 HZ=
202309021700 TAF WIHH 021700Z 0218/0318 09003KT 4000 HZ SCT020
                      BECMG 0302/0304 03013KT 7000 NSW=
202309021100 TAF WIHH 021100Z 0212/0312 02013KT 6000 SCT020
                      BECMG 0215/0217 09003KT 4000 HZ=
202309020500 TAF WIHH 020500Z 0206/0306 02015KT 7000 SCT020
                      BECMG 0216/0218 09003KT 4000 HZ=
202309012300 TAF WIHH 012300Z 0200/0300 15003KT 4000 HZ SCT020
                      BECMG 0203/0205 03015KT 7000 NSW
                      BECMG 0216/0218 00000KT 4000 HZ=
202309011700 TAF WIHH 011700Z 0118/0218 15004KT 4000 HZ SCT020
                      BECMG 0202/0204 03015KT 7000 NSW=
202309011100 TAF WIHH 011100Z 0112/0212 03013KT 7000 SCT020
                      BECMG 0117/0119 15003KT 4000 HZ=
202309010500 TAF WIHH 010500Z 0106/0206 03015KT 7000 SCT020
                      BECMG 0115/0117 15005KT 4000 HZ=
