##########################################################
# Query made at 05/04/2026 14:25:44 UTC
# Time interval: from 03/01/2026 00:00  to 03/31/2026 23:59  UTC
##########################################################

##########################################################
# WIHH, Jakarta Halim Perdanakusuma (Indonesia)
# WMO index: 96747. WIGOS ID: Unknown
# Latitude 06-15S. Longitude 106-54E. Altitude 30 m.
##########################################################

###################################
#  METAR/SPECI from WIHH
###################################
202603312330 METAR WIHH 312330Z 17003KT 3000 BR SCT020 26/25 Q1010 NOSIG=
202603312300 METAR WIHH 312300Z 00000KT 3000 BR SCT020 25/25 Q1009 NOSIG=
202603312230 METAR WIHH 312230Z 09003KT 4000 BR SCT020 25/25 Q1009 NOSIG=
202603312200 METAR WIHH 312200Z 00000KT 4000 BR SCT020 25/25 Q1009 NOSIG=
202603312130 METAR WIHH 312130Z 00000KT 4000 BR SCT020 25/25 Q1009 NOSIG=
202603312100 METAR WIHH 312100Z 00000KT 4000 BR SCT020 25/25 Q1010 NOSIG=
202603312030 METAR WIHH 312030Z 00000KT 5000 HZ SCT020 26/23 Q1010 NOSIG=
202603312000 METAR WIHH 312000Z 00000KT 5000 HZ SCT020 26/25 Q1010 NOSIG=
202603311930 METAR WIHH 311930Z 00000KT 6000 SCT020 26/25 Q1010 NOSIG=
202603311900 METAR WIHH 311900Z 00000KT 6000 SCT020 26/24 Q1010 NOSIG=
202603311830 METAR WIHH 311830Z 16003KT 6000 SCT020 26/25 Q1010 NOSIG=
202603311800 METAR WIHH 311800Z 16003KT 7000 SCT020 26/25 Q1011 NOSIG=
202603311730 METAR WIHH 311730Z 00000KT 7000 SCT020 26/25 Q1011 NOSIG=
202603311700 METAR WIHH 311700Z 18002KT 7000 SCT020 26/25 Q1011 NOSIG=
202603311630 METAR WIHH 311630Z 19002KT 7000 SCT020 26/25 Q1011 NOSIG=
202603311600 METAR WIHH 311600Z 17003KT 8000 SCT020 26/25 Q1011 NOSIG=
202603311530 METAR WIHH 311530Z 14003KT 8000 FEW018CB SCT020 27/24 Q1011 NOSIG RMK CB TO SW=
202603311500 METAR WIHH 311500Z 12002KT 8000 SCT020 27/24 Q1011 NOSIG=
202603311430 METAR WIHH 311430Z 24003KT 8000 SCT020 27/25 Q1011 NOSIG=
202603311400 METAR WIHH 311400Z 22003KT 6000 SCT020 27/25 Q1011 NOSIG=
202603311330 METAR WIHH 311330Z 20003KT 6000 SCT020 27/25 Q1010 NOSIG=
202603311300 METAR WIHH 311300Z 21004KT 6000 SCT018 27/25 Q1010 NOSIG=
202603311230 METAR WIHH 311230Z 00000KT 6000 SCT018 28/26 Q1010 NOSIG=
202603311200 METAR WIHH 311200Z 00000KT 6000 SCT018 29/25 Q1009 NOSIG=
202603311130 METAR WIHH 311130Z 04003KT 6000 FEW016CB SCT018 29/25 Q1008 RMK CB AND RA TO SW=
202603311100 METAR WIHH 311100Z 30003KT 6000 FEW016CB SCT018 30/25 Q1008 RMK CB AND RA TO SW=
202603311030 METAR WIHH 311030Z 34008KT 6000 FEW016CB SCT018 30/25 Q1008 RMK CB AND RA TO SW=
202603311000 METAR WIHH 311000Z 02008KT 6000 FEW016CB SCT018 31/25 Q1007 RMK CB AND RA TO SW=
202603310930 METAR WIHH 310930Z 36008KT 6000 SCT018 31/25 Q1007 NOSIG=
202603310900 METAR WIHH 310900Z 03006KT 6000 SCT018 32/25 Q1007 NOSIG=
202603310830 METAR WIHH 310830Z 03005KT 6000 SCT018 32/24 Q1007 NOSIG=
202603310800 METAR WIHH 310800Z 07003KT 6000 SCT018 30/25 Q1007 NOSIG=
202603310730 METAR WIHH 310730Z 09004KT 6000 SCT015 28/26 Q1007 RMK RA TO SW=
202603310700 METAR WIHH 310700Z 23005KT 5000 HZ SCT015 FEW017CB 26/25 Q1007 RMK CB AND RA TO SW=
202603310630 METAR WIHH 310630Z 18010KT 4000 -TSRA BKN015 FEW017CB 26/24 Q1009 RMK CB TO SW=
202603310605 SPECI WIHH 310605Z 18010KT 2000 -TSRA BKN015 FEW017CB 30/25 Q1009 RMK CB TO S=
202603310600 METAR WIHH 310600Z 30005KT 6000 SCT015 31/24 Q1009 RMK RA TO S=
202603310530 METAR WIHH 310530Z 27004KT 6000 SCT018 31/24 Q1010 RMK RA TO SE=
202603310500 METAR WIHH 310500Z 04008KT 6000 SCT018 30/25 Q1010 NOSIG=
202603310430 METAR WIHH 310430Z 08004KT 6000 SCT018 32/24 Q1011 RMK RA TO S=
202603310400 METAR WIHH 310400Z 06003KT 6000 SCT018 31/24 Q1011 NOSIG=
202603310330 METAR WIHH 310330Z 36008KT 6000 SCT018 30/24 Q1012 RMK RA TO S=
202603310300 METAR WIHH 310300Z 02003KT 6000 SCT018 30/24 Q1012 RMK RA TO SE=
202603310230 METAR WIHH 310230Z 28003KT 6000 SCT018 30/24 Q1012 NOSIG=
202603310200 METAR WIHH 310200Z 07003KT 5000 HZ FEW018 29/24 Q1012 NOSIG=
202603310130 METAR WIHH 310130Z 11003KT 5000 HZ SCT016 28/24 Q1012 NOSIG=
202603310100 METAR WIHH 310100Z 14004KT 5000 HZ SCT016 28/25 Q1011 NOSIG=
202603310030 METAR WIHH 310030Z 23004KT 4000 BR SCT016 26/26 Q1011 NOSIG=
202603310000 METAR WIHH 310000Z 00000KT 3000 BR SCT016 25/25 Q1010 NOSIG=
202603302330 METAR WIHH 302330Z 00000KT 3000 BR SCT015 25/25 Q1010 NOSIG=
202603302300 METAR WIHH 302300Z 00000KT 3000 BKN015 25/25 Q1010 NOSIG=
202603302230 METAR WIHH 302230Z 22002KT 3000 BR SCT018 24/24 Q1010 NOSIG=
202603302200 METAR WIHH 302200Z 00000KT 3000 BR SCT018 25/25 Q1010 NOSIG=
202603302130 METAR WIHH 302130Z 00000KT 4000 BR SCT018 25/25 Q1010 NOSIG=
202603302100 METAR WIHH 302100Z 18003KT 4000 BR SCT018 25/25 Q1010 NOSIG=
202603302030 METAR WIHH 302030Z 00000KT 4000 BR SCT018 24/24 Q1009 NOSIG=
202603302000 METAR WIHH 302000Z 00000KT 4000 BR SCT018 24/24 Q1009 NOSIG=
202603301930 METAR WIHH 301930Z 00000KT 4000 BR SCT018 24/24 Q1009 NOSIG=
202603301900 METAR WIHH 301900Z 00000KT 4000 BR SCT018 24/24 Q1009 NOSIG=
202603301830 METAR WIHH 301830Z 00000KT 4000 SCT018 24/24 Q1010 NOSIG=
202603301800 METAR WIHH 301800Z 00000KT 7000 SCT020 25/25 Q1011 NOSIG=
202603301730 METAR WIHH 301730Z 00000KT 7000 SCT020 25/25 Q1011 NOSIG=
202603301700 METAR WIHH 301700Z 00000KT 7000 SCT020 25/25 Q1011 NOSIG=
202603301630 METAR WIHH 301630Z 00000KT 7000 SCT020 25/25 Q1012 NOSIG=
202603301600 METAR WIHH 301600Z 00000KT 7000 SCT020 25/25 Q1012 NOSIG=
202603301530 METAR WIHH 301530Z 00000KT 7000 SCT020 25/24 Q1012 NOSIG=
202603301500 METAR WIHH 301500Z 00000KT 7000 SCT020 25/24 Q1012 NOSIG=
202603301430 METAR WIHH 301430Z 16004KT 7000 SCT020 25/24 Q1012 NOSIG=
202603301400 METAR WIHH 301400Z 08005KT 6000 SCT017 25/24 Q1011 NOSIG=
202603301330 METAR WIHH 301330Z 10005KT 6000 SCT017 25/24 Q1011 RMK RA TO SE=
202603301300 METAR WIHH 301300Z 20005KT 6000 SCT017 25/24 Q1011 RMK RA TO SE=
202603301230 METAR WIHH 301230Z 15004KT 6000 SCT016 25/24 Q1011 RMK RA TO SE=
202603301200 METAR WIHH 301200Z 19004KT 6000 -RA SCT016 FEW017CB 25/24 Q1010 RMK CB TO SE=
202603301130 METAR WIHH 301130Z 17004KT 4000 -RA SCT016 FEW017CB 25/24 Q1010 TEMPO TL1230 4000 -TSRA RMK CB TO S=
202603301100 METAR WIHH 301100Z 13005KT 4000 -TSRA SCT016 FEW017CB 25/24 Q1009 TEM PO TL1130 4000 -TSRA RMK CB TO W=
202603301030 METAR WIHH 301030Z 15005KT 4000 -TSRA SCT016 FEW017CB 25/24 Q1009 TEMPO TL1100 4000 -TSRA RMK CB TO W=
202603301000 METAR WIHH 301000Z 24007KT 5000 -TSRA SCT016 FEW017CB 25/24 Q1008 TEMPO TL1030 4000 -TSRA RMK CB TO W=
202603300930 METAR WIHH 300930Z 01005KT 5000 -TSRA SCT015 FEW016CB 25/25 Q1007 TEMPO TL0940 4000 -TSRA RMK CB TO NW=
202603300900 METAR WIHH 300900Z 03006KT 4000 -TSRA SCT015 FEW016CB 25/24 Q1007 TEMPO TL0920 4000 -TSRA RMK CB TO NW=
202603300830 METAR WIHH 300830Z 11011KT 0500 TSRA BKN013 FEW016CB 24/23 Q1008 TEMPO TL0840 2000 TSRA RMK CB OVER THE FIELD=
202603300800 METAR WIHH 300800Z 17015KT 3000 -TSRA BKN013 FEW016CB 27/23 Q1008 TEMPO TL0830 1000 TSRA RMK CB OVER THE FIELD=
202603300730 METAR WIHH 300730Z 01009KT 5000 TS SCT015 FEW017CB 32/24 Q1006 TEMPO FM0745 1000 TSRA SCT014 RMK CB AND RA TO S=
202603300707 SPECI WIHH 300707Z 34008KT 6000 TS SCT016 FEW017CB 32/25 Q1007 RMK CB AND RA TO S=
202603300700 METAR WIHH 300700Z 35009KT 6000 SCT016 32/25 Q1007 TEMPO FM0740 3000 TSRA BKN015 RMK CB AND RA TO S=
202603300630 METAR WIHH 300630Z 03008KT 6000 SCT017 32/25 Q1008 TEMPO FM0645 3000 TSRA BKN015 RMK RA TO S=
202603300600 METAR WIHH 300600Z 34008KT 6000 SCT018 33/24 Q1008 TEMPO FM0645 3000 TSRA BKN015 RMK RA TO N=
202603300530 METAR WIHH 300530Z 25005KT 7000 SCT018 33/22 Q1009 RMK RA TO N=
202603300500 METAR WIHH 300500Z 23005KT 7000 SCT018 33/23 Q1009 NOSIG=
202603300430 METAR WIHH 300430Z 26005KT 7000 SCT018 33/23 Q1010 NOSIG=
202603300400 METAR WIHH 300400Z 26007KT 7000 SCT018 33/24 Q1011 NOSIG=
202603300330 METAR WIHH 300330Z 21005KT 7000 SCT018 32/23 Q1011 NOSIG=
202603300300 METAR WIHH 300300Z 30004KT 7000 SCT020 32/24 Q1011 NOSIG=
202603300230 METAR WIHH 300230Z 25004KT 7000 SCT020 30/24 Q1011 NOSIG=
202603300200 METAR WIHH 300200Z 28004KT 6000 SCT020 30/25 Q1011 NOSIG=
202603300130 METAR WIHH 300130Z 21003KT 6000 SCT020 29/25 Q1011 NOSIG=
202603300100 METAR WIHH 300100Z 28003KT 5000 HZ SCT020 27/25 Q1011 NOSIG=
202603300030 METAR WIHH 300030Z 29003KT 6000 SCT020 27/25 Q1010 NOSIG=
202603300000 METAR WIHH 300000Z 00000KT 5000 HZ SCT020 26/25 Q1010 NOSIG=
202603292330 METAR WIHH 292330Z 00000KT 4000 BR SCT018 25/25 Q1009 NOSIG=
202603292300 METAR WIHH 292300Z 00000KT 4000 BR SCT018 25/25 Q1009 NOSIG=
202603292230 METAR WIHH 292230Z 27003KT 6000 SCT018 25/25 Q1009 NOSIG=
202603292200 METAR WIHH 292200Z 28003KT 6000 SCT018 25/25 Q1009 NOSIG=
202603292130 METAR WIHH 292130Z 00000KT 6000 SCT018 25/24 Q1009 NOSIG=
202603292100 METAR WIHH 292100Z 00000KT 6000 SCT018 25/24 Q1009 NOSIG=
202603292030 METAR WIHH 292030Z VRB02KT 5000 HZ SCT018 25/24 Q1009 NOSIG=
202603292000 METAR WIHH 292000Z 00000KT 5000 HZ SCT018 25/24 Q1009 NOSIG=
202603291930 METAR WIHH 291930Z VRB02KT 5000 -RA SCT018 25/24 Q1010 NOSIG=
202603291900 METAR WIHH 291900Z 00000KT 5000 -RA SCT018 25/24 Q1010 NOSIG=
202603291830 METAR WIHH 291830Z 00000KT 5000 -RA SCT018 25/24 Q1010 NOSIG=
202603291800 METAR WIHH 291800Z 00000KT 4000 -RA BKN017 25/25 Q1011 NOSIG=
202603291730 METAR WIHH 291730Z 00000KT 4000 -RA BKN017 26/25 Q1011 NOSIG=
202603291700 METAR WIHH 291700Z 00000KT 4000 -RA BKN017 26/25 Q1011 NOSIG=
202603291630 METAR WIHH 291630Z 00000KT 6000 -RA BKN017 25/25 Q1011 NOSIG=
202603291600 METAR WIHH 291600Z 00000KT 6000 -RA BKN017 25/25 Q1011 NOSIG=
202603291530 METAR WIHH 291530Z 00000KT 5000 -RA BKN017 25/25 Q1011 NOSIG=
202603291500 METAR WIHH 291500Z 00000KT 6000 -RA BKN017 25/25 Q1011 NOSIG=
202603291430 METAR WIHH 291430Z 12003KT 5000 -RA BKN017 26/25 Q1011 NOSIG=
202603291400 METAR WIHH 291400Z 18004KT 5000 -RA BKN017 26/25 Q1011 NOSIG=
202603291330 METAR COR WIHH 291330Z 17005KT 5000 -RA BKN017 26/25 Q1010 NOSIG=
202603291300 METAR WIHH 291300Z 22005KT 5000 -RA SCT017 26/25 Q1010 NOSIG=
202603291230 METAR WIHH 291230Z 19003KT 4000 -RA BKN016 26/25 Q1009 NOSIG=
202603291200 METAR WIHH 291200Z 18005KT 4000 -RA BKN016 26/25 Q1009 NOSIG=
202603291130 METAR WIHH 291130Z 18006KT 5000 -RA BKN016 FEW017CB 26/25 Q1008 RMK CB TO S=
202603291100 METAR WIHH 291100Z 18008KT 4000 -TSRA BKN016 FEW017CB 27/25 Q1007 RMK CB TO S=
202603291030 METAR WIHH 291030Z 24003KT 5000 -TSRA FEW017CB SCT018 30/24 Q1007 RMK CB TO S-SW=
202603291000 METAR WIHH 291000Z 21003KT 6000 TS FEW017 SCT018 30/24 Q1007 RMK CB AND RA TO S-SW=
202603290930 METAR WIHH 290930Z 33004KT 6000 TS FEW017CB SCT018 30/24 Q1006 RMK CB AND RA TO S-SW=
202603290900 METAR WIHH 290900Z 28005KT 6000 TS FEW017CB SCT018 31/24 Q1006 RMK CB AND RA TO S-SW=
202603290837 SPECI WIHH 290837Z 35007KT 6000 TS FEW017CB SCT018 32/24 Q1006 RMK CB AND RA TO S-SW=
202603290830 METAR WIHH 290830Z 33004KT 7000 FEW017CB SCT018 32/24 Q1006 RMK CB AND RA TO S-SW=
202603290800 METAR WIHH 290800Z 32005KT 7000 FEW017CB SCT018 32/24 Q1006 RMK CB AND RA TO SW=
202603290730 METAR WIHH 290730Z 01008KT 7000 SCT017CB SCT018 32/23 Q1006 RMK CB AN D RA TO SW=
202603290700 METAR WIHH 290700Z 02007KT 7000 SCT018 32/24 Q1007 RMK RA TO SW=
202603290630 METAR WIHH 290630Z 01008KT 7000 SCT017 33/25 Q1007 RMK RA TO S-SW=
202603290600 METAR WIHH 290600Z 01007KT 7000 SCT017 33/25 Q1008 RMK RA TO S=
202603290530 METAR WIHH 290530Z 02007KT 7000 SCT018 32/24 Q1008 NOSIG=
202603290500 METAR WIHH 290500Z 05006KT 7000 SCT018 33/24 Q1009 NOSIG=
202603290430 METAR WIHH 290430Z 02009KT 7000 SCT018 33/24 Q1009 NOSIG=
202603290400 METAR WIHH 290400Z 04004KT 7000 SCT018 32/24 Q1009 NOSIG=
202603290330 METAR WIHH 290330Z 03004KT 7000 SCT018 31/24 Q1010 NOSIG=
202603290300 METAR WIHH 290300Z 11004KT 7000 SCT018 30/24 Q1010 NOSIG=
202603290230 METAR WIHH 290230Z 33006KT 7000 SCT020 31/24 Q1010 NOSIG=
202603290200 METAR WIHH 290200Z 09003KT 7000 FEW020 30/24 Q1010 NOSIG=
202603290130 METAR WIHH 290130Z 03004KT 7000 FEW020 29/24 Q1010 NOSIG=
202603290100 METAR WIHH 290100Z 15003KT 6000 FEW020 29/25 Q1009 NOSIG=
202603290030 METAR WIHH 290030Z 12003KT 6000 FEW020 28/25 Q1009 NOSIG=
202603290000 METAR WIHH 290000Z 15003KT 6000 FEW020 27/25 Q1009 NOSIG=
202603282330 METAR WIHH 282330Z 15003KT 6000 FEW020 25/24 Q1008 NOSIG=
202603282300 METAR WIHH 282300Z 14003KT 6000 FEW020 25/24 Q1008 NOSIG=
202603282230 METAR WIHH 282230Z 00000KT 7000 SCT020 25/25 Q1008 NOSIG=
202603282200 METAR WIHH 282200Z 00000KT 7000 SCT020 25/25 Q1008 NOSIG=
202603282130 METAR WIHH 282130Z 00000KT 7000 SCT020 25/25 Q1008 NOSIG=
202603282100 METAR WIHH 282100Z 00000KT 7000 SCT020 25/25 Q1008 NOSIG=
202603282030 METAR WIHH 282030Z 00000KT 7000 SCT020 26/25 Q1007 NOSIG=
202603282000 METAR WIHH 282000Z 00000KT 7000 SCT020 26/25 Q1007 NOSIG=
202603281930 METAR WIHH 281930Z 00000KT 7000 SCT020 26/25 Q1008 NOSIG=
202603281900 METAR WIHH 281900Z 00000KT 7000 SCT020 26/25 Q1008 NOSIG=
202603281830 METAR WIHH 281830Z 00000KT 7000 SCT020 26/24 Q1009 NOSIG=
202603281800 METAR WIHH 281800Z 00000KT 8000 SCT020 26/24 Q1009 NOSIG=
202603281730 METAR WIHH 281730Z 00000KT 8000 SCT020 26/23 Q1009 NOSIG=
202603281700 METAR WIHH 281700Z 00000KT 8000 SCT020 26/23 Q1009 NOSIG=
202603281630 METAR WIHH 281630Z 00000KT 8000 SCT020 27/23 Q1009 NOSIG=
202603281600 METAR WIHH 281600Z 16003KT 9999 SCT020 27/25 Q1010 NOSIG=
202603281530 METAR WIHH 281530Z 15005KT 9999 SCT020 27/25 Q1010 NOSIG=
202603281500 METAR WIHH 281500Z 21003KT 9999 SCT018 27/25 Q1009 NOSIG=
202603281430 METAR WIHH 281430Z 24003KT 9999 SCT018 28/25 Q1009 RMK RA TO NE=
202603281400 METAR WIHH 281400Z 17003KT 9999 -RA SCT018 28/23 Q1009 NOSIG=
202603281330 METAR WIHH 281330Z 06003KT 9999 TS FEW018 SCT020 29/23 Q1009 NOSIG RM K CB AND RA TO SW=
202603281300 METAR WIHH 281300Z 36004KT 9999 TS FEW018CB SCT020 29/23 Q1009 TEMPO FM1305 6000 -TSRA RMK CB AND RA TO SW=
202603281230 METAR WIHH 281230Z 04005KT 9999 SCT020 29/23 Q1008 RMK RA TO SW=
202603281200 METAR WIHH 281200Z 03008KT 9999 SCT020 29/23 Q1008 RMK RA TO SW=
202603281130 METAR WIHH 281130Z 02008KT 9999 SCT020 29/23 Q1007 NOSIG=
202603281100 METAR WIHH 281100Z 03006KT 9999 SCT020 30/23 Q1006 NOSIG=
202603281030 METAR WIHH 281030Z 34005KT 9999 SCT020 30/23 Q1006 NOSIG=
202603281000 METAR WIHH 281000Z 35005KT 9999 SCT018 31/22 Q1006 NOSIG=
202603280930 METAR WIHH 280930Z 27004KT 9999 SCT018 31/22 Q1006 NOSIG=
202603280900 METAR WIHH 280900Z 34003KT 9999 SCT018 31/22 Q1006 NOSIG=
202603280830 METAR WIHH 280830Z 34005KT 9999 SCT018 32/22 Q1006 NOSIG=
202603280800 METAR WIHH 280800Z 34007KT 9999 SCT018 33/23 Q1006 NOSIG=
202603280730 METAR WIHH 280730Z 36005KT 9999 SCT018 32/24 Q1006 NOSIG=
202603280700 METAR WIHH 280700Z 01010KT 9999 SCT018 32/23 Q1010 NOSIG=
202603280630 METAR WIHH 280630Z 23005KT 9999 SCT018 33/23 Q1007 NOSIG=
202603280600 METAR WIHH 280600Z 02008KT 8000 SCT018 32/22 Q1008 NOSIG=
202603280530 METAR WIHH 280530Z 03006KT 8000 SCT018 32/23 Q1008 NOSIG=
202603280500 METAR WIHH 280500Z 25006KT 8000 SCT018 31/21 Q1009 NOSIG=
202603280430 METAR WIHH 280430Z 02008KT 8000 SCT018 31/22 Q1009 NOSIG=
202603280400 METAR WIHH 280400Z 33004KT 8000 SCT018 30/22 Q1009 NOSIG=
202603280330 METAR WIHH 280330Z 33004KT 8000 SCT018 28/23 Q1010 NOSIG=
202603280300 METAR WIHH 280300Z 30004KT 8000 SCT018 28/23 Q1011 RMK RA TO NE=
202603280230 METAR WIHH 280230Z 32005KT 7000 SCT018 27/24 Q1011 RMK RA TO N=
202603280200 METAR WIHH 280200Z 06005KT 7000 SCT018 26/24 Q1010 RMK RA TO N=
202603280130 METAR WIHH 280130Z 35006KT 7000 SCT018 26/22 Q1010 TEMPO FM0150 3000 -RA RMK RA TO N-NE=
202603280100 METAR WIHH 280100Z 01005KT 5000 HZ SCT018 28/25 Q1010 TEMPO FM0120 3000 -RA RMK RA TO N=
202603280030 METAR WIHH 280030Z 12003KT 6000 SCT020 28/25 Q1010 NOSIG=
202603280000 METAR WIHH 280000Z 16003KT 5000 HZ SCT020 26/25 Q1009 NOSIG=
202603272330 METAR WIHH 272330Z 13003KT 4000 BR SCT018 26/25 Q1009 NOSIG=
202603272300 METAR WIHH 272300Z 12003KT 4000 BR SCT018 25/25 Q1009 NOSIG=
202603272230 METAR WIHH 272230Z 21003KT 4000 BR SCT020 25/25 Q1009 NOSIG=
202603272200 METAR WIHH 272200Z 16002KT 5000 HZ SCT020 25/25 Q1008 NOSIG=
202603272130 METAR WIHH 272130Z 00000KT 5000 HZ SCT020 25/25 Q1007 NOSIG=
202603272100 METAR WIHH 272100Z 00000KT 5000 HZ SCT020 25/25 Q1007 NOSIG=
202603272030 METAR WIHH 272030Z 00000KT 5000 HZ SCT020 26/24 Q1007 NOSIG=
202603272000 METAR WIHH 272000Z 00000KT 6000 SCT020 26/24 Q1008 NOSIG=
202603271930 METAR WIHH 271930Z 14003KT 6000 SCT020 26/24 Q1008 NOSIG=
202603271900 METAR WIHH 271900Z 16003KT 6000 FEW020 26/24 Q1008 NOSIG=
202603271830 METAR WIHH 271830Z 00000KT 6000 FEW020 26/24 Q1008 NOSIG=
202603271800 METAR WIHH 271800Z 00000KT 6000 FEW020 26/25 Q1009 NOSIG=
202603271730 METAR WIHH 271730Z 00000KT 6000 FEW020 26/25 Q1009 NOSIG=
202603271700 METAR WIHH 271700Z 00000KT 6000 FEW020 26/23 Q1009 NOSIG=
202603271630 METAR WIHH 271630Z 10004KT 6000 FEW020 26/25 Q1009 NOSIG=
202603271600 METAR WIHH 271600Z 00000KT 6000 FEW020 26/25 Q1009 NOSIG=
202603271530 METAR WIHH 271530Z 12003KT 6000 FEW020 26/25 Q1009 NOSIG=
202603271500 METAR WIHH 271500Z 10003KT 7000 FEW020 26/25 Q1009 NOSIG=
202603271430 METAR WIHH 271430Z 13004KT 7000 FEW020 27/25 Q1009 NOSIG=
202603271400 METAR WIHH 271400Z 16004KT 7000 FEW020 27/25 Q1009 NOSIG=
202603271330 METAR WIHH 271330Z 14003KT 8000 FEW020 28/25 Q1009 NOSIG=
202603271300 METAR WIHH 271300Z 01003KT 8000 SCT020 28/25 Q1008 NOSIG=
202603271230 METAR WIHH 271230Z 05004KT 8000 SCT020 28/25 Q1007 NOSIG=
202603271200 METAR WIHH 271200Z 01003KT 7000 SCT020 28/25 Q1007 NOSIG=
202603271130 METAR WIHH 271130Z 03003KT 7000 SCT020 28/25 Q1007 NOSIG=
202603271100 METAR WIHH 271100Z 03003KT 7000 SCT020 28/24 Q1007 NOSIG=
202603271030 METAR WIHH 271030Z 35005KT 7000 SCT018 29/24 Q1006 NOSIG=
202603271000 METAR WIHH 271000Z 35006KT 7000 SCT018 30/24 Q1006 NOSIG=
202603270930 METAR WIHH 270930Z 34006KT 7000 SCT017 30/24 Q1006 RMK RA TO SE=
202603270900 METAR WIHH 270900Z 35010KT 7000 SCT017 30/23 Q1006 RMK RA TO SE=
202603270830 METAR WIHH 270830Z 35007KT 7000 SCT017 31/24 Q1006 RMK RA TO S=
202603270800 METAR WIHH 270800Z 32006KT 7000 SCT017 31/24 Q1006 RMK RA TO S=
202603270730 METAR WIHH 270730Z 01007KT 7000 SCT017 30/25 Q1006 RMK RA TO W AND S=
202603270700 METAR WIHH 270700Z 33006KT 7000 SCT017 30/25 Q1007 RMK RA TO N=
202603270630 METAR WIHH 270630Z 33005KT 7000 SCT018 30/25 Q1007 RMK RA TO SE=
202603270600 METAR WIHH 270600Z 35005KT 7000 SCT017 30/24 Q1008 TEMPO TL0605 4000 -RA RMK RA TO NW=
202603270530 METAR WIHH 270530Z 01008KT 7000 SCT017 30/23 Q1008 RMK RA TO SE=
202603270500 METAR WIHH 270500Z 31005KT 7000 SCT017 29/24 Q1009 RMK RA TO SW-W=
202603270430 METAR WIHH 270430Z 32006KT 7000 SCT018 29/24 Q1009 RMK RA TO SW AND NW=
202603270400 METAR WIHH 270400Z 26004KT 7000 SCT018 29/25 Q1009 NOSIG=
202603270330 METAR WIHH 270330Z 30005KT 7000 SCT018 28/25 Q1010 RMK RA TO SE=
202603270300 METAR WIHH 270300Z 25003KT 7000 SCT018 27/25 Q1010 RMK RA TO E AND S=
202603270230 METAR WIHH 270230Z 22004KT 7000 SCT018 27/25 Q1010 RMK RA TO E AND S=
202603270200 METAR WIHH 270200Z 27004KT 7000 SCT018 26/24 Q1010 RMK RA TO NE AND SW=
202603270130 METAR WIHH 270130Z 25004KT 7000 SCT017 25/25 Q1010 RMK RA TO N AND SW=
202603270100 METAR WIHH 270100Z 26005KT 5000 -RA BKN017 25/24 Q1010 NOSIG=
202603270030 METAR WIHH 270030Z 32003KT 3000 -RA BKN016 25/24 Q1010 NOSIG=
202603270000 METAR WIHH 270000Z 02003KT 4000 -RA BKN016 25/25 Q1009 NOSIG=
202603262330 METAR WIHH 262330Z 21003KT 4000 BR BKN017 25/25 Q1008 RMK RA TO NE=
202603262300 METAR WIHH 262300Z 23003KT 4000 BR SCT017 25/25 Q1008 RMK RA TO NE=
202603262230 METAR WIHH 262230Z 19003KT 6000 SCT017 25/25 Q1008 RMK RA TO N=
202603262200 METAR WIHH 262200Z 18003KT 6000 SCT017 25/25 Q1008 RMK RA TO NW=
202603262130 METAR WIHH 262130Z 16003KT 6000 SCT017 25/25 Q1008 RMK RA TO NW=
202603262100 METAR WIHH 262100Z 03003KT 6000 SCT017 25/25 Q1008 RMK RA TO N=
202603262030 METAR WIHH 262030Z 00000KT 6000 SCT017 25/25 Q1007 NOSIG=
202603262000 METAR WIHH 262000Z 00000KT 6000 SCT017 25/25 Q1007 RMK RA TO NE=
202603261930 METAR WIHH 261930Z 00000KT 6000 SCT017 25/25 Q1008 NOSIG=
202603261900 METAR WIHH 261900Z 00000KT 6000 SCT017 25/25 Q1008 NOSIG=
202603261830 METAR WIHH 261830Z 00000KT 6000 SCT017 25/25 Q1008 NOSIG=
202603261800 METAR WIHH 261800Z 18003KT 6000 SCT016 26/25 Q1009 NOSIG=
202603261730 METAR WIHH 261730Z 21003KT 6000 SCT016 26/25 Q1009 NOSIG=
202603261700 METAR WIHH 261700Z 00000KT 6000 SCT016 25/25 Q1009 NOSIG=
202603261630 METAR WIHH 261630Z 00000KT 5000 HZ BKN016 26/25 Q1010 NOSIG=
202603261600 METAR WIHH 261600Z 00000KT 5000 HZ BKN016 26/25 Q1010 NOSIG=
202603261530 METAR WIHH 261530Z 00000KT 5000 HZ BKN015 26/26 Q1010 NOSIG=
202603261500 METAR WIHH 261500Z 00000KT 5000 HZ BKN015 26/26 Q1010 RMK RA TO N=
202603261430 METAR WIHH 261430Z 24003KT 5000 HZ BKN015 26/26 Q1009 RMK RA TO N=
202603261400 METAR WIHH 261400Z 24005KT 5000 -RA BKN015 26/26 Q1009 NOSIG=
202603261330 METAR WIHH 261330Z 00000KT 5000 HZ BKN015 26/26 Q1009 NOSIG=
202603261300 METAR WIHH 261300Z 00000KT 5000 HZ BKN015 26/26 Q1009 RMK RA TO S=
202603261230 METAR WIHH 261230Z 00000KT 5000 HZ BKN015 26/25 Q1008 RMK RA TO S=
202603261200 METAR WIHH 261200Z 00000KT 5000 HZ BKN015 26/25 Q1008 RMK RA TO E=
202603261130 METAR WIHH 261130Z 29004KT 5000 -RA BKN015 26/25 Q1008 NOSIG=
202603261100 METAR WIHH 261100Z 31004KT 5000 -RA BKN016 26/24 Q1007 NOSIG=
202603261030 METAR WIHH 261030Z 27004KT 5000 -RA FEW014CB BKN016 28/25 Q1007 RMK CB TO S=
202603261000 METAR WIHH 261000Z 33004KT 5000 HZ FEW014CB BKN016 29/25 Q1007 RMK CB AND RA TO S=
202603260930 METAR WIHH 260930Z 34006KT 5000 HZ FEW014CB BKN016 29/24 Q1007 RMK CB AND RA TO S=
202603260900 METAR WIHH 260900Z 31004KT 5000 HZ FEW014CB BKN016 29/24 Q1007 RMK CB AND RA TO S=
202603260830 METAR WIHH 260830Z 33008KT 5000 HZ BKN014 29/24 Q1006 RMK RA TO TO S=
202603260800 METAR WIHH 260800Z 32006KT 5000 HZ BKN014 30/25 Q1006 RMK RA TO S=
202603260730 METAR WIHH 260730Z 33005KT 5000 HZ BKN014 30/24 Q1006 NOSIG=
202603260700 METAR WIHH 260700Z 30005KT 5000 HZ BKN014 30/25 Q1007 RMK RA TO SE=
202603260630 METAR WIHH 260630Z 31004KT 5000 HZ BKN014 29/25 Q1007 NOSIG RMK RA TO S=
202603260600 METAR WIHH 260600Z 31005KT 5000 HZ BKN014 29/25 Q1008 NOSIG=
202603260530 METAR WIHH 260530Z 30005KT 5000 -RA BKN014 28/25 Q1008 NOSIG=
202603260500 METAR WIHH 260500Z 35004KT 4000 -RA BKN014 28/25 Q1009 NOSIG=
202603260430 METAR WIHH 260430Z 31004KT 5000 HZ BKN014 28/25 Q1009 RMK RA TO E=
202603260400 METAR WIHH 260400Z 30004KT 5000 HZ BKN014 28/26 Q1009 RMK RA TO NE=
202603260330 METAR WIHH 260330Z 27005KT 5000 -RA BKN014 27/26 Q1009 RMK RA TO NE=
202603260300 METAR WIHH 260300Z 30005KT 5000 HZ BKN014 27/26 Q1009 RMK RA TO NE=
202603260230 METAR WIHH 260230Z 29003KT 5000 HZ BKN014 27/26 Q1010 RMK RA TO NE=
202603260200 METAR WIHH 260200Z 26003KT 5000 HZ BKN014 27/26 Q1009 RMK RA TO NE=
202603260130 METAR WIHH 260130Z 24003KT 5000 HZ BKN010 26/26 Q1009 RMK RA TO NE=
202603260100 METAR WIHH 260100Z 03003KT 4000 -RA BKN014 26/26 Q1009 NOSIG=
202603260030 METAR WIHH 260030Z 32003KT 4000 -RA BKN016 FEW017CB 26/26 Q1008 RMK CB TO NE=
202603260000 METAR WIHH 260000Z 34004KT 3000 -TSRA BKN015 FEW017CB 26/26 Q1008 TEMPO TL0100 3000 -TSRA RMK CB TO N=
202603252330 METAR WIHH 252330Z 33003KT 3000 -TSRA BKN016 FEW017CB 25/25 Q1008 RMK CB TO N=
202603252300 METAR WIHH 252300Z 00000KT 4000 BR SCT017 25/25 Q1007 TEMPO FM2330 3000 -RA RMK RA TO N-NE=
202603252230 METAR WIHH 252230Z 00000KT 4000 BR SCT017 25/25 Q1007 TEMPO FM2330 3000 -RA RMK RA TO N=
202603252200 METAR WIHH 252200Z 00000KT 3000 -RA SCT017 25/25 Q1007 TEMPO TL2230 4000 -RA=
202603252145 SPECI WIHH 252145Z 21008KT 3000 -RA SCT017 25/25 Q1007=
202603252130 METAR WIHH 252130Z 00000KT 4000 BR FEW017CB SCT018 25/25 Q1007 RMK CB AND RA TO SW=
202603252100 METAR WIHH 252100Z 00000KT 4000 BR SCT018 25/25 Q1007 NOSIG=
202603252030 METAR WIHH 252030Z 00000KT 4000 BR SCT020 25/25 Q1006 NOSIG=
202603252000 METAR WIHH 252000Z 00000KT 5000 HZ SCT020 26/25 Q1007 NOSIG=
202603251930 METAR WIHH 251930Z 00000KT 5000 HZ SCT020 26/25 Q1007 NOSIG=
202603251900 METAR WIHH 251900Z 00000KT 5000 HZ SCT020 26/25 Q1007 NOSIG=
202603251830 METAR WIHH 251830Z 00000KT 5000 HZ SCT020 26/25 Q1008 NOSIG=
202603251800 METAR WIHH 251800Z 00000KT 5000 HZ SCT018 26/25 Q1008 NOSIG=
202603251730 METAR WIHH 251730Z 00000KT 6000 SCT018 26/25 Q1008 NOSIG=
202603251700 METAR WIHH 251700Z 00000KT 6000 SCT018 26/25 Q1008 NOSIG=
202603251630 METAR WIHH 251630Z 14004KT 6000 SCT018 26/25 Q1008 NOSIG=
202603251600 METAR WIHH 251600Z 00000KT 6000 SCT020 26/25 Q1008 NOSIG=
202603251530 METAR WIHH 251530Z 00000KT 6000 SCT018 26/25 Q1008 NOSIG=
202603251500 METAR WIHH 251500Z 00000KT 6000 SCT018 26/25 Q1009 NOSIG=
202603251430 METAR WIHH 251430Z 00000KT 6000 SCT018 25/25 Q1009 NOSIG=
202603251400 METAR WIHH 251400Z 00000KT 8000 SCT018 25/25 Q1008 NOSIG=
202603251330 METAR WIHH 251330Z 00000KT 8000 SCT018 26/25 Q1008 NOSIG=
202603251300 METAR WIHH 251300Z 00000KT 7000 SCT018 26/25 Q1008 RMK RA TO N-NE=
202603251230 METAR WIHH 251230Z 00000KT 7000 SCT018 26/25 Q1008 NOSIG RMK RA TO N=
202603251200 METAR WIHH 251200Z 27003KT 7000 SCT018 25/25 Q1007 NOSIG=
202603251130 METAR WIHH 251130Z 35003KT 7000 SCT018 25/24 Q1007 RMK RA TO NW=
202603251100 METAR WIHH 251100Z 33003KT 6000 SCT018 25/24 Q1007 RMK RA TO W=
202603251030 METAR WIHH 251030Z 27003KT 6000 SCT018 25/24 Q1007 TEMPO FM1130 4000 -RA RMK RA TO W=
202603251000 METAR WIHH 251000Z 34003KT 6000 SCT018 25/24 Q1007 RMK RA TO NW-NE=
202603250930 METAR WIHH 250930Z 01006KT 6000 -TSRA SCT016 FEW017CB 25/24 Q1007 RMK CB TO NE-SE=
202603250900 METAR WIHH 250900Z 04010KT 2500 -TSRA BKN015 FEW017CB 25/25 Q1006 RMK CB TO E-SE=
202603250835 SPECI WIHH 250835Z 25010KT 0500 TSRA BKN014 FEW016CB 26/25 Q1007 RMK CB OTF=
202603250830 METAR WIHH 250830Z 23007KT 2000 -TSRA BKN015 28/25 Q1006 TEMPO TL0900 3000 -TSRA RMK CB OTF=
202603250817 SPECI WIHH 250817Z 22007KT 6000 TS BKN016 FEW017CB 29/25 Q1006 RMK CB AND RA TO S-SW=
202603250800 METAR WIHH 250800Z 36007KT 7000 BKN016 30/25 Q1006 TEMPO TL0830 3000 -RA RMK RA TO S-SW=
202603250730 METAR WIHH 250730Z 31003KT 6000 SCT017 30/27 Q1006 RMK RA TO S-SW=
202603250700 METAR WIHH 250700Z 07005KT 6000 TS SCT016 FEW017CB 29/26 Q1006 RMK CB AND RA TO E AND RA TO SW=
202603250645 SPECI WIHH 250645Z 08005KT 5000 TS SCT016 FEW017CB 29/26 Q1006 RMK CB TO E=
202603250630 METAR WIHH 250630Z 18015KT 2000 -RA BKN015 27/26 Q1007 TEMPO TL0700 3000 -RA=
202603250600 METAR WIHH 250600Z 16006KT 3000 -RA BKN017 28/26 Q1007 TEMPO TL0700 3000 -RA=
202603250530 METAR WIHH 250530Z 27003KT 2500 -RA BKN017 29/25 Q1007 TEMPO TL0600 3 000 -RA=
202603250500 METAR WIHH 250500Z 01008KT 7000 -RA SCT017 30/25 Q1007 NOSIG=
202603250430 METAR WIHH 250430Z 34005KT 7000 SCT018 31/24 Q1008 TEMPO FM0500 5000 -RA RMK RA TO N-NE=
202603250400 METAR WIHH 250400Z 24010KT 7000 SCT018 31/24 Q1008 RMK RA TO N-NE=
202603250330 METAR WIHH 250330Z 23008KT 8000 SCT018 31/24 Q1008 NOSIG=
202603250300 METAR WIHH 250300Z 24004KT 8000 SCT018 31/24 Q1009 RMK RA TO SW=
202603250230 METAR WIHH 250230Z 24010KT 8000 SCT020 29/24 Q1009 NOSIG=
202603250200 METAR WIHH 250200Z 24006KT 7000 FEW020 29/24 Q1009 NOSIG=
202603250130 METAR WIHH 250130Z 19003KT 6000 FEW020 28/24 Q1009 NOSIG=
202603250100 METAR WIHH 250100Z 19003KT 5000 HZ FEW020 27/24 Q1008 NOSIG=
202603250030 METAR WIHH 250030Z 00000KT 5000 HZ FEW020 26/24 Q1008 NOSIG=
202603250000 METAR WIHH 250000Z 00000KT 4000 BR FEW020 25/25 Q1008 NOSIG=
202603242330 METAR COR WIHH 242330Z 00000KT 4000 BR FEW020 24/24 Q1007 NOSIG=
202603242300 METAR WIHH 242300Z 00000KT 4000 BR FEW020 25/24 Q1007 NOSIG=
202603242230 METAR COR WIHH 242230Z 00000KT 4000 BR FEW020 24/24 Q1007 NOSIG=
202603242200 METAR WIHH 242200Z 00000KT 4000 BR FEW020 24/24 Q1007 NOSIG=
202603242130 METAR WIHH 242130Z 00000KT 4000 BR FEW020 24/24 Q1006 NOSIG=
202603242100 METAR WIHH 242100Z 00000KT 7000 SCT020 26/24 Q1008 NOSIG=
202603242030 METAR WIHH 242030Z 00000KT 5000 HZ FEW020 24/24 Q1007 NOSIG=
202603242000 METAR WIHH 242000Z 00000KT 8000 SCT020 25/24 Q1008 NOSIG=
202603241930 METAR WIHH 241930Z 00000KT 8000 FEW020 25/24 Q1008 NOSIG=
202603241900 METAR WIHH 241900Z 00000KT 8000 FEW020 25/24 Q1008 NOSIG=
202603241830 METAR WIHH 241830Z 00000KT 8000 FEW020 25/24 Q1008 NOSIG=
202603241800 METAR WIHH 241800Z 21003KT 8000 FEW020 25/25 Q1009 NOSIG=
202603241730 METAR WIHH 241730Z 22003KT 8000 FEW020 26/25 Q1009 NOSIG=
202603241700 METAR WIHH 241700Z 00000KT 8000 FEW020 26/25 Q1009 NOSIG=
202603241630 METAR WIHH 241630Z 00000KT 8000 SCT018 26/25 Q1009 NOSIG=
202603241600 METAR WIHH 241600Z 00000KT 9999 SCT020 26/25 Q1009 NOSIG=
202603241530 METAR WIHH 241530Z 00000KT 9999 SCT020 26/25 Q1009 NOSIG=
202603241500 METAR WIHH 241500Z 00000KT 9999 SCT020 26/25 Q1009 NOSIG=
202603241430 METAR WIHH 241430Z 00000KT 9999 SCT020 27/25 Q1009 NOSIG=
202603241400 METAR WIHH 241400Z 00000KT 9999 SCT020 27/25 Q1009 NOSIG=
202603241330 METAR WIHH 241330Z 00000KT 9999 SCT020 27/25 Q1008 NOSIG=
202603241300 METAR WIHH 241300Z 00000KT 9999 SCT020 27/24 Q1008 NOSIG=
202603241230 METAR WIHH 241230Z 00000KT 9999 SCT020 28/24 Q1007 NOSIG=
202603241200 METAR WIHH 241200Z 34004KT 9999 SCT018 28/24 Q1007 NOSIG=
202603241130 METAR WIHH 241130Z 32004KT 9999 SCT018 28/24 Q1007 NOSIG=
202603241100 METAR WIHH 241100Z 33005KT 9999 SCT018 29/24 Q1006 NOSIG=
202603241030 METAR WIHH 241030Z 31004KT 8000 SCT018 29/24 Q1006 NOSIG=
202603241000 METAR WIHH 241000Z 33006KT 7000 SCT018 29/24 Q1006 RMK RA TO N-NE=
202603240930 METAR WIHH 240930Z 35005KT 7000 -RA FEW016CB SCT017 29/23 Q1006 RMK CB TO N=
202603240900 METAR WIHH 240900Z 32008KT 7000 -RA BKN016 FEW017CB 30/23 Q1006 RMK CB TO SW-W=
202603240830 METAR WIHH 240830Z 35008KT 8000 SCT017 30/23 Q1005 RMK RA TO SW=
202603240800 METAR WIHH 240800Z 01008KT 8000 SCT017 31/23 Q1006 RMK RA TO SE AND SW=
202603240730 METAR WIHH 240730Z 04006KT 7000 SCT018 31/23 Q1006 RMK RA TO S=
202603240700 METAR WIHH 240700Z 33005KT 7000 SCT018 32/25 Q1006 RMK RA TO W=
202603240630 METAR WIHH 240630Z 02005KT 7000 SCT018 30/25 Q1006 RMK RA TO SW=
202603240600 METAR WIHH 240600Z 33006KT 7000 SCT018 30/25 Q1007 NOSIG=
202603240530 METAR WIHH 240530Z 36006KT 6000 -RA SCT017 28/26 Q1007 NOSIG=
202603240500 METAR WIHH 240500Z 26005KT 7000 SCT018 31/24 Q1007 NOSIG RMK RA TO NW=
202603240430 METAR WIHH 240430Z 26004KT 7000 SCT018 30/24 Q1008 NOSIG=
202603240400 METAR WIHH NIL=
202603240330 METAR WIHH 240330Z 33006KT 6000 -RA SCT017 26/25 Q1009 NOSIG=
202603240305 SPECI WIHH 240305Z 33005KT 6000 -RA BKN017 27/24 Q1009=
202603240300 METAR WIHH 240300Z 34005KT 6000 BKN017 28/24 Q1009 RMK RA TO NW-NE=
202603240230 METAR WIHH 240230Z 23006KT 6000 SCT017 29/24 Q1009 RMK RA TO NW-NE=
202603240200 METAR WIHH 240200Z 23003KT 6000 SCT018 28/24 Q1009 NOSIG=
202603240130 METAR WIHH 240130Z 24004KT 6000 SCT020 27/25 Q1009 NOSIG=
202603240100 METAR WIHH 240100Z 23004KT 5000 HZ SCT020 27/25 Q1009 NOSIG=
202603240030 METAR WIHH 240030Z 25003KT 5000 HZ SCT020 26/25 Q1009 NOSIG=
202603240000 METAR WIHH 240000Z 22003KT 5000 HZ SCT020 26/25 Q1008 NOSIG=
202603232330 METAR WIHH 232330Z 21005KT 5000 HZ SCT018 25/24 Q1008 NOSIG=
202603232300 METAR WIHH 232300Z 00000KT 5000 HZ SCT018 26/25 Q1008 NOSIG=
202603232230 METAR WIHH NIL=
202603232200 METAR WIHH 232200Z 22003KT 6000 SCT018 26/25 Q1008 NOSIG=
202603232130 METAR WIHH 232130Z 21003KT 6000 SCT018 25/24 Q1008 NOSIG=
202603232100 METAR WIHH NIL=
202603232030 METAR WIHH 232030Z 23003KT 6000 SCT020 26/24 Q1007 NOSIG=
202603232000 METAR WIHH 232000Z 22003KT 7000 SCT020 27/24 Q1008 NOSIG=
202603231930 METAR WIHH 231930Z 00000KT 7000 SCT020 27/24 Q1008 NOSIG=
202603231900 METAR WIHH 231900Z 25003KT 7000 SCT018 27/24 Q1008 NOSIG=
202603231830 METAR WIHH 231830Z 24003KT 7000 SCT018 27/24 Q1009 NOSIG=
202603231800 METAR WIHH 231800Z 00000KT 7000 SCT018 27/24 Q1009 NOSIG=
202603231730 METAR WIHH 231730Z 35003KT 7000 SCT018 27/24 Q1009 RMK RA TO NE=
202603231700 METAR WIHH 231700Z 24003KT 7000 SCT018 26/25 Q1009 RMK RA TO NE=
202603231630 METAR WIHH 231630Z 25003KT 7000 SCT018 26/25 Q1009 RMK RA TO N-NE=
202603231600 METAR WIHH 231600Z 21003KT 7000 SCT018 26/25 Q1009 NOSIG=
202603231530 METAR WIHH 231530Z 20004KT 7000 SCT018 26/25 Q1010 NOSIG=
202603231500 METAR WIHH 231500Z 19004KT 7000 SCT018 27/25 Q1009 NOSIG=
202603231430 METAR WIHH 231430Z 17003KT 7000 SCT018 28/25 Q1009 RMK RA TO NW AND SE=
202603231400 METAR WIHH 231400Z 33003KT 7000 FEW017CB SCT018 28/25 Q1009 TEMPO FM1 430 4000 -RA RMK CB AND RA TO SE AND RA TO NW=
202603231330 METAR WIHH 231330Z 31003KT 7000 FEW017CB SCT018 28/25 Q1009 TEMPO FM1 1430 4000 -RA RMK CB AND RA TO SE AND RA TO W=
202603231313 SPECI WIHH 231313Z 32004KT 7000 TS FEW017CB SCT018 28/25 Q1009 RMK CB AND RA TO SE-S=
202603231300 METAR WIHH 231300Z 34004KT 7000 FEW017CB SCT018 28/25 Q1008 TEMPO FM1310 4000 -TSRA RMK CB AND RA TO SE-SW=
202603231230 METAR WIHH 231230Z 32005KT 7000 FEW017CB SCT018 28/25 Q1008 TEMPO FM1 300 3000 -TSRA RMK CB AND RA TO S-SW=
202603231200 METAR WIHH 231200Z 33006KT 7000 FEW017CB SCT018 29/25 Q1008 RMK CB AND RA TO S-SW=
202603231130 METAR WIHH 231130Z 33005KT 7000 FEW017CB SCT018 29/24 Q1008 RMK CB AND RA TO S-SW=
202603231100 METAR WIHH 231100Z 01004KT 7000 SCT018 29/24 Q1007 RMK RA TO SW=
202603231030 METAR WIHH 231030Z 33005KT 7000 SCT018 29/24 Q1007 RMK RA TO SW=
202603231000 METAR WIHH 231000Z 35007KT 8000 SCT018 30/24 Q1006 RMK RA TO NW=
202603230930 METAR WIHH 230930Z 34007KT 8000 SCT018 30/23 Q1006 RMK RA TO NW=
202603230900 METAR WIHH 230900Z 33006KT 7000 SCT018 30/23 Q1006 RMK RA TO W=
202603230830 METAR WIHH 230830Z 03006KT 7000 SCT017 30/23 Q1006 RMK RA TO S-SW=
202603230800 METAR WIHH 230800Z 32007KT 7000 SCT018 31/23 Q1006 RMK RA TO SW=
202603230730 METAR WIHH 230730Z 33006KT 7000 SCT018 32/23 Q1006 NOSIG=
202603230700 METAR WIHH 230700Z 36004KT 7000 SCT018 32/22 Q1006 NOSIG=
202603230630 METAR WIHH 230630Z 36006KT 7000 SCT018 33/22 Q1007 NOSIG=
202603230600 METAR WIHH 230600Z 33007KT 7000 SCT018 33/23 Q1007 NOSIG=
202603230530 METAR WIHH 230530Z 28006KT 7000 SCT018 33/23 Q1007 NOSIG=
202603230500 METAR WIHH 230500Z 30004KT 7000 SCT018 32/23 Q1008 NOSIG=
202603230430 METAR WIHH 230430Z 36006KT 7000 SCT018 33/23 Q1008 NOSIG=
202603230400 METAR WIHH 230400Z 34004KT 7000 SCT020 32/23 Q1009 NOSIG=
202603230330 METAR WIHH 230330Z 32004KT 7000 SCT020 31/23 Q1009 NOSIG=
202603230300 METAR WIHH 230300Z 07005KT 7000 FEW020 30/23 Q1010 NOSIG=
202603230230 METAR WIHH 230230Z 03003KT 7000 FEW020 29/23 Q1010 NOSIG=
202603230200 METAR WIHH 230200Z 04003KT 7000 FEW020 28/24 Q1010 NOSIG=
202603230130 METAR WIHH 230130Z 00000KT 6000 FEW020 28/24 Q1010 NOSIG=
202603230100 METAR WIHH 230100Z 00000KT 5000 HZ FEW020 27/24 Q1010 NOSIG=
202603230030 METAR WIHH 230030Z 00000KT 5000 HZ FEW020 26/25 Q1009 NOSIG=
202603230000 METAR WIHH 230000Z 00000KT 4000 BR FEW020 24/24 Q1009 NOSIG=
202603222330 METAR WIHH 222330Z 00000KT 4000 BR FEW020 24/24 Q1009 NOSIG=
202603222300 METAR WIHH 222300Z 00000KT 4000 BR FEW020 24/24 Q1009 NOSIG=
202603222230 METAR WIHH 222230Z 26005KT 5000 BR FEW020 24/24 Q1009 NOSIG=
202603222200 METAR WIHH 222200Z 26005KT 6000 FEW020 24/24 Q1009 NOSIG=
202603222130 METAR WIHH 222130Z 21005KT 6000 FEW020 29/23 Q1009 NOSIG=
202603222100 METAR WIHH 222100Z 21005KT 6000 FEW020 24/23 Q1009 NOSIG=
202603222030 METAR WIHH 222030Z 00000KT 6000 FEW020 25/24 Q1009 NOSIG=
202603222000 METAR WIHH 222000Z 00000KT 6000 FEW020 25/25 Q1009 NOSIG=
202603221930 METAR WIHH 221930Z 00000KT 6000 FEW020 25/24 Q1009 NOSIG=
202603221900 METAR WIHH 221900Z 00000KT 6000 FEW020 25/24 Q1009 NOSIG=
202603221830 METAR WIHH 221830Z 00000KT 6000 FEW020 25/25 Q1009 NOSIG=
202603221800 METAR WIHH 221800Z 00000KT 6000 FEW020 25/25 Q1009 NOSIG=
202603221730 METAR WIHH 221730Z 00000KT 6000 FEW020 25/25 Q1010 NOSIG=
202603221700 METAR WIHH 221700Z 00000KT 6000 FEW020 25/25 Q1010 NOSIG=
202603221630 METAR WIHH 221630Z 00000KT 6000 FEW020 25/25 Q1010 NOSIG=
202603221600 METAR WIHH 221600Z 00000KT 5000 BR FEW020 25/25 Q1010 NOSIG=
202603221530 METAR WIHH 221530Z 00000KT 6000 FEW020 25/25 Q1010 NOSIG=
202603221500 METAR WIHH 221500Z 00000KT 8000 FEW020 25/25 Q1010 NOSIG=
202603221430 METAR WIHH 221430Z 00000KT 8000 FEW020 25/25 Q1010 NOSIG=
202603221400 METAR WIHH 221400Z 00000KT 7000 SCT020 25/24 Q1010 NOSIG=
202603221330 METAR WIHH 221330Z 00000KT 7000 SCT020 25/25 Q1010 NOSIG=
202603221300 METAR WIHH 221300Z 15004KT 6000 TS SCT016 FEW017CB 25/25 Q1009 RMK CB AND RA TO NE=
202603221230 METAR WIHH 221230Z 36006KT 6000 TS SCT016 25/24 Q1009 RMK CB AND RA TO NE=
202603221200 METAR WIHH 221200Z 34005KT 5000 -TSRA SCT016 FEW017CB 25/25 Q1009 RMK CB TO N AND W=
202603221130 METAR WIHH 221130Z 15005KT 5000 -TSRA SCT016 FEW017CB 25/24 Q1008 RMK CB TO N AND W=
202603221100 METAR WIHH 221100Z 15010KT 3000 -TSRA BKN016 FEW017CB 24/24 Q1009 RMK CB TO NE=
202603221030 METAR WIHH 221030Z 21015KT 0800 TSRA BKN014 FEW016CB 28/23 Q1008 TEMPO TL1100 4000 -TSRA RMK CB OVER THE FIELD=
202603221000 METAR WIHH 221000Z 05010KT 2000 TS SCT016 FEW017CB 30/23 Q1007 RMK CB AND RA TO S=
202603220930 METAR WIHH 220930Z 03006KT 7000 FEW017CB SCT018 32/23 Q1007 RMK CB AND RA TO SE=
202603220900 METAR WIHH 220900Z 34006KT 7000 FEW017CB SCT018 32/23 Q1007 RMK CB AN D RA TO SE=
202603220830 METAR WIHH 220830Z 03006KT 7000 SCT018 32/22 Q1007 RMK RA TO S=
202603220800 METAR WIHH 220800Z 34006KT 7000 SCT018 33/22 Q1007 RMK RA TO SW=
202603220730 METAR WIHH 220730Z 03005KT 7000 SCT018 32/23 Q1007 NOSIG=
202603220700 METAR WIHH 220700Z 36006KT 7000 SCT018 32/24 Q1008 RMK RA TO W=
202603220630 METAR COR WIHH 220630Z 34006KT 7000 SCT016 FEW017CB 32/23 Q1008 NOSIG RMK CB AND RA TO E AND W=
202603220600 METAR WIHH 220600Z 03007KT 7000 SCT016 FEW017CB 32/23 Q1009 NOSIG RMK CB AND RA TO NE=
202603220530 METAR WIHH 220530Z 26006KT 6000 SCT016 FEW017CB 31/23 Q1009 NOSIG RMK CB AND RA TO N=
202603220500 METAR WIHH 220500Z 05007KT 8000 SCT016 32/23 Q1010 NOSIG=
202603220430 METAR WIHH 220430Z 02006KT 8000 SCT016 31/22 Q1010 NOSIG=
202603220400 METAR WIHH 220400Z 12006KT 8000 SCT016 32/23 Q1011 NOSIG=
202603220330 METAR WIHH 220330Z 09007KT 7000 SCT017 31/24 Q1011 NOSIG=
202603220300 METAR WIHH 220300Z 09008KT 6000 SCT017 30/24 Q1011 NOSIG=
202603220230 METAR WIHH 220230Z 08006KT 6000 SCT017 29/23 Q1011 NOSIG=
202603220200 METAR WIHH 220200Z 14005KT 5000 HZ SCT016 27/25 Q1011 NOSIG=
202603220130 METAR WIHH 220130Z 14005KT 5000 HZ SCT016 27/25 Q1011 NOSIG=
202603220100 METAR WIHH 220100Z 15004KT 4000 BR SCT060 26/25 Q1011 NOSIG=
202603220030 METAR WIHH 220030Z 15004KT 4000 BR SCT017 25/25 Q1011 NOSIG=
202603220000 METAR WIHH 220000Z 16004KT 4000 BR SCT017 25/25 Q1010 NOSIG=
202603212330 METAR WIHH 212330Z 16003KT 6000 SCT017 24/24 Q1010 NOSIG=
202603212300 METAR WIHH 212300Z 00000KT 6000 SCT017 24/24 Q1010 NOSIG=
202603212230 METAR WIHH 212230Z 08003KT 6000 FEW020 24/24 Q1010 NOSIG=
202603212200 METAR WIHH 212200Z 00000KT 6000 FEW020 24/24 Q1010 NOSIG=
202603212130 METAR WIHH 212130Z 00000KT 6000 FEW020 24/24 Q1009 NOSIG=
202603212100 METAR WIHH 212100Z 00000KT 4000 BR FEW020 24/24 Q1009 NOSIG=
202603212030 METAR WIHH 212030Z 00000KT 4000 BR SCT020 24/24 Q1009 NOSIG=
202603212000 METAR WIHH 212000Z 00000KT 6000 FEW020 24/24 Q1009 NOSIG=
202603211930 METAR WIHH 211930Z 00000KT 4000 BR SCT020 25/25 Q1010 NOSIG=
202603211900 METAR WIHH 211900Z 00000KT 5000 BR SCT020 25/25 Q1010 NOSIG=
202603211830 METAR WIHH 211830Z 00000KT 7000 FEW020 24/24 Q1009 NOSIG=
202603211800 METAR WIHH 211800Z 00000KT 4000 BR SCT020 24/24 Q1009 NOSIG=
202603211730 METAR WIHH 211730Z 00000KT 7000 SCT020 25/25 Q1010 NOSIG=
202603211700 METAR WIHH 211700Z 00000KT 7000 SCT020 25/25 Q1010 NOSIG=
202603211630 METAR WIHH 211630Z 00000KT 7000 SCT020 25/25 Q1010 NOSIG=
202603211600 METAR WIHH 211600Z 00000KT 7000 SCT020 25/25 Q1010 NOSIG=
202603211530 METAR WIHH 211530Z 26004KT 7000 SCT020 25/25 Q1011 NOSIG=
202603211500 METAR WIHH 211500Z 24004KT 7000 SCT017 25/25 Q1010 NOSIG=
202603211430 METAR WIHH 211430Z 24005KT 7000 SCT017 25/25 Q1010 RMK RA TO E=
202603211400 METAR WIHH 211400Z 06006KT 6000 -RA BKN017 25/25 Q1011 NOSIG=
202603211330 METAR WIHH 211330Z 19003KT 6000 -RA BKN015 25/25 Q1011 NOSIG=
202603211300 METAR WIHH 211300Z 21005KT 6000 -RA BKN015 25/25 Q1010 NOSIG=
202603211230 METAR WIHH 211230Z 23006KT 4000 -RA BKN015 25/25 Q1010 BECMG AT1330 6 000 NSW=
202603211200 METAR WIHH 211200Z 21004KT 3000 -RA BKN015 FEW017CB 25/25 Q1009 TEMPO TL1300 4000 -RA RMK CB TO S-SW=
202603211130 METAR WIHH 211130Z 20005KT 3000 -RA BKN015 FEW017CB 24/24 Q1009 TEMPO TL1200 4000 -RA RMK CB TO SW=
202603211100 METAR WIHH 211100Z 21006KT 3000 -TSRA BKN015 FEW017CB 25/24 Q1009 TEMPO TL1200 4000 -RA RMK CB TO SW=
202603211030 METAR WIHH 211030Z 21015KT 1500 TSRA BKN015 FEW017CB 26/24 Q1008 TEMPO TL1100 2000 TSRA RMK CB OVER THE FIELD=
202603211000 METAR WIHH 211000Z 33005KT 2000 -RA BKN015 FEW017CB 29/23 Q1007 TEMPO TL1010 18015G25KT 1000 TSRA RMK CB OVER THE FIELD=
202603210930 METAR WIHH 210930Z 35010KT 5000 -TSRA BKN015 FEW017CB 30/23 Q1007 TEM PO TL1000 18015G25KT 1500 TSRA RMK CB TO S-SW=
202603210900 METAR WIHH 210900Z 33015KT 5000 -TSRA BKN015 FEW017CB 30/23 Q1006 TEMPO TL0930 18015G25KT 1500 TSRA RMK CB TO S-SW=
202603210830 METAR WIHH 210830Z 03015KT 5000 -RA BKN015 30/24 Q1006 TEMPO TL0900 3 000 -TSRA RMK CB TO S-SW=
202603210800 METAR WIHH 210800Z 35010KT 5000 -RA BKN015 FEW017CB 30/24 Q1007 TEMPO TL0900 3000 -TSRA RMK CB TO E=
202603210730 METAR WIHH 210730Z 34007KT 6000 -RA BKN016 FEW017CB 31/24 Q1007 TEMPO FM0800 3000 -TSRA RMK CB TO NE-E=
202603210700 METAR WIHH 210700Z 03005KT 6000 -RA BKN016 FEW017CB 31/24 Q1008 TEMPO FM0740 3000 -TSRA RMK CB TO SE AND NW=
202603210630 METAR WIHH 210630Z 03007KT 6000 BKN016 FEW017CB 32/24 Q1008 TEMPO FM0710 3000 -TSRA RMK CB AND RA TO SW=
202603210600 METAR WIHH 210600Z 33007KT 6000 -RA BKN016 FEW017CB 32/24 Q1008 TEMPO TL0640 3000 -TSRA RMK CB TO NE=
202603210535 SPECI WIHH 210535Z 34005KT 6000 -RA BKN016 FEW017CB 31/24 Q1009 RMK CB TO NE=
202603210530 METAR WIHH 210530Z 33004KT 6000 BKN016 FEW017CB 33/24 Q1009 RMK CB AN D RA TO NE=
202603210500 METAR WIHH 210500Z 34007KT 6000 SCT017 33/24 Q1009 NOSIG=
202603210430 METAR WIHH 210430Z 30004KT 6000 SCT017 32/23 Q1010 NOSIG=
202603210400 METAR WIHH 210400Z 00000KT 6000 SCT017 31/23 Q1010 NOSIG=
202603210330 METAR WIHH 210330Z 25003KT 6000 SCT017 31/24 Q1010 NOSIG=
202603210300 METAR WIHH 210300Z 09003KT 6000 SCT017 30/24 Q1011 NOSIG=
202603210230 METAR WIHH 210230Z 03004KT 6000 SCT018 30/24 Q1011 NOSIG=
202603210200 METAR WIHH 210200Z 00000KT 6000 SCT018 29/24 Q1012 NOSIG=
202603210130 METAR WIHH 210130Z 00000KT 5000 HZ SCT018 29/24 Q1012 NOSIG=
202603210100 METAR WIHH 210100Z 00000KT 5000 HZ SCT018 27/25 Q1011 NOSIG=
202603210030 METAR WIHH 210030Z 00000KT 5000 HZ SCT018 27/25 Q1011 NOSIG=
202603210000 METAR WIHH 210000Z 00000KT 4000 BR SCT018 25/25 Q1011 NOSIG=
202603202330 METAR COR WIHH 202330Z 00000KT 4000 BR SCT018 25/25 Q1011 NOSIG=
202603202300 METAR WIHH 202300Z 00000KT 4000 BR SCT018 25/25 Q1010 NOSIG=
202603202230 METAR WIHH 202230Z 00000KT 4000 BR SCT018 25/25 Q1011=
202603202200 METAR WIHH 202200Z 00000KT 6000 SCT018 25/24 Q1010 NOSIG=
202603202130 METAR WIHH 202130Z 00000KT 6000 SCT018 25/24 Q1010 NOSIG=
202603202100 METAR WIHH 202100Z 00000KT 7000 SCT018 25/25 Q1009 NOSIG=
202603202030 METAR WIHH 202030Z 00000KT 7000 SCT018 25/25 Q1009 NOSIG=
202603202000 METAR WIHH 202000Z 00000KT 7000 SCT018 25/24 Q1010 NOSIG=
202603201930 METAR WIHH 201930Z 00000KT 6000 SCT018 25/24 Q1010 NOSIG=
202603201900 METAR WIHH 201900Z 12003KT 6000 SCT018 25/24 Q1011 NOSIG=
202603201830 METAR WIHH 201830Z 00000KT 7000 SCT018 26/24 Q1011 NOSIG=
202603201800 METAR WIHH 201800Z 00000KT 7000 SCT017 26/24 Q1011 NOSIG=
202603201730 METAR WIHH 201730Z 09003KT 7000 SCT017 26/24 Q1011 NOSIG=
202603201700 METAR WIHH 201700Z 09005KT 7000 SCT017 26/24 Q1011 NOSIG=
202603201630 METAR WIHH 201630Z 00000KT 7000 SCT017 25/24 Q1011 NOSIG=
202603201600 METAR WIHH 201600Z 00000KT 7000 SCT017 25/24 Q1011 NOSIG=
202603201530 METAR WIHH 201530Z 12005KT 6000 SCT017 25/24 Q1011 NOSIG=
202603201500 METAR WIHH 201500Z 12005KT 6000 SCT017 25/24 Q1011 NOSIG=
202603201430 METAR WIHH 201430Z 09004KT 6000 SCT017 25/24 Q1011 NOSIG=
202603201400 METAR WIHH 201400Z 18004KT 6000 TS BKN015 FEW016CB 25/24 Q1011 RMK CB AND RA TO N AND SE=
202603201330 METAR WIHH 201330Z 18004KT 6000 TS BKN015 FEW016CB 25/24 Q1011 RMK CB AND RA TO N AND SE=
202603201300 METAR WIHH 201300Z 22004KT 5000 -TSRA BKN015 FEW016CB 25/24 Q1011 RMK CB TO NW=
202603201230 METAR WIHH 201230Z 35005KT 4000 -TSRA BKN015 FEW016CB 24/23 Q1010 RMK CB OVER THE FIELD=
202603201200 METAR WIHH 201200Z 12002KT 4000 -TSRA SCT015 FEW016CB 25/23 Q1010 RMK CB OTF=
202603201130 METAR WIHH 201130Z 17010KT 4000 -TSRA BKN015 FEW016CB 27/23 Q1009 NOSIG RMK CT TO SAND NW=
202603201100 METAR WIHH 201100Z 33003KT 5000 TS BKN017 FEW018CB 30/24 Q1008 RMK CB AND RA TO SW-W=
202603201030 METAR WIHH 201030Z 35005KT 6000 BKN017 FEW018CB 30/24 Q1007 TEMPO FM1100 4000 -TSRA BKN015 RMK CB AND RA TO S-SW=
202603201000 METAR WIHH 201000Z 34006KT 7000 SCT017 FEW018CB 31/23 Q1006 NOSIG RMK CB AND RA TO S-SW=
202603200930 METAR WIHH 200930Z 35006KT 7000 FEW018 33/22 Q1006 NOSIG=
202603200900 METAR WIHH 200900Z 02008KT 7000 FEW018 33/22 Q1006 NOSIG=
202603200830 METAR WIHH 200830Z 34008KT 7000 FEW018 33/23 Q1006 NOSIG=
202603200800 METAR WIHH 200800Z 03006KT 7000 SCT018 34/23 Q1006 NOSIG=
202603200730 METAR WIHH 200730Z 36008KT 7000 SCT018 34/23 Q1006 NOSIG=
202603200700 METAR WIHH 200700Z 34009KT 7000 SCT018 34/23 Q1007 NOSIG=
202603200630 METAR WIHH 200630Z 34008KT 7000 SCT018 35/22 Q1007 NOSIG=
202603200600 METAR WIHH 200600Z 32006KT 7000 FEW020 35/23 Q1007 NOSIG=
202603200530 METAR WIHH 200530Z 17005KT 7000 FEW020 34/22 Q1008 NOSIG=
202603200500 METAR WIHH 200500Z 12006KT 7000 FEW020 34/22 Q1009 NOSIG=
202603200400 METAR WIHH 200400Z 16005KT 7000 FEW020 33/22 Q1010 NOSIG=
202603200330 METAR WIHH 200330Z 15003KT 7000 FEW020 32/22 Q1010 NOSIG=
202603200300 METAR WIHH 200300Z 00000KT 7000 FEW020 32/23 Q1011 NOSIG=
202603200230 METAR WIHH 200230Z 00000KT 7000 FEW020 31/22 Q1011 NOSIG=
202603200200 METAR WIHH 200200Z 00000KT 7000 FEW020 31/22 Q1011 NOSIG=
202603200130 METAR WIHH 200130Z 00000KT 7000 FEW020 30/22 Q1011 NOSIG=
202603200100 METAR WIHH 200100Z 00000KT 6000 FEW020 29/24 Q1011 NOSIG=
202603200030 METAR WIHH 200030Z 21004KT 6000 FEW020 27/24 Q1011 NOSIG=
202603200000 METAR WIHH 200000Z 00000KT 6000 FEW020 25/25 Q1010 NOSIG=
202603192330 METAR WIHH 192330Z 18005KT 5000 HZ SCT020 24/24 Q1010 NOSIG=
202603192300 METAR WIHH NIL=
202603192230 METAR WIHH 192230Z 00000KT 4000 BR SCT020 24/24 Q1009 NOSIG=
202603192200 METAR WIHH 192200Z 00000KT 4000 BR SCT020 24/24 Q1009 NOSIG=
202603192130 METAR WIHH 192130Z 00000KT 5000 HZ SCT020 25/25 Q1009 NOSIG=
202603192100 METAR WIHH 192100Z 00000KT 5000 HZ SCT020 25/25 Q1009 NOSIG=
202603192030 METAR WIHH 192030Z 00000KT 6000 SCT020 25/24 Q1010 NOSIG=
202603192000 METAR WIHH 192000Z 00000KT 6000 SCT020 25/24 Q1010 NOSIG=
202603191930 METAR WIHH 191930Z 00000KT 6000 SCT020 25/24 Q1010 NOSIG=
202603191900 METAR WIHH 191900Z 00000KT 6000 SCT020 25/24 Q1011 NOSIG=
202603191830 METAR WIHH 191830Z 00000KT 7000 SCT017 25/24 Q1011 NOSIG=
202603191800 METAR WIHH 191800Z 00000KT 6000 FEW017 27/24 Q1011 NOSIG=
202603191730 METAR WIHH 191730Z 00000KT 7000 SCT017 26/24 Q1008 NOSIG=
202603191700 METAR WIHH 191700Z 00000KT 7000 25/24 Q1011 RMK RA TO NE=
202603191630 METAR WIHH 191630Z 00000KT 7000 SCT017 25/24 Q1011 RMK RA TO N=
202603191600 METAR WIHH 191600Z 00000KT 7000 SCT017 25/25 Q1011 RMK RA TO N=
202603191530 METAR WIHH 191530Z 16004KT 7000 SCT017 25/24 Q1011 RMK RA TO N=
202603191500 METAR WIHH 191500Z 00000KT 7000 -RA SCT017 25/24 Q1011 NOSIG=
202603191430 METAR WIHH 191430Z 16004KT 7000 -RA SCT017 25/23 Q1011 NOSIG=
202603191412 SPECI WIHH 191412Z 15005KT 7000 -RA SCT017 25/24 Q1011=
202603191400 METAR WIHH 191400Z 15005KT 7000 SCT017 25/24 Q1011 NOSIG=
202603191330 METAR WIHH 191330Z 12005KT 6000 -RA SCT017 25/25 Q1011 NOSIG=
202603191300 METAR WIHH 191300Z 06005KT 5000 -TSRA BKN015 FEW017CB 25/25 Q1011 RMK CB TO NE=
202603191230 METAR WIHH 191230Z 09008KT 4000 -TSRA SCT015 FEW017CB 26/24 Q1010 TEMPO TL1330 3000 TSRA RMK CB TO S=
202603191200 METAR WIHH 191200Z 14010KT 4000 -TSRA BKN015 FEW017CB 26/25 Q1010 TEMPO TL1230 3000 TSRA RMK CB TO TO S=
202603191130 METAR WIHH 191130Z 18013KT 2000 -TSRA BKN015 FEW017CB 27/24 Q1009 TEMPO TL1135 18012G22KT 2000 TSRA RMK CB TO S=
202603191115 SPECI WIHH 191115Z 17012KT 2000 -TSRA BKN015 FEW017CB 29/23 Q1008 RMK CB TO S=
202603191100 METAR WIHH 191100Z 33006KT 5000 TS BKN015 FEW017CB 31/22 Q1008 TEMPO FM1115 18012KT 2000 TSRA RMK CB AND RA TO S=
202603191030 METAR WIHH 191030Z 35005KT 6000 TS SCT016 FEW017CB 32/22 Q1007 TEMPO FM1100 3000 -TSRA BKN015 RMK CB AND RA TO S=
202603191000 METAR WIHH 191000Z 33007KT 6000 SCT016 32/22 Q1007 RMK RA TO SE=
202603190930 METAR WIHH 190930Z 33005KT 6000 SCT017 32/22 Q1006 RMK RA TO SE=
202603190900 METAR WIHH 190900Z 01008KT 6000 SCT017 32/23 Q1006 RMK RA TO SE=
202603190830 METAR WIHH 190830Z 01010KT 6000 SCT017 33/23 Q1006 RMK RA TO S=
202603190800 METAR WIHH NIL=
202603190730 METAR WIHH 190730Z 36007KT 6000 TS SCT016 FEW017CB 33/22 Q1007 TEMPO FM0815 12012KT 3000 -TSRA BKN015 RMK CB AND RA TO S=
202603190700 METAR WIHH 190700Z 03008KT 6000 SCT018 33/21 Q1008 NOSIG=
202603190630 METAR WIHH 190630Z 35007KT 6000 SCT018 33/24 Q1008 NOSIG=
202603190600 METAR WIHH 190600Z 32005KT 6000 SCT018 33/23 Q1009 NOSIG=
202603190530 METAR WIHH 190530Z 36005KT 7000 SCT018 33/24 Q1009 NOSIG=
202603190500 METAR WIHH 190500Z 33005KT 7000 SCT020 34/25 Q1009 NOSIG=
202603190430 METAR WIHH 190430Z 02006KT 7000 SCT020 34/24 Q1010 NOSIG=
202603190400 METAR WIHH 190400Z 20004KT 7000 SCT020 34/22 Q1010 NOSIG=
202603190330 METAR WIHH 190330Z 18004KT 7000 FEW020 33/22 Q1010 NOSIG=
202603190300 METAR WIHH 190300Z 00000KT 7000 FEW020 33/22 Q1011 NOSIG=
202603190230 METAR WIHH 190230Z 04005KT 7000 FEW020 31/22 Q1011 NOSIG=
202603190200 METAR WIHH 190200Z 11004KT 7000 FEW020 30/22 Q1011 NOSIG=
202603190130 METAR WIHH 190130Z 00000KT 5000 HZ FEW020 29/24 Q1011 NOSIG=
202603190100 METAR WIHH 190100Z 00000KT 6000 FEW020 28/23 Q1011 NOSIG=
202603190030 METAR WIHH 190030Z 15004KT 6000 FEW020 26/24 Q1011 NOSIG=
202603190000 METAR WIHH 190000Z 00000KT 6000 FEW020 24/23 Q1010 NOSIG=
202603182330 METAR WIHH 182330Z 00000KT 6000 FEW020 24/23 Q1010 NOSIG=
202603182300 METAR WIHH 182300Z 00000KT 6000 FEW020 24/23 Q1010 NOSIG=
202603182230 METAR WIHH 182230Z 00000KT 6000 FEW020 24/23 Q1010 NOSIG=
202603182200 METAR WIHH 182200Z 00000KT 6000 FEW020 25/24 Q1009 NOSIG=
202603182130 METAR WIHH 182130Z 00000KT 6000 FEW020 25/24 Q1010 NOSIG=
202603182100 METAR WIHH 182100Z 00000KT 6000 FEW020 25/24 Q1010 NOSIG=
202603182030 METAR WIHH 182030Z 00000KT 6000 FEW020 25/24 Q1010=
202603182000 METAR WIHH 182000Z 00000KT 7000 FEW020 25/24 Q1010 NOSIG=
202603181930 METAR WIHH 181930Z 00000KT 7000 FEW020 25/24 Q1010 NOSIG=
202603181900 METAR WIHH 181900Z 00000KT 7000 FEW020 25/24 Q1010 NOSIG=
202603181830 METAR WIHH 181830Z 21003KT 6000 FEW020 26/24 Q1011 NOSIG=
202603181800 METAR WIHH 181800Z 00000KT 6000 FEW020 26/24 Q1011 NOSIG=
202603181730 METAR WIHH 181730Z 00000KT 6000 FEW020 26/24 Q1011 NOSIG=
202603181700 METAR WIHH 181700Z 00000KT 7000 FEW020 26/24 Q1011 NOSIG=
202603181630 METAR WIHH 181630Z 00000KT 7000 FEW020 26/24 Q1011 NOSIG=
202603181600 METAR WIHH 181600Z 00000KT 7000 FEW020 26/24 Q1011 NOSIG=
202603181530 METAR WIHH 181530Z 00000KT 7000 FEW020 26/23 Q1012 NOSIG=
202603181500 METAR WIHH 181500Z 00000KT 7000 FEW020 25/23 Q1012 NOSIG=
202603181430 METAR WIHH 181430Z 00000KT 7000 FEW020 25/23 Q1011 NOSIG=
202603181400 METAR WIHH 181400Z 00000KT 7000 FEW018 25/23 Q1011 NOSIG=
202603181330 METAR WIHH 181330Z 09003KT 7000 FEW018 25/24 Q1011 NOSIG=
202603181300 METAR WIHH 181300Z 17003KT 6000 SCT018 25/24 Q1010 NOSIG=
202603181230 METAR WIHH 181230Z 30005KT 6000 BKN018 27/22 Q1010 RMK RA TO S=
202603181200 METAR WIHH 181200Z 18011KT 4000 -TS FEW017CB BKN018 27/22 Q1010 RMK C B TO S-SW=
202603181145 SPECI WIHH 181145Z 18011KT 4000 -TSRA FEW017CB BKN018 29/23 Q1010 RMK CB TO S-SW=
202603181130 METAR WIHH 181130Z 17010KT 5000 TS FEW017CB SCT018 29/23 Q1010 RMK CB AND RA TO S=
202603181100 METAR WIHH 181100Z 34008KT 7000 TS FEW017CB SCT018 31/23 Q1008 RMK CB AND RA TO S=
202603181030 METAR WIHH 181030Z 34005KT 7000 SCT018 31/24 Q1008 NOSIG=
202603181000 METAR WIHH 181000Z 34006KT 7000 SCT018 31/24 Q1008 NOSIG=
202603180930 METAR WIHH 180930Z 34012KT 7000 SCT018 32/24 Q1007 NOSIG=
202603180900 METAR WIHH 180900Z 34006KT 7000 SCT018 32/24 Q1007 NOSIG=
202603180830 METAR WIHH 180830Z 32010KT 7000 SCT018 33/22 Q1007 NOSIG=
202603180800 METAR WIHH 180800Z 33005KT 7000 SCT018 34/22 Q1007 NOSIG=
202603180730 METAR WIHH 180730Z 34006KT 7000 SCT018 34/21 Q1007 NOSIG=
202603180700 METAR WIHH 180700Z 27004KT 6000 SCT018 34/21 Q1008 NOSIG=
202603180630 METAR WIHH NIL=
202603180600 METAR WIHH 180600Z 31005KT 6000 SCT017 33/24 Q1010 NOSIG=
202603180530 METAR WIHH 180530Z 30006KT 6000 SCT017 34/24 Q1010 NOSIG=
202603180500 METAR WIHH 180500Z 21007KT 6000 SCT017 34/24 Q1010 NOSIG=
202603180430 METAR WIHH 180430Z 34006KT 6000 SCT018 34/22 Q1011 NOSIG=
202603180400 METAR WIHH 180400Z 03005KT 6000 SCT018 34/22 Q1011 NOSIG=
202603180330 METAR WIHH 180330Z 00000KT 6000 FEW020 33/22 Q1012 NOSIG=
202603180300 METAR WIHH 180300Z 00000KT 6000 NSC 31/24 Q1012 NOSIG=
202603180230 METAR WIHH 180230Z 00000KT 6000 NSC 31/24 Q1012 NOSIG=
202603180200 METAR WIHH 180200Z 00000KT 6000 NSC 30/24 Q1012 NOSIG=
202603180130 METAR WIHH 180130Z 04003KT 6000 NCD 28/24 Q1012 NOSIG=
202603180100 METAR WIHH 180100Z 34003KT 6000 NSC 27/24 Q1012 NOSIG=
202603180030 METAR WIHH 180030Z 00000KT 6000 SCT018 27/23 Q1011 NOSIG=
202603180000 METAR WIHH 180000Z 00000KT 6000 SCT018 26/23 Q1011 NOSIG=
202603172330 METAR WIHH 172330Z 22002KT 5000 HZ SCT018 26/23 Q1011 NOSIG=
202603172300 METAR WIHH 172300Z 22004KT 4000 HZ SCT018 25/24 Q1011 NOSIG=
202603172230 METAR WIHH 172230Z 18003KT 6000 SCT018 26/23 Q1010 NOSIG=
202603172200 METAR WIHH 172200Z 21002KT 5000 HZ SCT018 25/24 Q1010 NOSIG=
202603172130 METAR WIHH 172130Z 00000KT 6000 SCT018 25/24 Q1010 NOSIG=
202603172100 METAR WIHH 172100Z 00000KT 6000 SCT020 25/24 Q1010 NOSIG=
202603172030 METAR WIHH 172030Z 00000KT 6000 SCT020 26/24 Q1010 NOSIG=
202603172000 METAR WIHH 172000Z 00000KT 6000 SCT020 26/24 Q1010 NOSIG=
202603171930 METAR WIHH 171930Z 00000KT 6000 SCT020 26/24 Q1011 NOSIG=
202603171900 METAR WIHH 171900Z 00000KT 6000 FEW020 27/25 Q1011 NOSIG=
202603171830 METAR WIHH 171830Z 00000KT 6000 SCT020 26/24 Q1011 NOSIG=
202603171800 METAR WIHH 171800Z 00000KT 8000 NSC 26/25 Q1011 NOSIG=
202603171730 METAR WIHH 171730Z 21002KT 8000 NSC 27/25 Q1011 NOSIG=
202603171700 METAR WIHH 171700Z 00000KT 8000 NSC 28/24 Q1012 NOSIG=
202603171630 METAR WIHH 171630Z 00000KT 8000 NSC 28/24 Q1012 NOSIG=
202603171600 METAR WIHH 171600Z 00000KT 8000 NSC 27/24 Q1012 NOSIG=
202603171530 METAR WIHH 171530Z 00000KT 8000 NSC 27/23 Q1012 NOSIG=
202603171500 METAR WIHH 171500Z 00000KT 8000 NSC 27/24 Q1012 NOSIG=
202603171430 METAR WIHH 171430Z 00000KT 8000 FEW020 27/24 Q1012 NOSIG=
202603171400 METAR WIHH 171400Z 16003KT 8000 FEW020 28/25 Q1011 NOSIG=
202603171330 METAR WIHH 171330Z 35005KT 8000 FEW020 28/24 Q1011 NOSIG=
202603171300 METAR WIHH 171300Z 06005KT 8000 FEW020 29/23 Q1010 NOSIG=
202603171230 METAR WIHH 171230Z 01005KT 8000 FEW020 29/23 Q1010 NOSIG=
202603171200 METAR WIHH 171200Z 01005KT 8000 FEW020 29/22 Q1009 NOSIG=
202603171130 METAR WIHH 171130Z 34006KT 8000 SCT020 29/22 Q1008 NOSIG=
202603171100 METAR WIHH 171100Z 34006KT 8000 SCT020 30/22 Q1007 NOSIG=
202603171030 METAR WIHH 171030Z 32006KT 8000 SCT020 31/23 Q1007 NOSIG=
202603171000 METAR WIHH 171000Z 32006KT 8000 SCT020 31/22 Q1007 NOSIG=
202603170930 METAR WIHH 170930Z 33006KT 8000 SCT020 33/22 Q1007 NOSIG=
202603170900 METAR WIHH 170900Z 33006KT 8000 SCT020 33/22 Q1007 NOSIG=
202603170830 METAR WIHH 170830Z 33007KT 8000 SCT020 33/21 Q1007 NOSIG=
202603170800 METAR WIHH 170800Z 33007KT 8000 SCT020 33/22 Q1007 NOSIG=
202603170730 METAR WIHH 170730Z 33007KT 8000 SCT020 31/21 Q1008 NOSIG=
202603170700 METAR WIHH 170700Z 33008KT 8000 SCT020 33/18 Q1008 NOSIG=
202603170630 METAR WIHH 170630Z 33008KT 8000 SCT020 33/19 Q1008 NOSIG=
202603170600 METAR WIHH 170600Z 33008KT 8000 SCT020 33/19 Q1009 NOSIG=
202603170530 METAR WIHH 170530Z 35006KT 9999 SCT020 33/22 Q1009 NOSIG=
202603170500 METAR WIHH 170500Z 27006KT 9999 SCT020 34/21 Q1010 NOSIG=
202603170430 METAR WIHH 170430Z 28008KT 9999 FEW020 34/20 Q1010 NOSIG=
202603170400 METAR WIHH 170400Z 30009KT 9999 NSC 33/21 Q1011 NOSIG=
202603170330 METAR WIHH 170330Z 17009KT 9999 NSC 32/20 Q1011 NOSIG=
202603170300 METAR WIHH 170300Z 23008KT 9999 NSC 31/21 Q1012 NOSIG=
202603170230 METAR WIHH 170230Z 24007KT 9999 NSC 31/20 Q1012 NOSIG=
202603170200 METAR WIHH 170200Z 24003KT 8000 NSC 32/20 Q1012 NOSIG=
202603170130 METAR WIHH 170130Z 24004KT 8000 FEW020 30/22 Q1012 NOSIG=
202603170100 METAR WIHH 170100Z 22004KT 8000 FEW020 28/23 Q1011 NOSIG=
202603170030 METAR WIHH 170030Z 24004KT 8000 FEW020 27/23 Q1010 NOSIG=
202603170000 METAR WIHH 170000Z 22005KT 8000 FEW020 26/26 Q1010 NOSIG=
202603162330 METAR WIHH 162330Z 24003KT 7000 FEW020 25/22 Q1010 NOSIG=
202603162300 METAR WIHH 162300Z 00000KT 7000 SCT020 26/23 Q1010 NOSIG=
202603162230 METAR COR WIHH 162230Z 29003KT 8000 SCT020 26/23 Q1009 NOSIG=
202603162200 METAR WIHH 162200Z 27002KT 7000 SCT020 26/23 Q1010 NOSIG=
202603162130 METAR WIHH 162130Z 00000KT 7000 SCT020 26/24 Q1010 NOSIG=
202603162100 METAR WIHH 162100Z 25003KT 7000 SCT020 26/24 Q1010 NOSIG=
202603162030 METAR WIHH 162030Z 23003KT 7000 SCT020 26/24 Q1010 NOSIG=
202603162000 METAR WIHH 162000Z 00000KT 7000 SCT020 26/24 Q1010 NOSIG=
202603161930 METAR WIHH 161930Z 00000KT 8000 SCT020 26/24 Q1010 NOSIG=
202603161900 METAR WIHH 161900Z 00000KT 8000 SCT020 26/24 Q1011 NOSIG=
202603161830 METAR WIHH 161830Z 00000KT 8000 SCT020 26/25 Q1011 NOSIG=
202603161800 METAR WIHH 161800Z 00000KT 8000 SCT020 26/25 Q1011 NOSIG=
202603161730 METAR WIHH 161730Z 00000KT 8000 SCT020 27/25 Q1011 NOSIG=
202603161700 METAR WIHH 161700Z 00000KT 8000 FEW020 27/25 Q1011 NOSIG=
202603161630 METAR WIHH 161630Z 00000KT 8000 FEW020 28/25 Q1011 NOSIG=
202603161600 METAR WIHH 161600Z 32003KT 8000 FEW020 29/25 Q1011 NOSIG=
202603161530 METAR WIHH 161530Z 00000KT 8000 SCT020 28/24 Q1012 NOSIG=
202603161500 METAR WIHH 161500Z 32003KT 8000 SCT080 28/24 Q1011 NOSIG=
202603161430 METAR WIHH 161430Z 30002KT 8000 SCT020 28/24 Q1011 NOSIG=
202603161400 METAR WIHH 161400Z 32003KT 8000 SCT020 28/24 Q1011 NOSIG=
202603161330 METAR WIHH 161330Z 33003KT 8000 SCT020 28/24 Q1010 NOSIG=
202603161300 METAR WIHH 161300Z 30004KT 8000 SCT020 28/23 Q1009 NOSIG=
202603161230 METAR WIHH 161230Z 34003KT 8000 SCT020 28/23 Q1009 NOSIG=
202603161200 METAR WIHH 161200Z 34005KT 8000 29/23 Q1008 NOSIG=
202603161130 METAR WIHH 161130Z 30005KT 8000 FEW020 30/23 Q1008 NOSIG=
202603161100 METAR WIHH 161100Z 34005KT 8000 FEW020 30/23 Q1008 NOSIG=
202603161030 METAR WIHH 161030Z 30005KT 8000 FEW020 31/22 Q1007 NOSIG=
202603161000 METAR WIHH 161000Z 35005KT 8000 FEW020 31/22 Q1007 NOSIG=
202603160930 METAR WIHH 160930Z 30005KT 8000 FEW020 32/22 Q1006 NOSIG=
202603160900 METAR WIHH 160900Z 33005KT 8000 FEW020 33/23 Q1006 NOSIG=
202603160830 METAR WIHH 160830Z 33005KT 8000 FEW020 33/21 Q1007 NOSIG=
202603160800 METAR WIHH 160800Z 33003KT 8000 FEW020 33/21 Q1007 NOSIG=
202603160730 METAR WIHH 160730Z 27010KT 8000 SCT020 33/21 Q1007 NOSIG=
202603160700 METAR WIHH 160700Z 36010KT 8000 SCT018 34/22 Q1008 NOSIG=
202603160630 METAR WIHH 160630Z 35010KT 8000 SCT018 33/22 Q1008 NOSIG=
202603160600 METAR WIHH 160600Z 33005KT 8000 SCT018 33/23 Q1008 NOSIG=
202603160530 METAR WIHH 160530Z 36005KT 8000 SCT018 33/22 Q1009 NOSIG=
202603160500 METAR WIHH 160500Z 30006KT 8000 SCT018 33/20 Q1010 NOSIG=
202603160430 METAR WIHH 160430Z 26005KT 8000 FEW020 33/20 Q1010 NOSIG=
202603160400 METAR WIHH 160400Z 28005KT 8000 FEW020 33/20 Q1011 NOSIG=
202603160330 METAR WIHH 160330Z 23005KT 8000 SCT020 32/22 Q1011 NOSIG=
202603160300 METAR WIHH 160300Z 24008KT 8000 SCT020 31/24 Q1011 NOSIG=
202603160230 METAR WIHH 160230Z 28004KT 8000 SCT020 30/23 Q1011 NOSIG=
202603160200 METAR WIHH 160200Z 26004KT 8000 SCT020 29/23 Q1011 NOSIG=
202603160130 METAR WIHH 160130Z 25006KT 8000 FEW020 29/24 Q1011 NOSIG=
202603160100 METAR WIHH 160100Z 24006KT 8000 FEW020 28/24 Q1011 NOSIG=
202603160030 METAR WIHH 160030Z 22006KT 7000 SCT020 27/24 Q1011 NOSIG=
202603160000 METAR WIHH 160000Z 21003KT 7000 SCT018 26/24 Q1010 NOSIG=
202603152330 METAR WIHH 152330Z 23004KT 6000 SCT018 25/23 Q1010 NOSIG=
202603152300 METAR WIHH 152300Z 27003KT 6000 SCT018 26/23 Q1010 NOSIG=
202603152230 METAR WIHH 152230Z 28003KT 5000 HZ SCT020 26/23 Q1010 NOSIG=
202603152200 METAR WIHH 152200Z 27003KT 5000 HZ SCT020 25/24 Q1010 NOSIG=
202603152130 METAR WIHH 152130Z 00000KT 6000 SCT020 25/24 Q1010 NOSIG=
202603152100 METAR WIHH 152100Z 00000KT 6000 SCT020 25/24 Q1010 NOSIG=
202603152030 METAR WIHH 152030Z 00000KT 6000 SCT020 25/24 Q1010 NOSIG=
202603152000 METAR WIHH 152000Z 00000KT 6000 FEW020 25/23 Q1010 NOSIG=
202603151930 METAR WIHH 151930Z 00000KT 6000 FEW020 26/23 Q1011 NOSIG=
202603151900 METAR WIHH 151900Z 00000KT 7000 FEW020 26/23 Q1011 NOSIG=
202603151830 METAR WIHH 151830Z 15003KT 7000 SCT020 26/23 Q1011 NOSIG=
202603151800 METAR WIHH 151800Z 18003KT 7000 SCT020 26/23 Q1011 NOSIG=
202603151730 METAR WIHH 151730Z 16003KT 7000 SCT020 26/23 Q1011 NOSIG=
202603151700 METAR WIHH 151700Z 00000KT 7000 SCT020 26/23 Q1012 NOSIG=
202603151630 METAR WIHH 151630Z 23003KT 8000 SCT020 26/23 Q1012 NOSIG=
202603151600 METAR WIHH 151600Z 22003KT 8000 SCT020 26/23 Q1012 NOSIG=
202603151530 METAR WIHH 151530Z 24005KT 8000 SCT020 27/23 Q1012 NOSIG=
202603151500 METAR WIHH 151500Z 27006KT 8000 SCT020 27/23 Q1012 NOSIG=
202603151430 METAR WIHH 151430Z 22005KT 8000 SCT020 27/22 Q1012 NOSIG=
202603151400 METAR WIHH 151400Z 24006KT 8000 SCT020 27/22 Q1012 NOSIG=
202603151330 METAR WIHH 151330Z 24008KT 8000 SCT020 27/22 Q1012 NOSIG=
202603151300 METAR WIHH 151300Z 25003KT 8000 SCT020 28/21 Q1011 NOSIG=
202603151230 METAR WIHH 151230Z 26004KT 8000 SCT020 29/19 Q1010 NOSIG=
202603151200 METAR WIHH 151200Z 27004KT 8000 SCT020 29/18 Q1009 NOSIG=
202603151130 METAR WIHH 151130Z 25004KT 7000 SCT018 29/20 Q1009 NOSIG=
202603151100 METAR WIHH 151100Z 24003KT 7000 SCT018 29/23 Q1008 NOSIG=
202603151030 METAR WIHH 151030Z 23004KT 7000 SCT018 29/22 Q1008 NOSIG=
202603151000 METAR WIHH 151000Z 24004KT 7000 SCT018 29/22 Q1008 NOSIG=
202603150930 METAR WIHH 150930Z 22010KT 7000 SCT016 28/21 Q1007 RMK CB AND RA TO SE-S=
202603150900 METAR WIHH 150900Z 32015KT 6000 TS SCT016 32/24 Q1007 RMK CB AND RA TO S-SW=
202603150830 METAR WIHH 150830Z 35008KT 7000 FEW017CB SCT018 33/23 Q1007 RMK CB AND RA TO SW=
202603150800 METAR WIHH 150800Z 36008KT 7000 SCT018 33/24 Q1008 NOSIG=
202603150730 METAR WIHH 150730Z 30005KT 7000 SCT018 33/24 Q1008 NOSIG=
202603150700 METAR WIHH 150700Z 24004KT 7000 SCT018 33/23 Q1008 NOSIG=
202603150630 METAR WIHH 150630Z 32006KT 7000 SCT017 33/23 Q1009 NOSIG=
202603150600 METAR WIHH 150600Z 35006KT 7000 SCT017 33/23 Q1009 RMK RA TO SE=
202603150530 METAR WIHH 150530Z 32005KT 7000 SCT017 33/23 Q1009 RMK RA TO NW=
202603150500 METAR WIHH 150500Z 27005KT 7000 SCT018 34/23 Q1010 NOSIG=
202603150430 METAR WIHH 150430Z 26010KT 7000 SCT018 33/22 Q1011 NOSIG=
202603150400 METAR WIHH 150400Z 23010KT 8000 SCT018 32/23 Q1011 NOSIG=
202603150330 METAR WIHH 150330Z 30008KT 8000 SCT018 32/23 Q1011 NOSIG=
202603150300 METAR WIHH 150300Z 24008KT 8000 SCT018 31/23 Q1012 NOSIG=
202603150230 METAR WIHH 150230Z 25010KT 9999 FEW020 30/23 Q1012 NOSIG=
202603150200 METAR WIHH 150200Z 24012KT 9999 FEW020 30/23 Q1012 NOSIG=
202603150130 METAR WIHH 150130Z 23007KT 9999 NSC 29/23 Q1012 NOSIG=
202603150100 METAR WIHH 150100Z 24008KT 9999 NSC 28/23 Q1012 NOSIG=
202603150030 METAR WIHH NIL=
202603150000 METAR WIHH 150000Z 27003KT 8000 FEW020 26/23 Q1011 NOSIG=
202603142330 METAR WIHH 142330Z 25004KT 7000 FEW020 25/23 Q1011 NOSIG=
202603142300 METAR WIHH 142300Z 24004KT 6000 FEW020 25/23 Q1011 NOSIG=
202603142230 METAR WIHH 142230Z 24005KT 6000 FEW020 25/23 Q1010 NOSIG=
202603142200 METAR WIHH 142200Z 24005KT 6000 FEW020 26/23 Q1010 NOSIG=
202603142130 METAR WIHH 142130Z 21005KT 8000 FEW018 26/23 Q1010 NOSIG=
202603142100 METAR WIHH 142100Z 21005KT 8000 FEW018 25/23 Q1010 NOSIG=
202603142030 METAR WIHH 142030Z 00000KT 8000 FEW018 26/23 Q1010 NOSIG=
202603142000 METAR WIHH 142000Z 00000KT 8000 NSC 26/23 Q1010 NOSIG=
202603141930 METAR WIHH 141930Z 23003KT 8000 NSC 26/23 Q1010 NOSIG=
202603141900 METAR WIHH 141900Z 22004KT 8000 NSC 26/23 Q1010 NOSIG=
202603141830 METAR WIHH 141830Z 23005KT 8000 NSC 26/23 Q1010 NOSIG=
202603141800 METAR WIHH 141800Z 26005KT 9999 NSC 26/23 Q1011 NOSIG=
202603141730 METAR WIHH 141730Z 24004KT 9999 FEW020 27/23 Q1011 NOSIG=
202603141700 METAR WIHH 141700Z 25005KT 9999 NSC 27/23 Q1011 NOSIG=
202603141630 METAR WIHH 141630Z 25006KT 9999 NSC 27/23 Q1011 NOSIG=
202603141600 METAR WIHH 141600Z 26004KT 9999 28/23 Q1010 NOSIG=
202603141530 METAR WIHH 141530Z 27005KT 9999 NSC 28/23 Q1011 NOSIG=
202603141500 METAR WIHH 141500Z 22004KT 9999 NSC 28/24 Q1011 NOSIG=
202603141430 METAR WIHH 141430Z 24005KT 9999 FEW020 28/23 Q1011 NOSIG=
202603141400 METAR WIHH 141400Z 25007KT 9999 FEW020 28/23 Q1011 NOSIG=
202603141330 METAR WIHH 141330Z 25007KT 9999 FEW020 29/23 Q1010 NOSIG=
202603141300 METAR WIHH 141300Z 26006KT 9999 FEW020 29/23 Q1010 NOSIG=
202603141230 METAR WIHH 141230Z 26007KT 9999 FEW020 29/22 Q1009 NOSIG=
202603141200 METAR WIHH 141200Z 25008KT 8000 FEW020 29/23 Q1009 NOSIG=
202603141130 METAR WIHH 141130Z 24009KT 7000 SCT020 30/22 Q1008 NOSIG=
202603141100 METAR WIHH 141100Z 33005KT 7000 SCT016 30/23 Q1008 NOSIG=
202603141030 METAR WIHH 141030Z 33007KT 7000 SCT016 32/22 Q1007 NOSIG=
202603141000 METAR WIHH 141000Z 33007KT 7000 SCT016 31/23 Q1007 NOSIG=
202603140930 METAR WIHH 140930Z 33010KT 7000 SCT016 32/23 Q1006 NOSIG=
202603140900 METAR WIHH 140900Z 30009KT 7000 SCT016 33/24 Q1006 NOSIG=
202603140830 METAR WIHH 140830Z 31010KT 7000 SCT017 33/24 Q1006 NOSIG=
202603140800 METAR WIHH 140800Z 31006KT 7000 SCT017 32/24 Q1006 NOSIG=
202603140730 METAR WIHH 140730Z 34008KT 8000 SCT017 33/24 Q1007 NOSIG=
202603140700 METAR WIHH 140700Z 34010KT 9000 SCT018 33/25 Q1007 NOSIG=
202603140630 METAR WIHH 140630Z 34012KT 9000 FEW020 34/24 Q1007 NOSIG=
202603140600 METAR WIHH 140600Z 24008KT 9000 FEW020 35/14 Q1008 NOSIG=
202603140530 METAR WIHH 140530Z 24010KT 9999 NSC 35/19 Q1008 NOSIG=
202603140500 METAR WIHH 140500Z 35009KT 9999 NSC 34/21 Q1009 NOSIG=
202603140430 METAR WIHH 140430Z 29007KT 9999 NSC 34/19 Q1009 NOSIG=
202603140400 METAR WIHH 140400Z 24007KT 9999 NSC 33/20 Q1010 NOSIG=
202603140330 METAR WIHH 140330Z 31005KT 9999 NSC 33/20 Q1010 NOSIG=
202603140300 METAR WIHH 140300Z 23005KT 8000 NSC 31/20 Q1011 NOSIG=
202603140230 METAR WIHH 140230Z 25008KT 8000 NSC 31/21 Q1011 NOSIG=
202603140200 METAR WIHH 140200Z 19004KT 8000 NSC 30/23 Q1011 NOSIG=
202603140130 METAR WIHH 140130Z 00000KT 6000 NSC 29/24 Q1011 NOSIG=
202603140100 METAR WIHH 140100Z 00000KT 6000 NSC 28/24 Q1011 NOSIG=
202603140030 METAR WIHH 140030Z 00000KT 6000 NSC 27/23 Q1011 NOSIG=
202603140000 METAR WIHH 140000Z 00000KT 8000 NSC 25/23 Q1010 NOSIG=
202603132330 METAR WIHH 132330Z 00000KT 8000 NSC 24/23 Q1010 NOSIG=
202603132300 METAR WIHH 132300Z 30003KT 8000 FEW020 24/23 Q1010 NOSIG=
202603132230 METAR WIHH 132230Z 25003KT 8000 FEW020 24/23 Q1009 NOSIG=
202603132200 METAR WIHH 132200Z 00000KT 8000 FEW020 24/23 Q1009 NOSIG=
202603132130 METAR WIHH 132130Z 24003KT 8000 FEW020 25/23 Q1009 NOSIG=
202603132100 METAR WIHH 132100Z 00000KT 8000 FEW020 24/23 Q1009 NOSIG=
202603132030 METAR WIHH 132030Z 00000KT 8000 FEW020 25/23 Q1009 NOSIG=
202603132000 METAR WIHH 132000Z 00000KT 8000 FEW020 25/23 Q1009 NOSIG=
202603131930 METAR WIHH 131930Z 00000KT 8000 FEW020 25/23 Q1009 NOSIG=
202603131900 METAR WIHH 131900Z 00000KT 8000 FEW020 25/24 Q1009 NOSIG=
202603131830 METAR WIHH 131830Z 00000KT 8000 FEW020 26/24 Q1009 NOSIG=
202603131800 METAR WIHH 131800Z 22003KT 8000 FEW020 26/24 Q1009 NOSIG=
202603131730 METAR WIHH 131730Z 21003KT 8000 FEW020 26/24 Q1009 NOSIG=
202603131700 METAR WIHH 131700Z 22003KT 8000 FEW020 26/24 Q1009 NOSIG=
202603131630 METAR WIHH 131630Z 24003KT 8000 FEW020 27/24 Q1010 NOSIG=
202603131600 METAR WIHH 131600Z 22004KT 8000 FEW020 27/24 Q1010 NOSIG=
202603131530 METAR WIHH 131530Z 18005KT 8000 SCT020 27/24 Q1010 NOSIG=
202603131500 METAR WIHH 131500Z 20005KT 8000 SCT020 27/24 Q1010 NOSIG=
202603131430 METAR WIHH 131430Z 27006KT 8000 SCT020 29/22 Q1009 NOSIG=
202603131400 METAR WIHH 131400Z 25007KT 8000 SCT020 29/22 Q1009 NOSIG=
202603131330 METAR WIHH 131330Z 26007KT 8000 SCT020 30/22 Q1009 NOSIG=
202603131300 METAR WIHH 131300Z 24007KT 8000 SCT020 30/22 Q1009 NOSIG=
202603131230 METAR WIHH 131230Z 25008KT 8000 SCT020 30/24 Q1008 NOSIG=
202603131200 METAR WIHH 131200Z 36008KT 8000 SCT020 30/24 Q1007 NOSIG=
202603131130 METAR WIHH 131130Z 35008KT 7000 FEW017CB SCT018 30/24 Q1007 RMK CB TO E=
202603131100 METAR WIHH 131100Z 04008KT 7000 FEW017CB SCT018 31/24 Q1007 RMK CB AND RA TO NE=
202603131030 METAR WIHH 131030Z 03012KT 7000 TS FEW017CB SCT018 30/24 Q1006 RMK CB AND RA TO NE=
202603131000 METAR COR WIHH 131000Z 29005KT 8000 TS SCT018 33/24 Q1005 RMK CB AND RA TO NE=
202603130930 METAR WIHH 130930Z 32008KT 8000 SCT018 33/24 Q1005 RMK RA TO NE=
202603130900 METAR WIHH 130900Z 35010KT 8000 SCT018 33/24 Q1005 RMK RA TO NE=
202603130830 METAR WIHH 130830Z 33004KT 8000 SCT018 35/24 Q1005 RMK RA TO NE=
202603130800 METAR WIHH 130800Z 27008KT 8000 SCT018 33/24 Q1005 RMK RA TO SE=
202603130730 METAR WIHH 130730Z 35012KT 8000 SCT018 35/21 Q1008 NOSIG=
202603130700 METAR WIHH 130700Z 24012KT 8000 SCT018 35/21 Q1006 NOSIG=
202603130630 METAR WIHH 130630Z 24008KT 8000 SCT020 35/21 Q1006 NOSIG=
202603130600 METAR WIHH 130600Z 27008KT 8000 SCT020 34/21 Q1007 NOSIG=
202603130530 METAR WIHH 130530Z 24010KT 8000 FEW020 34/22 Q1007 NOSIG=
202603130500 METAR WIHH 130500Z 24015KT 8000 FEW020 34/22 Q1008 NOSIG=
202603130430 METAR WIHH 130430Z 31005KT 8000 FEW020 33/21 Q1008 NOSIG=
202603130400 METAR WIHH 130400Z 27010KT 8000 FEW020 33/22 Q1009 NOSIG=
202603130330 METAR WIHH 130330Z 21005KT 5000 NSC 33/21 Q1009 NOSIG=
202603130300 METAR WIHH 130300Z 22008KT 8000 NSC 32/21 Q1010 NOSIG=
202603130230 METAR WIHH 130230Z 27006KT 6000 NSC 31/22 Q1010 NOSIG=
202603130200 METAR WIHH 130200Z 22007KT 6000 NSC 31/22 Q1010 NOSIG=
202603130130 METAR WIHH 130130Z 22005KT 6000 NSC 30/23 Q1010 NOSIG=
202603130100 METAR WIHH 130100Z 21005KT 6000 NSC 28/23 Q1010 NOSIG=
202603130030 METAR WIHH 130030Z 22005KT 5000 HZ NSC 27/24 Q1010 NOSIG=
202603130000 METAR WIHH 130000Z 23005KT 5000 HZ NSC 26/24 Q1010 NOSIG=
202603122330 METAR WIHH 122330Z 22003KT 5000 BR FEW020 24/24 Q1010 NOSIG=
202603122300 METAR WIHH 122300Z 21004KT 5000 BR FEW020 23/23 Q1009 NOSIG=
202603122230 METAR WIHH 122230Z 19003KT 7000 FEW020 23/23 Q1009 NOSIG=
202603122200 METAR WIHH 122200Z 00000KT 7000 FEW020 24/24 Q1009 NOSIG=
202603122130 METAR WIHH 122130Z 00000KT 7000 FEW020 24/24 Q1009 NOSIG=
202603122100 METAR WIHH 122100Z 25004KT 7000 FEW020 24/24 Q1008 NOSIG=
202603122030 METAR WIHH 122030Z 26003KT 7000 NCD 25/23 Q1008 NOSIG=
202603122000 METAR WIHH 122000Z 00000KT 7000 SCT020 25/23 Q1008 NOSIG=
202603121930 METAR WIHH 121930Z 00000KT 7000 SCT020 26/23 Q1009 NOSIG=
202603121900 METAR WIHH 121900Z 23004KT 7000 SCT020 26/23 Q1009 NOSIG=
202603121830 METAR WIHH 121830Z 24003KT 7000 SCT020 26/23 Q1009 NOSIG=
202603121800 METAR WIHH 121800Z 22003KT 7000 SCT020 26/23 Q1009 NOSIG=
202603121730 METAR WIHH 121730Z 18003KT 7000 SCT020 26/23 Q1010 NOSIG=
202603121700 METAR WIHH 121700Z 21003KT 7000 SCT020 25/23 Q1010 NOSIG=
202603121630 METAR WIHH 121630Z 21005KT 6000 SCT018 25/23 Q1010 NOSIG=
202603121600 METAR WIHH 121600Z 25003KT 6000 SCT018 26/25 Q1010 NOSIG=
202603121530 METAR WIHH 121530Z 21004KT 6000 SCT018 26/25 Q1010 NOSIG=
202603121500 METAR WIHH 121500Z 14004KT 6000 SCT018 26/25 Q1010 NOSIG=
202603121430 METAR WIHH 121430Z 15003KT 7000 SCT018 27/25 Q1010 NOSIG=
202603121400 METAR WIHH 121400Z 16003KT 7000 SCT018 27/26 Q1010 NOSIG=
202603121330 METAR WIHH 121330Z 32003KT 7000 SCT017 28/25 Q1010 NOSIG=
202603121300 METAR WIHH 121300Z 31003KT 7000 SCT017 28/25 Q1009 NOSIG=
202603121230 METAR WIHH 121230Z 26004KT 7000 SCT017 28/25 Q1009 RMK RA TO E=
202603121200 METAR WIHH 121200Z 36004KT 6000 TS SCT016 FEW017CB 28/25 Q1008 RMK CB AND RA TO E=
202603121130 METAR WIHH 121130Z 34006KT 6000 TS BKN016 FEW017CB 27/25 Q1007 TEMPO FM1140 4000 -TSRA RMK CB AND RA TO S-E=
202603121100 METAR WIHH 121100Z 33008KT 6000 BKN016 FEW017CB 28/25 Q1007 RMK CB AND RA TO SW=
202603121030 METAR WIHH 121030Z 33005KT 6000 BKN016 FEW017CB 28/25 Q1007 RMK CB AND RA TO NE=
202603121000 METAR WIHH 121000Z 03007KT 6000 TS BKN016 FEW017CB 28/25 Q1006 RMK CB AND RA TO NE=
202603120930 METAR WIHH 120930Z 18005KT 5000 -TSRA BKN016 FEW017CB 26/24 Q1006 RMK CB TO NE=
202603120900 METAR WIHH 120900Z 09010KT 5000 -TSRA BKN016 FEW017CB 28/23 Q1006 TEMPO TL0920 4000 -TSRA RMK CB TO E-SE=
202603120845 SPECI WIHH 120845Z 08010KT 6000 -TSRA BKN016 FEW017CB 29/24 Q1006 RMK CB TO E-S=
202603120830 METAR WIHH 120830Z 33008KT 6000 TS BKN016 FEW017CB 30/25 Q1006 TEMPO FM0850 4000 -TSRA RMK CB TO S=
202603120805 SPECI WIHH 120805Z 32015KT 6000 TS BKN016 FEW017CB 30/25 Q1006 RMK CB TO SW=
202603120800 METAR WIHH 120800Z 31010KT 6000 SCT017 31/25 Q1006 RMK RA TO S-SW=
202603120730 METAR WIHH 120730Z 35010KT 7000 SCT018 32/24 Q1006 RMK RA TO SE-S=
202603120700 METAR WIHH 120700Z 34012KT 7000 SCT018 33/23 Q1006 RMK RA TO SE-S=
202603120630 METAR WIHH 120630Z 03010KT 8000 SCT018 34/21 Q1007 RMK RA TO S=
202603120600 METAR WIHH 120600Z 24010KT 8000 SCT018 35/21 Q1007 NOSIG=
202603120530 METAR WIHH 120530Z 28010KT 8000 SCT018 34/21 Q1008 NOSIG=
202603120500 METAR WIHH 120500Z 24010KT 8000 SCT020 33/22 Q1008 NOSIG=
202603120430 METAR WIHH 120430Z 30005KT 8000 SCT020 33/21 Q1009 NOSIG=
202603120400 METAR WIHH 120400Z 24008KT 8000 FEW020 32/22 Q1009 NOSIG=
202603120330 METAR WIHH 120330Z 26005KT 8000 FEW022 32/22 Q1009 NOSIG=
202603120300 METAR WIHH 120300Z 21007KT 8000 NSC 31/23 Q1010 NOSIG=
202603120230 METAR WIHH 120230Z 22003KT 8000 NSC 31/22 Q1010 NOSIG=
202603120200 METAR WIHH 120200Z 18003KT 8000 NSC 30/23 Q1010 NOSIG=
202603120130 METAR WIHH 120130Z 20004KT 8000 NSC 29/24 Q1010 NOSIG=
202603120100 METAR WIHH 120100Z 00000KT 5000 HZ NSC 28/24 Q1010 NOSIG=
202603120030 METAR WIHH 120030Z 20004KT 5000 HZ NSC 27/25 Q1010 NOSIG=
202603120000 METAR WIHH 120000Z 00000KT 4000 BR NSC 25/25 Q1010 NOSIG=
202603112330 METAR WIHH 112330Z 00000KT 4000 BR FEW020 24/24 Q1009 NOSIG=
202603112300 METAR WIHH 112300Z 30003KT 3000 BR FEW020 24/24 Q1009 NOSIG=
202603112230 METAR WIHH 112230Z 29002KT 3000 BR FEW020 24/24 Q1009 NOSIG=
202603112200 METAR WIHH 112200Z 17002KT 3000 BR FEW020 24/24 Q1009 NOSIG=
202603112130 METAR WIHH 112130Z 00000KT 3000 BR FEW020 24/24 Q1009 NOSIG=
202603112100 METAR WIHH 112100Z 22003KT 4000 BR FEW020 24/24 Q1008 NOSIG=
202603112030 METAR WIHH 112030Z 21003KT 4000 BR FEW020 24/24 Q1008 NOSIG=
202603112000 METAR WIHH 112000Z 00000KT 4000 BR FEW020 24/24 Q1008 NOSIG=
202603111930 METAR WIHH 111930Z 00000KT 4000 BR FEW020 24/24 Q1008 NOSIG=
202603111900 METAR WIHH 111900Z 00000KT 5000 BR FEW020 24/24 Q1009 NOSIG=
202603111830 METAR WIHH 111830Z 00000KT 5000 BR FEW020 25/25 Q1009 NOSIG=
202603111800 METAR WIHH 111800Z 00000KT 5000 BR FEW020 25/25 Q1009 NOSIG=
202603111730 METAR WIHH 111730Z 16003KT 4000 BR FEW020 25/25 Q1010 NOSIG=
202603111700 METAR WIHH 111700Z 00000KT 8000 FEW020 25/25 Q1010 NOSIG=
202603111630 METAR WIHH 111630Z 00000KT 8000 FEW020 26/26 Q1010 NOSIG=
202603111600 METAR WIHH 111600Z 16004KT 8000 FEW020 26/26 Q1011 NOSIG=
202603111530 METAR WIHH 111530Z 15006KT 8000 FEW020 26/26 Q1011 NOSIG=
202603111500 METAR WIHH 111500Z 14004KT 8000 FEW020 26/26 Q1011 NOSIG=
202603111430 METAR WIHH 111430Z 00000KT 8000 SCT020 26/25 Q1011 NOSIG=
202603111400 METAR WIHH 111400Z 00000KT 8000 SCT020 26/25 Q1011 NOSIG=
202603111330 METAR WIHH 111330Z 00000KT 7000 TS FEW016CB SCT017 26/25 Q1010 RMK CB AND RA TO E=
202603111300 METAR WIHH 111300Z 00000KT 6000 TS FEW016CB SCT017 26/25 Q1010 RMK CB AND RA TO E=
202603111230 METAR WIHH 111230Z 00000KT 6000 -RA BKN017 26/25 Q1010 NOSIG=
202603111200 METAR WIHH 111200Z 15004KT 6000 -RA BKN015 26/24 Q1009 NOSIG=
202603111130 METAR WIHH 111130Z 18004KT 6000 -RA BKN015 26/24 Q1009 NOSIG=
202603111100 METAR WIHH 111100Z 21004KT 5000 -RA BKN015 26/23 Q1008 TEMPO TL1130 5000 -RA SCT016=
202603111030 METAR WIHH 111030Z 15005KT 5000 -RA BKN015 26/22 Q1008 TEMPO FM1100 5000 -RA SCT016=
202603111000 METAR WIHH 111000Z 21005KT 2000 -TSRA SCT015 FEW017CB 26/22 Q1007 TEM PO TL1015 2000 TSRA BKN013 RMK CB TO SW=
202603110930 METAR WIHH 110930Z 12008KT 4000 -TSRA BKN014 FEW017CB 26/22 Q1008 TEMPO TL1030 5000 -RA SCT015 RMK CB TO SE=
202603110900 METAR WIHH 110900Z 09010KT 3000 -TSRA SCT016 FEW017CB 29/21 Q1007 TEMPO TL0915 1000 TSRA BKN014 RMK CB OVER THE FIELD=
202603110830 METAR WIHH 110830Z 32011KT 5000 TS SCT016 FEW017CB 30/22 Q1007 TEMPO FM0845 3000 TSRA BKN015 RMK CB AND RA TO S=
202603110800 METAR WIHH 110800Z 34015KT 7000 TS SCT016 FEW018CB 32/22 Q1007 RMK CB AND RA TO S=
202603110730 METAR WIHH 110730Z 31016KT 7000 FEW018 32/22 Q1007 NOSIG=
202603110700 METAR WIHH 110700Z 31008KT 7000 SCT018 32/22 Q1008 NOSIG=
202603110630 METAR WIHH 110630Z 31008KT 7000 SCT018 31/22 Q1008 NOSIG=
202603110600 METAR WIHH 110600Z 33009KT 7000 SCT018 32/24 Q1008 NOSIG=
202603110530 METAR WIHH 110530Z 32008KT 7000 SCT018 31/24 Q1009 NOSIG=
202603110500 METAR WIHH 110500Z 26008KT 8000 SCT020 32/23 Q1010 NOSIG=
202603110430 METAR WIHH 110430Z 32006KT 8000 SCT020 32/24 Q1010 NOSIG=
202603110400 METAR WIHH 110400Z 31007KT 8000 SCT020 31/23 Q1010 NOSIG=
202603110330 METAR WIHH 110330Z 27007KT 8000 SCT020 31/22 Q1011 NOSIG=
202603110300 METAR WIHH 110300Z 24007KT 8000 FEW020 30/23 Q1011 NOSIG=
202603110230 METAR WIHH 110230Z 28005KT 8000 FEW020 30/21 Q1011 NOSIG=
202603110200 METAR WIHH 110200Z 30005KT 5000 FEW020 29/22 Q1011 NOSIG=
202603110130 METAR WIHH 110130Z 00000KT 4000 FEW020 29/24 Q1011 NOSIG=
202603110100 METAR WIHH 110100Z 00000KT 3000 BR FEW020 28/25 Q1011 NOSIG=
202603110030 METAR WIHH 110030Z 00000KT 3000 BR FEW020 25/24 Q1011 NOSIG=
202603110000 METAR WIHH 110000Z 00000KT 3000 FEW020 25/24 Q1011 NOSIG=
202603102330 METAR WIHH 102330Z 00000KT 3000 BR FEW020 24/24 Q1010 NOSIG=
202603102300 METAR WIHH 102300Z 00000KT 3000 BR FEW020 24/24 Q1010 NOSIG=
202603102230 METAR WIHH 102230Z 00000KT 4000 BR FEW020 24/24 Q1010 NOSIG=
202603102200 METAR WIHH 102200Z 00000KT 6000 FEW020 24/24 Q1010 NOSIG=
202603102130 METAR WIHH 102130Z 00000KT 8000 FEW020 24/24 Q1010 NOSIG=
202603102100 METAR WIHH 102100Z 00000KT 8000 FEW020 24/24 Q1010 NOSIG=
202603102030 METAR WIHH 102030Z 00000KT 8000 FEW020 24/24 Q1010 NOSIG=
202603102000 METAR WIHH 102000Z 00000KT 8000 FEW020 24/24 Q1010 NOSIG=
202603101930 METAR WIHH 101930Z 00000KT 8000 FEW020 25/24 Q1011 NOSIG=
202603101900 METAR WIHH 101900Z 00000KT 8000 FEW020 25/24 Q1011 NOSIG=
202603101830 METAR WIHH 101830Z 00000KT 8000 FEW020 25/24 Q1011 NOSIG=
202603101800 METAR WIHH 101800Z 00000KT 8000 FEW020 25/24 Q1011 NOSIG=
202603101730 METAR WIHH 101730Z 00000KT 8000 FEW020 26/25 Q1012 NOSIG=
202603101700 METAR WIHH 101700Z 00000KT 9999 FEW020 26/25 Q1012 NOSIG=
202603101630 METAR WIHH 101630Z 00000KT 9999 SCT020 26/25 Q1012 NOSIG=
202603101600 METAR WIHH 101600Z 00000KT 9999 SCT020 26/25 Q1012 NOSIG=
202603101530 METAR WIHH 101530Z 24003KT 8000 SCT020 26/25 Q1012 NOSIG=
202603101500 METAR WIHH 101500Z 00000KT 8000 SCT020 26/25 Q1012 NOSIG=
202603101430 METAR WIHH 101430Z 00000KT 8000 SCT020 26/25 Q1012 NOSIG=
202603101400 METAR WIHH 101400Z 00000KT 8000 SCT020 26/25 Q1012 NOSIG=
202603101330 METAR WIHH 101330Z 00000KT 8000 SCT020 26/24 Q1011 NOSIG=
202603101300 METAR WIHH 101300Z 00000KT 8000 SCT020 26/24 Q1011 NOSIG=
202603101230 METAR WIHH 101230Z 00000KT 8000 SCT020 26/24 Q1011 NOSIG=
202603101200 METAR WIHH 101200Z 24003KT 7000 SCT020 26/24 Q1011 NOSIG=
202603101130 METAR WIHH 101130Z 24003KT 7000 SCT020 27/24 Q1010 NOSIG=
202603101100 METAR WIHH 101100Z 27004KT 7000 SCT020 27/23 Q1010 NOSIG=
202603101030 METAR WIHH 101030Z 27007KT 7000 SCT018 27/23 Q1009 NOSIG=
202603101000 METAR WIHH 101000Z 28003KT 6000 SCT017 27/25 Q1009 NOSIG=
202603100930 METAR WIHH 100930Z 28003KT 6000 SCT017 27/25 Q1009 NOSIG=
202603100900 METAR WIHH 100900Z 27004KT 6000 -RA SCT017 27/25 Q1009 NOSIG=
202603100830 METAR WIHH 100830Z 24005KT 6000 -RA SCT017 25/23 Q1008 NOSIG=
202603100800 METAR WIHH 100800Z 27005KT 7000 -RA SCT017 25/23 Q1009 NOSIG=
202603100730 METAR WIHH 100730Z 01007KT 6000 -RA SCT016 FEW017CB 25/24 Q1008 RMK CB TO E=
202603100700 METAR WIHH 100700Z 31003KT 6000 -TSRA SCT016 26/24 Q1009 RMK CB TO N=
202603100630 METAR WIHH 100630Z 30010KT 5000 -TSRA BKN016 FEW018CB 29/24 Q1009 RMK CB TO NW=
202603100612 SPECI WIHH 100612Z 33010KT 4000 -TSRA BKN016 FEW018CB 29/24 Q1009 RMK CB TO NW=
202603100600 METAR WIHH 100600Z 34010KT 7000 SCT018 31/24 Q1009 RMK RA TO NW=
202603100530 METAR WIHH 100530Z 35010KT 7000 SCT018 32/23 Q1009 RMK RA TO W=
202603100500 METAR WIHH 100500Z 27005KT 7000 SCT018 32/23 Q1010 NOSIG=
202603100430 METAR WIHH 100430Z 27005KT 7000 SCT018 32/23 Q1010 NOSIG=
202603100400 METAR WIHH 100400Z 27008KT 7000 SCT018 33/23 Q1011 NOSIG=
202603100330 METAR WIHH 100330Z 21008KT 7000 FEW070 32/23 Q1011 NOSIG=
202603100300 METAR WIHH 100300Z 26010KT 7000 FEW020 31/22 Q1011 NOSIG=
202603100230 METAR WIHH 100230Z 25010KT 7000 FEW020 31/22 Q1011 NOSIG=
202603100200 METAR WIHH 100200Z 24013KT 7000 FEW020 30/22 Q1011 NOSIG=
202603100130 METAR WIHH 100130Z 24005KT 6000 FEW020 29/21 Q1011 NOSIG=
202603100100 METAR WIHH 100100Z 21006KT 6000 FEW020 29/22 Q1011 NOSIG=
202603100030 METAR WIHH 100030Z 21004KT 6000 FEW018 26/23 Q1011 NOSIG=
202603100000 METAR WIHH 100000Z 24004KT 6000 FEW018 25/23 Q1011 NOSIG=
202603092330 METAR WIHH 092330Z 24003KT 6000 SCT018 24/22 Q1011 NOSIG=
202603092300 METAR WIHH NIL=
202603092230 METAR WIHH 092230Z 23004KT 6000 SCT018 25/22 Q1010 NOSIG=
202603092200 METAR WIHH 092200Z 24005KT 7000 FEW020 25/22 Q1010 NOSIG=
202603092130 METAR WIHH 092130Z 00000KT 6000 FEW020 25/23 Q1010 NOSIG=
202603092100 METAR WIHH 092100Z 00000KT 6000 FEW020 25/23 Q1010 NOSIG=
202603092030 METAR WIHH 092030Z 22004KT 7000 FEW020 25/22 Q1010 NOSIG=
202603092000 METAR WIHH 092000Z 24002KT 7000 FEW020 26/22 Q1010 NOSIG=
202603091930 METAR WIHH 091930Z 00000KT 7000 FEW020 26/22 Q1009 NOSIG=
202603091900 METAR WIHH 091900Z 23002KT 7000 FEW020 26/22 Q1009 NOSIG=
202603091830 METAR WIHH 091830Z 00000KT 7000 FEW020 26/22 Q1010 NOSIG=
202603091800 METAR WIHH 091800Z 22003KT 7000 FEW020 26/22 Q1010 NOSIG=
202603091730 METAR WIHH 091730Z 00000KT 7000 FEW020 26/22 Q1010 NOSIG=
202603091700 METAR WIHH 091700Z 00000KT 7000 FEW020 26/22 Q1011 NOSIG=
202603091630 METAR WIHH 091630Z 27003KT 7000 FEW020 26/23 Q1012 NOSIG=
202603091600 METAR WIHH 091600Z 28004KT 7000 FEW020 27/23 Q1012 NOSIG=
202603091530 METAR WIHH 091530Z 24003KT 7000 FEW020 27/24 Q1012 NOSIG=
202603091500 METAR WIHH 091500Z 28003KT 7000 FEW020 27/24 Q1012 NOSIG=
202603091430 METAR WIHH 091430Z 32002KT 7000 FEW020 27/24 Q1011 NOSIG=
202603091400 METAR WIHH 091400Z 26002KT 7000 FEW020 27/24 Q1011 NOSIG=
202603091330 METAR WIHH 091330Z 30003KT 7000 FEW020 27/24 Q1011 NOSIG=
202603091300 METAR WIHH 091300Z 27003KT 6000 FEW020 28/23 Q1010 NOSIG=
202603091230 METAR WIHH 091230Z 26003KT 6000 FEW020 28/23 Q1010 NOSIG=
202603091200 METAR WIHH 091200Z 27004KT 7000 FEW018 28/23 Q1010 NOSIG=
202603091130 METAR WIHH 091130Z 27005KT 6000 SCT016 29/23 Q1009 NOSIG=
202603091100 METAR WIHH 091100Z 26005KT 6000 SCT016 29/23 Q1008 NOSIG=
202603091030 METAR WIHH 091030Z 27005KT 6000 SCT016 30/23 Q1008 RMK RA TO SE=
202603091000 METAR WIHH 091000Z 03003KT 6000 SCT016 30/24 Q1008 RMK RA TO SE=
202603090930 METAR WIHH 090930Z 33003KT 7000 SCT018 32/24 Q1007 NOSIG=
202603090900 METAR WIHH 090900Z 32003KT 7000 SCT018 31/24 Q1007 NOSIG=
202603090830 METAR WIHH 090830Z 29005KT 7000 SCT018 31/23 Q1008 NOSIG=
202603090800 METAR WIHH 090800Z 28007KT 7000 SCT018 31/24 Q1008 NOSIG RMK RA TO SW=
202603090730 METAR WIHH 090730Z 35006KT 7000 SCT018 31/24 Q1008 NOSIG=
202603090700 METAR WIHH 090700Z 34004KT 7000 SCT017 31/24 Q1009 NOSIG=
202603090630 METAR WIHH 090630Z 34006KT 7000 SCT017 31/23 Q1009 RMK RA TO SE AND S W=
202603090600 METAR WIHH 090600Z 01006KT 7000 SCT017 33/24 Q1009 RMK RA TO SW=
202603090530 METAR WIHH 090530Z 28005KT 6000 SCT016 31/23 Q1010 RMK RA TO SW=
202603090500 METAR WIHH 090500Z 27004KT 6000 SCT017 32/23 Q1010 RMK RA TO W=
202603090430 METAR WIHH 090430Z 29004KT 6000 SCT017 31/23 Q1011 NOSIG=
202603090400 METAR WIHH 090400Z 27006KT 6000 SCT017 30/24 Q1011 NOSIG RMK RA TO S=
202603090330 METAR WIHH 090330Z 24005KT 6000 SCT016 28/25 Q1011 NOSIG RMK RA TO E- SE=
202603090300 METAR WIHH 090300Z 25008KT 5000 -RA BKN016 29/23 Q1011 NOSIG=
202603090230 METAR WIHH 090230Z 28007KT 7000 SCT017 29/23 Q1012 TEMPO FM0300 3000 -RA RMK RA TO NW=
202603090200 METAR WIHH 090200Z 32005KT 7000 SCT017 29/22 Q1012 NOSIG=
202603090130 METAR WIHH 090130Z 25004KT 7000 SCT017 28/22 Q1011 NOSIG=
202603090100 METAR WIHH 090100Z 00000KT 6000 SCT017 27/23 Q1011 NOSIG=
202603090030 METAR WIHH 090030Z 00000KT 6000 SCT017 26/24 Q1011 NOSIG=
202603090000 METAR WIHH 090000Z 00000KT 6000 SCT017 24/24 Q1011 NOSIG=
202603082330 METAR WIHH 082330Z 23003KT 6000 SCT016 24/24 Q1011 NOSIG=
202603082300 METAR WIHH 082300Z 23003KT 6000 SCT016 24/24 Q1010 NOSIG=
202603082230 METAR WIHH 082230Z 00000KT 5000 HZ SCT016 24/24 Q1010 NOSIG=
202603082200 METAR WIHH 082200Z 23003KT 5000 -RA BKN016 24/24 Q1010 TEMPO TL2230 4 000 -RA=
202603082130 METAR WIHH 082130Z 00000KT 5000 HZ BKN016 24/24 Q1010 NOSIG=
202603082100 METAR WIHH 082100Z 19003KT 5000 HZ SCT016 24/24 Q1010 RMK RA TO NE=
202603082030 METAR WIHH 082030Z 00000KT 6000 BKN016 25/23 Q1010 RMK RA TO N=
202603082000 METAR WIHH 082000Z 00000KT 6000 BKN016 25/23 Q1010 RMK RA TO N=
202603081930 METAR WIHH 081930Z 00000KT 6000 BKN016 25/23 Q1010 RMK RA TO NW=
202603081900 METAR WIHH 081900Z 00000KT 6000 BKN016 24/23 Q1011 RMK RA TO NW=
202603081830 METAR WIHH 081830Z 24003KT 5000 HZ FEW016CB BKN017 24/23 Q1011 RMK CB AND RA TO N=
202603081800 METAR WIHH 081800Z 23003KT 5000 HZ FEW016CB BKN017 23/22 Q1011 RMK CB AND RA TO N=
202603081730 METAR WIHH 081730Z 24004KT 5000 -TSRA FEW016CB BKN017 23/22 Q1011 TEMPO TL1800 4000 -RA BKN015 RMK CB TO SW=
202603081700 METAR WIHH 081700Z 23004KT 6000 -TSRA FEW016CB SCT017 23/22 Q1011 TEMPO TL1730 5000 -TSRA BKN015 RMK CB TO SW=
202603081630 METAR WIHH 081630Z 21006KT 6000 -TSRA FEW016CB BKN017 23/22 Q1011 TEMPO TL1700 4000 -TSRA BKN015 RMK CB TO SW=
202603081600 METAR WIHH 081600Z 25008KT 5000 -TSRA FEW016CB BKN017 23/22 Q1011 TEMPO TL1700 4000 -TSRA BKN015 RMK CB TO SE=
202603081535 SPECI WIHH 081535Z 24018KT 5000 -TSRA FEW016CB BKN017 25/23 Q1012 RMK CB TO W=
202603081530 METAR WIHH 081530Z 24018KT 6000 TS FEW016CB BKN017 25/23 Q1012 TEMPO FM1540 4000 -TSRA RMK CB AND RA TO W=
202603081500 METAR WIHH 081500Z 00000KT 7000 TS FEW016CB SCT017 25/24 Q1011 TEMPO FM1540 4000 -TSRA BKN015 RMK CB AND RA TO W=
202603081430 METAR WIHH 081430Z 00000KT 7000 FEW016CB SCT017 25/25 Q1011 RMK CB AN D RA TO W=
202603081400 METAR WIHH 081400Z 03003KT 7000 FEW016CB SCT017 25/25 Q1011 RMK CB AND RA TO W=
202603081330 METAR WIHH 081330Z 03003KT 7000 FEW016CB SCT017 25/24 Q1010 RMK CB AND RA TO W=
202603081300 METAR WIHH 081300Z 03003KT 7000 FEW016CB SCT017 26/24 Q1010 RMK CB AND RA TO SW=
202603081230 METAR WIHH 081230Z 03003KT 7000 SCT020 26/24 Q1010 NOSIG=
202603081200 METAR WIHH 081200Z 03005KT 7000 SCT020 27/22 Q1009 NOSIG=
202603081130 METAR WIHH 081130Z 32004KT 6000 SCT017 27/22 Q1009 NOSIG=
202603081100 METAR WIHH 081100Z 34004KT 6000 SCT017 28/22 Q1009 NOSIG=
202603081030 METAR WIHH 081030Z 33005KT 6000 SCT016 29/21 Q1008 NOSIG=
202603081000 METAR WIHH 081000Z 33005KT 6000 SCT016 29/21 Q1008 RMK RA TO SE=
202603080930 METAR WIHH 080930Z 33005KT 6000 SCT015 29/22 Q1008 RMK RA TO SE=
202603080900 METAR WIHH 080900Z 33005KT 6000 SCT015 29/22 Q1008 RMK RA TO SE=
202603080830 METAR WIHH 080830Z 33007KT 6000 -RA SCT015 29/21 Q1008 NOSIG=
202603080800 METAR WIHH 080800Z 35004KT 6000 SCT015 FEW017CB 29/21 Q1008 RMK CB AND RA TO S=
202603080730 METAR WIHH 080730Z 31004KT 6000 SCT015 FEW017CB 29/22 Q1009 TEMPO FM0800 4000 -TSRA BKN015 RMK CB AND RA TO SW=
202603080700 METAR WIHH 080700Z 31005KT 5000 -RA SCT015 FEW017CB 29/22 Q1009 TEMPO TL0730 4000 -TSRA BKN015 RMK CB TO NE=
202603080630 METAR WIHH 080630Z 31005KT 6000 SCT015 29/22 Q1009 TEMPO FM0730 4000 -RA BKN015 FEW017CB RMK RA TO SW=
202603080600 METAR WIHH 080600Z 28004KT 6000 SCT017 28/23 Q1010 NOSIG=
202603080530 METAR WIHH 080530Z 33005KT 6000 BKN016 28/24 Q1010 NOSIG=
202603080507 SPECI WIHH 080507Z 24003KT 6000 -RA BKN016 27/24 Q1011=
202603080500 METAR WIHH 080500Z 24006KT 6000 BKN016 27/24 Q1011 NOSIG=
202603080430 METAR WIHH 080430Z 28006KT 6000 BKN016 27/22 Q1011 NOSIG=
202603080400 METAR WIHH 080400Z 30006KT 6000 SCT016 26/22 Q1011 NOSIG=
202603080330 METAR WIHH 080330Z 24004KT 6000 SCT016 26/22 Q1011 NOSIG=
202603080300 METAR WIHH 080300Z 26003KT 6000 SCT016 25/24 Q1012 NOSIG=
202603080230 METAR WIHH 080230Z 24004KT 6000 -RA BKN015 24/24 Q1012 TEMPO TL0330 4 000 -RA=
202603080200 METAR WIHH 080200Z 25004KT 5000 -RA BKN015 24/24 Q1012 TEMPO TL0300 4000 -RA=
202603080130 METAR WIHH 080130Z 26004KT 5000 -RA BKN017 24/24 Q1012 TEMPO TL0300 4000 -RA=
202603080100 METAR WIHH 080100Z 27003KT 5000 -RA BKN016 23/23 Q1012 TEMPO TL0200 4000 -RA=
202603080030 METAR WIHH 080030Z 23003KT 3000 -RA BKN016 23/23 Q1012 NOSIG=
202603080000 METAR WIHH 080000Z 27004KT 3000 -RA BKN016 23/23 Q1011 NOSIG=
202603072330 METAR WIHH 072330Z 26005KT 3000 -RA BKN016 23/23 Q1011 NOSIG=
202603072300 METAR WIHH 072300Z 24004KT 3000 -RA BKN016 23/23 Q1010 NOSIG=
202603072230 METAR WIHH 072230Z 27003KT 3000 -RA BKN017 23/23 Q1010 NOSIG=
202603072200 METAR WIHH 072200Z 21005KT 5000 -RA BKN017 23/23 Q1010 NOSIG=
202603072130 METAR WIHH 072130Z 24004KT 4000 BKN017 23/23 Q1010 NOSIG=
202603072100 METAR WIHH 072100Z 00000KT 4000 -RA BKN017 23/23 Q1010 NOSIG=
202603072030 METAR WIHH 072030Z 00000KT 5000 -RA SCT017 24/24 Q1010 NOSIG=
202603072000 METAR WIHH 072000Z 00000KT 5000 -RA SCT016 24/24 Q1010 NOSIG=
202603071930 METAR WIHH 071930Z 00000KT 5000 -RA SCT016 25/24 Q1011 NOSIG=
202603071900 METAR WIHH 071900Z 00000KT 5000 -RA SCT016 25/24 Q1011 NOSIG=
202603071830 METAR WIHH 071830Z 32003KT 4000 -TSRA SCT015 FEW017CB 25/24 Q1011 RMK CB TO N=
202603071800 METAR WIHH 071800Z 01003KT 3000 -TSRA SCT015 FEW017CB 25/24 Q1011 RMK CB TO N=
202603071730 METAR WIHH 071730Z 02002KT 4000 -TSRA BKN015 FEW017CB 24/24 Q1011 RMK CB TO S=
202603071700 METAR WIHH 071700Z 02003KT 4000 -TSRA BKN015 FEW017CB 24/24 Q1011 RMK CB TO S AND N=
202603071630 METAR WIHH 071630Z 32003KT 4000 -TSRA BKN016 FEW018CB 24/24 Q1012=
202603071600 METAR WIHH 071600Z 27003KT 4000 -RA BKN016 25/24 Q1012 NOSIG=
202603071533 SPECI WIHH 071533Z 31003KT 5000 -RA BKN017 26/24 Q1011=
202603071530 METAR WIHH 071530Z 02005KT 7000 BKN018 26/25 Q1011 RMK RA TO W-N=
202603071500 METAR WIHH 071500Z 03003KT 7000 BKN018 25/24 Q1011 NOSIG RMK RA TO N=
202603071430 METAR WIHH 071430Z 02003KT 7000 BKN018 25/25 Q1011 NOSIG=
202603071400 METAR WIHH 071400Z 02004KT 7000 BKN018 25/25 Q1010 NOSIG=
202603071330 METAR WIHH 071330Z 25004KT 7000 BKN018 25/24 Q1010 NOSIG=
202603071300 METAR WIHH 071300Z 27004KT 7000 BKN018 25/24 Q1010 NOSIG=
202603071230 METAR WIHH 071230Z 36004KT 7000 BKN018 25/24 Q1009 NOSIG RMK RA T O NE=
202603071200 METAR WIHH 071200Z 30004KT 7000 BKN018 25/24 Q1009 RMK RA TO N=
202603071130 METAR WIHH 071130Z 24004KT 7000 SCT018 25/24 Q1009 NOSIG=
202603071100 METAR WIHH 071100Z 27004KT 7000 SCT018 26/24 Q1008 NOSIG=
202603071030 METAR WIHH 071030Z 23004KT 7000 SCT018 26/24 Q1007 NOSIG=
202603071000 METAR WIHH 071000Z 24005KT 6000 SCT017 26/24 Q1007 NOSIG=
202603070930 METAR WIHH 070930Z 21006KT 6000 BKN015 25/24 Q1007 RMK RA TO N=
202603070900 METAR WIHH 070900Z 23008KT 5000 RA BKN015 25/24 Q1007 TEMPO TL0930 40 00 RA BKN015=
202603070830 METAR WIHH 070830Z 25004KT 5000 RA BKN015 25/24 Q1008 TEMPO TL0900 4000 RA BKN015=
202603070800 METAR WIHH 070800Z 28006KT 5000 -RA BKN015 24/24 Q1008 NOSIG=
202603070730 METAR WIHH 070730Z 23015KT 3000 -TSRA BKN015 FEW017CB 24/24 Q1008 RMK CB TO NW=
202603070700 METAR WIHH 070700Z 25015KT 3000 -TSRA BKN015 FEW017CB 24/24 Q1008 RMK CB TO NW=
202603070630 METAR WIHH 070630Z 24015KT 4000 -TS BKN015 FEW017CB 24/23 Q1008 N OSIG RMK CB TO SW=
202603070600 METAR WIHH 070600Z 25010KT 4000 -RA SCT015 26/25 Q1008 NOSIG=
202603070530 METAR WIHH 070530Z 28008KT 5000 -RA SCT015 29/23 Q1008 NOSIG=
202603070500 METAR WIHH 070500Z 27008KT 6000 SCT017 30/23 Q1008 RMK RA TO SW-SE=
202603070430 METAR WIHH 070430Z 34006KT 6000 BKN017 31/23 Q1008 RMK RA TO SW=
202603070400 METAR WIHH 070400Z 34008KT 6000 BKN017 31/23 Q1009 RMK RA TO SE AND NW=
202603070330 METAR WIHH 070330Z 29010KT 7000 BKN017 30/24 Q1009 RMK RA TO S-SW=
202603070300 METAR WIHH 070300Z 25012KT 7000 SCT018 29/24 Q1009 NOSIG=
202603070230 METAR WIHH 070230Z 25012KT 7000 SCT018 29/24 Q1009 NOSIG=
202603070200 METAR WIHH 070200Z 26005KT 7000 FEW020 29/24 Q1009 NOSIG=
202603070130 METAR WIHH 070130Z 25010KT 7000 FEW020 28/24 Q1009 NOSIG=
202603070100 METAR WIHH 070100Z 27010KT 7000 FEW020 27/24 Q1009 NOSIG=
202603070030 METAR WIHH 070030Z 26004KT 7000 FEW020 27/24 Q1009 NOSIG=
202603070000 METAR WIHH 070000Z 29004KT 7000 FEW020 25/24 Q1009 NOSIG=
202603062330 METAR WIHH 062330Z 23005KT 6000 SCT017 25/24 Q1008 NOSIG=
202603062300 METAR WIHH 062300Z 24005KT 6000 SCT017 25/24 Q1008 NOSIG=
202603062230 METAR WIHH 062230Z 24003KT 7000 SCT018 25/23 Q1008 NOSIG=
202603062200 METAR WIHH 062200Z 00000KT 7000 SCT017 24/24 Q1008 NOSIG=
202603062130 METAR WIHH 062130Z 30005KT 7000 SCT017 25/24 Q1008 NOSIG=
202603062100 METAR WIHH 062100Z 25004KT 7000 SCT017 25/24 Q1008 NOSIG=
202603062030 METAR WIHH 062030Z 26004KT 7000 SCT018 25/23 Q1008 NOSIG=
202603062000 METAR WIHH 062000Z 24006KT 7000 FEW018 25/23 Q1008 NOSIG=
202603061930 METAR WIHH 061930Z 25005KT 7000 SCT018 25/24 Q1007 NOSIG=
202603061900 METAR WIHH 061900Z 28004KT 7000 SCT018 25/24 Q1008 NOSIG=
202603061830 METAR WIHH 061830Z 25005KT 7000 SCT017 25/24 Q1008 NOSIG=
202603061800 METAR WIHH 061800Z 25006KT 7000 SCT018 25/24 Q1009 NOSIG=
202603061730 METAR WIHH 061730Z 28005KT 7000 SCT017 25/24 Q1009 NOSIG=
202603061700 METAR WIHH 061700Z 24003KT 7000 SCT017 25/23 Q1010 NOSIG=
202603061630 METAR WIHH 061630Z 29007KT 7000 SCT017 25/23 Q1010 NOSIG=
202603061600 METAR WIHH 061600Z 26003KT 7000 SCT017 25/23 Q1010 NOSIG=
202603061530 METAR WIHH 061530Z 25006KT 6000 SCT017 25/24 Q1010 NOSIG=
202603061500 METAR WIHH 061500Z 27005KT 6000 SCT017 25/24 Q1010 NOSIG=
202603061430 METAR WIHH 061430Z 25005KT 6000 SCT016 25/24 Q1010 NOSIG=
202603061400 METAR WIHH 061400Z 23005KT 6000 SCT016 25/24 Q1009 NOSIG=
202603061330 METAR WIHH 061330Z 25007KT 6000 SCT016 25/25 Q1009 NOSIG RMK RA TO SE=
202603061300 METAR WIHH 061300Z 27008KT 6000 -RA BKN016 25/25 Q1009 NOSIG=
202603061230 METAR WIHH 061230Z 24010KT 5000 -RA BKN016 25/25 Q1009 NOSIG=
202603061200 METAR WIHH 061200Z 24005KT 6000 BKN016 25/25 Q1008 TEMPO FM1230 4000 -RA RMK RA TO SW=
202603061130 METAR WIHH 061130Z 23005KT 6000 BKN016 25/25 Q1008 TEMPO FM1230 4000 -RA RMK RA TO SW=
202603061100 METAR WIHH 061100Z 28004KT 6000 -RA BKN016 25/25 Q1007 TEMPO TL1230 4000 -RA RMK RA=
202603061030 METAR WIHH 061030Z 31005KT 6000 -RA BKN016 25/24 Q1007 TEMPO TL1100 4000 -RA=
202603061000 METAR WIHH 061000Z 24005KT 6000 -RA BKN016 25/24 Q1007 TEMPO 4000 -RA=
202603060930 METAR WIHH 060930Z 30008KT 2000 26/24 Q1007 TEMPO TL1000 4000 -RA=
202603060900 METAR WIHH 060900Z 26012KT 6000 SCT017 29/24 Q1007 RMK RA TO W=
202603060830 METAR WIHH 060830Z 29011KT 6000 SCT017 29/24 Q1007 RMK RA TO W=
202603060800 METAR WIHH 060800Z 28011KT 6000 SCT017 29/24 Q1007 RMK RA TO S-SW=
202603060730 METAR WIHH 060730Z 27008KT 6000 SCT017 29/24 Q1007 RMK RA TO SW=
202603060700 METAR WIHH 060700Z 25006KT 6000 SCT017 28/25 Q1008 RMK RA TO SW=
202603060630 METAR WIHH 060630Z 27006KT 6000 SCT017 27/25 Q1008 NOSIG=
202603060600 METAR WIHH 060600Z 25006KT 6000 SCT017 26/25 Q1009 RMK RA TO NE=
202603060530 METAR WIHH 060530Z 27006KT 6000 -RA 26/25 Q1009 NOSIG=
202603060500 METAR WIHH 060500Z 26008KT 5000 -RA BKN016 25/24 Q1009 NOSIG=
202603060430 METAR WIHH 060430Z 23011KT 5000 -RA BKN016 26/25 Q1009 NOSIG=
202603060400 METAR WIHH 060400Z 25010KT 3000 -RA BKN016 25/24 Q1009 TEMPO TL0500 4000 -RA=
202603060330 METAR WIHH 060330Z 26012KT 3000 -RA BKN016 25/24 Q1010 TEMPO TL0400 4 000 -RA=
202603060300 METAR WIHH 060300Z 24011KT 3000 -RA BKN015 25/24 Q1010 TEMPO TL0400 4000 -RA=
202603060230 METAR WIHH 060230Z 25010KT 6000 -RA BKN016 25/24 Q1010 TEMPO TL0300 4000 -RA=
202603060200 METAR WIHH 060200Z 25006KT 6000 BKN016 25/24 Q1010 TEMPO TL0230 4000 -RA BKN015=
202603060130 METAR WIHH 060130Z 25006KT 6000 -RA BKN016 24/24 Q1010 TEMPO TL0230 5000 -RA=
202603060100 METAR WIHH 060100Z 25007KT 4000 BKN015 24/23 Q1009 TEMPO TL0130 3000 -RA=
202603060030 METAR WIHH 060030Z 26012KT 4000 BKN015 24/24 Q1009 TEMPO TL0130 3000 -RA=
202603060004 SPECI WIHH 060004Z 24007KT 5000 -RA BKN016 25/24 Q1009=
202603060000 METAR WIHH 060000Z 24007KT 6000 SCT016 25/24 Q1009 TEMPO FM0030 4000 -RA RMK RA TO NW=
202603052330 METAR WIHH 052330Z 24005KT 6000 SCT016 24/24 Q1008 TEMPO FM0000 4000 -RA RMK RA TO NW=
202603052300 METAR WIHH 052300Z 26005KT 6000 SCT016 24/24 Q1008 TEMPO FM2330 4000 -RA RMK RA TO NW=
202603052230 METAR WIHH 052230Z 25005KT 6000 SCT016 24/24 Q1008 TEMPO FM2330 4000 -RA RMK RA TO NW=
202603052200 METAR WIHH 052200Z 25006KT 6000 SCT016 24/24 Q1007 TEMPO FM2300 4000 -RA RMK RA TO NW=
202603052130 METAR WIHH 052130Z 27006KT 6000 SCT016 24/24 Q1007 TEMPO FM2230 4000 -RA RMK RA TO W-N=
202603052100 METAR WIHH 052100Z 28006KT 6000 SCT016 25/25 Q1007 TEMPO FM2200 4000 -RA RMK RA TO W-N=
202603052030 METAR WIHH 052030Z 27005KT 6000 SCT017 25/25 Q1007 TEMPO FM2200 4000 -RA=
202603052000 METAR WIHH 052000Z 27005KT 6000 SCT016 25/24 Q1007 RMK RA TO NW=
202603051930 METAR WIHH 051930Z 24006KT 6000 SCT016 25/24 Q1008 NOSIG=
202603051900 METAR WIHH 051900Z 28006KT 6000 SCT016 25/24 Q1008 NOSIG=
202603051830 METAR WIHH 051830Z 24006KT 6000 -RA BKN015 25/24 Q1008 TEMPO TL1930 4 000 -RA=
202603051800 METAR WIHH 051800Z 25007KT 6000 -RA BKN016 25/24 Q1008 TEMPO TL1930 4 000 -RA=
202603051730 METAR WIHH 051730Z 26007KT 6000 -RA SCT016 25/25 Q1009 TEMPO TL1830 4000 -RA=
202603051700 METAR WIHH 051700Z 25007KT 6000 -RA BKN016 25/25 Q1009 TEMPO TL1730 4 000 -RA BKN015=
202603051630 METAR WIHH 051630Z 24009KT 6000 -RA BKN016 25/24 Q1009 TEMPO TL1700 4000 -RA BKN015=
202603051600 METAR WIHH 051600Z 24008KT 7000 -RA SCT016 25/24 Q1009 TEMPO TL1630 4000 -RA BKN015=
202603051530 METAR WIHH 051530Z 26009KT 7000 -RA SCT016 26/24 Q1009 TEMPO TL1600 3 000 -RA BKN015=
202603051500 METAR WIHH 051500Z 24007KT 7000 SCT016 26/24 Q1009 TEMPO FM1530 3000 -RA BKN015 RMK RA TO W=
202603051430 METAR WIHH 051430Z 25006KT 7000 SCT017 26/24 Q1009 TEMPO FM1500 4000 - BKN015 RMK RA TO W=
202603051400 METAR WIHH 051400Z 27006KT 6000 SCT017 26/24 Q1009 TEMPO FM1430 3000 -RA BKN015 RMK RA TO NW=
202603051330 METAR WIHH 051330Z 25007KT 6000 SCT017 25/24 Q1008 NOSIG=
202603051300 METAR WIHH 051300Z 25006KT 7000 SCT017 25/24 Q1008 NOSIG=
202603051230 METAR WIHH 051230Z 26007KT 8000 SCT017 25/24 Q1008 NOSIG=
202603051200 METAR WIHH 051200Z 26012KT 6000 SCT015 25/23 Q1008 NOSIG=
202603051130 METAR WIHH 051130Z 24015KT 6000 -RA BKN015 26/23 Q1007 TEMPO FM1200 5000 -RA=
202603051110 SPECI WIHH 051110Z 04011KT 6000 -RA BKN015 27/24 Q1007=
202603051100 METAR WIHH 051100Z 25010KT 8000 SCT015 27/23 Q1007 TEMPO FM1130 6000 -RA RMK RA TO W=
202603051030 METAR WIHH 051030Z 26012KT 8000 SCT015 27/23 Q1007 TEMPO FM1130 6000 -RA RMK RA TO W=
202603051000 METAR WIHH 051000Z 25015KT 8000 SCT015 27/23 Q1006 RMK RA TO S=
202603050930 METAR WIHH 050930Z 24012KT 8000 SCT015 27/24 Q1006 RMK RA TO S=
202603050900 METAR WIHH 050900Z 24010KT 6000 -RA BKN015 26/24 Q1006 TEMPO TL0930 3 000 RA=
202603050830 METAR WIHH 050830Z 24014KT 6000 -RA BKN015 28/23 Q1006 TEMPO TL0930 3000 -RA=
202603050800 METAR WIHH 050800Z 24012KT 6000 -RA BKN014 27/24 Q1007 TEMPO TL0830 3000 -RA=
202603050730 METAR WIHH 050730Z 26012KT 6000 -RA BKN014 28/24 Q1007 TEMPO TL0800 3000 -RA=
202603050700 METAR WIHH 050700Z 24008KT 6000 BKN017 27/24 Q1007 TEMPO FM0730 3000 -RA RMK RA TO SW=
202603050630 METAR WIHH 050630Z 27008KT 6000 SCT017 28/25 Q1007 TEMPO FM0730 3000 -RA RMK RA TO SW=
202603050600 METAR WIHH 050600Z 25005KT 6000 -RA BKN015 26/25 Q1008 TEMPO TL0730 3000 -RA=
202603050530 METAR WIHH 050530Z 30017KT 5000 -RA BKN015 27/25 Q1009 TEMPO TL0630 3 000 -RA=
202603050510 SPECI WIHH 050510Z 27017KT 5000 -RA BKN015 28/24 Q1009=
202603050500 METAR WIHH 050500Z 26011KT 6000 SCT017 28/24 Q1009 RMK RA TO W=
202603050430 METAR WIHH 050430Z 23010KT 8000 SCT017 29/24 Q1009 RMK RA TO NW=
202603050400 METAR WIHH 050400Z 25009KT 6000 SCT017 26/24 Q1009 RMK RA TO W=
202603050330 METAR WIHH 050330Z 24007KT 6000 -RA SCT017 25/25 Q1009 NOSIG=
202603050300 METAR WIHH 050300Z 24009KT 5000 -RA SCT016 25/24 Q1010 TEMPO TL0330 5000 -RA BKN018=
202603050230 METAR WIHH 050230Z 23010KT 5000 -RA SCT016 25/24 Q1010 TEMPO TL0300 5 000 -RA BKN018=
202603050200 METAR WIHH 050200Z 24012KT 5000 -RA SCT016 27/24 Q1009 TEMPO TL0300 5000 -RA=
202603050130 METAR WIHH 050130Z 24012KT 6000 -RA SCT018 27/24 Q1009 NOSIG=
202603050100 METAR WIHH 050100Z 23010KT 7000 SCT020 27/24 Q1009 RMK RA TO SW=
202603050030 METAR WIHH 050030Z 23010KT 7000 SCT020 27/24 Q1009 RMK RA TO SW=
202603050000 METAR WIHH 050000Z 26008KT 7000 SCT020 27/23 Q1008 RMK RA TO SW=
202603042330 METAR WIHH 042330Z 24007KT 7000 SCT020 26/23 Q1008 RMK RA TO W=
202603042310 SPECI WIHH 042310Z 27006KT 6000 -RA SCT018 27/23 Q1008=
202603042300 METAR WIHH 042300Z 26008KT 7000 SCT020 27/23 Q1008 TEMPO FM2310 5000 -RA RMK RA TO W=
202603042230 METAR WIHH 042230Z 25008KT 7000 SCT020 27/23 Q1008 RMK RA TO W=
202603042200 METAR WIHH 042200Z 27006KT 8000 SCT020 26/23 Q1008 NOSIG=
202603042130 METAR WIHH 042130Z 26006KT 8000 SCT020 26/23 Q1007 NOSIG=
202603042100 METAR WIHH 042100Z 24010KT 8000 SCT020 26/23 Q1007 NOSIG=
202603042030 METAR WIHH 042030Z 24008KT 8000 SCT020 26/23 Q1007 NOSIG=
202603042000 METAR WIHH 042000Z 26006KT 8000 SCT020 26/23 Q1008 NOSIG=
202603041930 METAR WIHH 041930Z 25005KT 8000 SCT020 26/23 Q1008 NOSIG=
202603041900 METAR WIHH 041900Z 23006KT 8000 FEW020 26/23 Q1008 NOSIG=
202603041830 METAR WIHH 041830Z 25010KT 8000 FEW020 26/23 Q1008 NOSIG=
202603041800 METAR WIHH 041800Z 26008KT 8000 FEW020 26/23 Q1009 NOSIG=
202603041730 METAR WIHH 041730Z 23008KT 8000 FEW020 26/23 Q1009 NOSIG=
202603041700 METAR WIHH 041700Z 25010KT 9999 FEW020 26/23 Q1009 NOSIG=
202603041630 METAR WIHH 041630Z 25008KT 9999 FEW020 26/23 Q1010 NOSIG=
202603041600 METAR WIHH 041600Z 26010KT 9999 FEW020 27/23 Q1010 NOSIG=
202603041530 METAR WIHH 041530Z 26008KT 9999 FEW020 27/23 Q1010 NOSIG=
202603041500 METAR WIHH 041500Z 26010KT 9999 FEW020 27/23 Q1010 NOSIG=
202603041430 METAR WIHH 041430Z 26010KT 9999 FEW020 26/23 Q1009 NOSIG=
202603041400 METAR WIHH 041400Z 24010KT 9999 FEW020 26/23 Q1009 NOSIG=
202603041330 METAR WIHH 041330Z 24010KT 8000 SCT020 26/23 Q1008 NOSIG=
202603041300 METAR WIHH 041300Z 25008KT 8000 SCT020 26/23 Q1008 NOSIG=
202603041230 METAR WIHH 041230Z 27010KT 8000 SCT020 26/22 Q1008 RMK RA TO N=
202603041200 METAR WIHH 041200Z 24012KT 8000 SCT020 26/22 Q1008 RMK RA TO N=
202603041130 METAR WIHH 041130Z 24010KT 6000 SCT015 26/22 Q1008 NOSIG=
202603041100 METAR WIHH 041100Z 26010KT 6000 -RA SCT017 26/22 Q1008 NOSIG=
202603041030 METAR WIHH 041030Z 24010KT 6000 -RA SCT017 26/23 Q1007 NOSIG=
202603041015 SPECI WIHH 041015Z 24012KT 6000 -RA SCT017 26/23 Q1007=
202603041000 METAR WIHH 041000Z 24016KT 7000 SCT018 28/22 Q1007 RMK RA TO SW=
202603040930 METAR WIHH 040930Z 24012KT 7000 SCT018 30/22 Q1007 RMK RA TO SW=
202603040900 METAR WIHH 040900Z 26012KT 8000 SCT018 30/22 Q1007 NOSIG=
202603040830 METAR WIHH 040830Z 24008KT 8000 SCT018 30/23 Q1007 NOSIG=
202603040800 METAR WIHH 040800Z 28012KT 8000 SCT020 30/23 Q1007 RMK RA TO S=
202603040730 METAR WIHH 040730Z 24010KT 8000 SCT020 29/24 Q1008 NOSIG=
202603040700 METAR WIHH 040700Z 26014KT 8000 SCT020 31/23 Q1008 NOSIG=
202603040630 METAR WIHH 040630Z 24015KT 7000 SCT017 28/24 Q1008 RMK RA TO NE-E=
202603040600 METAR WIHH 040600Z 23015KT 7000 SCT017 30/24 Q1008 NOSIG RMK RA TO SW AND NW=
202603040530 METAR WIHH 040530Z 23015KT 6000 -RA SCT016 30/24 Q1009 NOSIG=
202603040500 METAR WIHH 040500Z 28010KT 8000 SCT018 31/23 Q1009 RMK RA TO SW=
202603040430 METAR WIHH 040430Z 24012KT 8000 SCT020 31/23 Q1009 RMK RA TO SW=
202603040400 METAR WIHH 040400Z 30010KT 8000 SCT020 30/23 Q1010 NOSIG=
202603040330 METAR WIHH 040330Z 27010KT 8000 SCT020 29/23 Q1010 NOSIG=
202603040300 METAR WIHH 040300Z 24010KT 6000 SCT018 29/23 Q1010 NOSIG=
202603040230 METAR WIHH 040230Z 24013KT 7000 SCT018 28/24 Q1011 NOSIG=
202603040200 METAR WIHH NIL=
202603040130 METAR WIHH 040130Z 25010KT 7000 SCT020 26/24 Q1010 NOSIG=
202603040100 METAR WIHH 040100Z 23010KT 7000 SCT018 25/23 Q1009 NOSIG RMK RA TO NE -E=
202603040030 METAR WIHH 040030Z 25010KT 7000 -RA SCT018 24/23 Q1009 NOSIG=
202603040000 METAR WIHH 040000Z 24015KT 6000 -RA BKN017 24/23 Q1009 TEMPO TL0100 4000 -RA=
202603032335 SPECI WIHH 032335Z 23015KT 5000 -RA BKN017 25/23 Q1009=
202603032330 METAR WIHH 032330Z 24013KT 6000 SCT018 25/23 Q1009 TEMPO FM2340 3000 -RA BKN015 RMK RA TO SW-W=
202603032300 METAR WIHH 032300Z 24006KT 6000 SCT018 25/23 Q1009 TEMPO FM0000 3000 -RA BKN015 RMK RA TO W=
202603032230 METAR WIHH 032230Z 26008KT 6000 SCT018 25/23 Q1009 TEMPO FM2330 3000 -RA RMK RA TO NW=
202603032200 METAR WIHH 032200Z 24010KT 6000 SCT018 25/23 Q1009 RMK RA TO NW=
202603032130 METAR WIHH 032130Z 26009KT 7000 SCT018 26/22 Q1008 RMK RA TO NW=
202603032100 METAR WIHH 032100Z 24014KT 7000 SCT018 26/23 Q1008 RMK RA TO NW=
202603032030 METAR WIHH 032030Z 24012KT 7000 SCT020 26/23 Q1008 NOSIG=
202603032000 METAR WIHH 032000Z 26008KT 7000 SCT020 26/23 Q1008 NOSIG=
202603031930 METAR WIHH 031930Z 25007KT 7000 SCT020 26/22 Q1008 NOSIG=
202603031900 METAR WIHH 031900Z 26008KT 7000 SCT020 25/22 Q1009 NOSIG=
202603031830 METAR WIHH 031830Z 25008KT 7000 SCT018 25/22 Q1009 NOSIG=
202603031800 METAR WIHH 031800Z 25009KT 7000 SCT020 25/22 Q1009 NOSIG=
202603031730 METAR WIHH 031730Z 25010KT 7000 SCT018 25/22 Q1010 NOSIG=
202603031700 METAR WIHH 031700Z 24010KT 7000 SCT018 25/22 Q1010 NOSIG=
202603031630 METAR WIHH 031630Z 25010KT 7000 SCT017 25/22 Q1010 NOSIG=
202603031600 METAR WIHH 031600Z 25008KT 7000 SCT017 24/23 Q1010 RMK RA TO NE=
202603031530 METAR WIHH 031530Z 24006KT 7000 SCT017 24/23 Q1009 RMK RA TO SW=
202603031500 METAR WIHH 031500Z 23010KT 7000 SCT017 24/23 Q1010 RMK RA TO E=
202603031430 METAR WIHH 031430Z 21008KT 6000 -RA BKN017 24/23 Q1010 NOSIG=
202603031400 METAR WIHH 031400Z 24010KT 3000 BKN016 25/24 Q1011 TEMPO TL1500 3000 -RA=
202603031330 METAR WIHH 031330Z 26008KT 7000 -RA SCT017 26/24 Q1010 NOSIG=
202603031300 METAR WIHH 031300Z 27007KT 7000 -RA SCT017 25/24 Q1009 NOSIG=
202603031230 METAR WIHH 031230Z 24010KT 4000 -RA BKN016 27/23 Q1009 TEMPO TL1330 3000 -RA=
202603031200 METAR WIHH 031200Z 26010KT 8000 SCT020 28/23 Q1009 TEMPO FM1230 3000 -RA=
202603031130 METAR WIHH 031130Z 23013KT 8000 SCT020 28/23 Q1008 RMK RA TO W=
202603031100 METAR WIHH 031100Z 24012KT 8000 FEW020 28/23 Q1007 NOSIG=
202603031030 METAR WIHH 031030Z 23010KT 8000 SCT020 29/23 Q1007 NOSIG=
202603031000 METAR WIHH 031000Z 24010KT 8000 SCT020 29/23 Q1007 NOSIG=
202603030930 METAR WIHH 030930Z 25008KT 7000 SCT018 30/23 Q1006 NOSIG=
202603030900 METAR WIHH 030900Z 23012KT 7000 SCT018 30/23 Q1006 NOSIG=
202603030830 METAR WIHH 030830Z 23010KT 7000 SCT018 30/26 Q1006 NOSIG=
202603030800 METAR WIHH 030800Z 24011KT 7000 SCT018 31/23 Q1007 NOSIG=
202603030730 METAR WIHH 030730Z 25010KT 7000 31/23 Q1008 NOSIG RMK RA TO SW=
202603030700 METAR WIHH 030700Z 25010KT 7000 SCT017 31/23 Q1008 RMK RA TO SW=
202603030630 METAR WIHH 030630Z 29012KT 7000 SCT017 32/22 Q1008 NOSIG=
202603030600 METAR WIHH 030600Z 25007KT 7000 SCT018 32/23 Q1008 NOSIG=
202603030530 METAR WIHH 030530Z 23015KT 7000 SCT018 32/23 Q1008 NOSIG=
202603030500 METAR WIHH 030500Z 24010KT 7000 SCT018 30/25 Q1009 NOSIG=
202603030430 METAR WIHH 030430Z 24007KT 7000 SCT018 29/25 Q1009 NOSIG=
202603030400 METAR WIHH 030400Z 23008KT 7000 SCT018 26/24 Q1010=
202603030330 METAR WIHH 030330Z 24006KT 7000 SCT017 25/24 Q1011 NOSIG=
202603030300 METAR WIHH 030300Z 21003KT 6000 -RA SCT017 24/23 Q1011 NOSIG=
202603030230 METAR WIHH 030230Z 19008KT 5000 -RA BKN014 23/23 Q1012 TEMPO TL0300 5000 -RA=
202603030200 METAR WIHH 030200Z 23008KT 4000 -RA BKN014 23/23 Q1012 TEMPO TL0300 4000 -RA=
202603030130 METAR WIHH 030130Z 24010KT 4000 -RA BKN014 23/23 Q1012 TEMPO TL0200 5000 -RA=
202603030100 METAR WIHH 030100Z 26014KT 3000 -RA BKN014 23/23 Q1012 TEMPO TL0200 4000 -RA=
202603030030 METAR WIHH 030030Z 27013KT 5000 -RA BKN015 24/23 Q1011 TEMPO TL0130 4000 -RA=
202603030000 METAR WIHH 030000Z 23012KT 6000 -RA BKN015 25/23 Q1010 TEMPO TL0100 4000 -RA=
202603022330 METAR WIHH 022330Z 23008KT 6000 -RA BKN015 25/24 Q1009 TEMPO TL0000 4 000 -RA=
202603022300 METAR WIHH 022300Z 23010KT 6000 -RA BKN015 25/24 Q1009 TEMPO TL0000 4000 -RA=
202603022230 METAR WIHH 022230Z 23010KT 6000 -RA BKN016 25/23 Q1009 TEMPO TL2300 4000 -RA=
202603022200 METAR WIHH 022200Z 20008KT 6000 -RA BKN016 25/24 Q1009 TEMPO TL2300 4 000 -RA=
202603022130 METAR WIHH 022130Z 23012KT 5000 -RA BKN015 25/24 Q1009 TEMPO TL2200 4000 -RA=
202603022100 METAR WIHH 022100Z 25015KT 5000 -RA BKN015 26/22 Q1008 TEMPO TL2200 4000 -RA=
202603022030 METAR WIHH 022030Z 26010KT 8000 FEW020 27/22 Q1008 NOSIG=
202603022000 METAR WIHH 022000Z 24008KT 8000 FEW020 27/22 Q1008 NOSIG=
202603021930 METAR WIHH 021930Z 24010KT 8000 FEW020 27/23 Q1009 NOSIG=
202603021900 METAR WIHH 021900Z 26007KT 8000 FEW020 27/23 Q1009 NOSIG=
202603021830 METAR WIHH 021830Z 25011KT 8000 FEW020 27/23 Q1009 NOSIG=
202603021800 METAR WIHH 021800Z 25007KT 9000 FEW020 25/22 Q1008 NOSIG=
202603021730 METAR WIHH 021730Z 24008KT 9000 FEW020 26/22 Q1009 NOSIG=
202603021700 METAR WIHH 021700Z 28004KT 9999 FEW020 26/22 Q1009 NOSIG=
202603021630 METAR WIHH 021630Z 26005KT 9999 FEW018 26/22 Q1010 NOSIG=
202603021600 METAR WIHH 021600Z 28007KT 9999 FEW018 27/22 Q1010 NOSIG=
202603021530 METAR WIHH 021530Z 25008KT 1000 FEW018 27/22 Q1010 NOSIG=
202603021500 METAR WIHH 021500Z 24011KT 8000 FEW018 27/22 Q1010 NOSIG=
202603021430 METAR WIHH 021430Z 24009KT 8000 FEW018 27/23 Q1010 NOSIG=
202603021400 METAR WIHH 021400Z 28008KT 8000 FEW018 26/24 Q1009 NOSIG=
202603021330 METAR WIHH 021330Z 25007KT 7000 SCT018 26/23 Q1009 NOSIG=
202603021300 METAR WIHH 021300Z 27008KT 7000 SCT018 26/23 Q1009 NOSIG=
202603021230 METAR WIHH 021230Z 27010KT 7000 SCT018 26/23 Q1008 NOSIG=
202603021200 METAR WIHH 021200Z 25010KT 7000 SCT018 26/23 Q1008 NOSIG=
202603021130 METAR WIHH 021130Z 24010KT 6000 SCT017 27/23 Q1008 NOSIG=
202603021100 METAR WIHH 021100Z 25008KT 6000 SCT018 26/23 Q1007 NOSIG=
202603021030 METAR WIHH 021030Z 24012KT 6000 SCT018 27/24 Q1007 NOSIG=
202603021000 METAR WIHH 021000Z 24005KT 6000 SCT017 27/25 Q1007 NOSIG=
202603020930 METAR WIHH 020930Z 32003KT 6000 SCT017 27/25 Q1007 NOSIG=
202603020900 METAR WIHH 020900Z 32004KT 6000 SCT016 26/25 Q1007 TEMPO FM0930 4000 -RA BKN016 RMK RA TO W AND E=
202603020830 METAR WIHH 020830Z 33004KT 6000 -TSRA FEW017CB SCT018 27/25 Q1007 TEMPO TL0900 4000 TSRA RMK CB TO NE=
202603020800 METAR WIHH 020800Z 26005KT 5000 -TSRA FEW017CB SCT018 26/25 Q1007 TEMPO TL0830 2000 TSRA SCT016 RMK CB TO W=
202603020730 METAR WIHH 020730Z 24010KT 5000 -TSRA FEW017CB SCT018 26/25 Q1007 TEMPO TL0800 2000 TSRA BKN016 RMK CB TO W=
202603020702 SPECI WIHH 020702Z 25019KT 6000 -TSRA FEW017CB SCT018 27/23 Q1007 RMK CB TO SW=
202603020700 METAR WIHH 020700Z 24015KT 4000 TS FEW017CB SCT018 29/25 Q1007 TEMPO TL0715 2000 -TSRA BKN016 RMK CB AND RA TO SW=
202603020630 METAR WIHH 020630Z 30007KT 6000 FEW017 SCT018 31/23 Q1007 TEMPO TL070 0 4000 -TSRA BKN016 RMK CB AND RA TO SW=
202603020600 METAR WIHH 020600Z 27005KT 6000 FEW017CB SCT018 31/23 Q1008 RMK CB TO SW=
202603020530 METAR WIHH 020530Z 30006KT 6000 -RA FEW017CB SCT018 31/22 Q1008 TEMPO TL0600 4000 -TSRA BKN016 RMK CB TO SW=
202603020500 METAR WIHH 020500Z 28006KT 8000 SCT017 31/24 Q1009 TEMPO FM0515 4000 -RA BKN016 RMK RA TO NW=
202603020430 METAR WIHH 020430Z 32008KT 8000 SCT018 31/24 Q1009 NOSIG=
202603020400 METAR WIHH 020400Z 26008KT 8000 SCT018 31/24 Q1009 NOSIG=
202603020330 METAR WIHH 020330Z 28009KT 8000 SCT018 30/23 Q1010 NOSIG=
202603020300 METAR WIHH 020300Z 27008KT 8000 SCT017 30/23 Q1010 NOSIG=
202603020230 METAR WIHH 020230Z 28009KT 7000 SCT017 30/23 Q1010 RMK RA TO N=
202603020200 METAR WIHH 020200Z 26008KT 7000 SCT017 29/24 Q1010 RMK RA TO NE=
202603020130 METAR WIHH 020130Z 25007KT 8000 SCT018 29/24 Q1010 NOSIG=
202603020100 METAR WIHH 020100Z 27005KT 8000 SCT018 28/25 Q1009 NOSIG=
202603020030 METAR WIHH 020030Z 25010KT 8000 SCT018 27/24 Q1009 NOSIG RMK RA TO W-N=
202603020000 METAR WIHH 020000Z 25006KT 8000 FEW020 26/25 Q1008 NOSIG=
202603012330 METAR WIHH 012330Z 24007KT 8000 SCT020 26/25 Q1008 NOSIG=
202603012300 METAR WIHH 012300Z 24003KT 8000 SCT020 26/24 Q1008 NOSIG=
202603012230 METAR WIHH 012230Z 28003KT 8000 SCT020 26/24 Q1008 NOSIG=
202603012200 METAR WIHH 012200Z 23003KT 8000 SCT020 25/24 Q1007 NOSIG=
202603012130 METAR WIHH 012130Z 32003KT 8000 SCT020 25/24 Q1007 NOSIG=
202603012100 METAR WIHH 012100Z 00000KT 8000 SCT020 25/24 Q1007 NOSIG=
202603012030 METAR WIHH 012030Z 00000KT 8000 SCT020 25/24 Q1007 NOSIG=
202603012000 METAR WIHH 012000Z 00000KT 8000 SCT020 25/24 Q1007 NOSIG=
202603011930 METAR WIHH 011930Z 00000KT 7000 SCT018 25/24 Q1008 NOSIG=
202603011900 METAR WIHH 011900Z 00000KT 7000 SCT018 25/24 Q1008 NOSIG=
202603011830 METAR WIHH 011830Z 00000KT 7000 SCT018 25/24 Q1008 NOSIG=
202603011800 METAR WIHH 011800Z 00000KT 8000 SCT018 25/24 Q1008 NOSIG=
202603011730 METAR WIHH 011730Z 00000KT 7000 SCT018 25/24 Q1009 NOSIG=
202603011700 METAR WIHH 011700Z 28003KT 8000 SCT018 25/25 Q1009 NOSIG=
202603011630 METAR WIHH 011630Z 28002KT 8000 SCT018 25/25 Q1009 NOSIG=
202603011600 METAR WIHH 011600Z 00000KT 8000 SCT018 25/25 Q1009 NOSIG=
202603011530 METAR WIHH 011530Z 00000KT 8000 SCT018 25/25 Q1009 NOSIG=
202603011500 METAR WIHH 011500Z 00000KT 8000 SCT018 26/25 Q1009 NOSIG=
202603011430 METAR WIHH 011430Z 27003KT 8000 SCT018 26/25 Q1009 NOSIG=
202603011400 METAR WIHH 011400Z 29004KT 8000 SCT018 26/25 Q1009 NOSIG=
202603011330 METAR WIHH 011330Z 24004KT 8000 SCT018 26/25 Q1009 RMK RA TO W=
202603011300 METAR WIHH 011300Z 26004KT 8000 SCT018 26/25 Q1008 RMK RA TO SW=
202603011230 METAR WIHH 011230Z 25004KT 8000 SCT016 26/25 Q1008 NOSIG=
202603011200 METAR WIHH 011200Z 26004KT 8000 SCT016 26/25 Q1008 NOSIG=
202603011130 METAR WIHH 011130Z 22006KT 8000 SCT016 26/25 Q1007 RMK RA TO SE=
202603011100 METAR WIHH 011100Z 25003KT 8000 SCT016 28/24 Q1006 NOSIG RMK RA TO SW=
202603011030 METAR WIHH 011030Z 33004KT 8000 SCT016 29/24 Q1006 NOSIG=
202603011000 METAR WIHH 011000Z 36004KT 8000 SCT016 29/24 Q1005 NOSIG=
202603010930 METAR WIHH 010930Z 33004KT 8000 SCT016 29/25 Q1005 NOSIG=
202603010900 METAR WIHH 010900Z 35004KT 8000 SCT016 28/25 Q1005 NOSIG=
202603010830 METAR WIHH 010830Z 31004KT 8000 SCT016 26/24 Q1006 RMK RA TO SE=
202603010800 METAR WIHH 010800Z 36005KT 8000 -RA SCT016 25/24 Q1006 NOSIG=
202603010730 METAR WIHH 010730Z 25012KT 5000 -TSRA BKN016 FEW018CB 29/25 Q1006 RMK CB TO NW=
202603010700 METAR WIHH 010700Z 36008KT 9999 TS SCT016 FEW018CB 30/23 Q1005 TEMPO FM0720 5000 -TSRA BKN017 RMK CB AND RA TO NW=
202603010630 METAR WIHH 010630Z 34011KT 9999 SCT018 32/24 Q1005 RMK RA TO W-N=
202603010600 METAR WIHH 010600Z 23010KT 9999 SCT018 32/26 Q1006 RMK RA TO NW=
202603010530 METAR WIHH 010530Z 24005KT 9999 SCT018 32/23 Q1007 NOSIG RMK RA TO SW=
202603010500 METAR WIHH 010500Z 27005KT 9999 SCT018 32/23 Q1008 NOSIG=
202603010430 METAR WIHH 010430Z 27005KT 9999 SCT018 32/23 Q1008 NOSIG=
202603010400 METAR WIHH 010400Z 29005KT 9999 SCT018 32/23 Q1008 NOSIG=
202603010330 METAR WIHH 010330Z 30010KT 9999 SCT018 31/22 Q1008 NOSIG=
202603010300 METAR WIHH 010300Z 28010KT 9999 SCT018 30/23 Q1009 NOSIG=
202603010230 METAR WIHH 010230Z 25004KT 9999 SCT020 30/23 Q1009 NOSIG=
202603010200 METAR WIHH 010200Z 24006KT 9999 FEW020 30/24 Q1009 NOSIG=
202603010130 METAR WIHH 010130Z 26006KT 8000 FEW020 30/24 Q1009 NOSIG=
202603010100 METAR WIHH 010100Z 24006KT 7000 FEW020 29/24 Q1008 NOSIG=
202603010030 METAR WIHH 010030Z 24004KT 7000 FEW020 28/24 Q1008 NOSIG=
202603010000 METAR WIHH 010000Z 27003KT 7000 FEW020 26/24 Q1008 NOSIG=

# No short TAF reports from WIHH in databse.

###################################
#  large TAF from WIHH
###################################
202603312300 TAF WIHH 312300Z 0100/0200 08006KT 7000 FEW020
                      TEMPO 0104/0106 01015KT 4000 -RA SCT016
                      TEMPO 0107/0110 3000 -TSRA BKN015 FEW017CB
                       BECMG 0112/0114 12004KT 6000 SCT020=
202603311700 TAF WIHH 311700Z 3118/0118 12003KT 5000 HZ FEW020
                      BECMG 0101/0103 07008KT 7000 SCT018=
202603311100 TAF WIHH 311100Z 3112/0112 16008KT 7000 SCT018
                      TEMPO 3112/3115 3000 -TSRA BKN016 FEW017CB
                       BECMG 3116/3118 09003KT 5000 HZ FEW020=
202603310500 TAF WIHH 310500Z 3106/0106 04008KT 7000 SCT018
                      TEMPO 3107/3111 09010G22KT 3000 -TSRA BKN016
                       FEW017CB
                      BECMG 3114/3116 15004KT 5000 HZ=
202603302300 TAF WIHH 302300Z 3100/0100 32005KT 7000 SCT020
                      TEMPO 3107/3111 15012G20KT 2000 TSRA BKN013
                       FEW017CB
                      BECMG 3114/3116 22003KT 6000 SCT018=
202603301700 TAF WIHH 301700Z 3018/3118 00000KT 7000 SCT020
                      BECMG 3020/3023 25004KT 3000 BR SCT017=
202603301100 TAF WIHH 301100Z 3012/3112 12006KT 4000 -TSRA BKN015 FEW017CB
                      BECMG 3020/3023 23004KT 3000 BR SCT017=
202603300500 TAF WIHH 300500Z 3006/3106 02006KT 7000 SCT018
                      TEMPO 3007/3011 120012G25KT 2000 TSRA BKN013
                       FEW016CB
                      TEMPO 3014/3017 VRB05KT 3000 -TSRA BKN015
                       FEW017CB
                      BECMG 3020/3023 21003KT 4000 BR SCT017=
202603292300 TAF WIHH 292300Z 3000/3100 15006KT 7000 SCT020
                      TEMPO 3009/3012 01012KT 3000 -TSRA FEW016CB
                       BKN017
                      BECMG 3014/3016 12003KT 5000 HZ=
202603291701 TAF WIHH 291701Z 2918/3018 18008KT 6000 SCT020
                      TEMPO 2918/2921 01010KT 4000 -TSRA FEW016CB
                       BKN017
                      BECMG 2922/3000 VRB02KT 5000 HZ=
202603291700 TAF WIHH 291700Z 2918/3018 18008KT 6000 SCT020
                      TEMPO 2918/2921 01010KT 4000 -TSRA FEW016CB
                       BKN017BECMG 2922/3000 VRB02KT 5000 HZ=
202603291130 TAF COR WIHH 291130Z 2912/3012 18008KT 7000 SCT018
                      TEMPO 2912/2915 04012KT 3000 -RA FEW015CB
                       BKN016
                      BECMG 2918/2920 15003KT 5000 HZ=
202603291100 TAF WIHH 291100Z 2912/3012 18008KT 7000 SCT018
                      TEMPO 2914/2917 04012KT 3000 -TSRA FEW015CB
                       BKN016
                      BECMG 2919/2921 15003KT 5000 HZ=
202603290500 TAF WIHH 290500Z 2906/3006 34008KT 7000 SCT018
                      TEMPO 2907/2910 04012KT 3000 -TSRA FEW015CB
                       BKN016
                      BECMG 2914/2916 15003KT 5000 HZ=
202603282300 TAF WIHH 282300Z 2900/3000 16007KT 8000 SCT018
                      TEMPO 2906/2910 36012KT 3000 -TSRA BKN016
                       FEW017CB
                      BECMG 2914/2916 22003KT 5000 HZ
                      TEMPO 2921/2923 4000 -RA BKN017=
202603281700 TAF WIHH 281700Z 2818/2918 16005KT 6000 FEW022
                      BECMG 2901/2903 04008KT 8000 SCT020=
202603281100 TAF WIHH 281100Z 2812/2912 03005KT 8000 SCT020
                      BECMG 2814/2816 24003KT 6000
                      TEMPO 2819/2822 16008KT 4000 -RA SCT016=
202603280500 TAF WIHH 280500Z 2806/2906 35008KT 7000 SCT018
                      TEMPO 2807/2811 28012KT 3000 -TSRA BKN016
                       FEW017CB
                      BECMG 2814/2816 12005KT 5000 HZ=
202603272300 TAF WIHH 272300Z 2800/2900 34007KT 7000 SCT018
                      TEMPO 2800/2803 4000 -RA BKN016
                      TEMPO 2808/2811 26012KT 3000 -TSRA BKN015
                       FEW016CB
                      TEMPO 2819/2822 16008KT 3000 -RA BKN018=
202603271700 TAF WIHH 271700Z 2718/2818 16004KT 7000 SCT020
                      TEMPO 2720/2723 01010KT 4000 -RA BKN017=
202603271100 TAF WIHH 271100Z 2712/2812 01005KT 8000 SCT018
                      TEMPO 2719/2722 22008KT 4000 -RA BKN015=
202603270500 TAF WIHH 270500Z 2706/2806 33012KT 7000 SCT018
                      TEMPO 2706/2710 3000 -TSRA BKN015 FEW016
                       BECMG 2712/2714 01004KT 5000 HZ=
202603262301 TAF WIHH 262301Z 2700/2800 27005KT 6000 SCT020
                      TEMPO 2700/2703 21008KT 4000 -RA BKN018
                      TEMPO 2708/2711 33012KT 3000 -TSRA FEW015CB
                       BKN016
                      BECMG 2713/2715 16003KT 5000 HZ=
202603262300 TAF WIHH 262300Z 2700/2800 27005KT 6000 SCT020
                      TEMPO 2700/2703 21008KT 4000 -RA BKN018
                      TEMPO 2708/2711 33012KT 3000 -TSRA FEW015CB
                       BKN016
                      BECMG 2713/2615 16003KT 5000 HZ=
202603261701 TAF WIHH 261701Z 2618/2718 36005KT 6000 SCT020
                      TEMPO 2621/2700 21008KT 3000 -RA FEW017CB
                       BKN018
                      BECMG 2702/2704 27003KT 5000 HZ=
202603261700 TAF WIHH 261700Z 2618/2718 36005KT 6000 SCT020
                      TEMPO 2621/2700 21008KT 3000 -RA FEW017CB
                       BKN018
                      BECMG 2702/2604 27003KT 5000 HZ=
202603261101 TAF WIHH 261101Z 2612/2712 33008KT 6000 SCT018
                      TEMPO 2615/2618 27008KT 3000 -RA FEW017CB
                       BECMG 2620/2622 21005KT 5000 HZ=
202603261100 TAF WIHH 261100Z 2612/2712 33008KT 6000 SCT018
                      TEMPO 2615/2618 27008KT 3000 -RA FEW017CB
                       BECMG 26120/2622 21005KT 5000 HZ=
202603260500 TAF WIHH 260500Z 2606/2706 33008KT 6000 SCT018
                      TEMPO 2606/2609 25015KT 3000 -TSRA BKN015
                       FEW017CB
                      BECMG 2611/2613 VRB02KT 5000 HZ=
202603252300 TAF WIHH 252300Z 2600/2700 28006KT 6000 SCT018
                      TEMPO 2600/2602 4000 -RA BKN016
                      TEMPO 2607/2611 35015KT 3000 -TSRA BKN015
                       FEW017CB
                      TEMPO 2619/2622 22008KT 3000 -RA=
202603251700 TAF WIHH 251700Z 2518/2618 16003KT 6000 SCT018
                      TEMPO 2522/2602 27008KT 4000 -RA BKN016
                      TEMPO 2608/2611 35015KT 3000 -TSRA BKN015
                       FEW017CB=
202603251100 TAF WIHH 251100Z 2512/2612 30005KT 7000 SCT018
                      BECMG 2518/2520 5000 HZ
                      TEMPO 2522/2602 27008KT 4000 -RA BKN016=
202603250500 TAF WIHH 250500Z 2506/2606 34015KT 7000 SCT017
                      TEMPO 2506/2510 3000 -RA BKN016 FEW017CB
                       BECMG 2511/2513 22005KT 6000 SCT020=
202603242300 TAF WIHH 242300Z 2500/2600 25006KT 6000 FEW020
                      TEMPO 2503/2506 03008KT 4000 -RA SCT016
                      TEMPO 2508/2511 35015KT 3000 -TSRA FEW016CB
                       BKN018
                      BECMG 2512/2514 21005KT 8000=
202603241700 TAF WIHH 241700Z 2418/2518 22005KT 8000 SCT020
                      BECMG 2422/2500 5000 HZ FEW022
                      TEMPO 2507/2510 35015KT 3000 -TSRA FEW016CB
                       BKN018=
202603241100 TAF WIHH 241100Z 2412/2512 35006KT 8000 SCT020
                      BECMG 2422/2500 21005KT 5000 HZ FEW018=
202603240500 TAF WIHH 240500Z 2406/2506 33008KT 8000 SCT020
                      TEMPO 2410/2413 03015KT 3000 -TSRA BKN015
                       FEW017CB
                      BECMG 2415/2417 21005KT 5000 HZ SCT018=
202603232300 TAF WIHH 232300Z 2400/2500 28006KT 7000 SCT020
                      TEMPO 2408/2410 34015KT 3000 -TSRA BKN015
                       FEW017CB
                      BECMG 2412/2414 27005KT 5000 HZ SCT018=
202603231700 TAF WIHH 231700Z 2318/2418 22003KT 6000 FEW020
                      BECMG 2402/2404 28008KT 8000 SCT018=
202603231255 TAF AMD WIHH 231255Z 2313/2412 27006KT 8000 SCT018
                      TEMPO 2313/2316 4000 -TSRA SCT016 FEW017CB
                       BECMG 2319/2321 00000KT 5000 HZ FEW020=
202603231100 TAF WIHH 231100Z 2312/2412 27006KT 8000 SCT018
                      BECMG 2319/2321 00000KT 5000 HZ FEW020=
202603230500 TAF WIHH 230500Z 2306/2406 36007KT 7000 SCT018
                      TEMPO 2307/2311 34015KT 3000 -TSRA BKN015
                       FEW016CB
                      BECMG 2313/2315 27006KT 6000 SCT020=
202603222300 TAF WIHH 222300Z 2300/2400 15006KT 8000 SCT020
                      TEMPO 2307/2310 03015KT 3000 -TSRA FEW016CB
                       BKN017
                      TEMPO 2312/2315 33005KT 4000 -RA SCT016=
202603221700 TAF WIHH 221700Z 2218/2318 14005KT 6000 FEW020
                      BECMG 2222/2300 5000 HZ
                      BECMG 2303/2305 09006KT 8000 SCT018
                      TEMPO 2309/2312 03015KT 3000 -TSRA FEW016CB
                       BKN017=
202603221100 TAF WIHH 221100Z 2212/2312 24006KT 7000 SCT018
                      TEMPO 2212/2215 4000 -RA BKN016
                      BECMG 2217/2219 16003KT 5000 HZ FEW022=
202603220500 TAF WIHH 220500Z 2206/2306 33008KT 8000 SCT020
                      TEMPO 2208/2211 21015KT 3000 -TSRA FEW015CB
                       BKN016
                      BECMG 2213/2215 02003KT 5000 HZ FEW022=
202603212300 TAF WIHH 212300Z 2200/2300 35006KT 7000 SCT018
                      TEMPO 2207/2211 16012G20KT 2000 TSRA BKN015
                       FEW017CB
                      TEMPO 2212/2215 26006KT 4000 -RA BKN016 FEW018CB
                       BECMG 2220/2223 02003KT 4000 BR SCT016=
202603211820 TAF WIHH 211820Z 2118/2218 18003KT 6000 SCT018
                      BECMG 2120/2123 12004KT 4000 BR SCT017=
202603211700 TAF WIHH 211700Z 2118/2218 18003KT 6000 SCT018
                      BECMG 2120/2123 12004KT 4000 BR SCT017=
202603211101 TAF WIHH 211101Z 2112/2212 18008KT 3000 -TSRA BKN015 FEW017CB
                      BECMG 2116/2118 00000KT 5000 HZ SCT016
                      TEMPO 2120/2123 12004KT 4000 BR SCT017=
202603211100 TAF WIHH 211100Z 2112/2212 18008KT 3000 -TSRA BKN015 FEW017CB
                      BECMG 2116/2118 00000KT 5000 HZ SCT 016
                      TEMPO 2120/2123 12004KT 4000 BR SCT017=
202603210500 TAF WIHH 210500Z 2106/2206 35006KT 6000 SCT017
                      TEMPO 2107/2111 15012G25KT 2000 TSRA BKN014
                       FEW017CB
                      TEMPO 2112/2115 4000 -RA BKN016 FEW018CB
                       BECMG 2120/2123 18003KT 4000 BR SCT016=
202603202300 TAF WIHH 202300Z 2100/2200 17006KT 7000 SCT020
                      TEMPO 2103/2106 5000 -RA FEW020
                      TEMPO 2108/2112 35015KT 3000 -TSRA FEW016CB
                       BKN018=
202603201700 TAF WIHH 201700Z 2018/2118 12005KT 7000 SCT018
                      BECMG 2022/2100 18005KT 5000 HZ FEW020
                      TEMPO 2110/2113 35015KT 3000 -TSRA FEW016CB
                       BKN018=
202603201100 TAF WIHH 201100Z 2012/2112 34010KT 8000 SCT020
                      TEMPO 2012/2015 17013KT 3000 -TSRA FEW017CB
                       BKN018
                      BECMG 2017/2019 VRB02KT 5000 HZ FEW022=
202603200500 TAF WIHH 200500Z 2006/2106 33010KT 8000 FEW020
                      TEMPO 2011/2014 17013KT 3000 -TSRA FEW017CB
                       BKN018=
202603192300 TAF WIHH 192300Z 2000/2100 26007KT 7000 FEW020
                      TEMPO 2006/2010 12012KT 2000 -TSRA BKN015
                       FEW017CB
                      TEMPO 2012/2015 19005KT 4000 -RA BKN016 FEW018CB
                       TEMPO 2018/2021 VRB04KT 4000 -TSRA BKN014
                       FEW017CB=
202603191700 TAF WIHH 191700Z NIL=
202603191100 TAF WIHH 191100Z 1912/2012 34008KT 6000 SCT016
                      TEMPO 1912/1915 18012KT 2000 TSRA BKN014
                       FEW017CB
                      TEMPO 1918/1921 13006KT 3000 -TSRA BKN015
                       FEW017CB=
202603190500 TAF WIHH 190500Z 1906/2006 26008KT 7000 SCT018
                      TEMPO 1908/1912 16012G25KT 2000 TSRA BKN014
                       FEW017CB
                      TEMPO 1913/1915 5000 -RA BKN016 FEW017CB
                       TEMPO 1918/1921 18006KT 4000 -TSRA BKN015
                       FEW017CB=
202603182300 TAF WIHH 182300Z 1900/2000 34010KT 7000 FEW020
                      TEMPO 1908/1911 18012KT 4000 -TSRA FEW017CB
                       BKN018
                      BECMG 1913/1915 09005KT 5000 HZ SCT016=
202603181700 TAF WIHH 181700Z 1818/1918 34006KT 6000 FEW020
                      BECMG 1821/1823 VRB02KT 4000 HZ
                      BECMG 1902/1904 22006KT 8000 SCT018=
202603181100 TAF WIHH 181100Z 1812/1912 34008KT 6000 SCT020
                      TEMPO 1811/1814 22010KT FEW017CB
                      BECMG 1816/1818 21005KT 9999 FEW022=
202603180500 TAF WIHH 180500Z 1806/1906 33008KT 6000 SCT020
                      TEMPO 1806/1809 FEW017CB
                      BECMG 1814/1817 21005KT 9999 FEW022=
202603172300 TAF WIHH 172300Z 1800/1900 32007KT 7000 SCT020
                      TEMPO 1809/1812 23012KT 3000 -TSRA BKN015
                       FEW017CB
                      BECMG 1814/1817 03004KT 8000 SCT018=
202603171700 TAF WIHH 171700Z 1718/1818 30008KT 8000 FEW020
                      BECMG 1721/1723 16004KT 5000 HZ SCT018=
202603171100 TAF WIHH 171100Z 1712/1812 30008KT 8000 FEW020
                      BECMG 1721/1723 16004KT 5000 HZ SCT018=
202603170500 TAF WIHH 170500Z 1706/1806 28008KT 9000 SCT018
                      TEMPO 1709/1712 24006KT 3000 -TSRA BKN015
                       FEW016CB
                      BECMG 1721/1723 16004KT 3000 BR SCT018=
202603162300 TAF WIHH 162300Z 1700/1800 25008KT 8000 SCT020
                      TEMPO 1706/1709 35010KT 4000 -TSRA FEW017CB
                       BKN018=
202603161700 TAF WIHH 161700Z 1618/1718 27005KT 8000 FEW020
                      BECMG 1622/1700 18003KT 5000 HZ SCT020
                      TEMPO 1706/1709 35010KT 4000 -TSRA FEW017CB
                       BKN018=
202603161100 TAF WIHH 161100Z 1612/1712 24008KT 8000 SCT020
                      BECMG 1622/1700 18003KT 5000 HZ FEW020=
202603160500 TAF WIHH 160500Z 1606/1706 24010KT 8000 SCT018
                      TEMPO 1609/1612 32015KT 4000 -TSRA SCT016
                       FEW017CB=
202603152300 TAF WIHH 152300Z 1600/1700 30010KT 7000 SCT018
                      TEMPO 1609/1611 27015KT 4000 -TSRA SCT016
                       FEW017CB
                      BECMG 1615/1617 23004KT 6000 FEW020=
202603151700 TAF WIHH 151700Z 1518/1618 25004KT 6000 FEW020
                      BECMG 1601/1603 31010KT 8000 SCT018=
202603151100 TAF WIHH 151100Z 1512/1612 31006KT 8000 SCT020
                      BECMG 1516/1518 23004KT 7000 FEW020=
202603150500 TAF WIHH 150500Z 1506/1606 30010KT 7000 SCT018
                      BECMG 1515/1517 23005KT 9000 FEW020=
202603142300 TAF WIHH 142300Z 1500/1600 28008KT 7000 FEW020
                      BECMG 1513/1515 23006KT 9000 SCT020=
202603141700 TAF WIHH 141700Z 1418/1518 30006KT 8000 FEW020
                      BECMG 1421/1423 24005KT 6000 SCT018=
202603141100 TAF WIHH 141100Z 1412/1512 32008KT 7000 SCT016
                      TEMPO 1412/1415 25012KT 4000 -RA BKN015 FEW017CB
                       BECMG 1417/1419 15005KT 6000 SCT018=
202603140500 TAF WIHH 140500Z 1406/1506 26010KT 9000 SCT020
                      TEMPO 1408/1411 33015KT 4000 -RA BKN016 FEW018CB
                       BECMG 1413/1415 20006KT 7000 SCT018=
202603132300 TAF WIHH 132300Z 1400/1500 27010KT 7000 FEW020
                      TEMPO 1408/1411 35012KT 4000 -RA FEW016CB
                       BKN018
                      BECMG 1413/1415 20006KT 5000 HZ SCT016=
202603131701 TAF WIHH 131701Z 1318/1418 28006KT 8000 FEW020
                      BECMG 1322/1400 22005KT 5000 HZ
                      BECMG 1402/1404 35008KT 6000 SCT018=
202603131700 TAF WIHH 131700Z 1318/1418 28006KT 8000 FEW020
                      BECMG BECMG 1322/1400 22005KT 5000 HZ
                      BECMG 1402/1404 35008KT 6000 SCT018=
202603131100 TAF WIHH 131100Z 1312/1412 33006KT 8000 SCT020
                      BECMG 1314/1316 16005KT
                      BECMG 1319/1621 21005KT=
202603130500 TAF WIHH 130500Z 1306/1406 24008KT 8000 SCT020
                      TEMPO 1308/1311 32015KT 3000 -TSRA FEW016CB
                       BKN018
                      BECMG 1313/1315 16005KT=
202603122300 TAF WIHH 122300Z 1300/1400 25008KT 7000 FEW020
                      TEMPO 1307/1310 31015KT 4000 -TSRA BKN016
                       FEW017CB
                      BECMG 1312/1314 16005KT 6000 SCT020=
202603121700 TAF WIHH 121700Z 1218/1318 21003KT 5000 HZ SCT020
                      BECMG 1300/1302 28007KT 8000 FEW022=
202603121120 TAF COR WIHH 121120Z 1212/1312 30005KT 7000 SCT018
                      TEMPO 1212/1214 3000 -TSRA BKN016 FEW017CB
                       BECMG 1218/1220 24003KT 5000 HZ FEW020=
202603120500 TAF WIHH 120500Z 1206/1306 27010KT 8000 SCT020
                      TEMPO 1208/1211 31012KT 4000 -TSRA SCT016
                       FEW017CB
                      BECMG 1212/1214 24005KT 7000 FEW022=
202603112300 TAF WIHH 112300Z 1200/1300 25007KT 7000 SCT020
                      TEMPO 1207/1211 32015KT 3000 -TSRA BKN015
                       FEW017CB
                      BECMG 1213/1215 16008KT 8000 SCT018=
202603111700 TAF WIHH 111700Z 1118/1218 15008KT 8000 SCT020
                      TEMPO 1207/1210 32012KT 3000 -TSRA BKN015
                       FEW017CB=
202603111100 TAF WIHH 111100Z 1112/1212 15008KT 5000 -RA BKN014 FEW016CB
                      BECMG 1113/1115 28005KT 7000 SCT016=
202603110500 TAF WIHH 110500Z 1106/1206 28010KT 8000 SCT018
                      TEMPO 1107/1110 34015KT 3000 -TSRA BKN016
                       FEW018CB
                      BECMG 1112/1115 26005KT 7000 SCT020=
202603102300 TAF WIHH 102300Z 1100/1200 24010KT 8000 SCT020
                      TEMPO 1107/1110 30015KT 3000 -TSRA FEW016CB
                       BKN018
                      BECMG 1112/1114 01005KT 5000 HZ=
202603101700 TAF WIHH 101700Z 1018/1118 28006KT 8000 SCT020
                      BECMG 1021/1023 21005KT 5000 HZ FEW022
                      TEMPO 1106/1109 35010KT 4000 -RA FEW016CB
                       BKN018=
202603101100 TAF WIHH 101100Z 1012/1112 27006KT 8000 SCT020
                      BECMG 1014/1016 33005KT
                      BECMG 1018/1020 21005KT=
202603100500 TAF WIHH 100500Z 1006/1106 27008KT 7000 SCT020
                      TEMPO 1007/1010 34010KT 4000 -RA BKN016 FEW017CB=
202603092301 TAF WIHH 092301Z 1000/1100 25007KT 7000 SCT020
                      TEMPO 1007/1010 30012KT 4000 -RA BKN016 FEW017CB
                       BECMG 1014/1016 27004KT 6000 FEW020=
202603092300 TAF WIHH 092300Z 1000/1100 25007KT 7000 SCT020
                      TEMPO 1007/1010 30012KT 4000 -RA BKN016 FEW017CB
                       BECMG
                      BECMG 1014/1016 27004KT 6000 FEW020=
202603091700 TAF WIHH 091700Z 0918/1018 24003KT 7000 SCT020
                      TEMPO 0907/0911 30012KT 4000 -RA BKN016 FEW017CB=
202603091100 TAF WIHH 091100Z 0912/1012 24006KT 7000 SCT018
                      TEMPO 0914/0917 4000 -RA BKN017
                      BECMG 0918/0920 00000KT 5000 HZ SCT020=
202603090501 TAF WIHH 090501Z 0906/1006 30010KT 7000 SCT018
                      TEMPO 0908/0912 4000 -TSRA BKN016 FEW017CB
                       TEMPO 0913/0916 22004KT 5000 -RA BKN017
                       BECMG 0917/0919 00000KT 5000 HZ SCT020=
202603090500 TAF WIHH 090500Z 0906/1006 30010KT 7000 SCT018
                      TEMPO 0908/0912 4000 -TSRA BKN016 FEW017CB
                       TEMPO 0913/1316 22004KT -RA 5000 BKN017
                       BECMG 0917/0919 00000KT 5000 HZ SCT020=
202603082300 TAF WIHH 082300Z 0900/1000 25006KT 7000 SCT020
                      TEMPO 0900/0903 4000 -RA BKN016
                      TEMPO 0906/0910 32015G22KT 3000 -TSRA BKN015
                       FEW017CB
                      BECMG 0912/0914 02005KT 6000 SCT018
                      TEMPO 0917/0920 32006KT -TSRA BKN015 FEW017CB=
202603081700 TAF WIHH 081700Z 0818/0918 22008KT 5000 -TSRA BKN015 FEW016CB
                      TEMPO 0822/0901 4000 -RA BKN016=
202603081100 TAF WIHH 081100Z 0812/0912 30007KT 7000 SCT017
                      TEMPO 0814/0817 24010KT 3000 -TSRA BKN015
                       FEW016CB
                      TEMPO 0821/0900 4000 -RA BKN016=
202603080500 TAF WIHH 080500Z 0806/0906 22008KT 6000 SCT016
                      TEMPO 0807/0810 29015G21KT 2000 TSRA BKN014
                       FEW017CB
                      TEMPO 0812/0815 23006KT 3000 -TSRA BKN015
                       FEW016CB
                      BECMG 0817/0819 03004KT 6000 SCT016
                      TEMPO 0821/0900 23005KT 4000 -RA BKN016=
202603072300 TAF WIHH 072300Z 0800/0900 24006KT 7000 SCT020
                      TEMPO 0800/0803 4000 -RA BKN016
                      TEMPO 0807/0810 30015KT 3000 -TSRA FEW017CB
                       BKN018
                      BECMG 0812/0814 02005KT 5000 HZ=
202603071700 TAF WIHH 071700Z 0718/0818 24006KT 6000 SCT020
                      TEMPO 0718/0721 02008KT 4000 -TSRA FEW015CB
                       BKN016
                      TEMPO 0805/0808 30015KT 3000 -TSRA FEW017CB
                       BKN018=
202603071100 TAF WIHH 071100Z 0712/0812 23010KT 8000 SCT018
                      TEMPO 0713/0716 31010KT 4000 -RA BKN016
                      BECMG 0717/0719 5000 HZ FEW020=
202603070500 TAF WIHH 070500Z 0706/0806 25010KT 8000 SCT018
                      TEMPO 0706/0709 34015KT 3000 -TSRA FEW015CB
                       BKN016
                      TEMPO 0713/0715 4000 -RA BKN017=
202603062300 TAF WIHH 062300Z 0700/0800 24010KT 7000 SCT018
                      TEMPO 0702/0705 4000 -RA BKN017
                      TEMPO 0707/0711 27015KT 3000 -TSRA BKN015
                       FEW017CB
                      TEMPO 0713/0715 4000 -RA BKN016=
202603061700 TAF WIHH 061700Z 0618/0718 24005KT 7000 SCT018
                      TEMPO 0705/0709 27015KT 3000 -TSRA BKN016
                       FEW017CB=
202603061255 TAF AMD WIHH 061255Z 0612/0712 25008KT 8000 SCT018
                      TEMPO 0613/0615 4000 -RA BKN017
                      TEMPO 0621/0700 22012KT 4000 -RA BKN016=
202603061100 TAF WIHH 061100Z 0612/0712 25008KT 8000 SCT018
                      TEMPO 0621/0700 22012KT 4000 -RA BKN016=
202603060500 TAF WIHH 060500Z 0606/0706 27010KT 4000 -RA BKN016
                      TEMPO 0609/0613 24015KT 3000 -TSRA BKN015
                       FEW017CB
                      BECMG 0616/0618 22008KT 8000 SCT020=
202603052302 TAF WIHH 052302Z 0600/0700 21010KT 7000 SCT018
                      TEMPO 0600/0603 4000 -RA BKN016
                      TEMPO 0606/0610 27015G25KT 2000 TSRA BKN015
                       FEW017CB
                      TEMPO 0612/0615 3000 -RA BKN016
                      TEMPO 0620/0700 20006KT 3000 -TSRA BKN013
                       FEW017CB=
202603052301 TAF WIHH 052301Z 0600/0700 21010KT 7000 SCT018
                      TEMPO 0600/0603 4000 -RA BKN16
                      TEMPO 0606/0610 27015G25KT 2000 TSRA BKN015
                       FEW017CB
                      TEMPO 0612/0615 3000 -RA BKN016
                      TEMPO 0620/0700 20006KT 3000 -TSRA BKN013
                       FEW017CB=
202603052300 TAF WIHH 052300Z 0600/0700 21010KT 7000 SCT018
                      TEMPO 0600/0603 4000 -RA BKN16
                      TEMPO 0606/0610 27015G25KT 2000 TSRA BKN015
                       FEW017CB
                      TEMPO 0512/0515 3000 -RA BKN016
                      TEMPO 0620/0700 20006KT 3000 -TSRA BKN013
                       FEWCB017=
202603051700 TAF WIHH 051700Z 0518/0618 27008KT -RA 5000 BKN016
                      TEMPO 0518/0523 21007KT 3000 -TSRA BKN015
                       FEW017CB=
202603051100 TAF WIHH 051100Z 0512/0612 28012KT 8000 SCT017
                      TEMPO 0513/0516 22015G25KT 2000 TSRA BKN014
                       FEW015CB
                      TEMPO 0518/0523 3000 -TSRA BKN015 FEW017CB=
202603050500 TAF WIHH 050500Z 0506/0606 26012KT 6000 SCT017
                      TEMPO 0506/0510 19015G25KT 2000 TSRA BKN015
                       FEW016CB
                      TEMPO 0513/0516 2000 TSRA BKN014 FEW015CB
                       TEMPO 0518/0523 27008KT 3000 -TSRA BKN015
                       FEW017CB=
202603042300 TAF WIHH 042300Z 0500/0600 24010KT 8000 SCT020
                      TEMPO 0500/0503 4000 -RA BKN16
                      TEMPO 0506/0509 30012KT 3000 -TSRA FEW016CB
                       BKN018
                      TEMPO 0520/0523 2000 -RA BKN020=
202603041700 TAF WIHH 041700Z 0418/0518 26010KT 8000 FEW020
                      TEMPO 0421/0500 23015KT 4000 -RA BKN016=
202603041100 TAF WIHH 041100Z 0412/0512 24010KT 7000 SCT020
                      TEMPO 0412/0415 3000 -RA BKN018
                      TEMPO 0421/0500 4000 -RA BKN016=
202603040500 TAF WIHH 040500Z 0406/0506 23010KT 8000 SCT020
                      TEMPO 0407/0410 29015KT 4000 -RA BKN016
                      TEMPO 0413/0416 3000 -RA BKN018=
202603032335 TAF AMD WIHH 032335Z 0400/0500 27010KT 7000 SCT018
                      TEMPO 0400/0403 24015KT 4000 -RA BKN016
                      TEMPO 0408/0410 22012KT 4000 -RA SCT017
                      TEMPO 0413/0417 5000 -RA BKN017=
202603032300 TAF WIHH 032300Z 0400/0500 27010KT 7000 SCT018
                      TEMPO 0403/0406 24015KT 3000 -TSRA BKN016
                       FEW017CB
                      TEMPO 0408/0410 22012KT 4000 -RA SCT017
                      TEMPO 0413/0417 5000 -RA BKN017=
202603031700 TAF WIHH 031700Z 0318/0418 25006KT 7000 SCT020
                      TEMPO 0319/0322 27012KT 4000 -RA BKN017=
202603031155 TAF COR WIHH 031155Z 0312/0412 24012KT 9000 SCT020
                      TEMPO 0312/0315 4000 -RA BKN016
                      BECMG 0318/0318 20006KT 7000 SCT18=
202603031100 TAF WIHH 031100Z 0312/0412 24012KT 9000 FEW020
                      BECMG 0318/0318 20006KT 7000 SCT020=
202603030500 TAF WIHH 030500Z 0306/0406 27012KT 9999 SCT018
                      BECMG 0312/0314 22008KT 8000 FEW020
                      TEMPO 0318/0321 4000 -RA BKN016=
202603022300 TAF WIHH 022300Z 0300/0400 21008KT 6000 SCT018
                      TEMPO 0300/0303 27010KT 4000 -RA BKN016
                      TEMPO 0306/0310 33015G27KT 2000 TSRA BKN015
                       FEW016CB
                      TEMPO 0312/0315 25008KT 4000 -RA BKN014
                      TEMPO 0321/0400 3000 -RA BKN015 FEW017CB=
202603021701 TAF WIHH 021701Z 0218/0318 27010KT 9999 FEW020
                      TEMPO 0220/0223 21005KT 4000 -TSRA BKN016
                       FEW018CB=
202603021700 TAF WIHH 021700Z 0218/0318 27010KT 10000 FEW020
                      TEMPO 0220/0223 21005KT 4000 -TSRA BKN016
                       FEW018CB=
202603021100 TAF WIHH 021100Z 0212/0312 33010KT 6000 SCT018
                      TEMPO 0212/0215 27012KT 3000 -TSRA BKN015
                       FEW017CB
                      BECMG 0216/0218 00000KT 6000 SCT017
                      TEMPO 0220/0223 22005KT 4000 -TSRA BKN016
                       FEW018CB=
202603020500 TAF WIHH 020500Z 0206/0306 29010KT 8000 SCT018
                      TEMPO 0206/0210 23015KT 2000 TSRA BKN014
                       FEW016CB
                      TEMPO 0212/0215 3000 -TSRA BKN015 FEW017CB
                       BECMG 0216/0218 00000KT 6000 SCT017
                      TEMPO 0220/0223 26004KT 4000 -TSRA BKN016
                       FEW018CB=
202603012300 TAF WIHH 012300Z 0200/0300 24008KT 8000 SCT020
                      TEMPO 0206/0210 34015KT 3000 -TSRA FEW017CB
                       BKN016
                      TEMPO 0220/0223 2000 -RA BKN018=
202603011700 TAF WIHH 011700Z 0118/0218 25006KT 7000 SCT020
                      TEMPO 0207/0210 34015KT 4000 -TSRA FEW016CB
                       BKN018=
202603011102 TAF WIHH 011102Z 0112/0212 33006KT 8000 SCT018
                      TEMPO 0112/0115 25008KT 4000 -RA BKN016
                      BECMG 0117/0119 5000 HZ=
202603011100 TAF WIHH 011100Z 0112/0212 33006KT 8000 SCT018
                      TEMPO 0112/0115 25008KT 4000 -RA BKN016
                      BECMG 017/01119 5000 HZ=
202603010500 TAF WIHH 010500Z 0106/0206 23010KT 8000 SCT020
                      TEMPO 0108/0111 33014KT 4000 -RA BKN016 FEW017CB
                       BECMG 0113/0115 29006KT=
