##########################################################
# Query made at 05/05/2026 03:20:44 UTC
# Time interval: from 06/01/2025 00:00  to 06/30/2025 23:59  UTC
##########################################################

##########################################################
# WIHH, Jakarta Halim Perdanakusuma (Indonesia)
# WMO index: 96747. WIGOS ID: Unknown
# Latitude 06-15S. Longitude 106-54E. Altitude 30 m.
##########################################################

###################################
#  METAR/SPECI from WIHH
###################################
202506302330 METAR WIHH 302330Z 21003KT 7000 SCT018 24/24 Q1010 RMK RA TO E=
202506302300 METAR WIHH 302300Z 17003KT 7000 SCT016 24/24 Q1010 NOSIG DUPE=
202506302230 METAR WIHH 302230Z 16003KT 7000 SCT020 24/24 Q1010 NOSIG=
202506302200 METAR WIHH 302200Z 00000KT 7000 SCT020 24/24 Q1009 NOSIG=
202506302130 METAR WIHH 302130Z 00000KT 7000 SCT018 24/24 Q1010 RMK RA TO SW=
202506302100 METAR WIHH NIL=
202506302030 METAR WIHH NIL=
202506302000 METAR WIHH NIL=
202506301930 METAR WIHH NIL=
202506301900 METAR WIHH NIL=
202506301830 METAR WIHH NIL=
202506301800 METAR WIHH NIL=
202506301730 METAR WIHH NIL=
202506301700 METAR WIHH 301700Z 07005KT 7000 TSRA BKN016 FEW017CB 23/23 Q1011 RMK CB TO N=
202506301630 METAR WIHH 301630Z 06017KT 2000 TSRA FEW017CB 24/23 Q1011 RMK CB TO N=
202506301600 METAR WIHH 301600Z 05015KT 7000 RA FEW017CB SCT018 26/24 Q1010 TEMPO TL1630 4000 TSRA RMK CB TO N=
202506301530 METAR WIHH 301530Z 06005KT 7000 FEW017CB SCT018 27/25 Q1010 TEMPO FM1600 3000 TSRA RMK CB AND RA TO N=
202506301500 METAR WIHH 301500Z 12004KT 8000 SCT020 27/25 Q1009 NOSIG=
202506301430 METAR WIHH NIL=
202506301400 METAR WIHH 301400Z 07006KT 8000 FEW020 27/25 Q1009 NOSIG=
202506301330 METAR WIHH NIL=
202506301300 METAR WIHH NIL=
202506301230 METAR WIHH NIL=
202506301200 METAR WIHH 301200Z 08010KT 8000 SCT020 28/24 Q1008 NOSIG=
202506301130 METAR WIHH 301130Z 08009KT 8000 SCT020 28/24 Q1008 NOSIG=
202506301100 METAR WIHH 301100Z 06009KT 8000 SCT020 29/24 Q1007 NOSIG=
202506301030 METAR WIHH 301030Z 08015KT 8000 SCT020 29/24 Q1007 NOSIG=
202506301000 METAR WIHH 301000Z 05010KT 8000 SCT020 29/24 Q1007 NOSIG=
202506300930 METAR WIHH 300930Z 08012KT 7000 SCT018 29/24 Q1007 NOSIG=
202506300900 METAR WIHH 300900Z 07013KT 7000 SCT018 29/24 Q1007 NOSIG=
202506300830 METAR WIHH 300830Z 07013KT 7000 SCT018 29/23 Q1006 RMK RA TO W=
202506300800 METAR WIHH 300800Z 05015KT 7000 SCT018 29/24 Q1007 TEMPO FM0830 3000 RA RMK RA TO N=
202506300730 METAR WIHH 300730Z 11015KT 8000 SCT018 31/23 Q1007 TEMPO FM0800 3000 RA BKN015 FEW017CB RMK RA TO N=
202506300700 METAR WIHH 300700Z 09015KT 8000 SCT018 32/23 Q1007 RMK RA TO N=
202506300630 METAR WIHH 300630Z 07013KT 8000 SCT018 32/23 Q1007 NOSIG=
202506300600 METAR WIHH 300600Z 07015KT 8000 SCT018 31/24 Q1008 NOSIG=
202506300530 METAR WIHH NIL=
202506300500 METAR WIHH 300500Z 08013KT 8000 SCT018 31/23 Q1008 NOSIG=
202506300430 METAR WIHH NIL=
202506300400 METAR WIHH NIL=
202506300330 METAR WIHH NIL=
202506300300 METAR WIHH 300300Z 11018KT 8000 FEW020 30/23 Q1009 NOSIG=
202506300230 METAR WIHH NIL=
202506300200 METAR WIHH NIL=
202506300130 METAR WIHH 300130Z 09010KT 7000 FEW020 28/23 Q1009 NOSIG=
202506300100 METAR WIHH 300100Z 09008KT 7000 FEW020 25/23 Q1009 NOSIG=
202506300030 METAR WIHH 300030Z 10007KT 6000 SCT020 25/23 Q1009 NOSIG=
202506300000 METAR WIHH 300000Z 09004KT 5000 HZ SCT020 25/23 Q1008 NOSIG=
202506292330 METAR WIHH 292330Z 11003KT 5000 HZ SCT020 25/23 Q1008 NOSIG=
202506292300 METAR WIHH 292300Z 09003KT 5000 HZ SCT020 25/23 Q1008 NOSIG=
202506292230 METAR WIHH 292230Z 10004KT 6000 S CT020 25/23 Q1008 NOSIG=
202506292200 METAR WIHH 292200Z 12003KT 6000 SCT020 25/23 Q1007 NOSIG=
202506292130 METAR WIHH 292130Z 13004KT 6000 SCT020 25/23 Q1007 NOSIG=
202506292100 METAR WIHH 292100Z 14005KT 6000 SCT020 25/23 Q1007 NOSIG=
202506292030 METAR WIHH NIL=
202506292000 METAR WIHH NIL=
202506291930 METAR WIHH NIL=
202506291900 METAR WIHH NIL=
202506291830 METAR WIHH NIL=
202506291800 METAR WIHH NIL=
202506291730 METAR WIHH NIL=
202506291700 METAR WIHH 291700Z 12005KT 1500 -RA SCT018 25/25 Q1009 NOSIG=
202506291630 METAR WIHH 291630Z 12005KT 1500 -RA SCT018 25/25 Q1009 NOSIG=
202506291600 METAR WIHH 291600Z 14004KT 1700 -RA SCT018 25/25 Q1010 NOSIG=
202506291530 METAR WIHH NIL=
202506291500 METAR WIHH 291500Z 16004KT 2000 -RA SCT018 25/24 Q1010 NOSIG=
202506291430 METAR WIHH 291430Z 00000KT 2000 BR SCT018 25/24 Q1010 RMK RA TO E=
202506291400 METAR WIHH 291400Z 00000KT 2000 -RA SCT018 25/25 Q1010 NOSIG=
202506291330 METAR WIHH 291330Z 01003KT 2000 -RA SCT018 25/25 Q1010 NOSIG=
202506291300 METAR WIHH 291300Z 00000KT 1700 -RA SCT018 25/25 Q1010 NOSIG=
202506291230 METAR WIHH 291230Z 04003KT 1700 BR SCT018 25/25 Q1010 NOSIG RMK RA TO NE=
202506291200 METAR WIHH NIL=
202506291130 METAR WIHH 291130Z 00000KT 1000 -RA BKN018 25/25 Q1009 NOSIG=
202506291100 METAR WIHH NIL=
202506291030 METAR WIHH 291030Z 00000KT 0700 -RA BKN018 25/25 Q1009 NOSIG=
202506291000 METAR WIHH 291000Z 00000KT 1000 -RA BKN018 26/25 Q1008 NOSIG=
202506290930 METAR WIHH 290930Z 13003KT 1500 -RA BKN018 26/25 Q1008 NOSIG=
202506290900 METAR WIHH 290900Z 00000KT 1500 -RA BKN018 26/25 Q1008 NOSIG=
202506290830 METAR WIHH NIL=
202506290800 METAR WIHH NIL=
202506290730 METAR WIHH NIL=
202506290700 METAR WIHH 290700Z 17003KT 2500 -RA BKN018 26/24 Q1009 NOSIG=
202506290630 METAR WIHH 290630Z 15003KT 2500 -RA BKN018 26/24 Q1009 NOSIG=
202506290600 METAR WIHH 290600Z 14004KT 3000 -RA BKN018 26/24 Q1009 NOSIG=
202506290530 METAR WIHH 290530Z 09004KT 4000 -RA SCT018 27/24 Q1009 NOSIG=
202506290500 METAR WIHH 290500Z 00000KT 4000 -RA SCT018 27/25 Q1009 NOSIG=
202506290430 METAR WIHH 290430Z 31003KT 4000 -RA SCT018 27/25 Q1010 NOSIG=
202506290400 METAR WIHH 290400Z 33003KT 5000 -RA SCT018 27/24 Q1010 NOSIG=
202506290330 METAR WIHH 290330Z 31003KT 6000 FEW018 27/24 Q1010 RMK RA TO NE=
202506290300 METAR WIHH NIL=
202506290230 METAR WIHH 290230Z 03003KT 6000 SCT018 26/23 Q1010 NOSIG=
202506290200 METAR WIHH 290200Z 00000KT 6000 SCT060 26/24 Q1010 RMK RA TO N=
202506290130 METAR WIHH NIL=
202506290100 METAR WIHH 290100Z 23004KT 5000 HZ SCT018 25/23 Q1010 RMK RA TO NE=
202506290030 METAR WIHH 290030Z 30003KT 5000 HZ SCT018 24/24 Q1010 NOSIG=
202506290000 METAR WIHH 290000Z 22003KT 4000 BR SCT019 24/23 Q1010 NOSIG=
202506282330 METAR WIHH NIL=
202506282300 METAR WIHH 282300Z 00000KT 4000 BR SCT018 24/23 Q1009 NOSIG=
202506282230 METAR WIHH 282230Z 21003KT 3000 BR SCT018 24/23 Q1009 NOSIG=
202506282200 METAR WIHH NIL=
202506282130 METAR WIHH NIL=
202506282100 METAR WIHH NIL=
202506282030 METAR WIHH NIL=
202506282000 METAR WIHH NIL=
202506281930 METAR WIHH NIL=
202506281900 METAR WIHH NIL=
202506281830 METAR WIHH NIL=
202506281800 METAR WIHH NIL=
202506281730 METAR WIHH NIL=
202506281700 METAR WIHH 281700Z 00000KT 5000 HZ SCT018 24/23 Q1010 NOSIG=
202506281630 METAR WIHH 281630Z 00000KT 6000 SCT018 24/23 Q1011 NOSIG=
202506281600 METAR WIHH 281600Z 00000KT 6000 SCT020 23/23 Q1011 NOSIG=
202506281530 METAR WIHH NIL=
202506281500 METAR WIHH NIL=
202506281430 METAR WIHH 281430Z 04004KT 5000 -RA FEW017CB SCT017 24/23 Q1011 RMK CB TO E=
202506281400 METAR WIHH NIL=
202506281330 METAR WIHH 281330Z 00000KT 5000 -RA SCT017 24/23 Q1011 NOSIG=
202506281300 METAR WIHH 281300Z 02004KT 4000 SCT017 FEW017CB 25/23 Q1011 RMK CB TO N=
202506281230 METAR WIHH 281230Z 30003KT 5000 -TSRA FEW017CB SCT017 24/24 Q1010 RMK CB TO NE=
202506281200 METAR WIHH 281200Z 21004KT 5000 HZ SCT017 24/23 Q1010 TEMPO FM1220 4000 -RA RMK RA TO NE=
202506281130 METAR WIHH NIL=
202506281100 METAR WIHH 281100Z 21004KT 4000 -RA SCT017 25/24 Q1010 NOSIG=
202506281030 METAR WIHH 281030Z 24006KT 5000 TS FEW017CB SCT018 25/24 Q1010 TEMPO FM1100 4000 -RA RMK CB AND RA TO E-S=
202506281000 METAR WIHH 281000Z 28004KT 5000 TS FEW017CB SCT018 25/24 Q1010 TEMPO FM1030 4000 -RA RMK CB AND RA TO SE=
202506280930 METAR WIHH NIL=
202506280900 METAR WIHH NIL=
202506280830 METAR WIHH 280830Z 31004KT 5000 -TSRA SCT015 FEW017CB 24/23 Q1010 RMK CB TO W-N=
202506280800 METAR WIHH 280800Z 05007KT 3000 -TSRA SCT015 FEW017CB 25/24 Q1008 RMK CB OTF=
202506280730 METAR WIHH NIL=
202506280700 METAR WIHH NIL=
202506280630 METAR WIHH 280630Z 04008KT 5000 -RA SCT020 30/24 Q1009 NOSIG RMK RA TO SE=
202506280600 METAR WIHH NIL=
202506280530 METAR WIHH NIL=
202506280500 METAR WIHH NIL=
202506280430 METAR WIHH 280430Z 05006KT 5000 HZ SCT020 31/23 Q1010 TEMPO FM0520 3000 -RA RMK RA TO E=
202506280400 METAR WIHH 280400Z 14003KT 5000 HZ SCT020 31/23 Q1010 NOSIG=
202506280330 METAR WIHH 280330Z 12005KT 5000 HZ SCT020 31/24 Q1010 NOSIG=
202506280300 METAR WIHH 280300Z 12003KT 5000 HZ FEW020 30/24 Q1010 NOSIG=
202506280230 METAR WIHH 280230Z 10004KT 4000 HZ FEW020 30/23 Q1010 NOSIG=
202506280200 METAR WIHH 280200Z 00000KT 4000 HZ FEW020 28/24 Q1010 NOSIG=
202506280130 METAR WIHH 280130Z 00000KT 4000 HZ FEW020 28/25 Q1010 NOSIG=
202506280100 METAR WIHH 280100Z 14004KT 4000 HZ FEW020 28/25 Q1011 NOSIG=
202506280030 METAR WIHH 280030Z 20003KT 4000 FEW020 27/25 Q1010 NOSIG=
202506280000 METAR WIHH NIL=
202506272330 METAR WIHH 272330Z 27003KT 3000 HZ SCT020 26/25 Q1010 NOSIG=
202506272300 METAR WIHH 272300Z 07003KT 3000 HZ SCT020 26/25 Q1010 NOSIG=
202506272230 METAR WIHH 272230Z 26003KT 3000 HZ FEW020 26/25 Q1009 NOSIG=
202506272200 METAR WIHH NIL=
202506272130 METAR WIHH NIL=
202506272100 METAR WIHH NIL=
202506272030 METAR WIHH NIL=
202506272000 METAR WIHH NIL=
202506271930 METAR WIHH NIL=
202506271900 METAR WIHH NIL=
202506271830 METAR WIHH NIL=
202506271800 METAR WIHH NIL=
202506271730 METAR WIHH NIL=
202506271700 METAR WIHH 271700Z 00000KT 6000 SCT020 26/24 Q1011 NOSIG=
202506271630 METAR WIHH 271630Z 00000KT 6000 SCT020 26/24 Q1011 NOSIG=
202506271600 METAR WIHH 271600Z 00000KT 6000 SCT020 27/24 Q1011 NOSIG=
202506271530 METAR WIHH NIL=
202506271500 METAR WIHH 271500Z 00000KT 6000 SCT020 28/24 Q1011 NOSIG=
202506271430 METAR WIHH 271430Z 00000KT 6000 SCT020 28/24 Q1011 NOSIG=
202506271400 METAR WIHH 271400Z 00000KT 6000 SCT020 28/24 Q1011 NOSIG=
202506271330 METAR WIHH NIL=
202506271300 METAR WIHH 271300Z 04003KT 6000 SCT020 29/24 Q1010 NOSIG=
202506271230 METAR WIHH NIL=
202506271200 METAR WIHH NIL=
202506271130 METAR WIHH 271130Z 03004KT 6000 SCT020 29/24 Q1009 NOSIG=
202506271100 METAR WIHH 271100Z 01004KT 6000 SCT020 29/24 Q1009 NOSIG=
202506271030 METAR WIHH 271030Z 36005KT 6000 SCT020 30/23 Q1009 NOSIG=
202506271000 METAR WIHH 271000Z 36004KT 6000 SCT018 30/23 Q1009 NOSIG=
202506270930 METAR WIHH NIL=
202506270900 METAR WIHH 270900Z 33004KT 6000 SCT018 31/23 Q1008 NOSIG=
202506270830 METAR WIHH 270830Z 03012KT 6000 SCT018 32/23 Q1008 NOSIG=
202506270800 METAR WIHH 270800Z 36007KT 6000 SCT018 32/23 Q1008 RMK RA TO SE=
202506270730 METAR WIHH 270730Z 01007KT 6000 SCT018 33/23 Q1008 RMK RA TO SE=
202506270700 METAR WIHH 270700Z 33005KT 5000 HZ SCT018 33/23 Q1008 NOSIG=
202506270630 METAR WIHH 270630Z 29004KT 5000 HZ SCT018 33/23 Q1008 NOSIG=
202506270600 METAR WIHH 270600Z 27004KT 5000 HZ SCT018 32/23 Q1009 NOSIG=
202506270530 METAR WIHH NIL=
202506270500 METAR WIHH 270500Z 24004KT 5000 HZ SCT018 32/23 Q1010 NOSIG DUPE=
202506270430 METAR WIHH 270430Z 30004KT 5000 HZ FEW020 32/23 Q1010 NOSIG=
202506270400 METAR WIHH 270400Z 29005KT 5000 HZ FEW020 32/23 Q1011 NOSIG=
202506270330 METAR WIHH NIL=
202506270300 METAR WIHH 270300Z 23005KT 5000 HZ FEW020 30/24 Q1011 NOSIG=
202506270230 METAR WIHH 270230Z 21005KT 5000 HZ FEW020 29/24 Q1011 NOSIG=
202506270200 METAR WIHH NIL=
202506270130 METAR WIHH 270130Z 22004KT 5000 HZ FEW020 28/24 Q1011 NOSIG=
202506270100 METAR WIHH 270100Z 21005KT 5000 HZ FEW020 27/24 Q1008 NOSIG=
202506270030 METAR WIHH 270030Z 25004KT 4000 HZ SCT020 26/25 Q1011 NOSIG=
202506270000 METAR WIHH 270000Z 24003KT 4000 HZ SCT020 26/25 Q1011 NOSIG=
202506262330 METAR WIHH 262330Z 26003KT 3000 BR SCT020 26/25 Q1011 NOSIG=
202506262300 METAR WIHH 262300Z 00000KT 3000 BR SCT020 25/25 Q1010=
202506262230 METAR WIHH 262230Z 00000KT 4000 BR FEW020 25/25 Q1010 NOSIG=
202506262200 METAR WIHH NIL=
202506262130 METAR WIHH NIL=
202506262100 METAR WIHH NIL=
202506262030 METAR WIHH NIL=
202506262000 METAR WIHH NIL=
202506261930 METAR WIHH NIL=
202506261900 METAR WIHH NIL=
202506261830 METAR WIHH NIL=
202506261800 METAR WIHH NIL=
202506261730 METAR WIHH NIL=
202506261700 METAR WIHH 261700Z 13003KT 6000 SCT020 27/25 Q1011 NOSIG=
202506261630 METAR WIHH 261630Z 00000KT 7000 SCT020 27/25 Q1011 NOSIG=
202506261600 METAR WIHH 261600Z 10003KT 7000 SCT020 28/25 Q1011 NOSIG=
202506261530 METAR WIHH 261530Z 11003KT 7000 SCT020 28/25 Q1011 NOSIG=
202506261500 METAR WIHH 261500Z 00000KT 7000 SCT020 29/25 Q1011 NOSIG=
202506261430 METAR WIHH NIL=
202506261400 METAR WIHH 261400Z 04003KT 7000 SCT020 29/24 Q1011 NOSIG=
202506261330 METAR WIHH 261330Z 06004KT 7000 SCT020 29/24 Q1011 NOSIG=
202506261300 METAR WIHH 261300Z 07005KT 7000 SCT020 29/24 Q1010 NOSIG=
202506261230 METAR WIHH 261230Z 04006KT 7000 SCT020 29/24 Q1010 NOSIG=
202506261200 METAR WIHH 261200Z 03007KT 7000 SCT020 29/24 Q1010 NOSIG=
202506261130 METAR WIHH 261130Z 04008KT 7000 SCT020 30/24 Q1009 RMK RA TO SW=
202506261100 METAR WIHH 261100Z 03008KT 7000 SCT020 30/24 Q1009 RMK RA TO SW=
202506261030 METAR WIHH 261030Z 03008KT 7000 SCT020 30/24 Q1008 RMK RA TO SW=
202506261000 METAR WIHH 261000Z 05007KT 7000 SCT020 31/23 Q1008 RMK RA TO SW=
202506260930 METAR WIHH 260930Z 01011KT 7000 SCT020 32/23 Q1008 NOSIG=
202506260900 METAR WIHH 260900Z 02009KT 7000 SCT020 32/24 Q1008 NOSIG=
202506260830 METAR WIHH 260830Z 02008KT 6000 SCT020 32/23 Q1008 NOSIG DUPE=
202506260800 METAR WIHH 260800Z 03008KT 6000 SCT020 33/23 Q1008 NOSIG=
202506260730 METAR WIHH 260730Z 35007KT 6000 SCT020 33/23 Q1008 NOSIG=
202506260700 METAR WIHH 260700Z 01007KT 6000 SCT020 33/23 Q1008 NOSIG=
202506260630 METAR WIHH NIL=
202506260600 METAR WIHH 260600Z 01006KT 6000 SCT020 33/22 Q1009 NOSIG=
202506260530 METAR WIHH 260530Z 04006KT 6000 SCT020 33/22 Q1009 NOSIG=
202506260500 METAR WIHH 260500Z 26003KT 6000 SCT020 32/21 Q1010 NOSIG=
202506260430 METAR WIHH 260430Z 00000KT 6000 SCT020 33/22 Q1010 NOSIG=
202506260400 METAR WIHH 260400Z 00000KT 6000 FEW020 32/22 Q1011 NOSIG=
202506260330 METAR WIHH 260330Z 33004KT 5000 HZ FEW020 32/22 Q1011 NOSIG=
202506260300 METAR WIHH 260300Z 18004KT 5000 HZ FEW020 31/22 Q1011 NOSIG=
202506260230 METAR WIHH 260230Z 15004KT 5000 HZ FEW020 31/23 Q1011 NOSIG=
202506260200 METAR WIHH NIL=
202506260130 METAR WIHH 260130Z 16003KT 4000 HZ NSC 29/24 Q1011 NOSIG=
202506260100 METAR WIHH 260100Z 00000KT 4000 HZ NSC 27/24 Q1011 NOSIG=
202506260030 METAR WIHH NIL=
202506260000 METAR WIHH NIL=
202506252330 METAR WIHH 252330Z 00000KT 3000 BR FEW020 24/23 Q1011 NOSIG=
202506252300 METAR WIHH 252300Z 00000KT 3000 BR FEW020 24/23 Q1010 NOSIG=
202506252230 METAR WIHH NIL=
202506252200 METAR WIHH 252200Z 14003KT 4000 BR FEW020 24/23 Q1010 NOSIG=
202506252130 METAR WIHH 252130Z 00000KT 4000 BR FEW020 24/23 Q1010 NOSIG=
202506252100 METAR WIHH NIL=
202506252030 METAR WIHH NIL=
202506252000 METAR WIHH NIL=
202506251930 METAR WIHH NIL=
202506251900 METAR WIHH NIL=
202506251830 METAR WIHH NIL=
202506251800 METAR WIHH NIL=
202506251730 METAR WIHH NIL=
202506251700 METAR WIHH NIL=
202506251630 METAR WIHH 251630Z 18004KT 5000 HZ FEW018 26/23 Q1012 NOSIG=
202506251600 METAR WIHH 251600Z 18004KT 5000 HZ FEW018 26/23 Q1012 NOSIG=
202506251530 METAR WIHH NIL=
202506251500 METAR WIHH NIL=
202506251430 METAR WIHH NIL=
202506251400 METAR WIHH 251400Z 06004KT 4000 HZ FEW018 26/22 Q1012 NOSIG=
202506251330 METAR WIHH 251330Z 07003KT 5000 HZ FEW018 27/22 Q1012 NOSIG=
202506251300 METAR WIHH 251300Z 15005KT 5000 HZ SCT018 26/22 Q1012 NOSIG=
202506251230 METAR WIHH 251230Z 15003KT 5000 HZ SCT018 26/22 Q1011 RMK RA TO S=
202506251200 METAR WIHH 251200Z 17003KT 5000 HZ SCT018 26/22 Q1011 NOSIG=
202506251130 METAR WIHH 251130Z 11003KT 6000 SCT018 27/22 Q1010 NOSIG RMK RA TO S=
202506251100 METAR WIHH 251100Z 21003KT 6000 SCT018 27/22 Q1010 NOSIG=
202506251030 METAR WIHH 251030Z 19003KT 6000 SCT018 27/21 Q1010 NOSIG=
202506251000 METAR WIHH 251000Z 16004KT 6000 SCT018 27/21 Q1010 RMK RA TO N=
202506250930 METAR WIHH 250930Z 15004KT 6000 -TSRA FEW017CB SCT017 27/21 Q1010 RMK CB TO NE=
202506250900 METAR WIHH 250900Z 20008KT 6000 TS FEW017CB SCT017 27/20 Q1010 RMK CB TO NE-S=
202506250830 METAR WIHH 250830Z 23010KT 5000 HZ FEW017CB BKN017 28/21 Q1010 RMK CB AND RA TO S=
202506250800 METAR WIHH NIL=
202506250730 METAR WIHH NIL=
202506250700 METAR WIHH 250700Z 36006KT 5000 HZ SCT018 33/23 Q1010 RMK RA TO SE=
202506250630 METAR WIHH 250630Z 02005KT 5000 HZ SCT018 33/23 Q1010 NOSIG=
202506250600 METAR WIHH 250600Z 04004KT 5000 HZ SCT018 33/24 Q1010 NOSIG=
202506250530 METAR WIHH 250530Z 34007KT 5000 SCT018 33/24 Q1011 NOSIG=
202506250500 METAR WIHH NIL=
202506250430 METAR WIHH 250430Z 07003KT 6000 SCT018 33/22 Q1012 NOSIG=
202506250400 METAR WIHH 250400Z 15003KT 5000 HZ FEW018 32/23 Q1012 NOSIG=
202506250330 METAR WIHH 250330Z 23004KT 5000 HZ NSC 30/24 Q1013 NOSIG=
202506250300 METAR WIHH 250300Z 22004KT 5000 HZ NSC 30/23 Q1013 NOSIG=
202506250230 METAR WIHH 250230Z 21006KT 5000 HZ NSC 30/24 Q1013 NOSIG=
202506250200 METAR WIHH NIL=
202506250130 METAR WIHH 250130Z 25003KT 4000 HZ NSC 28/24 Q1013 NOSIG=
202506250100 METAR WIHH NIL=
202506250030 METAR WIHH NIL=
202506250000 METAR WIHH 250000Z 24003KT 3000 HZ FEW020 25/24 Q1012 NOSIG=
202506242330 METAR WIHH NIL=
202506242300 METAR WIHH 242300Z 22004KT 3000 HZ FEW020 25/23 Q1012 NOSIG=
202506242230 METAR WIHH NIL=
202506242200 METAR WIHH 242200Z 30003KT 3000 BR FEW020 25/24 Q1011 NOSIG=
202506242130 METAR WIHH 242130Z 24003KT 3000 BR FEW020 25/24 Q1011 NOSIG=
202506242100 METAR WIHH 242100Z 22003KT 3000 BR FEW020 25/24 Q1011 NOSIG=
202506242030 METAR WIHH NIL=
202506242000 METAR WIHH NIL=
202506241930 METAR WIHH NIL=
202506241900 METAR WIHH NIL=
202506241830 METAR WIHH NIL=
202506241800 METAR WIHH NIL=
202506241730 METAR WIHH NIL=
202506241700 METAR WIHH 241700Z 00000KT 4000 NSC 26/24 Q1011 NOSIG=
202506241630 METAR WIHH NIL=
202506241600 METAR WIHH 241600Z 00000KT 4000 HZ NSC 26/24 Q1012 NOSIG=
202506241530 METAR WIHH 241530Z 00000KT 4000 HZ NSC 26/24 Q1012 NOSIG=
202506241500 METAR WIHH 241500Z 00000KT 5000 HZ NSC 26/24 Q1012 NOSIG=
202506241430 METAR WIHH 241430Z 14003KT 5000 HZ NSC 26/24 Q1012 NOSIG=
202506241400 METAR WIHH 241400Z 15003KT 7000 FEW020 26/25 Q1012 NOSIG=
202506241330 METAR WIHH NIL=
202506241300 METAR WIHH NIL=
202506241230 METAR WIHH 241230Z 07004KT 7000 FEW020 28/24 Q1011 NOSIG=
202506241200 METAR WIHH 241200Z 05004KT 7000 FEW020 29/24 Q1010 NOSIG=
202506241130 METAR WIHH 241130Z 05005KT 7000 SCT018 29/24 Q1010 NOSIG=
202506241100 METAR WIHH NIL=
202506241030 METAR WIHH NIL=
202506241000 METAR WIHH 241000Z 03006KT 6000 FEW017CB SCT018 30/23 Q1009 RMK CB AND RA TO S=
202506240930 METAR WIHH 240930Z 09005KT 6000 SCT018 31/23 Q1009 NOSIG=
202506240900 METAR WIHH 240900Z 04008KT 6000 SCT018 31/23 Q1009 NOSIG=
202506240830 METAR WIHH 240830Z 06008KT 5000 HZ SCT018 31/22 Q1009 RMK RA TO W=
202506240800 METAR WIHH 240800Z 06007KT 5000 HZ FEW017CB SCT018 30/23 Q1009 RMK CB AND RA TO SW=
202506240730 METAR WIHH 240730Z 06005KT 5000 HZ SCT018 31/23 Q1009 RMK RA TO S=
202506240700 METAR WIHH 240700Z 05008KT 5000 HZ SCT018 31/23 Q1010 RMK RA TO S=
202506240630 METAR WIHH 240630Z 04007KT 5000 HZ SCT018 30/23 Q1010 RMK RA TO SE AND S=
202506240600 METAR WIHH NIL=
202506240530 METAR WIHH NIL=
202506240500 METAR WIHH 240500Z 08007KT 5000 HZ SCT018 30/23 Q1012 TEMPO FM0600 4000 -RA RMK RA TO N AND SE=
202506240430 METAR WIHH 240430Z 07005KT 5000 HZ SCT018 30/23 Q1012 RMK RA TO NW=
202506240400 METAR WIHH 240400Z 08006KT 5000 HZ SCT018 30/24 Q1012 RMK RA TO NE=
202506240330 METAR WIHH NIL=
202506240300 METAR WIHH 240300Z 09003KT 5000 HZ FEW020 29/24 Q1012 NOSIG=
202506240230 METAR WIHH 240230Z 11004KT 5000 HZ FEW020 29/24 Q1012 NOSIG=
202506240200 METAR WIHH 240200Z 11005KT 5000 HZ NSC 29/24 Q1012 NOSIG=
202506240130 METAR WIHH 240130Z 11005KT 4000 HZ NSC 29/24 Q1012 NOSIG=
202506240100 METAR WIHH NIL=
202506240030 METAR WIHH 240030Z 22003KT 3000 BR FEW020 26/24 Q1012 NOSIG=
202506240000 METAR WIHH 240000Z 21005KT 3000 BR FEW020 25/24 Q1011 NOSIG=
202506232330 METAR WIHH 232330Z 23004KT 3000 BR FEW020 24/24 Q1011 NOSIG=
202506232300 METAR WIHH 232300Z 25003KT 3000 BR SCT020 24/24 Q1011 NOSIG=
202506232230 METAR WIHH NIL=
202506232200 METAR WIHH NIL=
202506232130 METAR WIHH NIL=
202506232100 METAR WIHH NIL=
202506232030 METAR WIHH NIL=
202506232000 METAR WIHH NIL=
202506231930 METAR WIHH NIL=
202506231900 METAR WIHH NIL=
202506231830 METAR WIHH NIL=
202506231800 METAR WIHH NIL=
202506231730 METAR WIHH NIL=
202506231700 METAR WIHH 231700Z 18003KT 5000 HZ FEW020 27/24 Q1011 NOSIG=
202506231630 METAR WIHH 231630Z 16003KT 6000 SCT020 27/24 Q1011 NOSIG=
202506231600 METAR WIHH 231600Z 14003KT 6000 SCT020 27/24 Q1011 NOSIG=
202506231530 METAR WIHH 231530Z 15003KT 6000 SCT020 27/24 Q1011 NOSIG=
202506231500 METAR WIHH 231500Z 14004KT 6000 SCT020 28/24 Q1011 NOSIG=
202506231430 METAR WIHH 231430Z 06006KT 7000 FEW020 28/24 Q1011 NOSIG=
202506231400 METAR WIHH 231400Z 07006KT 7000 FEW020 28/24 Q1011 NOSIG=
202506231330 METAR WIHH 231330Z 06007KT 7000 FEW020 28/23 Q1010 NOSIG=
202506231300 METAR WIHH NIL=
202506231230 METAR WIHH 231230Z 09008KT 7000 FEW020 28/24 Q1009 NOSIG=
202506231200 METAR WIHH 231200Z 06009KT 7000 FEW020 29/24 Q1009 NOSIG=
202506231130 METAR WIHH 231130Z 24006KT 6000 -RA SCT018 25/24 Q1007 NOSIG=
202506231100 METAR WIHH 231100Z 06010KT 7000 FEW020 30/24 Q1008 NOSIG=
202506231030 METAR WIHH 231030Z 06012KT 7000 SCT020 30/23 Q1008 RMK RA TO NW=
202506231000 METAR WIHH 231000Z 07011KT 7000 SCT020 31/23 Q1008 RMK RA TO SW AND N=
202506230930 METAR WIHH NIL=
202506230900 METAR WIHH NIL=
202506230830 METAR WIHH 230830Z 14009KT 7000 SCT020 30/23 Q1007 RMK RA TO SE AND SW=
202506230800 METAR WIHH NIL=
202506230730 METAR WIHH 230730Z 09011KT 6000 SCT020 32/22 Q1007 RMK RA TO SW=
202506230700 METAR WIHH NIL=
202506230630 METAR WIHH 230630Z 08012KT 6000 SCT020 32/23 Q1008 NOSIG=
202506230600 METAR WIHH 230600Z 06012KT 6000 SCT020 32/22 Q1009 NOSIG=
202506230530 METAR WIHH 230530Z 07011KT 6000 SCT020 32/22 Q1009 NOSIG=
202506230500 METAR WIHH 230500Z 09011KT 6000 SCT020 31/22 Q1010 NOSIG=
202506230430 METAR WIHH 230430Z 11012KT 5000 HZ SCT020 31/23 Q1010 NOSIG=
202506230400 METAR WIHH 230400Z 07012KT 5000 HZ SCT020 31/23 Q1011 NOSIG=
202506230330 METAR WIHH 230330Z 10011KT 5000 HZ SCT020 31/24 Q1011 NOSIG=
202506230300 METAR WIHH NIL=
202506230230 METAR WIHH 230230Z 12006KT 4000 HZ SCT020 29/25 Q1011 NOSIG=
202506230200 METAR WIHH 230200Z 08005KT 4000 HZ SCT018 27/24 Q1012 NOSIG=
202506230130 METAR WIHH 230130Z 09004KT 4000 HZ SCT018 27/24 Q1012 NOSIG=
202506230100 METAR WIHH 230100Z 07003KT 4000 HZ SCT018 27/25 Q1011 NOSIG=
202506230030 METAR WIHH 230030Z 08003KT 3000 HZ SCT018 26/25 Q1011 NOSIG=
202506230000 METAR WIHH NIL=
202506222330 METAR WIHH 222330Z 14003KT 3000 BR SCT018 25/24 Q1010 NOSIG=
202506222300 METAR WIHH NIL=
202506222230 METAR WIHH 222230Z 04004KT 4000 HZ SCT018 26/25 Q1010 NOSIG=
202506222200 METAR WIHH 222200Z 07003KT 4000 HZ SCT018 25/25 Q1010 NOSIG=
202506222130 METAR WIHH NIL=
202506222100 METAR WIHH NIL=
202506222030 METAR WIHH NIL=
202506222000 METAR WIHH NIL=
202506221930 METAR WIHH NIL=
202506221900 METAR WIHH NIL=
202506221830 METAR WIHH NIL=
202506221800 METAR WIHH NIL=
202506221730 METAR WIHH NIL=
202506221700 METAR WIHH NIL=
202506221630 METAR WIHH 221630Z 09010KT 4000 -TSRA FEW017CB BKN017 27/24 Q1012 RMK CB OVER THE FIELD=
202506221600 METAR WIHH 221600Z 09010KT 4000 -TSRA FEW017CB BKN017 27/24 Q1012 RMK CB OVER THE FIELD=
202506221530 METAR WIHH NIL=
202506221500 METAR WIHH 221500Z 09008KT 6000 SCT018 28/25 Q1011 NOSIG=
202506221430 METAR WIHH 221430Z 10007KT 6000 SCT020 28/25 Q1011 NOSIG=
202506221400 METAR WIHH 221400Z 07009KT 6000 SCT020 28/25 Q1011 NOSIG=
202506221330 METAR WIHH 221330Z 07010KT 6000 SCT020 28/25 Q1011 NOSIG=
202506221300 METAR WIHH 221300Z 05008KT 6000 SCT020 28/25 Q1010 NOSIG=
202506221230 METAR WIHH 221230Z 06008KT 6000 SCT020 28/25 Q1010 NOSIG=
202506221200 METAR WIHH 221200Z 08009KT 6000 FEW020 29/25 Q1009 NOSIG=
202506221130 METAR WIHH 221130Z 06007KT 6000 FEW020 29/24 Q1009 NOSIG=
202506221100 METAR WIHH 221100Z 02009KT 6000 FEW020 29/24 Q1008 NOSIG=
202506221030 METAR WIHH 221030Z 07007KT 6000 FEW020 30/23 Q1008 NOSIG=
202506221000 METAR WIHH 221000Z 08008KT 7000 FEW020 30/23 Q1008 NOSIG=
202506220930 METAR WIHH 220930Z 08012KT 7000 FEW020 31/23 Q1008 NOSIG=
202506220900 METAR WIHH 220900Z 07010KT 7000 SCT020 32/23 Q1008 NOSIG=
202506220830 METAR WIHH 220830Z 06010KT 7000 SCT020 31/23 Q1008 NOSIG=
202506220800 METAR WIHH NIL=
202506220730 METAR WIHH 220730Z 07009KT 6000 SCT020 32/23 Q1008 NOSIG=
202506220700 METAR WIHH 220700Z 05009KT 6000 SCT020 32/23 Q1008 NOSIG=
202506220630 METAR WIHH 220630Z 08009KT 6000 SCT020 32/23 Q1009 NOSIG=
202506220600 METAR WIHH 220600Z 07009KT 6000 SCT020 32/23 Q1009 NOSIG=
202506220530 METAR WIHH NIL=
202506220500 METAR WIHH 220500Z 04009KT 6000 FEW020 32/23 Q1010 NOSIG=
202506220430 METAR WIHH 220430Z 06009KT 6000 FEW020 32/23 Q1010 NOSIG=
202506220400 METAR WIHH 220400Z 11009KT 5000 SCT020 31/23 Q1011 NOSIG=
202506220330 METAR WIHH 220330Z 12010KT 5000 HZ FEW020 31/23 Q1011 NOSIG=
202506220300 METAR WIHH 220300Z 11008KT 5000 HZ FEW020 31/24 Q1011 NOSIG=
202506220230 METAR WIHH 220230Z 09007KT 5000 HZ FEW020 30/24 Q1012 NOSIG=
202506220200 METAR WIHH 220200Z 12009KT 4000 HZ FEW020 29/24 Q1012 NOSIG=
202506220130 METAR WIHH 220130Z 14003KT 4000 HZ SCT020 27/24 Q1012 NOSIG=
202506220100 METAR WIHH 220100Z 14003KT 4000 HZ SCT020 27/24 Q1012 NOSIG=
202506220030 METAR WIHH 220030Z 13003KT 4000 HZ SCT020 26/24 Q1012 NOSIG=
202506220000 METAR WIHH 220000Z 00000KT 4000 HZ SCT020 25/24 Q1011 NOSIG DUPE=
202506212330 METAR WIHH 212330Z 20003KT 4000 HZ SCT018 25/24 Q1011 NOSIG=
202506212300 METAR WIHH 212300Z 18003KT 4000 BR SCT018 25/24 Q1011 NOSIG=
202506212230 METAR WIHH 212230Z 23003KT 4000 BR SCT018 25/24 Q1010 NOSIG=
202506212200 METAR WIHH 212200Z 17003KT 4000 BR SCT018 25/24 Q1010 NOSIG=
202506212130 METAR WIHH NIL=
202506212100 METAR WIHH NIL=
202506212030 METAR WIHH NIL=
202506212000 METAR WIHH NIL=
202506211930 METAR WIHH NIL=
202506211900 METAR WIHH NIL=
202506211830 METAR WIHH NIL=
202506211800 METAR WIHH NIL=
202506211730 METAR WIHH NIL=
202506211700 METAR WIHH 211700Z 15003KT 6000 SCT018 26/25 Q1012 NOSIG=
202506211630 METAR WIHH 211630Z 10003KT 6000 SCT018 26/24 Q1012 RMK RA TO S=
202506211600 METAR WIHH 211600Z 00000KT 6000 SCT018 26/24 Q1012 RMK RA TO NE=
202506211530 METAR WIHH 211530Z 00000KT 6000 SCT018 26/24 Q1012 RMK RA TO NE=
202506211500 METAR WIHH 211500Z 00000KT 6000 SCT018 26/24 Q1012 RMK RA TO N=
202506211430 METAR WIHH 211430Z 15003KT 6000 SCT018 26/24 Q1012 RMK RA TO N AND SW=
202506211400 METAR WIHH NIL=
202506211330 METAR WIHH 211330Z 22003KT 6000 SCT018 26/24 Q1011 RMK RA TO S=
202506211300 METAR WIHH NIL=
202506211230 METAR WIHH NIL=
202506211200 METAR WIHH 211200Z 23006KT 6000 SCT018 26/24 Q1010 RMK RA TO E=
202506211130 METAR WIHH NIL=
202506211100 METAR WIHH 211100Z 17006KT 5000 HZ BKN016 FEW017CB 26/24 Q1010 TEMPO FM1145 3000 RA RMK CB AND RA TO E-SW=
202506211030 METAR WIHH 211030Z 18008KT 5000 TS BKN016 FEW017CB 27/24 Q1010 TEMPO FM1100 3000 TSRA RMK CB AND RA TO SE-S=
202506211000 METAR WIHH 211000Z 23007KT 5000 TS BKN016 FEW017CB 27/24 Q1009 TEMPO FM1015 3000 RMK CB AND RA TO SE-W=
202506210930 METAR WIHH 210930Z 28006KT 5000 TS BKN016 FEW017CB 28/24 Q1009 TEMPO FM0945 3000 -TSRA RMK CB AND RA TO SE-W=
202506210900 METAR WIHH 210900Z 31005KT 5000 TS FEW017CB SCT018 30/23 Q1009 RMK CB AND RA TO SE-W=
202506210830 METAR WIHH 210830Z 01005KT 6000 TS FEW017CB SCT018 29/24 Q1009 RMK CB AND RA TO W=
202506210800 METAR WIHH 210800Z 05007KT 6000 FEW017CB SCT018 29/23 Q1009 RMK CB AND RA TO W=
202506210730 METAR WIHH NIL=
202506210700 METAR WIHH 210700Z 04006KT 6000 FEW016CB SCT017 30/23 Q1009 RMK CB AND RA TO E-SW=
202506210630 METAR WIHH 210630Z 03005KT 6000 FEW016CB SCT017 30/23 Q1010 RMK CB AND RA TO S=
202506210600 METAR WIHH 210600Z 03003KT 6000 SCT017 30/24 Q1010 RMK RA TO SE=
202506210530 METAR WIHH 210530Z 02004KT 6000 SCT018 30/24 Q1010 RMK RA TO SE=
202506210500 METAR WIHH NIL=
202506210430 METAR WIHH 210430Z 17003KT 5000 HZ SCT018 29/23 Q1011 NOSIG=
202506210400 METAR WIHH 210400Z 01003KT 5000 HZ SCT018 29/24 Q1011 NOSIG=
202506210330 METAR WIHH 210330Z 20003KT 5000 HZ SCT018 28/25 Q1012=
202506210300 METAR WIHH 210300Z 17003KT 5000 HZ SCT018 27/24 Q1012 NOSIG DUPE=
202506210230 METAR WIHH 210230Z 11003KT 4000 HZ SCT017 26/24 Q1012 NOSIG=
202506210200 METAR WIHH 210200Z 22003KT 4000 HZ SCT017 26/25 Q1012 NOSIG=
202506210130 METAR WIHH 210130Z 18003KT 4000 HZ SCT017 25/24 Q1012 NOSIG RMK RA TO E=
202506210100 METAR WIHH NIL=
202506210030 METAR WIHH 210030Z 1 16004KT 4000 BKN016 RA 24/24 Q1012 NOSIG=
202506210000 METAR WIHH 210000Z 14005KT 4000 RA BKN016 24/24 Q1012 NOSIG=
202506202330 METAR WIHH 202330Z 10003KT 4000 HZ BKN018 25/24 Q1012 NOSIG RMK RA TO N=
202506202300 METAR WIHH NIL=
202506202230 METAR WIHH NIL=
202506202200 METAR WIHH 202200Z 04005KT 4000 RA FEW016CB BKN018 24/24 Q1011 TEMPO TL2230 3000 -RA RMK CB TO NW=
202506202130 METAR WIHH 202130Z 05006KT 4000 RA FEW016CB BKN018 24/24 Q1011 TEMPO TL2200 3000 -RA RMK CB TO NW=
202506202100 METAR WIHH 202100Z 03006KT 4000 RA FEW016CB BKN018 24/24 Q1011 TEMPO TL2200 3000 -TSRA RMK CB TO NW=
202506202030 METAR WIHH NIL=
202506202000 METAR WIHH NIL=
202506201930 METAR WIHH NIL=
202506201900 METAR WIHH NIL=
202506201830 METAR WIHH NIL=
202506201800 METAR WIHH NIL=
202506201730 METAR WIHH NIL=
202506201700 METAR WIHH 201700Z 21004KT 5000 RA FEW016CB BKN017 25/24 Q1012 TEMPO TL1730 3000 -TSRA BKN017 RMK CB TO SW-NW=
202506201630 METAR WIHH 201630Z 23005KT 5000 RA FEW016CB BKN018 25/24 Q1013 TEMPO TL1700 3000 BKN017 TSRA RMK CB TO SW=
202506201600 METAR WIHH NIL=
202506201530 METAR WIHH 201530Z 20008KT 5000 RA FEW016CB BKN018 25/24 Q1013 TEMPO TL1600 3000 RMK CB TO SW=
202506201500 METAR WIHH 201500Z 21008KT 5000 RA FEW016CB BKN018 25/24 Q1013 TEMPO TL1600 -TSRA=
202506201430 METAR WIHH NIL=
202506201400 METAR WIHH 201400Z 21012KT 6000 FEW016CB SCT018 26/24 Q1012 TEMPO FM1500 3000-TSRA BKN017 RMK CB AND RA TO SW=
202506201330 METAR WIHH NIL=
202506201300 METAR WIHH NIL=
202506201230 METAR WIHH NIL=
202506201200 METAR WIHH 201200Z 05008KT 6000 FEW016CB SCT018 29/23 Q1011 TEMPO FM1300 3000 BKN017 RMK CB AND RA TO SW=
202506201130 METAR WIHH NIL=
202506201100 METAR WIHH 201100Z 04008KT 6000 29/22 Q1010 TEMPO FM1130 3000 BKN017 RMK RA TO SW=
202506201030 METAR WIHH 201030Z 03008KT 6000 SCT018 30/22 Q1009 RA TO SW=
202506201000 METAR WIHH 201000Z 05008KT 6000 SCT018 31/21 Q1009 NOSIG=
202506200930 METAR WIHH 200930Z 02010KT 6000 SCT018 31/22 Q1009 NOSIG=
202506200900 METAR WIHH NIL=
202506200830 METAR WIHH 200830Z 04010KT 6000 SCT018 32/21 Q1009 NOSIG=
202506200800 METAR WIHH 200800Z 02010KT 6000 SCT018 32/21 Q1009 NOSIG=
202506200730 METAR WIHH 200730Z 02010KT 6000 SCT018 32/20 Q1009 NOSIG=
202506200700 METAR WIHH NIL=
202506200630 METAR WIHH 200630Z 05008KT 6000 SCT018 32/21 Q1009 NOSIG=
202506200600 METAR WIHH 200600Z 08010KT 6000 SCT018 32/21 Q1010 NOSIG=
202506200530 METAR WIHH 200530Z 05005KT 6000 SCT020 32/22 Q1010 NOSIG=
202506200500 METAR WIHH 200500Z 07008KT 6000 SCT020 32/22 Q1010 NOSIG=
202506200430 METAR WIHH NIL=
202506200400 METAR WIHH 200400Z 13010KT 6000 FEW020 31/21 Q1012 NOSIG=
202506200330 METAR WIHH NIL=
202506200300 METAR WIHH 200300Z 11008KT 6000 FEW020 30/21 Q1013 NOSIG=
202506200230 METAR WIHH 200230Z 09010KT 5000 HZ 30/20 FEW020 Q1013 NOSIG=
202506200200 METAR WIHH 200200Z 12005KT 5000 HZ FEW020 29/22 Q1013 NOSIG=
202506200130 METAR WIHH 200130Z 13006KT 5000 HZ 28/22 Q1012 NOSIG=
202506200100 METAR WIHH 200100Z 12004KT 5000 HZ FEW020 27/23 Q1012 NOSIG=
202506200030 METAR WIHH 200030Z 19003KT 5000 HZ FEW020 26/23 Q1012 NOSIG=
202506200000 METAR WIHH 200000Z 00000KT 4000 HZ FEW020 25/24 Q1011 NOSIG=
202506192330 METAR WIHH 192330Z 00000KT 3000 BR FEW020 24/23 Q1011 NOSIG=
202506192300 METAR WIHH 192300Z 00000KT 4000 BR FEW018 24/23 Q1010 NOSIG=
202506192230 METAR WIHH 192230Z 00000KT 4000 HZ FEW018 24/23 Q1010 NOSIG=
202506192200 METAR WIHH 192200Z 15003KT 5000 HZ SCT018 24/23 Q1010 NOSIG=
202506192130 METAR WIHH NIL=
202506192100 METAR WIHH 192100Z 00000KT 4000 HZ SCT018 24/23 Q1010 NOSIG=
202506192030 METAR WIHH 192030Z 00000KT 4000 HZ SCT018 24/23 Q1010 NOSIG=
202506192000 METAR WIHH NIL=
202506191930 METAR WIHH NIL=
202506191900 METAR WIHH NIL=
202506191830 METAR WIHH NIL=
202506191800 METAR WIHH NIL=
202506191730 METAR WIHH NIL=
202506191700 METAR WIHH 191700Z 00000KT 4000 HZ SCT018 25/23 Q1011 NOSIG=
202506191630 METAR WIHH 191630Z 00000KT 4000 HZ SCT018 25/23 Q1011 NOSIG=
202506191600 METAR WIHH 191600Z 00000KT 4000 HZ SCT018 25/23 Q1011 NOSIG=
202506191530 METAR WIHH NIL=
202506191500 METAR WIHH 191500Z 14003KT 4000 -RA SCT018 25/23 Q1012 NOSIG=
202506191430 METAR WIHH 191430Z 18003KT 4000 -RA SCT018 25/22 Q1012 NOSIG=
202506191400 METAR WIHH 191400Z 14003KT 4000 SCT018 25/23 Q1012 NOSIG=
202506191330 METAR WIHH 191330Z 23003KT 5000 -RA SCT018 25/23 Q1012 NOSIG=
202506191300 METAR WIHH 191300Z 00000KT 6000 SCT018 26/21 Q1011 NOSIG=
202506191230 METAR WIHH NIL=
202506191200 METAR WIHH 191200Z 00000KT 6000 SCT018 26/21 Q1010 NOSIG=
202506191130 METAR WIHH 191130Z 00000KT 6000 SCT018 25/22 Q1010 NOSIG=
202506191100 METAR WIHH 191100Z 00000KT 6000 SCT018 26/21 Q1010 NOSIG=
202506191030 METAR WIHH 191030Z 15003KT 6000 SCT018 26/21 Q1010 NOSIG=
202506191000 METAR WIHH 191000Z 06003KT 6000 -RA SCT018 27/20 Q1010 NOSIG=
202506190930 METAR WIHH 190930Z 07004KT 6000 -RA SCT018 27/20 Q1010 NOSIG=
202506190900 METAR WIHH 190900Z 12008KT 6000 SCT018 28/20 Q1010 RMK RA TO NW=
202506190830 METAR WIHH 190830Z 08006KT 6000 SCT018 28/20 Q1009 NOSIG=
202506190800 METAR WIHH 190800Z 06007KT 6000 SCT018 28/20 Q1010 NOSIG=
202506190730 METAR WIHH 190730Z 10007KT 6000 SCT018 28/22 Q1010 NOSIG=
202506190700 METAR WIHH NIL=
202506190630 METAR WIHH 190630Z 10008KT 6000 SCT018 28/22 Q1010 NOSIG=
202506190600 METAR WIHH 190600Z 09008KT 6000 SCT018 28/22 Q1011 RMK RA TO E=
202506190530 METAR WIHH 190530Z 06007KT 6000 SCT018 28/21 Q1011 NOSIG=
202506190500 METAR WIHH 190500Z 03008KT 5000 HZ SCT050 28/23 Q1011 NOSIG=
202506190430 METAR WIHH 190430Z 06008KT 5000 HZ SCT018 28/23 Q1011 NOSIG=
202506190400 METAR WIHH 190400Z 07008KT 4000 -RA SCT018 28/24 Q1012 NOSIG=
202506190330 METAR WIHH NIL=
202506190300 METAR WIHH 190300Z 07008KT 5000 HZ SCT018 27/23 Q1012 NOSIG=
202506190230 METAR WIHH 190230Z 07006KT 5000 HZ SCT018 27/23 Q1012 NOSIG=
202506190200 METAR WIHH 190200Z 07007KT 5000 HZ SCT018 26/24 Q1011 NOSIG=
202506190130 METAR WIHH 190130Z 12004KT 4000 HZ SCT018 26/24 Q1011 NOSIG=
202506190100 METAR WIHH NIL=
202506190030 METAR WIHH NIL=
202506190000 METAR WIHH 190000Z 16003KT 4000 BR 25/24 Q1010 NOSIG RMK NIL=
202506182330 METAR WIHH 182330Z 15003KT 4000 BR SCT018 24/24 Q1010 NOSIG RMK NIL=
202506182300 METAR WIHH NIL=
202506182230 METAR WIHH 182230Z 20003KT 4000 BR SCT020 24/24 Q1009 NOSIG RMK NIL=
202506182200 METAR WIHH 182200Z 13004KT 4000 BR 25/24 Q1009 NOSIG RMK NIL=
202506182130 METAR WIHH 182130Z 15003KT 4000 SCT020 25/24 Q1009 NOSIG RMK NIL=
202506182100 METAR WIHH 182100Z 24002KT 4000 BR SCT020 25/24 Q1009 NOSIG RMK NIL=
202506182030 METAR WIHH NIL=
202506182000 METAR WIHH NIL=
202506181930 METAR WIHH NIL=
202506181900 METAR WIHH NIL=
202506181830 METAR WIHH NIL=
202506181800 METAR WIHH NIL=
202506181730 METAR WIHH NIL=
202506181700 METAR WIHH 181700Z 00000KT 6000 SCT020 25/24 Q1011 NOSIG RMK NIL=
202506181630 METAR WIHH 181630Z 00000KT 7000 SCT020 25/24 Q1011 NOSIG RMK RA TO N=
202506181600 METAR WIHH 181600Z 00000KT 7000 SCT020 25/24 Q1011 NOSIG RMK RA TO N=
202506181530 METAR WIHH 181530Z 17003KT 7000 SCT020 25/24 Q1011 NOSIG RMK RA TO NE=
202506181500 METAR WIHH 181500Z 00000KT 8000 -RA SCT020 25/24 Q1012 NOSIG RMK NIL=
202506181430 METAR WIHH 181430Z 10003KT 8000 -RA SCT020 25/24 Q1012 NOSIG RMK NIL=
202506181400 METAR WIHH NIL=
202506181330 METAR WIHH 181330Z 00000KT 8000 SCT020 25/24 Q1011 NOSIG RMK NIL=
202506181300 METAR WIHH 181300Z 23003KT 8000 25/24 Q1011 NOSIG RMK NIL=
202506181230 METAR WIHH 181230Z 28003KT 8000 SCT020 25/24 Q1011 NOSIG RMK NIL=
202506181200 METAR WIHH 181200Z 25003KT 8000 SCT020 25/24 Q1010 NOSIG RMK RA TO NE-SE DUPE=
202506181130 METAR WIHH 181130Z 26003KT 8000 SCT020 25/24 Q1010 NOSIG RMK RA TO SE-SW=
202506181100 METAR WIHH 181100Z 23006KT 7000 BKN020 25/24 Q1010 NOSIG RMK RA TO SE-SW=
202506181030 METAR WIHH 181030Z 22006KT 7000 RA 25/24 Q1010 NOSIG RMK NIL=
202506181000 METAR WIHH NIL=
202506180930 METAR WIHH 180930Z 23010KT 5000 -RA BKN017 24/24 Q1010 BECMG TL0940 5000 HZ=
202506180900 METAR WIHH 180900Z 24012KT 5000 -RA BKN016 25/24 Q1010 BECMG TL0910 5000 HZ=
202506180830 METAR WIHH NIL=
202506180800 METAR WIHH NIL=
202506180730 METAR WIHH NIL=
202506180700 METAR WIHH 180700Z 27007KT 6000 SCT018 FEW020CB 29/23 Q1009 NOSIG RMK CB AND RA TO N-NE=
202506180630 METAR WIHH NIL=
202506180600 METAR WIHH NIL=
202506180530 METAR WIHH 180530Z 22007KT 6000 SCT018 29/25 Q1010 NOSIG RMK RA TO SW AND NW=
202506180500 METAR WIHH 180500Z 23007KT 6000 SCT018 29/25 Q1011 NOSIG RMK RA TO SW=
202506180430 METAR WIHH 180430Z 22008KT 6000 SCT018 28/24 Q1011 NOSIG RMK RA TO SE-SW=
202506180400 METAR WIHH 180400Z 23007KT 6000 SCT018 27/24 Q1012 NOSIG RMK RA TO SW=
202506180330 METAR WIHH 180330Z 23006KT 6000 SCT018 27/24 Q1012 NOSIG RMK RA TO S-SW=
202506180300 METAR WIHH NIL=
202506180230 METAR WIHH 180230Z 27006KT 5000 HZ SCT017 27/24 Q1012 NOSIG RMK RA TO SW=
202506180200 METAR WIHH NIL=
202506180130 METAR WIHH 180130Z 27005KT 5000 HZ SCT017 26/25 Q1012 NOSIG RMK RA TO SW-NW=
202506180100 METAR WIHH NIL=
202506180030 METAR WIHH 180030Z 24003KT 5000 HZ SCT018 25/25 Q1012 RMK RA TO S AND NW=
202506180000 METAR WIHH 180000Z 21003KT 5000 HZ SCT018 25/24 Q1011 RMK RA TO N AND S=
202506172330 METAR WIHH 172330Z 18004KT 5000 HZ SCT018 25/24 Q1011 RMK RA TO SW=
202506172300 METAR WIHH 172300Z 18004KT 5000 HZ SCT018 25/24 Q1011 RMK RA TO N AND SW=
202506172230 METAR WIHH NIL=
202506172200 METAR WIHH NIL=
202506172130 METAR WIHH NIL=
202506172100 METAR WIHH NIL=
202506172030 METAR WIHH NIL=
202506172000 METAR WIHH NIL=
202506171930 METAR WIHH NIL=
202506171900 METAR WIHH NIL=
202506171830 METAR WIHH NIL=
202506171800 METAR WIHH NIL=
202506171730 METAR WIHH NIL=
202506171700 METAR WIHH 171700Z 00000KT 5000 HZ SCT018 25/25 Q1011 NOSIG=
202506171630 METAR WIHH NIL=
202506171600 METAR WIHH 171600Z 24003KT 6000 SCT018 25/25 Q1012 NOSIG=
202506171530 METAR WIHH 171530Z 00000KT 6000 SCT018 25/24 Q1012 NOSIG=
202506171500 METAR WIHH 171500Z 00000KT 6000 SCT018 25/24 Q1011 NOSIG=
202506171430 METAR WIHH 171430Z 34003KT 5000 -RA SCT018 25/24 Q1012 NOSIG=
202506171400 METAR WIHH 171400Z 35003KT 4000 -RA FEW017CB SCT018 25/24 Q1012 RMK CB TO SW=
202506171330 METAR WIHH 171330Z 25005KT 4000 -TSRA FEW017CB SCT018 25/24 Q1012 RMK CB TO SW=
202506171300 METAR WIHH NIL=
202506171230 METAR WIHH 171230Z 26008KT 6000 -RA FEW017CB SCT018 26/24 Q1011 RMK CB TO S=
202506171200 METAR WIHH 171200Z 17007KT 6000 SCT018 27/26 Q1010 RMK RA TO S AND W=
202506171130 METAR WIHH 171130Z 17003KT 6000 FEW017CB SCT018 27/26 Q1010 RMK CB AND RA TO S=
202506171100 METAR WIHH 171100Z 004004KT 5000 -RA SCT016 FEW017CB 29/25 Q1010 RMK CB TO SW=
202506171030 METAR WIHH 171030Z 02005KT 6000 -RA SCT016 FEW017CB 29/25 Q1010 RMK CB TO SW=
202506171000 METAR WIHH 171000Z 03007KT 4000 -RA SCT016 FEW017CB 29/25 Q1009 RMK CB TO SW-W=
202506170930 METAR WIHH 170930Z 04010KT 3000 TSRA SCT016 FEW017CB 29/25 Q1008 RMK CB TO SW-W=
202506170900 METAR WIHH 170900Z 36015KT 5000 SCT016 FEW017CB 30/25 Q1008 RMK CB TO S-NW=
202506170830 METAR WIHH NIL=
202506170800 METAR WIHH 170800Z 06012KT 7000 FEW017CB SCT018 32/25 Q1008 RMK CB AND RA TO SW-W=
202506170730 METAR WIHH 170730Z 02007KT 7000 SCT018 34/24 Q1008 RMK RA TO SW=
202506170700 METAR WIHH 170700Z 03006KT 7000 SCT018 34/23 Q1008 NOSIG=
202506170630 METAR WIHH 170630Z 05007KT 7000 SCT018 34/23 Q1008 NOSIG=
202506170600 METAR WIHH 170600Z 07005KT 7000 SCT018 33/23 Q1009 NOSIG=
202506170530 METAR WIHH 170530Z 05006KT 7000 SCT020 30/22 Q1010 NOSIG=
202506170500 METAR WIHH 170500Z 05006KT 7000 SCT020 33/22 Q1010 NOSIG=
202506170430 METAR WIHH 170430Z 08004KT 6000 SCT020 32/23 Q1011 NOSIG=
202506170400 METAR WIHH 170400Z 10005KT 6000 SCT020 32/23 Q1011 NOSIG=
202506170330 METAR WIHH 170330Z 07005KT 6000 SCT020 32/23 Q1011 NOSIG=
202506170300 METAR WIHH 170300Z 06006KT 6000 FEW020 31/24 Q1012 NOSIG=
202506170230 METAR WIHH 170230Z 08006KT 6000 FEW020 30/24 Q1012 NOSIG=
202506170200 METAR WIHH NIL=
202506170130 METAR WIHH 170130Z 12003KT 6000 FEW020 29/24 Q1012 NOSIG=
202506170100 METAR WIHH NIL=
202506170030 METAR WIHH 170030Z 24003KT 6000 FEW020 27/24 Q1012 NOSIG=
202506170000 METAR WIHH 170000Z 17003KT 5000 HZ FEW020 25/24 Q1011 NOSIG=
202506162330 METAR WIHH NIL=
202506162300 METAR WIHH NIL=
202506162230 METAR WIHH 162230Z 00000KT 6000 FEW020 25/24 Q1010 NOSIG=
202506162200 METAR WIHH 162200Z 16003KT 6000 FEW020 25/24 Q1010 NOSIG=
202506162130 METAR WIHH NIL=
202506162100 METAR WIHH 162100Z 20002KT 7000 SCT018 26/24 Q1010 NOSIG=
202506162030 METAR WIHH 162030Z 24002KT 7000 SCT018 26/24 Q1010 NOSIG=
202506162000 METAR WIHH NIL=
202506161930 METAR WIHH NIL=
202506161900 METAR WIHH NIL=
202506161830 METAR WIHH NIL=
202506161800 METAR WIHH NIL=
202506161730 METAR WIHH NIL=
202506161700 METAR WIHH 161700Z 19003KT 7000 SCT018 26/23 Q1011 NOSIG=
202506161630 METAR WIHH NIL=
202506161600 METAR WIHH NIL=
202506161530 METAR WIHH 161530Z 21004KT 6000 -RA SCT018 26/24 Q1012 NOSIG=
202506161500 METAR WIHH 161500Z 20007KT 6000 -RA SCT018 27/24 Q1012 NOSIG=
202506161430 METAR WIHH NIL=
202506161400 METAR WIHH NIL=
202506161330 METAR WIHH 161330Z 08007KT 6000 FEW017CB SCT018 28/25 Q1011 RMK CB AND RA TO SW=
202506161300 METAR WIHH 161300Z 07008KT 6000 FEW017CB SCT018 29/25 Q1010 RMK CB AND RA TO S=
202506161230 METAR WIHH 161230Z 04010KT 6000 FEW017 SCT018 29/25 Q1010 RMK CB AND RA TO S=
202506161200 METAR WIHH NIL=
202506161130 METAR WIHH 161130Z 05007KT 7000 SCT020 30/25 Q1009 RMK RA TO S=
202506161100 METAR WIHH 161100Z 03008KT 7000 SCT020 30/25 Q1008 NOSIG=
202506161030 METAR WIHH 161030Z 04008KT 7000 SCT020 31/24 Q1008 NOSIG=
202506161000 METAR WIHH 161000Z 04010KT 7000 SCT020 31/24 Q1007 RMK RA TO SW=
202506160930 METAR WIHH 160930Z 08008KT 7000 SCT020 33/24 Q1007 NOSIG=
202506160900 METAR WIHH NIL=
202506160830 METAR WIHH 160830Z 05008KT 7000 SCT020 33/24 Q1007 RMK RA TO SW=
202506160800 METAR WIHH NIL=
202506160730 METAR WIHH 160730Z 04008KT 6000 SCT020 33/24 Q1007 RMK RA TO S=
202506160700 METAR WIHH 160700Z 07009KT 6000 SCT020 33/24 Q1007 NOSIG=
202506160630 METAR WIHH NIL=
202506160600 METAR WIHH 160600Z 03007KT 6000 SCT020 32/23 Q1008 NOSIG=
202506160530 METAR WIHH 160530Z 04007KT 6000 SCT020 32/23 Q1009 NOSIG=
202506160500 METAR WIHH 160500Z 07008KT 6000 SCT020 33/24 Q1009 NOSIG=
202506160430 METAR WIHH 160430Z 05008KT 6000 SCT020 33/23 Q1009 NOSIG=
202506160400 METAR WIHH 160400Z 08007KT 6000 SCT020 32/24 Q1010 NOSIG=
202506160330 METAR WIHH 160330Z 11009KT 6000 SCT020 31/23 Q1010 NOSIG=
202506160300 METAR WIHH 160300Z 03009KT 6000 SCT020 32/24 Q1010 NOSIG=
202506160230 METAR WIHH 160230Z 11007KT 5000 HZ FEW020 31/24 Q1011 NOSIG=
202506160200 METAR WIHH 160200Z 10006KT 5000 HZ FEW020 30/24 Q1011 NOSIG=
202506160130 METAR WIHH 160130Z 10006KT 5000 HZ NSC 29/24 Q1011 NOSIG=
202506160100 METAR WIHH NIL=
202506160030 METAR WIHH NIL=
202506160000 METAR WIHH 160000Z 00000KT 4000 HZ FEW020 26/24 Q1010 NOSIG=
202506152330 METAR WIHH 152330Z 00000KT 3000 BR FEW020 25/24 Q1010 NOSIG=
202506152300 METAR WIHH 152300Z 00000KT 3000 BR FEW020 25/24 Q1010 NOSIG=
202506152230 METAR WIHH 152230Z 19003KT 4000 HZ FEW020 25/24 Q1009 NOSIG=
202506152200 METAR WIHH 152200Z 00000KT 5000 HZ FEW020 26/25 Q1009 NOSIG=
202506152130 METAR WIHH 152130Z 00000KT 5000 HZ FEW020 26/25 Q1009 NOSIG=
202506152100 METAR WIHH 152100Z 16003KT 5000 HZ FEW020 25/25 Q1009 NOSIG=
202506152030 METAR WIHH NIL=
202506152000 METAR WIHH NIL=
202506151930 METAR WIHH NIL=
202506151900 METAR WIHH NIL=
202506151830 METAR WIHH NIL=
202506151800 METAR WIHH NIL=
202506151730 METAR WIHH NIL=
202506151700 METAR WIHH 151700Z 12003KT 8000 FEW020 27/25 Q1011 NOSIG=
202506151630 METAR WIHH 151630Z 10003KT 8000 FEW020 28/25 Q1011 NOSIG=
202506151600 METAR WIHH 151600Z 10004KT 8000 FEW020 28/25 Q1011 NOSIG=
202506151530 METAR WIHH 151530Z 07005KT 8000 FEW020 29/25 Q1011 NOSIG=
202506151500 METAR WIHH NIL=
202506151430 METAR WIHH 151430Z 06006KT 8000 FEW020 29/25 Q1011 NOSIG=
202506151400 METAR WIHH 151400Z 10005KT 7000 FEW020 29/25 Q1010 NOSIG=
202506151330 METAR WIHH 151330Z 11005KT 7000 SCT020 29/25 Q1010 NOSIG=
202506151300 METAR WIHH 151300Z 08005KT 7000 SCT020 29/26 Q1010 NOSIG=
202506151230 METAR WIHH 151230Z 07008KT 7000 SCT020 29/26 Q1010 NOSIG=
202506151200 METAR WIHH NIL=
202506151130 METAR WIHH 151130Z 05006KT 6000 SCT020 30/24 Q1009 NOSIG=
202506151100 METAR WIHH 151100Z 10003KT 6000 SCT020 30/25 Q1008 NOSIG=
202506151030 METAR WIHH 151030Z 20006KT 7000 SCT020 30/25 Q1008 NOSIG=
202506151000 METAR WIHH 151000Z 16004KT 7000 SCT020 30/24 Q1008 NOSIG=
202506150930 METAR WIHH NIL=
202506150900 METAR WIHH 150900Z 16007KT 6000 SCT018 30/24 Q1007 RMK RA TO W=
202506150830 METAR WIHH 150830Z 16008KT 6000 TS SCT018 FEW020CB 29/23 Q1008 RMK CB AND RA TO SW-W=
202506150800 METAR WIHH 150800Z 08007KT 7000 SCT019 FEW020CB 32/24 Q1008 TEMPO FM0815 5000 -RA RMK CB AND RA TO S=
202506150730 METAR WIHH 150730Z 08008KT 7000 SCT019 32/24 Q1008 RMK RA TO SE=
202506150700 METAR WIHH NIL=
202506150630 METAR WIHH NIL=
202506150600 METAR WIHH 150600Z 13012KT 7000 SCT018 32/24 Q1009 RMK RA TO SE=
202506150530 METAR WIHH 150530Z 13009KT 7000 SCT018 32/24 Q1009 RMK RA TO W=
202506150500 METAR WIHH 150500Z 12009KT 7000 SCT018 31/24 Q1009 RMK RA TO N=
202506150430 METAR WIHH NIL=
202506150400 METAR WIHH 150400Z 08011KT 7000 SCT018 31/23 Q1010 NOSIG=
202506150330 METAR WIHH 150330Z 10011KT 7000 SCT018 31/24 Q1010 RMK RA TO SE=
202506150300 METAR WIHH 150300Z 11010KT 7000 SCT018 31/24 Q1010 NOSIG=
202506150230 METAR WIHH 150230Z 09010KT 7000 SCT020 31/24 Q1010 NOSIG=
202506150200 METAR WIHH 150200Z 11010KT 7000 SCT020 30/24 Q1011 NOSIG=
202506150130 METAR WIHH NIL=
202506150100 METAR WIHH 150100Z 11003KT 5000 SCT020 28/24 Q1011 NOSIG=
202506150030 METAR WIHH 150030Z 18003KT 5000 HZ SCT018 26/24 Q1011 NOSIG=
202506150000 METAR WIHH 150000Z 19003KT 5000 HZ FEW020 25/24 Q1010 NOSIG=
202506142330 METAR WIHH 142330Z 00000KT 5000 HZ SCT020 25/24 Q1010 NOSIG=
202506142300 METAR WIHH 142300Z 00000KT 5000 HZ SCT020 25/24 Q1010 NOSIG=
202506142230 METAR WIHH 142230Z 21002KT 6000 SCT020 25/24 Q1010 NOSIG=
202506142200 METAR WIHH 142200Z 21002KT 6000 SCT020 25/24 Q1009 NOSIG=
202506142130 METAR WIHH 142130Z 00000KT 4000 BR SCT020 25/24 Q1009 NOSIG=
202506142100 METAR WIHH 142100Z 00000KT 4000 BR SCT020 25/24 Q1009 NOSIG=
202506142030 METAR WIHH NIL=
202506142000 METAR WIHH NIL=
202506141930 METAR WIHH NIL=
202506141900 METAR WIHH NIL=
202506141830 METAR WIHH NIL=
202506141800 METAR WIHH NIL=
202506141730 METAR WIHH 141730Z 00000KT 6000 FEW020 26/24 Q1010 NOSIG=
202506141700 METAR WIHH NIL=
202506141630 METAR WIHH NIL=
202506141600 METAR WIHH 141600Z 15003KT 6000 FEW020 27/24 Q1011 NOSIG=
202506141530 METAR WIHH 141530Z 05003KT 8000 FEW020 26/24 Q1011 NOSIG=
202506141500 METAR WIHH 141500Z 06003KT 8000 FEW020 26/24 Q1011 NOSIG=
202506141430 METAR WIHH 141430Z 04005KT 8000 SCT019 27/24 Q1011 NOSIG=
202506141400 METAR WIHH 141400Z 06006KT 8000 SCT019 27/24 Q1010 NOSIG=
202506141330 METAR WIHH 141330Z 11005KT 8000 SCT019 26/24 Q1010 NOSIG=
202506141300 METAR WIHH NIL=
202506141230 METAR WIHH NIL=
202506141200 METAR WIHH 141200Z 10006KT 8000 SCT019 26/23 Q1010 NOSIG=
202506141130 METAR WIHH 141130Z 12006KT 8000 SCT019 26/24 Q1010 NOSIG=
202506141100 METAR WIHH NIL=
202506141030 METAR WIHH NIL=
202506141000 METAR WIHH NIL=
202506140930 METAR WIHH NIL=
202506140900 METAR WIHH 140900Z 12010KT 6000 SCT018 26/24 Q1010 RMK RA TO E=
202506140830 METAR WIHH 140830Z 10006KT 6000 SCT018 26/24 Q1010 NOSIG RMK RA TO NW=
202506140800 METAR WIHH 140800Z 09006KT 5000 -RA SCT017 25/24 Q1011 NOSIG=
202506140730 METAR WIHH 140730Z 02006KT 5000 -RA SCT015 FEW017CB 25/24 Q1011 RMK CB TO NE=
202506140700 METAR WIHH 140700Z 36015KT 5000 -RA FEW016CB SCT017 25/24 Q1011 RMK CB TO N=
202506140630 METAR WIHH 140630Z 05015KT 5000 HZ FEW016CB SCT017 27/24 Q1011 RMK CB AND RA NE-SE=
202506140600 METAR WIHH 140600Z 01015KT 6000 FEW017CB SCT018 29/23 Q1011 NOSIG RMK CB AND RA TO W-N=
202506140530 METAR WIHH NIL=
202506140500 METAR WIHH NIL=
202506140430 METAR WIHH 140430Z 04012KT 7000 FEW020 33/22 Q1011 NOSIG=
202506140400 METAR WIHH 140400Z 08012KT 6000 FEW020 33/22 Q1011 NOSIG=
202506140330 METAR WIHH 140330Z 09010KT 6000 FEW020 33/22 Q1011 NOSIG=
202506140300 METAR WIHH NIL=
202506140230 METAR WIHH 140230Z 13005KT 6000 FEW020 31/22 Q1011 NOSIG=
202506140200 METAR WIHH 140200Z 11004KT 5000 HZ FEW020 31/23 Q1011 NOSIG=
202506140130 METAR WIHH 140130Z 24004KT 5000 HZ FEW020 30/24 Q1011 NOSIG=
202506140100 METAR WIHH 140100Z 19003KT 5000 HZ FEW020 29/24 Q1011 NOSIG=
202506140030 METAR WIHH 140030Z 16003KT 6000 FEW020 28/24 Q1011 NOSIG=
202506140000 METAR WIHH 140000Z 23003KT 5000 HZ FEW020 26/24 Q1010 NOSIG=
202506132330 METAR WIHH NIL=
202506132300 METAR WIHH 132300Z 00000KT 6000 FEW020 26/24 Q1010 NOSIG=
202506132230 METAR WIHH 132230Z 00000KT 6000 FEW020 26/24 Q1009 NOSIG=
202506132200 METAR WIHH 132200Z 00000KT 6000 FEW020 26/24 Q1009 NOSIG=
202506132130 METAR WIHH 132130Z 00000KT 6000 FEW020 26/24 Q1009 NOSIG=
202506132100 METAR WIHH 132100Z 14003KT 6000 FEW020 26/24 Q1009 NOSIG=
202506132030 METAR WIHH NIL=
202506132000 METAR WIHH NIL=
202506131930 METAR WIHH NIL=
202506131900 METAR WIHH NIL=
202506131830 METAR WIHH NIL=
202506131800 METAR WIHH NIL=
202506131730 METAR WIHH NIL=
202506131700 METAR WIHH NIL=
202506131630 METAR WIHH 131630Z 07003KT 7000 FEW020 29/25 Q1011 NOSIG=
202506131600 METAR WIHH 131600Z 07003KT 7000 FEW020 29/25 Q1011 NOSIG=
202506131530 METAR WIHH 131530Z 13003KT 8000 SCT020 30/23 Q1011 NOSIG=
202506131500 METAR WIHH 131500Z 11004KT 8000 SCT020 30/23 Q1011 NOSIG=
202506131430 METAR WIHH 131430Z 00000KT 6000 SCT020 29/22 Q1011 NOSIG=
202506131400 METAR WIHH 131400Z 00000KT 6000 SCT020 30/22 Q1011 NOSIG=
202506131330 METAR WIHH 131330Z 09003KT 6000 SCT020 29/23 Q1011 NOSIG=
202506131300 METAR WIHH 131300Z 00000KT 6000 SCT020 29/23 Q1010 NOSIG=
202506131230 METAR WIHH NIL=
202506131200 METAR WIHH 131200Z 06005KT 6000 SCT020 31/22 Q1009 NOSIG=
202506131130 METAR WIHH 131130Z 05004KT 6000 SCT020 31/22 Q1009 NOSIG=
202506131100 METAR WIHH 131100Z 06006KT 6000 SCT020 31/23 Q1009 NOSIG=
202506131030 METAR WIHH 131030Z 03007KT 6000 FEW020 31/23 Q1008 NOSIG=
202506131000 METAR WIHH 131000Z 04008KT 7000 FEW020 32/23 Q1008 NOSIG=
202506130930 METAR WIHH NIL=
202506130900 METAR WIHH 130900Z 07009KT 8000 FEW020 33/22 Q1008 NOSIG=
202506130830 METAR WIHH NIL=
202506130800 METAR WIHH 130800Z 05008KT 7000 FEW020 34/21 Q1008 NOSIG=
202506130730 METAR WIHH 130730Z 09008KT 7000 FEW020 34/20 Q1008 NOSIG=
202506130700 METAR WIHH NIL=
202506130630 METAR WIHH 130630Z 11008KT 6000 FEW020 33/22 Q1009 NOSIG=
202506130600 METAR WIHH NIL=
202506130530 METAR WIHH 130530Z 12008KT 6000 FEW020 33/22 Q1009 NOSIG=
202506130500 METAR WIHH NIL=
202506130430 METAR WIHH 130430Z 09008KT 6000 FEW020 33/22 Q1010 NOSIG=
202506130400 METAR WIHH 130400Z 10008KT 6000 FEW020 32/23 Q1011 NOSIG=
202506130330 METAR WIHH 130330Z 09008KT 6000 FEW020 31/23 Q1011 NOSIG=
202506130300 METAR WIHH 130300Z 09008KT 6000 FEW020 31/22 Q1012 NOSIG=
202506130230 METAR WIHH NIL=
202506130200 METAR WIHH 130200Z 10005KT 5000 HZ FEW022 30/24 Q1012 NOSIG=
202506130130 METAR WIHH NIL=
202506130100 METAR WIHH 130100Z 15003KT 4000 HZ NSC 28/24 Q1011 NOSIG=
202506130030 METAR WIHH 130030Z 00000KT 4000 HZ NSC 28/25 Q1011 NOSIG=
202506130000 METAR WIHH 130000Z 00000KT 4000 HZ FEW020 26/25 Q1011 NOSIG=
202506122330 METAR WIHH 122330Z 00000KT 4000 FEW020 25/24 Q1011 NOSIG=
202506122300 METAR WIHH 122300Z 00000KT 4000 HZ FEW020 25/24 Q1010 NOSIG=
202506122230 METAR WIHH NIL=
202506122200 METAR WIHH 122200Z 11003KT 6000 FEW020 26/24 Q1010 NOSIG=
202506122130 METAR WIHH NIL=
202506122100 METAR WIHH NIL=
202506122030 METAR WIHH NIL=
202506122000 METAR WIHH NIL=
202506121930 METAR WIHH NIL=
202506121900 METAR WIHH NIL=
202506121830 METAR WIHH NIL=
202506121800 METAR WIHH NIL=
202506121730 METAR WIHH NIL=
202506121700 METAR WIHH 121700Z 00000KT 5000 HZ FEW020 26/25 Q1010 NOSIG=
202506121630 METAR WIHH 121630Z 21003KT 5000 HZ FEW020 28/24 Q1011 NOSIG=
202506121600 METAR WIHH 121600Z 20003KT 5000 HZ FEW020 26/25 Q1011 NOSIG=
202506121530 METAR WIHH 121530Z 15004KT 7000 FEW020 28/24 Q1011 NOSIG=
202506121500 METAR WIHH 121500Z 10006KT 8000 FEW020 28/24 Q1011 NOSIG=
202506121430 METAR WIHH 121430Z 07007KT 8000 NSC 29/24 Q1010 NOSIG=
202506121400 METAR WIHH NIL=
202506121330 METAR WIHH 121330Z 08005KT 8000 NSC 29/25 Q1010 NOSIG=
202506121300 METAR WIHH 121300Z 04007KT 8000 NSC 29/25 Q1009 NOSIG=
202506121230 METAR WIHH 121230Z 05008KT 8000 NSC 29/24 Q1009 NOSIG=
202506121200 METAR WIHH 121200Z 04009KT 8000 NSC 29/23 Q1008 NOSIG=
202506121130 METAR WIHH NIL=
202506121100 METAR WIHH 121100Z 05012KT 8000 FEW020 30/23 Q1008 NOSIG=
202506121030 METAR WIHH 121030Z 05013KT 8000 FEW020 31/23 Q1007 NOSIG=
202506121000 METAR WIHH 121000Z 06010KT 8000 FEW020 31/24 Q1007 NOSIG=
202506120930 METAR WIHH 120930Z 04010KT 8000 SCT020 32/24 Q1007 NOSIG=
202506120900 METAR WIHH 120900Z 05012KT 8000 SCT020 32/24 Q1006 NOSIG=
202506120830 METAR WIHH 120830Z 07010KT 8000 SCT020 32/24 Q1006 NOSIG=
202506120800 METAR WIHH 120800Z 06012KT 8000 SCT020 33/24 Q1006 NOSIG=
202506120730 METAR WIHH 120730Z 05012KT 7000 SCT020 33/23 Q1006 NOSIG=
202506120700 METAR WIHH 120700Z 07009KT 8000 SCT020 33/22 Q1006 NOSIG=
202506120630 METAR WIHH 120630Z 06012KT 8000 SCT020 33/22 Q1007 NOSIG=
202506120600 METAR WIHH NIL=
202506120530 METAR WIHH 120530Z 05012KT 8000 FEW020 32/22 Q1008 NOSIG=
202506120500 METAR WIHH 120500Z 06011KT 7000 FEW020 31/22 Q1008 NOSIG=
202506120430 METAR WIHH 120430Z 05012KT 7000 FEW020 32/22 Q1009 NOSIG=
202506120400 METAR WIHH 120400Z 04012KT 6000 FEW020 32/22 Q1009 NOSIG=
202506120330 METAR WIHH 120330Z 10009KT 6000 FEW020 32/23 Q1009 NOSIG=
202506120300 METAR WIHH 120300Z 13006KT 5000 HZ FEW020 31/24 Q1009 NOSIG=
202506120230 METAR WIHH 120230Z 05005KT 5000 HZ FEW020 30/23 Q1009 NOSIG=
202506120200 METAR WIHH NIL=
202506120130 METAR WIHH 120130Z 18003KT 4000 HZ FEW020 29/24 Q1009 NOSIG=
202506120100 METAR WIHH 120100Z 09003KT 4000 FEW020 27/24 Q1009 NOSIG=
202506120030 METAR WIHH 120030Z 06003KT 4000 HZ FEW020 27/24 Q1009 NOSIG=
202506120000 METAR WIHH 120000Z 00000KT 4000 HZ FEW020 26/25 Q1009 NOSIG=
202506112330 METAR WIHH 112330Z 12003KT 4000 HZ FEW020 25/24 Q1009 NOSIG=
202506112300 METAR WIHH 112300Z 00000KT 5000 HZ FEW020 25/24 Q1008 NOSIG=
202506112230 METAR WIHH 112230Z 15003KT 6000 FEW020 25/24 Q1008 NOSIG=
202506112200 METAR WIHH 112200Z 15003KT 7000 FEW020 25/24 Q1008 NOSIG=
202506112130 METAR WIHH 112130Z 15004KT 7000 FEW020 25/24 Q1008 NOSIG=
202506112100 METAR WIHH 112100Z 12005KT 7000 FEW020 25/24 Q1008 NOSIG=
202506112030 METAR WIHH NIL=
202506112000 METAR WIHH NIL=
202506111930 METAR WIHH NIL=
202506111900 METAR WIHH NIL=
202506111830 METAR WIHH NIL=
202506111800 METAR WIHH NIL=
202506111730 METAR WIHH NIL=
202506111700 METAR WIHH 111700Z 11005KT 8000 FEW020 27/24 Q1009 NOSIG=
202506111630 METAR WIHH 111630Z 09006KT 8000 FEW020 27/24 Q1009 NOSIG=
202506111600 METAR WIHH 111600Z 09007KT 8000 FEW020 28/23 Q1009 NOSIG=
202506111530 METAR WIHH 111530Z 08006KT 8000 FEW020 28/24 Q1009 NOSIG=
202506111500 METAR WIHH 111500Z 08009KT 8000 FEW020 28/24 Q1009 NOSIG=
202506111430 METAR WIHH 111430Z 07005KT 8000 FEW020 28/25 Q1009 NOSIG=
202506111400 METAR WIHH NIL=
202506111330 METAR WIHH 111330Z 07008KT 8000 FEW020 28/25 Q1008 NOSIG=
202506111300 METAR WIHH 111300Z 07008KT 8000 FEW020 28/24 Q1008 NOSIG=
202506111230 METAR WIHH 111230Z 08006KT 8000 FEW020 29/24 Q1008 NOSIG=
202506111200 METAR WIHH NIL=
202506111130 METAR WIHH NIL=
202506111100 METAR WIHH 111100Z 06008KT 7000 SCT020 29/24 Q1007 NOSIG=
202506111030 METAR WIHH 111030Z 07008KT 7000 SCT018 30/24 Q1006 NOSIG=
202506111000 METAR WIHH 111000Z 03010KT 7000 SCT018 30/24 Q1006 NOSIG=
202506110930 METAR WIHH 110930Z 04010KT 7000 SCT018 31/24 Q1006 NOSIG=
202506110900 METAR WIHH 110900Z 04010KT 6000 SCT018 31/24 Q1006 RMK RA TO S-W=
202506110830 METAR WIHH 110830Z 04010KT 6000 TS FEW017CB SCT018 31/24 Q1006 RMK CB AND RA TO S-W=
202506110800 METAR WIHH 110800Z 06007KT 6000 SCT018 31/24 Q1006 RMK RA TO NW=
202506110730 METAR WIHH NIL=
202506110700 METAR WIHH 110700Z 06008KT 6000 SCT018 31/24 Q1006 RMK RA TO N=
202506110630 METAR WIHH NIL=
202506110600 METAR WIHH NIL=
202506110530 METAR WIHH 110530Z 09006KT 6000 -RA SCT018 30/24 Q1008=
202506110500 METAR WIHH 110500Z 10008KT 6000 -RA FEW017CB SCT018 31/24 Q1008 TEMPO TL0530 4000 -TSRA RMK CB TO SE=
202506110430 METAR WIHH 110430Z 12005KT 6000 SCT018 31/24 Q1009 TEMPO FM0440 5000 -RA RMK RA TO E-SE=
202506110400 METAR WIHH 110400Z 02005KT 6000 SCT018 31/24 Q1009 NOSIG=
202506110330 METAR WIHH 110330Z 24003KT 6000 SCT018 32/23 Q1009 NOSIG=
202506110300 METAR WIHH 110300Z 12005KT 6000 SCT020 31/24 Q1010 NOSIG=
202506110230 METAR WIHH NIL=
202506110200 METAR WIHH 110200Z 10005KT 5000 HZ FEW020 30/25 Q1010 NOSIG=
202506110130 METAR WIHH 110130Z 14003KT 6000 FEW020 29/24 Q1010 NOSIG=
202506110100 METAR WIHH 110100Z 12003KT 5000 HZ FEW020 28/25 Q1009 NOSIG=
202506110030 METAR WIHH 110030Z 12004KT 4000 HZ FEW018 27/25 Q1009 NOSIG=
202506110000 METAR WIHH 110000Z 00000KT 4000 HZ FEW018 26/25 Q1009 NOSIG=
202506102330 METAR WIHH NIL=
202506102300 METAR WIHH 102300Z 09003KT 4000 HZ SCT018 25/24 Q1008 NOSIG=
202506102230 METAR WIHH 102230Z 12003KT 4000 HZ SCT018 25/24 Q1008 NOSIG=
202506102200 METAR WIHH 102200Z 12003KT 5000 HZ SCT018 25/24 Q1008 NOSIG=
202506102130 METAR WIHH 102130Z 14003KT 5000 HZ SCT018 25/24 Q1007 NOSIG=
202506102100 METAR WIHH NIL=
202506102030 METAR WIHH NIL=
202506102000 METAR WIHH NIL=
202506101930 METAR WIHH NIL=
202506101900 METAR WIHH NIL=
202506101830 METAR WIHH NIL=
202506101800 METAR WIHH NIL=
202506101730 METAR WIHH NIL=
202506101700 METAR WIHH 101700Z 00000KT 4000 HZ SCT017 26/25 Q1010 NOSIG=
202506101630 METAR WIHH 101630Z 00000KT 4000 HZ SCT017 26/25 Q1010 NOSIG=
202506101600 METAR WIHH 101600Z 00000KT 4000 HZ SCT017 26/25 Q1010 NOSIG=
202506101530 METAR WIHH 101530Z 00000KT 5000 HZ SCT010 26/25 Q1010 NOSIG=
202506101500 METAR WIHH 101500Z 00000KT 5000 HZ SCT017 26/25 Q1010 NOSIG=
202506101430 METAR WIHH 101430Z 00000KT 5000 HZ SCT017 26/25 Q1009 NOSIG=
202506101400 METAR WIHH 101400Z 21003KT 5000 HZ SCT017 26/25 Q1009 NOSIG=
202506101330 METAR WIHH 101330Z 24004KT 5000 HZ SCT017 26/25 Q1009 NOSIG=
202506101300 METAR WIHH 101300Z 27004KT 5000 HZ SCT017 26/25 Q1009 RMK RA TO NW=
202506101230 METAR WIHH 101230Z 24003KT 5000 HZ SCT017 26/26 Q1008 RMK RA TO NW=
202506101200 METAR WIHH 101200Z 11003KT 4000 RA FEW017CB SCT017 26/25 Q1008 RMK CB TO NE=
202506101130 METAR WIHH 101130Z 13005KT 4000 -RA FEW017 SCT017 27/25 Q1008 NOSIG=
202506101100 METAR WIHH NIL=
202506101000 METAR WIHH NIL=
202506100900 METAR WIHH NIL=
202506100800 METAR WIHH NIL=
202506100730 METAR WIHH 100730Z 03008KT 2000 -RA FEW017CB SCT018 31/24 Q1006 RMK CB TO SE=
202506100700 METAR WIHH 100700Z 34003KT 5000 HZ SCT018 32/24 Q1006 RMK RA TO E=
202506100630 METAR WIHH 100630Z 32003KT 5000 HZ SCT020 32/24 Q1006 RMK RA TO SE=
202506100600 METAR WIHH NIL=
202506100530 METAR WIHH NIL=
202506100500 METAR WIHH 100500Z 17003KT 5000 HZ SCT020 32/23 Q1008 NOSIG=
202506100430 METAR WIHH 100430Z 09003KT 5000 HZ SCT020 31/22 Q1008 NOSIG=
202506100400 METAR WIHH 100400Z 05004KT 4000 HZ SCT020 30/25 Q1009 NOSIG=
202506100330 METAR WIHH 100330Z 12003KT 4000 HZ SCT020 29/25 Q1009 NOSIG=
202506100300 METAR WIHH NIL=
202506100230 METAR WIHH 100230Z 12003KT 4000 HZ SCT020 29/25 Q1009 NOSIG=
202506100200 METAR WIHH NIL=
202506100130 METAR WIHH 100130Z 17003KT 4000 HZ SCT020 28/25 Q1010 NOSIG=
202506100100 METAR WIHH 100100Z 10003KT 4000 HZ SCT020 28/25 Q1010 NOSIG=
202506100030 METAR WIHH 100030Z 07003KT 4000 HZ SCT020 27/25 Q1009 NOSIG=
202506100000 METAR WIHH 100000Z 10003KT 4000 HZ SCT020 27/25 Q1009 NOSIG=
202506092330 METAR WIHH 092330Z 13003KT 3000 HZ SCT020 27/25 Q1009 NOSIG=
202506092300 METAR WIHH 092300Z 00000KT 4000 HZ SCT018 26/25 Q1008 NOSIG=
202506092230 METAR WIHH 092230Z 00000KT 5000 HZ SCT018 27/25 Q1008 NOSIG=
202506092200 METAR WIHH 092200Z 00000KT 5000 SCT018 27/26 Q1008 NOSIG=
202506092130 METAR WIHH 092130Z 00000KT 5000 HZ SCT018 27/25 Q1008 RMK RA TO NE=
202506092100 METAR WIHH NIL=
202506092030 METAR WIHH NIL=
202506092000 METAR WIHH NIL=
202506091930 METAR WIHH NIL=
202506091900 METAR WIHH NIL=
202506091830 METAR WIHH NIL=
202506091800 METAR WIHH NIL=
202506091730 METAR WIHH NIL=
202506091700 METAR WIHH NIL=
202506091630 METAR WIHH NIL=
202506091600 METAR WIHH NIL=
202506091530 METAR WIHH 091530Z 03003KT 7000 SCT020 27/25 Q1010 NOSIG=
202506091500 METAR WIHH 091500Z 01004KT 7000 SCT020 28/24 Q1009 NOSIG=
202506091430 METAR WIHH 091430Z 36004KT 7000 SCT020 28/24 Q1009 NOSIG=
202506091400 METAR WIHH 091400Z 04004KT 7000 SCT020 29/24 Q1009 NOSIG=
202506091330 METAR WIHH 091330Z 05004KT 7000 SCT020 29/23 Q1009 NOSIG=
202506091300 METAR WIHH 091300Z 06005KT 7000 SCT020 29/24 Q1008 NOSIG=
202506091230 METAR WIHH NIL=
202506091200 METAR WIHH NIL=
202506091130 METAR WIHH NIL=
202506091100 METAR WIHH 091100Z 33004KT 6000 SCT020 29/25 Q1007 NOSIG=
202506091030 METAR WIHH 091030Z 34005KT 7000 SCT020 29/24 Q1006 NOSIG=
202506091000 METAR WIHH 091000Z 32006KT 6000 SCT018 30/25 Q1006 RMK RA TO NW=
202506090930 METAR WIHH 090930Z 34005KT 6000 SCT018 30/25 Q1006 RMK RA TO NW=
202506090900 METAR WIHH NIL=
202506090830 METAR WIHH NIL=
202506090800 METAR WIHH NIL=
202506090730 METAR WIHH 090730Z 05008KT 6000 FEW017CB SCT018 32/24 Q1006 RMK CB AND RA TO NW=
202506090700 METAR WIHH 090700Z 07007KT 6000 FEW017CB SCT018 32/23 Q1007 RMK CB TO NW=
202506090630 METAR WIHH 090630Z 09006KT 6000 FEW017CB SCT018 32/23 Q1007 RMK CB TO NW=
202506090600 METAR WIHH 090600Z 10006KT 6000 SCT018 32/23 Q1008 NOSIG=
202506090530 METAR WIHH 090530Z 13005KT 7000 SCT018 32/23 Q1008 NOSIG=
202506090500 METAR WIHH 090500Z 12005KT 7000 SCT018 32/24 Q1009 NOSIG=
202506090430 METAR WIHH 090430Z 17004KT 7000 SCT018 32/23 Q1009 NOSIG=
202506090400 METAR WIHH 090400Z 36005KT 7000 SCT018 31/24 Q1010 NOSIG=
202506090330 METAR WIHH 090330Z 07006KT 7000 SCT018 31/23 Q1010 NOSIG=
202506090300 METAR WIHH NIL=
202506090230 METAR WIHH NIL=
202506090200 METAR WIHH 090200Z 10003KT 6000 FEW018 30/24 Q1010 NOSIG=
202506090130 METAR WIHH 090130Z 09003KT 5000 HZ FEW020 30/24 Q1010 NOSIG=
202506090100 METAR WIHH 090100Z 10003KT 5000 HZ FEW020 29/24 Q1010 NOSIG=
202506090030 METAR WIHH 090030Z 00000KT 5000 HZ FEW020 28/25 Q1010 NOSIG=
202506090000 METAR WIHH 090000Z 00000KT 5000 HZ FEW020 26/25 Q1009 NOSIG=
202506082330 METAR WIHH 082330Z 00000KT 4000 HZ FEW020 26/24 Q1009 NOSIG=
202506082300 METAR WIHH 082300Z 00000KT 4000 HZ FEW020 25/24 Q1009 NOSIG DUPE=
202506082230 METAR WIHH 082230Z 00000KT 6000 FEW020 25/24 Q1009 NOSIG=
202506082200 METAR WIHH 082200Z 00000KT 5000 HZ FEW020 25/24 Q1009 NOSIG=
202506082130 METAR WIHH 082130Z 00000KT 5000 HZ FEW020 27/25 Q1009 NOSIG=
202506082100 METAR WIHH NIL=
202506082030 METAR WIHH NIL=
202506082000 METAR WIHH NIL=
202506081930 METAR WIHH NIL=
202506081900 METAR WIHH NIL=
202506081830 METAR WIHH NIL=
202506081800 METAR WIHH NIL=
202506081730 METAR WIHH NIL=
202506081700 METAR WIHH 081700Z 00000KT 6000 SCT020 28/23 Q1010 NOSIG=
202506081630 METAR WIHH 081630Z 00000KT 7000 SCT020 29/24 Q1010 NOSIG=
202506081600 METAR WIHH 081600Z 13003KT 7000 SCT020 29/24 Q1010 NOSIG=
202506081530 METAR WIHH NIL=
202506081500 METAR WIHH 081500Z 13003KT 8000 SCT020 29/23 Q1010 NOSIG=
202506081430 METAR WIHH 081430Z 00000KT 8000 SCT020 29/24 Q1010 NOSIG=
202506081400 METAR WIHH 081400Z 07003KT 8000 SCT020 29/23 Q1010 NOSIG=
202506081330 METAR WIHH NIL=
202506081300 METAR WIHH 081300Z 05005KT 8000 SCT020 29/23 Q1009 NOSIG=
202506081230 METAR WIHH 081230Z 02005KT 8000 SCT020 29/23 Q1009 NOSIG=
202506081200 METAR WIHH NIL=
202506081130 METAR WIHH 081130Z 03006KT 7000 SCT020 30/23 Q1008 NOSIG=
202506081100 METAR WIHH 081100Z 02006KT 7000 SCT020 30/23 Q1007 NOSIG=
202506081030 METAR WIHH 081030Z 03007KT 7000 SCT018 31/23 Q1007 NOSIG=
202506081000 METAR WIHH NIL=
202506080930 METAR WIHH 080930Z 02004KT 7000 SCT018 32/22 Q1007 NOSIG=
202506080900 METAR WIHH 080900Z 36004KT 7000 SCT018 32/23 Q1006 NOSIG=
202506080830 METAR WIHH 080830Z 36005KT 7000 SCT018 33/23 Q1006 NOSIG=
202506080800 METAR WIHH 080800Z 35005KT 6000 SCT018 33/24 Q1007 NOSIG=
202506080730 METAR WIHH 080730Z 36005KT 7000 SCT018 33/23 Q1007 NOSIG=
202506080700 METAR WIHH NIL=
202506080630 METAR WIHH 080630Z 35006KT 7000 SCT018 34/23 Q1007 NOSIG=
202506080600 METAR WIHH 080600Z 21005KT 7000 SCT020 34/20 Q1008 NOSIG=
202506080530 METAR WIHH NIL=
202506080500 METAR WIHH 080500Z 08004KT 7000 SCT020 33/20 Q1009 NOSIG=
202506080430 METAR WIHH 080430Z 22004KT 7000 FEW020 33/23 Q1009 NOSIG=
202506080400 METAR WIHH NIL=
202506080330 METAR WIHH 080330Z 27003KT 7000 NSC 32/22 Q1010 NOSIG=
202506080300 METAR WIHH 080300Z 22006KT 7000 NSC 31/23 Q1011 NOSIG=
202506080230 METAR WIHH 080230Z 17003KT 7000 NSC 30/24 Q1011 NOSIG=
202506080200 METAR WIHH 080200Z 18003KT 6000 NSC 29/23 Q1011 NOSIG=
202506080130 METAR WIHH NIL=
202506080100 METAR WIHH 080100Z 24005KT 4000 HZ FEW020 27/24 Q1011 NOSIG=
202506080030 METAR WIHH NIL=
202506080000 METAR WIHH 080000Z 00000KT 3000 BR FEW020 24/24 Q1010 NOSIG=
202506072330 METAR WIHH 072330Z 00000KT 3000 BR FEW020 24/24 Q1009 NOSIG=
202506072300 METAR WIHH 072300Z 00000KT 2000 BR FEW020 24/24 Q1010 NOSIG=
202506072230 METAR WIHH 072230Z 00000KT 3000 BR FEW020 24/24 Q1009 NOSIG=
202506072200 METAR WIHH 072200Z 00000KT 3000 HZ FEW020 24/23 Q1009 NOSIG=
202506072130 METAR WIHH 072130Z 00000KT 4000 HZ SCT020 24/23 Q1009 NOSIG=
202506072100 METAR WIHH NIL=
202506072030 METAR WIHH NIL=
202506072000 METAR WIHH NIL=
202506071930 METAR WIHH NIL=
202506071900 METAR WIHH NIL=
202506071830 METAR WIHH NIL=
202506071800 METAR WIHH NIL=
202506071730 METAR WIHH NIL=
202506071700 METAR WIHH 071700Z 00000KT 5000 HZ FEW020 25/24 Q1011 NOSIG=
202506071630 METAR WIHH 071630Z 00000KT 5000 HZ SCT018 25/24 Q1011 NOSIG=
202506071600 METAR WIHH 071600Z 00000KT 5000 HZ SCT018 25/24 Q1011 NOSIG=
202506071530 METAR WIHH 071530Z 00000KT 5000 HZ SCT018 25/24 Q1012 NOSIG=
202506071500 METAR WIHH 071500Z 00000KT 5000 HZ SCT018 25/24 Q1012 NOSIG=
202506071430 METAR WIHH NIL=
202506071400 METAR WIHH 071400Z 12003KT 5000 -RA SCT018 25/24 Q1012 NOSIG=
202506071330 METAR WIHH NIL=
202506071300 METAR WIHH 071300Z 07003KT 5000 -RA SCT017 25/23 Q1011 NOSIG=
202506071230 METAR WIHH NIL=
202506071200 METAR WIHH 071200Z 13005KT 5000 -TSRA FEW017CB SCT017 24/24 Q1011 RMK CB TO NE-SE=
202506071130 METAR WIHH 071130Z 13004KT 5000 -TSRA SCT015 FEW016CB 24/23 Q1010 RMK CB TO NE-SE=
202506071100 METAR WIHH 071100Z 15003KT 3000 -TSRA BKN014 FEW016CB 23/22 Q1010 RMK CB OVER THE FIELD=
202506071030 METAR WIHH 071030Z 18010KT 1000 -TSRA BKN012 FEW017CB 25/24 Q1010 RMK CB OVER THE FIELD=
202506071000 METAR WIHH 071000Z 05006KT 3000 TS BKN012 FEW017CB 29/22 Q1009 TEMPO FM1015 3000 -TSRA RMK CB AND RA TO E-W=
202506070930 METAR WIHH 070930Z 05006KT 5000 TS FEW017CB SCT018 31/24 Q1008 RMK CB AND RA TO SE=
202506070900 METAR WIHH NIL=
202506070830 METAR WIHH 070830Z 35004KT 5000 TS FEW017CB SCT018 32/25 Q1008 RMK CB AND RA TO S=
202506070800 METAR WIHH 070800Z 02004KT 5000 HZ SCT020 32/24 Q1008 RMK RA TO S=
202506070730 METAR WIHH 070730Z 32003KT 5000 HZ SCT020 33/24 Q1008 NOSIG=
202506070700 METAR WIHH 070700Z 01005KT 5000 HZ SCT020 32/24 Q1009 NOSIG=
202506070630 METAR WIHH 070630Z 01005KT 5000 HZ SCT020 32/24 Q1009 NOSIG=
202506070600 METAR WIHH 070600Z 02006KT 5000 HZ SCT020 32/24 Q1010 NOSIG=
202506070530 METAR WIHH 070530Z 32003KT 6000 SCT020 33/24 Q1010 NOSIG=
202506070500 METAR WIHH 070500Z 26003KT 6000 SCT020 32/23 Q1011 NOSIG=
202506070430 METAR WIHH 070430Z 32003KT 6000 SCT020 32/23 Q1011 NOSIG=
202506070400 METAR WIHH NIL=
202506070330 METAR WIHH 070330Z 10003KT 6000 FEW020 32/24 Q1012 NOSIG=
202506070300 METAR WIHH 070300Z 04003KT 6000 FEW020 30/24 Q1012 NOSIG=
202506070230 METAR WIHH 070230Z 09003KT 5000 HZ NSC 30/25 Q1012 NOSIG=
202506070200 METAR WIHH 070200Z 18004KT 5000 HZ NSC 30/24 Q1012 NOSIG=
202506070130 METAR WIHH 070130Z 20003KT 4000 HZ NSC 29/24 Q1012 NOSIG=
202506070100 METAR WIHH 070100Z 24004KT 4000 HZ NSC 28/24 Q1012 NOSIG=
202506070030 METAR WIHH 070030Z 23003KT 4000 HZ NSC 28/25 Q1012 NOSIG=
202506070000 METAR WIHH 070000Z 19003KT 4000 BR FEW020 25/25 Q1011 NOSIG=
202506062330 METAR WIHH 062330Z 19003KT 4000 BR FEW020 25/25 Q1011 NOSIG=
202506062300 METAR WIHH 062300Z 20003KT 3000 BR FEW020 25/25 Q1011 NOSIG=
202506062230 METAR WIHH 062230Z 17003KT 3000 BR SCT020 26/25 Q1010 NOSIG=
202506062200 METAR WIHH 062200Z 15003KT 3000 BR SCT020 26/25 Q1010 NOSIG=
202506062130 METAR WIHH 062130Z 00000KT 3000 BR SCT020 26/25 Q1010 NOSIG=
202506062100 METAR WIHH 062100Z 00000KT 3000 HZ SCT020 26/25 Q1010 NOSIG=
202506062030 METAR WIHH NIL=
202506062000 METAR WIHH NIL=
202506061930 METAR WIHH NIL=
202506061900 METAR WIHH NIL=
202506061830 METAR WIHH NIL=
202506061800 METAR WIHH NIL=
202506061730 METAR WIHH NIL=
202506061700 METAR WIHH NIL=
202506061630 METAR WIHH NIL=
202506061600 METAR WIHH 061600Z 14003KT 8000 SCT020 28/23 Q1012 NOSIG=
202506061530 METAR WIHH 061530Z 00000KT 8000 SCT020 27/23 Q1012 NOSIG=
202506061500 METAR WIHH 061500Z 26003KT 8000 SCT020 27/22 Q1012 NOSIG=
202506061430 METAR WIHH 061430Z 26003KT 8000 SCT020 27/24 Q1012 NOSIG=
202506061400 METAR WIHH 061400Z 27003KT 8000 SCT020 28/24 Q1012 NOSIG=
202506061330 METAR WIHH 061330Z 26003KT 6000 SCT020 28/24 Q1012 RMK RA TO NE=
202506061300 METAR WIHH 061300Z 27003KT 6000 SCT020 28/24 Q1011 RMK RA TO NE=
202506061230 METAR WIHH NIL=
202506061200 METAR WIHH 061200Z 17006KT 6000 SCT020 28/24 Q1010 NOSIG=
202506061130 METAR WIHH NIL=
202506061100 METAR WIHH 061100Z 18003KT 7000 SCT020 29/25 Q1009 NOSIG=
202506061030 METAR WIHH 061030Z 00000KT 8000 SCT020 30/24 Q1009 NOSIG=
202506061000 METAR WIHH 061000Z 15003KT 8000 SCT020 30/24 Q1009 NOSIG=
202506060930 METAR WIHH 060930Z 16005KT 8000 SCT020 29/24 Q1008 NOSIG=
202506060900 METAR WIHH 060900Z 18005KT 7000 SCT019 FEW020CB 29/23 Q1008 RMK CB AND RA TO S=
202506060830 METAR WIHH 060830Z 30005KT 7000 TS SCT018 FEW020CB 30/24 Q1008 TEMPO FM0900 3000 -TSRA RMK CB AND RA TO S-SW=
202506060800 METAR WIHH NIL=
202506060730 METAR WIHH 060730Z 03007KT 7000 SCT018 FEW020CB 32/24 Q1008 TEMPO FM0800 3000 -RA RMK CB AND RA TO NW=
202506060700 METAR WIHH NIL=
202506060630 METAR WIHH 060630Z 01009KT 7000 SCT018 32/23 Q1009 NOSIG=
202506060600 METAR WIHH 060600Z 36009KT 7000 SCT018 32/23 Q1009 NOSIG=
202506060530 METAR WIHH 060530Z 04004KT 7000 SCT018 31/24 Q1010 RMK RA TO E=
202506060500 METAR WIHH 060500Z 35009KT 7000 SCT018 31/24 Q1010 RMK RA TO E=
202506060430 METAR WIHH 060430Z 13004KT 7000 SCT020 32/24 Q1011 RMK RA TO NW=
202506060400 METAR WIHH 060400Z 05004KT 7000 SCT020 32/24 Q1011 NOSIG=
202506060330 METAR WIHH 060330Z 15005KT 7000 SCT020 32/25 Q1012 NOSIG=
202506060300 METAR WIHH 060300Z 25003KT 7000 FEW020 30/24 Q1012 NOSIG=
202506060230 METAR WIHH 060230Z 26003KT 7000 FEW020 30/24 Q1012 NOSIG=
202506060200 METAR WIHH 060200Z 20003KT 7000 FEW018 29/24 Q1012 NOSIG=
202506060130 METAR WIHH 060130Z 21003KT 7000 FEW018 29/24 Q1012 NOSIG=
202506060100 METAR WIHH 060100Z 18003KT 7000 FEW018 29/23 Q1011 NOSIG=
202506060030 METAR WIHH 060030Z 18004KT 7000 SCT018 28/23 Q1011 NOSIG=
202506060000 METAR WIHH 060000Z 13004KT 6000 SCT018 26/23 Q1011 NOSIG=
202506052330 METAR WIHH 052330Z 17004KT 6000 SCT018 26/23 Q1011 NOSIG=
202506052300 METAR WIHH NIL=
202506052230 METAR WIHH 052230Z 11005KT 6000 SCT018 26/23 Q1011 RMK RA TO SE=
202506052200 METAR WIHH NIL=
202506052130 METAR WIHH 052130Z 05004KT 6000 TS FEW017CB SCT018 26/24 Q1011 TEMPO FM2145 3000 -TSRA RMK CB AND RA TO NE=
202506052100 METAR WIHH 052100Z 00000KT 6000 SCT018 26/24 Q1010 NOSIG=
202506052030 METAR WIHH NIL=
202506052000 METAR WIHH NIL=
202506051930 METAR WIHH NIL=
202506051900 METAR WIHH NIL=
202506051830 METAR WIHH NIL=
202506051800 METAR WIHH NIL=
202506051730 METAR WIHH NIL=
202506051700 METAR WIHH 051700Z 00000KT 6000 SCT018 27/25 Q1011 NOSIG=
202506051630 METAR WIHH NIL=
202506051600 METAR WIHH NIL=
202506051530 METAR WIHH 051530Z 00000KT 6000 SCT018 29/26 Q1012 NOSIG=
202506051500 METAR WIHH 051500Z 05003KT 6000 SCT020 29/25 Q1011 NOSIG=
202506051430 METAR WIHH 051430Z 07003KT 6000 SCT020 27/25 Q1011 NOSIG=
202506051400 METAR WIHH 051400Z 00000KT 6000 SCT020 27/26 Q1011 NOSIG=
202506051330 METAR WIHH 051330Z 00000KT 6000 SCT020 28/26 Q1010 NOSIG=
202506051300 METAR WIHH 051300Z 07003KT 6000 SCT020 28/24 Q1010 NOSIG=
202506051230 METAR WIHH 051230Z 00000KT 6000 SCT020 28/25 Q1010 NOSIG=
202506051200 METAR WIHH 051200Z 00000KT 6000 SCT020 28/25 Q1009 NOSIG=
202506051130 METAR WIHH NIL=
202506051100 METAR WIHH NIL=
202506051030 METAR WIHH 051030Z 34003KT 6000 SCT018 30/24 Q1008 NOSIG=
202506051000 METAR WIHH 051000Z 29005KT 5000 HZ SCT018 31/25 Q1008 RMK RA TO N=
202506050930 METAR WIHH 050930Z 27005KT 5000 HZ SCT018 31/25 Q1007 TEMPO FM1000 4000 -RA RMK RA TO NE=
202506050900 METAR WIHH 050900Z 29005KT 5000 HZ SCT018 31/24 Q1008 NOSIG=
202506050830 METAR WIHH 050830Z 31004KT 5000 HZ FEW017CB SCT018 29/24 Q1007 RMK CB AND RA TO SW=
202506050800 METAR WIHH 050800Z 31004KT 5000 HZ FEW017CB SCT018 28/23 Q1007 RMK CB TO W-SW=
202506050730 METAR WIHH NIL=
202506050700 METAR WIHH 050700Z 31004KT 5000 -RA FEW017CB SCT018 29/26 Q1008 RMK CB TO W=
202506050630 METAR WIHH 050630Z 35003KT 5000 -RA SCT018 32/24 Q1009=
202506050600 METAR WIHH 050600Z 14004KT 5000 HZ SCT018 33/23 Q1009 RMK RA TO W=
202506050530 METAR WIHH 050530Z 05005KT 6000 SCT020 33/24 Q1009 RMK RA TO NW=
202506050500 METAR WIHH 050500Z 06005KT 6000 SCT020 33/23 Q1010 NOSIG=
202506050430 METAR WIHH 050430Z 06004KT 6000 FEW020 32/23 Q1011 NOSIG=
202506050400 METAR WIHH 050400Z 30003KT 6000 FEW020 32/23 Q1011 NOSIG=
202506050330 METAR WIHH NIL=
202506050300 METAR WIHH 050300Z 05004KT 6000 FEW020 31/24 Q1012 NOSIG=
202506050230 METAR WIHH 050230Z 22003KT 6000 FEW020 31/25 Q1012 NOSIG=
202506050200 METAR WIHH 050200Z 04003KT 6000 FEW020 31/24 Q1012 NOSIG=
202506050130 METAR WIHH 050130Z 20004KT 5000 HZ FEW020 30/25 Q1012 NOSIG=
202506050100 METAR WIHH 050100Z 21004KT 5000 HZ FEW020 28/24 Q1012 NOSIG=
202506050030 METAR WIHH 050030Z 23004KT 5000 HZ FEW020 27/24 Q1012 NOSIG=
202506050000 METAR WIHH 050000Z 27003KT 5000 HZ FEW020 26/23 Q1011 NOSIG=
202506042330 METAR WIHH 042330Z 00000KT 4000 BR FEW020 25/25 Q1011 NOSIG=
202506042300 METAR WIHH 042300Z 00000KT 3000 BR FEW020 25/25 Q1011 NOSIG=
202506042230 METAR WIHH 042230Z 00000KT 3000 BR FEW020 25/24 Q1011 NOSIG=
202506042200 METAR WIHH 042200Z 00000KT 3000 BR FEW020 25/24 Q1010 NOSIG=
202506042130 METAR WIHH 042130Z 00000KT 3000 BR FEW020 25/24 Q1010 NOSIG=
202506042100 METAR WIHH 042100Z 00000KT 3000 BR FEW020 25/25 Q1010 NOSIG=
202506042030 METAR WIHH NIL=
202506042000 METAR WIHH NIL=
202506041930 METAR WIHH NIL=
202506041900 METAR WIHH NIL=
202506041830 METAR WIHH NIL=
202506041800 METAR WIHH NIL=
202506041730 METAR WIHH NIL=
202506041700 METAR WIHH 041700Z 00000KT 5000 HZ FEW018 26/24 Q1012 NOSIG=
202506041630 METAR WIHH 041630Z 00000KT 5000 HZ FEW018 27/24 Q1012 NOSIG=
202506041600 METAR WIHH 041600Z 00000KT 5000 HZ FEW018 27/24 Q1012 NOSIG=
202506041530 METAR WIHH 041530Z 00000KT 5000 HZ FEW018 27/24 Q1012 NOSIG=
202506041500 METAR WIHH 041500Z 00000KT 5000 HZ FEW018 26/25 Q1012 NOSIG=
202506041430 METAR WIHH 041430Z 00000KT 4000 HZ SCT018 27/25 Q1012 RMK RA TO N=
202506041400 METAR WIHH 041400Z 00000KT 4000 -RA SCT018 27/25 Q1012 NOSIG=
202506041330 METAR WIHH 041330Z 23003KT 4000 HZ SCT018 27/24 Q1012 RMK RA TO N=
202506041300 METAR WIHH 041300Z 25003KT 4000 HZ SCT018 28/24 Q1011 RMK RA TO NW=
202506041230 METAR WIHH 041230Z 23003KT 5000 HZ SCT018 27/24 Q1011 NOSIG=
202506041200 METAR WIHH 041200Z 17003KT 6000 SCT018 28/24 Q1011 NOSIG=
202506041130 METAR WIHH 041130Z 00000KT 6000 SCT018 27/24 Q1010 NOSIG=
202506041100 METAR WIHH 041100Z 18003KT 6000 SCT018 28/23 Q1009 NOSIG=
202506041030 METAR WIHH 041030Z 00000KT 6000 SCT018 28/25 Q1009 NOSIG=
202506041000 METAR WIHH 041000Z 27003KT 6000 SCT018 28/22 Q1009 NOSIG RMK RA TO SW=
202506040930 METAR WIHH 040930Z 30004KT 5000 HZ SCT018 28/23 Q1009 RMK RA TO W=
202506040900 METAR WIHH 040900Z 33005KT 5000 -RA FEW017CB SCT017 28/22 Q1009 RMK CB TO NW=
202506040830 METAR WIHH 040830Z 27007KT 4000 -TSRA FEW017CB SCT017 28/23 Q1009 TEMPO TL0840 1500 TSRA RMK CB TO NW=
202506040800 METAR WIHH 040800Z 26005KT 5000 TS FEW017CB SCT017 29/24 Q1009 RMK CB AND RA TO SW=
202506040730 METAR WIHH 040730Z 04004KT 5000 HZ FEW017CB SCT018 33/23 Q1009 TEMPO FM0800 RMK CB AND RA TO N-W=
202506040700 METAR WIHH 040700Z 10004KT 5000 FEW017CB SCT018 33/23 Q1009 TEMPO FM0715 3000 -TSRA RMK CB AND RA TO E AND W=
202506040630 METAR WIHH NIL=
202506040600 METAR WIHH 040600Z 01003KT 6000 SCT020 33/23 Q1010 NOSIG=
202506040530 METAR WIHH 040530Z 06004KT 6000 SCT020 34/23 Q1010 NOSIG=
202506040500 METAR WIHH 040500Z 05004KT 6000 SCT020 33/22 Q1011 NOSIG=
202506040430 METAR WIHH 040430Z 16004KT 6000 SCT020 33/23 Q1011 NOSIG=
202506040400 METAR WIHH 040400Z 27003KT 6000 SCT020 32/23 Q1011 NOSIG=
202506040330 METAR WIHH 040330Z 25003KT 5000 HZ SCT020 32/23 Q1012 NOSIG=
202506040300 METAR WIHH 040300Z 12003KT 5000 HZ SCT020 32/25 Q1012 NOSIG=
202506040230 METAR WIHH 040230Z 10003KT 6000 FEW020 31/25 Q1012 NOSIG=
202506040200 METAR WIHH 040200Z 13003KT 5000 HZ FEW020 30/25 Q1012 NOSIG=
202506040130 METAR WIHH 040130Z 12003KT 4000 HZ NSC 29/25 Q1012 NOSIG=
202506040100 METAR WIHH 040100Z 14003KT 3000 HZ NSC 28/25 Q1012 NOSIG=
202506040030 METAR WIHH 040030Z 22003KT 4000 HZ NSC 28/25 Q1012 NOSIG=
202506040000 METAR WIHH 040000Z 27003KT 3000 BR NSC 26/25 Q1011 NOSIG=
202506032330 METAR WIHH 032330Z 23003KT 2000 BR FEW020 25/25 Q1011 NOSIG=
202506032300 METAR WIHH 032300Z 00000KT 2000 BR FEW020 26/25 Q1011 NOSIG=
202506032230 METAR WIHH 032230Z 21003KT 2500 BR FEW020 26/25 Q1011 NOSIG=
202506032200 METAR WIHH 032200Z 020003KT 3000 BR FEW020 26/25 Q1011 NOSIG=
202506032130 METAR WIHH 032130Z 00000KT 2000 BR SCT020 26/25 Q1010 NOSIG=
202506032100 METAR WIHH 032100Z 00000KT 2000 BR SCT020 25/25 Q1010 NOSIG=
202506032030 METAR WIHH NIL=
202506032000 METAR WIHH NIL=
202506031930 METAR WIHH NIL=
202506031900 METAR WIHH NIL=
202506031830 METAR WIHH NIL=
202506031800 METAR WIHH NIL=
202506031730 METAR WIHH NIL=
202506031700 METAR WIHH 031700Z 00000KT 5000 HZ SCT020 27/25 Q1011 NOSIG=
202506031630 METAR WIHH 031630Z 00000KT 5000 HZ SCT020 27/25 Q1011 NOSIG=
202506031600 METAR WIHH 031600Z 00000KT 5000 HZ SCT020 27/25 Q1011 NOSIG=
202506031530 METAR WIHH NIL=
202506031500 METAR WIHH 031500Z 00000KT 7000 FEW020 26/25 Q1012 NOSIG=
202506031430 METAR WIHH 031430Z 18003KT 7000 SCT020 27/25 Q1011 NOSIG=
202506031400 METAR WIHH NIL=
202506031330 METAR WIHH 031330Z 09003KT 7000 SCT018 27/25 Q1011 NOSIG=
202506031300 METAR WIHH 031300Z 23003KT 7000 FEW020 27/25 Q1011 NOSIG=
202506031230 METAR WIHH 031230Z 06004KT 8000 FEW020 27/25 Q1010 NOSIG=
202506031200 METAR WIHH 031200Z 05004KT 7000 FEW020 27/25 Q1010 NOSIG=
202506031130 METAR WIHH 031130Z 04004KT 7000 FEW020 28/25 Q1009 NOSIG=
202506031100 METAR WIHH NIL=
202506031030 METAR WIHH NIL=
202506031000 METAR WIHH 031000Z 05003KT 7000 SCT020 30/25 Q1008 NOSIG=
202506030930 METAR WIHH 030930Z 33003KT 7000 SCT020 30/ 25 Q1008 NOSIG=
202506030900 METAR WIHH 030900Z 35004KT 6000 SCT020 29/26 Q1008 RMK RA TO NE=
202506030830 METAR WIHH 030830Z 31004KT 4000 -RA SCT018 26/25 Q1008 NOSIG=
202506030800 METAR WIHH NIL=
202506030730 METAR WIHH 030730Z 28005KT 4000 -TSRA SCT018 FEW019CB 28/25 Q1008 RMK CB TO SW-NW=
202506030700 METAR WIHH NIL=
202506030630 METAR WIHH 030630Z 12003KT 5000 -RA SCT018 FEW020CB 31/24 Q1008 RMK CB TO NE=
202506030600 METAR WIHH 030600Z 05007KT 6000 SCT018 32/23 Q1009 RMK CB AND RA TO SE=
202506030530 METAR WIHH 030530Z 07006KT 6000 SCT018 33/23 Q1009 RMK RA TO SE=
202506030500 METAR WIHH 030500Z 05006KT 6000 SCT018 32/23 Q1009 NOSIG=
202506030430 METAR WIHH 030430Z 09007KT 6000 SCT018 33/23 Q1010 NOSIG=
202506030400 METAR WIHH 030400Z 14005KT 6000 SCT018 32/23 Q1011 NOSIG=
202506030330 METAR WIHH 030330Z 04007KT 6000 SCT020 32/24 Q1011 NOSIG=
202506030300 METAR WIHH 030300Z 35005KT 6000 SCT020 32/25 Q1011 NOSIG=
202506030230 METAR WIHH 030230Z 21005KT 5000 HZ SCT020 31/25 Q1012 NOSIG=
202506030200 METAR WIHH 030200Z 22005KT 4000 HZ FEW020 30/24 Q1012 NOSIG=
202506030130 METAR WIHH 030130Z 22004KT 4000 HZ FEW020 30/26 Q1012 NOSIG=
202506030100 METAR WIHH 030100Z 21003KT 3000 HZ FEW020 28/26 Q1012 NOSIG=
202506030030 METAR WIHH 030030Z 23003KT 3000 HZ FEW020 27/26 Q1011 NOSIG=
202506030000 METAR WIHH 030000Z 21003KT 3000 BR SCT020 26/25 Q1011 NOSIG=
202506022330 METAR WIHH 030000Z 21003KT 3000 BR SCT020 26/25 Q1011 NOSIG=
202506022300 METAR WIHH 022300Z 22003KT 2000 BR SCT020 25/25 Q1010 NOSIG=
202506022230 METAR WIHH 022230Z 00000KT 5000 HZ SCT020 26/25 Q1010 NOSIG=
202506022200 METAR WIHH 022200Z 11004KT 5000 HZ SCT020 26/25 Q1010 NOSIG=
202506022130 METAR WIHH 022130Z 17004KT 5000 HZ SCT020 26/25 Q1010 NOSIG=
202506022100 METAR WIHH 022100Z 12004KT 5000 HZ SCT020 26/25 Q1010 NOSIG=
202506022030 METAR WIHH NIL=
202506022000 METAR WIHH NIL=
202506021930 METAR WIHH NIL=
202506021900 METAR WIHH NIL=
202506021830 METAR WIHH NIL=
202506021800 METAR WIHH NIL=
202506021730 METAR WIHH NIL=
202506021700 METAR WIHH 021700Z 02003KT 7000 FEW017CB SCT018 26/25 Q1011 RMK CB AND RA TO N AND E=
202506021630 METAR WIHH 021630Z 03003KT 7000 FEW017CB SCT018 26/25 Q1011 RMK CB AND RA TO N=
202506021600 METAR WIHH 021600Z 05003KT 7000 TS FEW017CB SCT018 26/25 Q1011 RMK CB AND RA TO N=
202506021530 METAR WIHH 021530Z 32004KT 6000 TS FEW017CB SCT018 26/25 Q1011 RMK CB AND RA TO N=
202506021500 METAR WIHH 021500Z 04004KT 5000 -TSRA FEW017CB SCT018 26/25 Q1011 RMK CB OTF=
202506021430 METAR WIHH 021430Z 25005KT 5000 -TSRA FEW017CB SCT018 27/24 Q1011 RMK CB TO NE=
202506021400 METAR WIHH 021400Z 25010KT 7000 TS FEW017CB SCT018 29/26 Q1011 RMK CB AND RA TO E AND SW=
202506021330 METAR WIHH 021330Z 32004KT 7000 FEW017CB SCT018 29/26 Q1011 RMK CB AND RA TO S=
202506021300 METAR WIHH 021300Z 31004KT 7000 TS FEW017CB SCT018 29/26 Q1011 RMK CB AND RA TO S=
202506021230 METAR WIHH NIL=
202506021200 METAR WIHH 021200Z 01004KT 7000 FEW017CB SCT018 30/25 Q1010 RMK CB AND RA TO S=
202506021130 METAR WIHH 021130Z 34004KT 7000 TS FEW017CB SCT018 30/25 Q1009 RMK CB AND RA TO S=
202506021100 METAR WIHH 021100Z 34004KT 7000 SCT020 30/25 Q1009 RMK RA TO SE=
202506021030 METAR WIHH 021030Z 03005KT 7000 SCT020 31/25 Q1009 NOSIG=
202506021000 METAR WIHH 021000Z 02005KT 7000 SCT020 31/25 Q1008 NOSIG=
202506020930 METAR WIHH 020930Z 33005KT 7000 SCT018 32/25 Q1008 NOSIG=
202506020900 METAR WIHH 020900Z 32006KT 7000 SCT018 33/25 Q1008 NOSIG=
202506020830 METAR WIHH 020830Z 34007KT 7000 SCT020 33/24 Q1008 NOSIG=
202506020800 METAR WIHH 020800Z 16003KT 7000 SCT020 34/23 Q1008 NOSIG=
202506020730 METAR WIHH 020730Z 22004KT 7000 SCT020 34/23 Q1008 NOSIG=
202506020700 METAR WIHH 020700Z 12006KT 7000 SCT020 33/23 Q1008 NOSIG=
202506020630 METAR WIHH 020630Z 13005KT 7000 SCT020 33/23 Q1009 NOSIG=
202506020600 METAR WIHH 020600Z 06005KT 7000 FEW020 33/23 Q1009 NOSIG=
202506020530 METAR WIHH 020530Z 07005KT 6000 FEW020 33/22 Q1010 NOSIG=
202506020500 METAR WIHH 020500Z 05005KT 6000 FEW020 32/23 Q1010 NOSIG=
202506020430 METAR WIHH NIL=
202506020400 METAR WIHH 020400Z 10005KT 6000 FEW020 32/22 Q1011 NOSIG=
202506020330 METAR WIHH NIL=
202506020300 METAR WIHH 020300Z 12007KT 5000 HZ FEW020 30/23 Q1012 NOSIG=
202506020230 METAR WIHH 020230Z 10007KT 4000 HZ FEW020 30/23 Q1012 NOSIG=
202506020200 METAR WIHH 020200Z 12003KT 4000 HZ FEW018 28/24 Q1013 NOSIG=
202506020130 METAR WIHH 020130Z 00000KT 4000 HZ SCT018 27/24 Q1011 NOSIG=
202506020100 METAR WIHH NIL=
202506020030 METAR WIHH 020030Z 00000KT 3000 HZ SCT018 26/24 Q1012 NOSIG=
202506020000 METAR WIHH 020000Z 00000KT 3000 BR FEW018 25/24 Q1012 NOSIG=
202506012330 METAR WIHH 012330Z 00000KT 3000 BR SCT018 25/24 Q1011 NOSIG=
202506012300 METAR WIHH 012300Z 00000KT 3000 HZ FEW020 26/24 Q1011 NOSIG=
202506012230 METAR WIHH 012230Z 00000KT 3000 HZ FEW020 26/24 Q1011 NOSIG=
202506012200 METAR WIHH 012200Z 14003KT 3000 HZ FEW020 26/24 Q1011 NOSIG=
202506012130 METAR WIHH 012130Z 14003KT 4000 HZ FEW020 26/24 Q1010 NOSIG=
202506012100 METAR WIHH 012100Z 00000KT 4000 HZ FEW020 26/24 Q1010 NOSIG=
202506012030 METAR WIHH NIL=
202506012000 METAR WIHH NIL=
202506011930 METAR WIHH NIL=
202506011900 METAR WIHH NIL=
202506011830 METAR WIHH NIL=
202506011800 METAR WIHH NIL=
202506011730 METAR WIHH NIL=
202506011700 METAR WIHH 011700Z 00000KT 4000 HZ SCT020 27/25 Q1013 NOSIG=
202506011630 METAR WIHH 011630Z 00000KT 4000 HZ SCT020 27/25 Q1013 NOSIG=
202506011600 METAR WIHH 011600Z 00000KT 4000 HZ SCT020 27/25 Q1013 NOSIG=
202506011530 METAR WIHH 011530Z 13003KT 4000 HZ SCT020 27/25 Q1013 NOSIG=
202506011500 METAR WIHH NIL=
202506011430 METAR WIHH 011430Z 09003KT 4000 HZ SCT018 28/25 Q1013 NOSIG=
202506011400 METAR WIHH 011400Z 14003KT 6000 SCT020 28/25 Q1013 NOSIG=
202506011330 METAR WIHH 011330Z 13004KT 6000 SCT020 28/24 Q1013 NOSIG=
202506011300 METAR WIHH 011300Z 11005KT 6000 SCT018 28/24 Q1013 NOSIG=
202506011230 METAR WIHH 011230Z 08005KT 6000 SCT018 29/24 Q1013 NOSIG=
202506011200 METAR WIHH 011200Z 06005KT 5000 HZ SCT018 29/24 Q1012 NOSIG=
202506011130 METAR WIHH NIL=
202506011100 METAR WIHH 011100Z 07006KT 5000 HZ SCT018 29/24 Q1012 NOSIG=
202506011030 METAR WIHH 011030Z 06007KT 5000 HZ SCT018 29/24 Q1012 NOSIG=
202506011000 METAR WIHH 011000Z 05007KT 5000 HZ SCT018 29/24 Q1012 NOSIG=
202506010930 METAR WIHH 010930Z 05007KT 5000 HZ SCT018 30/24 Q1012 NOSIG=
202506010900 METAR WIHH 010900Z 05008KT 5000 HZ SCT018 30/24 Q1012 NOSIG=
202506010830 METAR WIHH 010830Z 08010KT 5000 HZ SCT018 30/23 Q1011 NOSIG=
202506010800 METAR WIHH 010800Z 07010KT 5000 HZ SCT018 30/23 Q1011 NOSIG=
202506010730 METAR WIHH 010730Z 07008KT 5000 HZ SCT018 30/23 Q1011 NOSIG=
202506010700 METAR WIHH 010700Z 06008KT 5000 HZ SCT018 31/22 Q1011 RMK RA TO S=
202506010630 METAR WIHH 010630Z 07005KT 5000 SCT020 31/22 Q1010 NOSIG=
202506010600 METAR WIHH 010600Z 08005KT 5000 HZ SCT020 31/22 Q1010 RMK RA TO W=
202506010530 METAR WIHH 010530Z 05004KT 5000 HZ SCT020 31/22 Q1010 NOSIG=
202506010500 METAR WIHH 010500Z 07004KT 5000 HZ SCT020 31/22 Q1011 NOSIG=
202506010430 METAR WIHH 010430Z 09003KT 6000 SCT020 31/22 Q1012 NOSIG=
202506010400 METAR WIHH 010400Z 00000KT 6000 FEW020 31/22 Q1012 NOSIG=
202506010330 METAR WIHH 010330Z 04004KT 6000 FEW020 31/23 Q1012 NOSIG=
202506010300 METAR WIHH 010300Z 04003KT 6000 FEW020 30/24 Q1012 NOSIG=
202506010230 METAR WIHH 010230Z 00000KT 6000 FEW020 30/23 Q1012 NOSIG=
202506010200 METAR WIHH 010200Z 00000KT 6000 FEW020 30/24 Q1012 NOSIG=
202506010130 METAR WIHH 010130Z 26003KT 6000 FEW020 28/24 Q1013 NOSIG=
202506010100 METAR WIHH 010100Z 25003KT 6000 FEW020 26/24 Q1012 NOSIG=
202506010030 METAR WIHH 010030Z 24003KT 7000 SCT020 25/22 Q1012 NOSIG=
202506010000 METAR WIHH NIL=

###################################
#  short TAF from WIHH
###################################
202506080500 TAF WIHH 080500Z 0806/0906 32008KT 7000 SCT020
                      TEMPO 0810/0813 01014KT 5000 -RA SCT016 FEW017CB
                       BECMG 0814/0816 35006KT FEW022=

###################################
#  large TAF from WIHH
###################################
202506302300 TAF WIHH 302300Z 0100/0200 08010KT 6000 SCT020
                      TEMPO 0106/0110 32005G18KT 2000 TSRA BKN015
                       FEW017CB
                      TEMPO 0118/0121 02005KT 3000 -RA BKN014 FEW018CB=
202506301700 TAF WIHH 301700Z 3018/0118 06010KT 3000 -TSRA BKN015 FEW017CB
                      TEMPO 0102/0104 31005KT 3000 -RA BKN017
                      TEMPO 0107/0110 08005G18KT 3000 -TSRA BKN014
                       FEW018CB
                      BECMG 0112/0114 12005KT 5000 HZ SCT018=
202506301100 TAF WIHH 301100Z 3012/0112 06012KT 7000 SCT020
                      TEMPO 3013/3016 31005KT 3000 -RA BKN015 FEW017CB
                       TEMPO 3019/3022 04005KT 3000 -RA=
202506300500 TAF WIHH 300500Z 3006/0106 08012KT 6000 SCT020
                      TEMPO 3008/3011 32005KT 3000 -TSRA BKN015
                       FEW017CB
                      TEMPO 3019/3023 02005KT 3000 -TSRA BKN014
                       FEW018CB=
202506292300 TAF WIHH 292300Z 3000/0100 14006KT 6000 SCT020
                      TEMPO 3006/3010 31010KT 3000 -TSRA FEW016CB
                       BKN018
                      TEMPO 3013/3016 04006KT 2000 -RA BKN016
                      BECMG 3018/3020 VRB02KT 5000 HZ=
202506291700 TAF WIHH 291700Z 2918/3018 14005KT 5000 HZ SCT020
                      TEMPO 2918/2921 23005KT 2000 -RA BKN018=
202506291100 TAF WIHH 291100Z 2912/3012 21005KT 5000 HZ SCT020
                      TEMPO 2912/2915 00000KT 0900 FG BKN018
                      BECMG 2917/2919 15004KT=
202506290500 TAF WIHH 290500Z 2906/3006 05006KT 6000 SCT020
                      TEMPO 2906/2909 31010KT 3000 -TSRA FEW017CB
                       BKN018
                      BECMG 2911/2913 21005KT 5000 HZ
                      BECMG 2916/2918 00000KT=
202506282300 TAF WIHH 282300Z 2900/3000 23005KT 4000 HZ FEW020
                      BECMG 2903/2905 35010KT 6000 SCT020
                      TEMPO 2908/2912 12012KT 3000 -TSRA SCT017
                       FEW018CB
                      TEMPO 2918/2921 15008KT 4000 -RA BKN016=
202506281700 TAF WIHH 281700Z 2818/2918 14003KT 5000 HZ SCT018
                      BECMG 2821/2823 00000KT 3000 BR FEW020=
202506281100 TAF WIHH 281100Z 2812/2912 14008KT 4000 -RA SCT018
                      BECMG 2815/2817 23005KT 5000 HZ
                      BECMG 2820/2823 00000KT 3000 BR FEW020=
202506280500 TAF WIHH 280500Z 2806/2906 03010KT 7000 SCT018
                      TEMPO 2807/2811 18015KT 4000 -RA FEW017CB
                       BECMG 2813/2815 15004KT 5000 HZ FEW020=
202506272300 TAF WIHH 272300Z 2800/2900 21005KT 6000 SCT020
                      TEMPO 2807/2810 12008G22KT 3000 -TSRA BKN015
                       FEW017CB
                      TEMPO 2818/2821 04005KT 4000 -RA=
202506271700 TAF WIHH 271700Z 2718/2818 21003KT 6000 FEW020
                      BECMG 2721/2723 00000KT 3000 BR SCT020=
202506271100 TAF WIHH 271100Z 2712/2812 12005KT 6000 SCT180
                      TEMPO 2716/2719 23005KT 3000 -RA FEW017CB
                       BECMG 2720/2723 3000 BR=
202506270500 TAF WIHH 270500Z 2706/2806 21005KT 6000 SCT020
                      TEMPO 2708/2711 12008KT 4000 -TSRA BKN015
                       FEW017CB
                      TEMPO 2713/2715 26004KT 4000 -RA
                      BECMG 2720/2723 3000 BR SCT018=
202506262300 TAF WIHH 262300Z 2700/2800 26006KT 6000 FEW020
                      TEMPO 2708/2712 06010KT 5000 -RA SCT018
                      BECMG 2713/2715 11004KT 6000 SCT020=
202506261700 TAF WIHH 261700Z 2618/2718 12003KT 5000 HZ FEW020
                      BECMG 2621/2623 00000KT 3000 BR=
202506261100 TAF WIHH 261100Z 2612/2712 03009KT 6000 SCT020
                      BECMG 2615/2617 21004KT 5000 HZ FEW022=
202506260500 TAF WIHH 260500Z 2606/2706 04010KT 7000 SCT020
                      TEMPO 2608/2611 23012KT 4000 -RA FEW017CB
                       BECMG 2614/2616 00000KT 5000 HZ FEW022=
202506252300 TAF WIHH 252300Z 2600/2700 15008KT 6000 SCT018
                      BECMG 2600/2602 5000 HZ FEW020
                      TEMPO 2609/2612 23012KT 4000 -RA FEW017CB=
202506251700 TAF WIHH 251700Z 2518/2618 06005KT 5000 HZ SCT020
                      TEMPO 2608/2611 23012KT 4000 -RA FEW017CB=
202506251100 TAF WIHH 251100Z 2512/2612 05006KT 6000 SCT020
                      TEMPO 2515/2518 15008KT 4000 -RA BKN018=
202506250500 TAF WIHH 250500Z 2506/2606 05007KT 6000 SCT020
                      TEMPO 2510/2513 24010KT 4000 -RA FEW017CB=
202506242300 TAF WIHH 242300Z 2500/2600 20005KT 4000 HZ FEW020
                      BECMG 2503/2505 02008KT 6000 SCT018
                      TEMPO 2508/2511 11015KT 4000 -RA FEW017CB=
202506241700 TAF WIHH 241700Z 2418/2518 18003KT 4000 HZ FEW020
                      BECMG 2421/2423 00000KT 3000 BR=
202506241100 TAF WIHH 241100Z 2412/2512 24006KT 6000 SCT018
                      TEMPO 2416/2420 20010KT 4000 -RA SCT016 FEW017CB=
202506240500 TAF WIHH 240500Z 2406/2506 03010KT 5000 HZ SCT018
                      TEMPO 2408/2412 01015KT 4000 -RA SCT016 FEW017CB
                       BECMG 2413/2415 20008KT 6000=
202506232300 TAF WIHH 232300Z 2400/2500 09010KT 5000 HZ FEW020
                      TEMPO 2407/2410 04014KT 3000 -RA SCT016 FEW017CB
                       BECMG 2512/2514 24007KT=
202506231700 TAF WIHH 231700Z 2318/2418 18003KT 4000 HZ FEW020
                      BECMG 2402/2404 09008KT 7000 SCT020=
202506231100 TAF WIHH 231100Z 2312/2412 16005KT 7000 SCT020
                      BECMG 2316/2318 00000KT 5000 HZ=
202506230500 TAF WIHH 230500Z 2306/2406 07012KT 6000 SCT018
                      TEMPO 2307/2311 12015KT 3000 -TSRA BKN016
                       FEW017CB
                      BECMG 2313/2315 16004KT 5000 HZ=
202506222300 TAF WIHH 222300Z 2300/2400 12008KT 6000 SCT020
                      TEMPO 2306/2310 05013KT 3000 -TSRA FEW017CB
                       BKN018
                      BECMG 2312/2314 5000 HZ FEW022=
202506221700 TAF WIHH 221700Z 2218/2318 09006KT 6000 SCT020
                      BECMG 2221/2223 18006KT 5000 HZ
                      TEMPO 2308/2311 05013KT 3000 -TSRA FEW017CB
                       BKN018=
202506221100 TAF WIHH 221100Z 2212/2312 08009KT 7000 SCT020
                      BECMG 2221/2223 18006KT 5000 HZ=
202506220500 TAF WIHH 220500Z 2206/2306 12008KT 6000 SCT020
                      TEMPO 2208/2211 28012KT 3000 -TSRA FEW016CB
                       BKN018
                      BECMG 2213/2215 18006KT 5000 HZ=
202506212300 TAF WIHH 212300Z 2200/2300 15005KT 6000 SCT018
                      TEMPO 2207/2211 21010G29KT 3000 -TSRA BKN016
                       FEW017CB
                      TEMPO 2212/2215 26007KT 3000 -RA
                      BECMG 2220/2223 08003KT 3000 BR SCT018=
202506211700 TAF WIHH 211700Z NIL=
202506211100 TAF WIHH 211100Z 2112/2212 16008KT 4000 TSRA FEW016CB SCT017
                      TEMPO 2115/2118 10006KT 5000 HZ SCT018
                      BECMG 2119/2123 03004KT 3000 BR SCT018=
202506210500 TAF WIHH 210500Z 2106/2206 03008KT 6000 SCT018
                      TEMPO 2107/2110 23012G20KT 3000 -TSRA BKN016
                       FEW017CB
                      TEMPO 2112/2115 24006KT 4000 -RA
                      BECMG 2120/2123 03004KT BR SCT018=
202506202300 TAF WIHH 202300Z 2100/2200 13005KT 6000 SCT018
                      TEMPO 2107/2111 21010G20KT 3000 -TSRA BKN015
                       FEW017CB
                      TEMPO 2113/2116 24006KT 3000 -RA
                      BECMG 2121/2123 05005KT 3000 BR SCT018=
202506201700 TAF WIHH 201700Z 2018/2118 23005KT 4000 -RA BKN016
                      BECMG 2021/2023 12005KT 3000 BR FEW018
                      TEMPO 2107/2111 08010KT 3000 -TSRA BKN015
                       FEW017CB
                      TEMPO 2113/2116 21005KT 4000 -RA BKN014=
202506201100 TAF WIHH 201100Z NIL=
202506200500 TAF WIHH 200500Z 2006/2106 08008KT 6000 SCT018
                      TEMPO 2008/2011 12005G22KT 2000 TSRA FEW016CB
                       BKN015
                      TEMPO 2013/2016 23005KT 4000 -RA FEW017CB
                       BKN018
                      BECMG 2020/2023 16005KT 3000 BR FEW018=
202506192300 TAF WIHH 192300Z 2000/2100 10008KT 6000 SCT020
                      TEMPO 2006/2010 06012KT 3000 -TSRA FEW016CB
                       BKN018
                      TEMPO 2012/2015 23006KT 4000 -RA BKN020=
202506191700 TAF WIHH 191700Z 1918/2018 15005KT 6000 SCT020
                      BECMG 1921/1923 VRB02KT 5000 HZ
                      TEMPO 2006/2009 07012KT 4000 -TSRA FEW017CB
                       BKN018=
202506191100 TAF WIHH 191100Z 1912/2012 10008KT 6000 SCT020
                      TEMPO 1916/1919 22006KT 4000 -RA BKN018
                      BECMG 1921/1923 VRB02KT 5000 HZ=
202506190500 TAF WIHH 190500Z 1906/2006 07008KT 6000 SCT020
                      TEMPO 1909/1912 24013KT 3000 -TSRA FEW016CB
                       BKN018
                      BECMG 1914/1916 10005KT 5000 HZ=
202506182300 TAF WIHH 182300Z 1900/2000 18008KT 6000 SCT018
                      TEMPO 1906/1910 21010KT 3000 -TSRA BKN016
                       FEW017CB
                      BECMG 1911/1913 10005KT 4000 HZ=
202506181700 TAF WIHH 181700Z 1818/1918 15004KT 6000 SCT018
                      BECMG 1820/1822 09003KT 4000 HZ SCT020=
202506181100 TAF WIHH 181100Z 1812/1912 22005KT 7000 SCT018
                      BECMG 1816/1818 09003KT 5000 HZ SCT018=
202506180500 TAF WIHH 180500Z 1806/1906 28010KT 6000 SCT018
                      TEMPO 1807/1811 3000 -TSRA BKN016 FEW017CB
                       BECMG 1812/1814 08006KT=
202506172300 TAF WIHH 172300Z 1800/1900 25005KT 6000 SCT018
                      TEMPO 1805/1809 33015KT 3000 -TSRA BKN016
                       FEW017CB
                      BECMG 1812/1814 08005KT 4000 HZ=
202506171700 TAF WIHH 171700Z 1718/1818 21003KT 6000 SCT018
                      BECMG 1720/1723 00000KT 4000 HZ FEW020=
202506171100 TAF WIHH 171100Z 1712/1812 17007KT 4000 -RA BKN016 FEW017CB
                      BECMG 1715/1717 22003KT 5000 HZ SCT020=
202506170500 TAF WIHH 170500Z 1706/1806 02010KT 7000 SCT020
                      TEMPO 1708/1712 22015KT 4000 -RA BKN016 FEW018CB
                       BECMG 1713/1715 30004KT 5000 HZ=
202506162300 TAF WIHH 162300Z 1700/1800 10008KT 6000 SCT020
                      TEMPO 1706/1710 03010G20KT 3000 -TSRA FEW016CB
                       BKN018
                      TEMPO 1712/1715 21006KT 4000 -RA BKN020=
202506161700 TAF WIHH 161700Z 1618/1718 20005KT 6000 SCT020
                      BECMG 1621/1623 5000 HZ FEW020
                      TEMPO 1706/1709 03010KT 3000 -RA FEW017CB
                       BKN018=
202506161100 TAF WIHH 161100Z 1612/1712 11008KT 7000 SCT018
                      BECMG 1621/1623 19005KT 5000 HZ FEW020=
202506160500 TAF WIHH 160500Z 1606/1706 10008KT 7000 SCT020
                      TEMPO 1608/1611 20012KT 3000 -TSRA FEW016CB
                       BKN018=
202506152300 TAF WIHH 152300Z 1600/1700 10008KT 6000 SCT020
                      TEMPO 1607/1611 01013G22KT 3000 -TSRA BKN015
                       FEW017CB=
202506151700 TAF WIHH 151700Z 1518/1618 12005KT 7000 FEW020
                      BECMG 1602/1604 5000 HZ SCT018
                      TEMPO 1607/1610 03014KT 4000 -RA FEW017CB
                       BKN018=
202506151100 TAF WIHH 151100Z 1512/1612 15006KT 6000 SCT020
                      BECMG 1517/1519 00000KT 5000 HZ=
202506150500 TAF WIHH 150500Z 1506/1606 12008KT 6000 SCT018
                      TEMPO 1506/1510 06012G22KT 3000 -TSRA BKN016
                       FEW017CB
                      BECMG 1512/1514 5000 HZ=
202506142300 TAF WIHH 142300Z 1500/1600 10008KT 5000 HZ FEW020
                      BECMG 1501/1503 7000 SCT020
                      TEMPO 1507/1511 04015KT 4000 -RA SCT016 FEW018CB=
202506141700 TAF WIHH 141700Z 1418/1518 14003KT 5000 HZ FEW020
                      BECMG 1502/1504 08009KT 7000 SCT020=
202506141100 TAF WIHH 141100Z 1412/1512 12008KT 7000 SCT020
                      BECMG 1418/1420 00000KT 5000 HZ FEW020=
202506140555 TAF AMD WIHH 140555Z 1406/1506 04012KT 8000 SCT020
                      TEMPO 1406/1410 01015KT 4000 -RA FEW018CB
                       BECMG 1412/1414 11005KT 6000 FEW020=
202506140500 TAF WIHH 140500Z 1406/1506 04012KT 8000 SCT020
                      BECMG 1417/1419 11005KT 5000 HZ FEW022=
202506132300 TAF WIHH 132300Z 1400/1500 11008KT 6000 SCT020
                      BECMG 1400/1402 VRB02KT 5000 HZ
                      BECMG 1410/1412 03010KT=
202506131700 TAF WIHH 131700Z 1318/1418 13005KT 7000 FEW020
                      BECMG 1321/1323 20004KT 5000 HZ SCT018=
202506131100 TAF WIHH 131100Z 1312/1412 09008KT 7000 SCT020
                      BECMG 1316/1318 20004KT 5000 HZ=
202506130500 TAF WIHH 130500Z 1306/1406 06010KT 6000 SCT020
                      BECMG 1316/1318 20004KT 5000 HZ=
202506122300 TAF WIHH 122300Z 1300/1400 12006KT 5000 HZ FEW020
                      BECMG 1304/1306 05010KT 7000 SCT018=
202506121700 TAF WIHH 121700Z 1218/1318 00000KT 5000 HZ FEW020
                      TEMPO 1307/1310 10014KT 4000 -RA SCT016 FEW018CB=
202506121100 TAF WIHH 121100Z 1212/1312 11008KT 7000 FEW020
                      BECMG 1216/1218 20004KT 5000 HZ=
202506120500 TAF WIHH 120500Z 1206/1306 04010KT 7000 SCT018
                      TEMPO 1208/1211 13014KT 4000 -RA SCT016 FEW018CB
                       BECMG 1213/1215 20005KT 5000 HZ=
202506112300 TAF WIHH 112300Z 1200/1300 15008KT 7000 SCT020
                      TEMPO 1207/1211 03015KT 4000 -RA FEW017CB
                       BKN018=
202506111700 TAF WIHH 111700Z 1118/1218 09006KT 7000 SCT020
                      BECMG 1123/1201 00000KT 5000 HZ FEW020=
202506111100 TAF WIHH 111100Z 1112/1212 12006KT 6000 SCT020
                      BECMG 1119/1121 00000KT 5000 HZ=
202506110500 TAF WIHH 110500Z 1106/1206 15006KT 6000 SCT018
                      TEMPO 1106/1110 06015KT 3000 -TSRA BKN016
                       FEW017CB
                      BECMG 1112/1114 5000 HZ=
202506102300 TAF WIHH 102300Z 1100/1200 13006KT 6000 SCT018
                      BECMG 1100/1102 5000 HZ FEW020
                      TEMPO 1108/1111 03013KT 3000 -TSRA FEW015CB
                       BKN017=
202506101700 TAF WIHH 101700Z 1018/1118 13005KT 6000 FEW020
                      BECMG 1021/1023 VRB02KT 4000 HZ SCT018=
202506101100 TAF WIHH 101100Z 1012/1112 24006KT 6000 SCT020
                      TEMPO 1012/1015 32008KT 4000 -RA FEW017CB
                       BKN018
                      BECMG 1017/1019 VRB02KT 5000 HZ FEW022=
202506100700 TAF AMD WIHH 100700Z 1007/1106 12008KT 6000 SCT020
                      TEMPO 1007/1010 05014KT 3000 -TSRA FEW017CB
                       BKN018
                      BECMG 1012/1014 5000 HZ FEW022=
202506100500 TAF WIHH 100500Z 1006/1106 05008KT 6000 SCT020
                      TEMPO 1010/1013 34010KT 3000 -TSRA FEW017CB
                       BKN018
                      BECMG 1015/1017 5000 HZ FEW022=
202506092300 TAF WIHH 092300Z 1000/1100 12007KT 6000 SCT018
                      BECMG 1004/1006 03010KT
                      TEMPO 1012/1015 22008KT 4000 -RA SCT016 FEW017CB=
202506091700 TAF WIHH 091700Z 0918/1018 14003KT 5000 HZ SCT018
                      TEMPO 0922/1002 00000KT 4000 -RA BKN016 FEW017
                       BECMG 1003/1005 03010KT 6000=
202506091100 TAF WIHH 091100Z 0912/1012 14005KT 7000 SCT020
                      BECMG 0916/0918 00000KT 5000 HZ FEW022=
202506090500 TAF WIHH 090500Z 0906/1006 02010KT 7000 SCT018
                      TEMPO 0908/0911 22012KT 4000 -TSRA SCT016
                       FEW017CB
                      BECMG 0913/0915 15004KT=
202506082300 TAF WIHH 082300Z 0900/1000 14005KT 5000 HZ FEW020
                      BECMG 0902/0904 06010KT 7000 SCT018
                      TEMPO 0909/0912 18012KT 4000 -TSRA SCT016
                       FEW018=
202506081700 TAF WIHH 081700Z 0818/0918 16003KT 5000 HZ FEW022
                      BECMG 0902/0904 34010KT 7000 SCT020=
202506081100 TAF WIHH 081100Z 0812/0912 03007KT 7000 SCT020
                      BECMG 0815/0817 22003KT FEW022=
202506080500 TAF WIHH 080500Z 0806/0906 32008KT 7000 SCT020
                      TEMPO 0810/0813 01014KT 5000 -RA SCT016 FEW017CB
                       BECMG 0814/0816 35006KT FEW022=
202506072300 TAF WIHH 072300Z 0800/0900 05006KT 6000 SCT018
                      BECMG 0800/0802 5000 HZ FEW020
                      TEMPO 0807/0810 18014KT 3000 -TSRA FEW015CB
                       BKN017=
202506071700 TAF WIHH 071700Z 0718/0818 13005KT 6000 SCT018
                      BECMG 0721/0723 5000 HZ FEW020=
202506071100 TAF WIHH 071100Z 0712/0812 18008KT 6000 SCT018
                      TEMPO 0712/0715 4000 -RA FEW016CB BKN017
                       BECMG 0717/0719 27005KT 5000 HZ FEW022=
202506070500 TAF WIHH 070500Z 0706/0806 17006KT 6000 SCT020
                      TEMPO 0709/0712 36012KT 3000 -TSRA FEW016CB
                       BKN018
                      BECMG 0715/0717 27005KT 5000 HZ FEW022=
202506062300 TAF WIHH 062300Z 0700/0800 15006KT 6000 SCT020
                      TEMPO 0707/0711 03014KT 3000 -TSRA FEW017CB
                       BKN018
                      BECMG 0713/0715 5000 HZ=
202506061700 TAF WIHH 061700Z 0618/0718 12006KT 6000 SCT018
                      TEMPO 0618/0620 4000 -RA
                      BECMG 0621/0623 00000KT 3000 BR=
202506061100 TAF WIHH 061100Z 0612/0712 09006KT 6000 SCT018
                      TEMPO 0615/0618 3000 -RA FEW017CB BKN018=
202506060500 TAF WIHH 060500Z 0606/0706 15006KT 6000 SCT018
                      TEMPO 0606/0610 24015KT 3000 -TSRA BKN015
                       FEW017CB
                      BECMG 0613/0615 5000 HZ=
202506052300 TAF WIHH 052300Z 0600/0700 16006KT 6000 SCT018
                      TEMPO 0606/0610 24015KT 2000 TSRA BKN014
                       FEW016CB
                      TEMPO 0615/0618 3000 -TSRA FEW017CB BKN018
                       BECMG 0620/0622 00000KT 3000 BR=
202506051700 TAF WIHH 051700Z 0518/0618 09005KT 6000 SCT018
                      TEMPO 0518/0520 34010KT 4000 -RA FEW017CB
                       BECMG 0522/0600 00000KT 5000 HZ
                      TEMPO 0607/0610 24014KT 3000 -TSRA BKN016
                       FEW018CB=
202506051100 TAF WIHH 051100Z 0512/0612 12006KT 6000 SCT018
                      TEMPO 0516/0519 21012KT 3000 -TSRA BKN015
                       FEW016CB
                      BECMG 0520/0522 00000KT 5000 HZ=
202506050500 TAF WIHH 050500Z 0506/0606 15006KT 6000 SCT018
                      TEMPO 0509/0512 34010KT 4000 -RA FEW017CB
                       TEMPO 0516/0519 24014KT 3000 -TSRA BKN015
                       FEW016CB
                      BECMG 0520/0522 00000KT 3000 BR=
202506042300 TAF WIHH 042300Z 0500/0600 12006KT 6000 SCT018
                      BECMG 0500/0502 21003KT 5000 HZ FEW020
                      TEMPO 0508/0511 33010KT 4000 -RA FEW017CB
                       TEMPO 0516/0518 23008KT 3000 -TSRA FEW016CB
                       BKN017=
202506041700 TAF WIHH 041700Z 0418/0518 23005KT 6000 SCT018
                      BECMG 0420/0422 21003KT 5000 HZ FEW020
                      TEMPO 0507/0510 33010KT 3000 -RA FEW017CB=
202506041100 TAF WIHH 041100Z 0412/0512 05006KT 7000 SCT018
                      BECMG 0420/0422 21003KT 5000 HZ FEW020=
202506040500 TAF WIHH 040500Z 0406/0506 05008KT 7000 SCT020
                      TEMPO 0408/0411 31012KT 4000 -TSRA FEW015CB
                       BKN017=
202506032300 TAF WIHH 032300Z 0400/0500 16007KT 3000 BR FEW020
                      BECMG 0402/0404 03010KT 6000 SCT018
                      TEMPO 0407/0411 20014KT 3000 -TSRA BKN016
                       FEW017CB=
202506031700 TAF WIHH 031700Z 0318/0418 00000KT 4000 HZ SCT018
                      BECMG 0400/0402 11007KT 6000 FEW020=
202506031105 TAF WIHH 031105Z 0312/0412 21007KT 7000 SCT018
                      BECMG 0315/0317 15004KT 5000 HZ=
202506030655 TAF AMD WIHH 030655Z 0307/0406 02010KT 6000 SCT018
                      TEMPO 0307/0311 18014KT 3000 -TSRA BKN016
                       FEW017CB
                      BECMG 0313/0315 15003KT 5000 HZ=
202506030500 TAF WIHH 030500Z 0306/0406 02010KT 7000 SCT018
                      TEMPO 0309/0313 22014KT 4000 -RA BKN016 FEW017CB
                       BECMG 0314/0316 15003KT 5000 HZ=
202506022300 TAF WIHH 022300Z 0300/0400 09006KT 6000 SCT020
                      TEMPO 0309/0312 21014KT 3000 -RA FEW017CB
                       BKN018
                      BECMG 0314/0316 5000 HZ=
202506021700 TAF WIHH 021700Z 0218/0318 06005KT 6000 SCT018
                      TEMPO 0218/0221 4000 -RA FEW017CB
                      BECMG 0222/0300 00000KT 3000 BR=
202506021100 TAF WIHH 021100Z 0212/0312 12006KT 6000 SCT018
                      TEMPO 0212/0214 4000 -RA=
202506020500 TAF WIHH 020500Z 0206/0306 09008KT 7000 SCT020=
202506012300 TAF WIHH 012300Z 0200/0300 05008KT 6000 SCT018
                      TEMPO 0212/0215 13008KT 4000 -RA FEW015CB
                       BKN017=
202506011700 TAF WIHH 011700Z 0118/0218 07005KT 6000 FEW022
                      BECMG 0121/0123 22005KT 5000 HZ FEW022=
202506011100 TAF WIHH 011100Z 0112/0212 07006KT 6000 SCT020
                      BECMG 0121/0123 22005KT 5000 HZ FEW022=
202506010500 TAF WIHH 010500Z 0106/0206 13008KT 6000 SCT020
                      TEMPO 0109/0112 24015KT 4000 -RA FEW016CB
                       BKN018
                      BECMG 0114/0116 17005KT 5000 HZ FEW022=
