##########################################################
# Query made at 05/05/2026 03:36:48 UTC
# Time interval: from 12/01/2024 00:00  to 12/31/2024 23:59  UTC
##########################################################

##########################################################
# WIHH, Jakarta Halim Perdanakusuma (Indonesia)
# WMO index: 96747. WIGOS ID: Unknown
# Latitude 06-15S. Longitude 106-54E. Altitude 30 m.
##########################################################

###################################
#  METAR/SPECI from WIHH
###################################
202412312330 METAR WIHH 312330Z 26004KT 9999 FEW020 27/23 Q1008 NOSIG=
202412312300 METAR WIHH 312300Z 25005KT 9999 FEW020 27/23 Q1008 NOSIG=
202412312230 METAR WIHH 312230Z 27006KT 9999 FEW020 27/23 Q1008 NOSIG=
202412312200 METAR WIHH 312200Z 25003KT 9999 NSC 27/23 Q1008 NOSIG=
202412312130 METAR WIHH NIL=
202412312100 METAR WIHH NIL=
202412312030 METAR WIHH NIL=
202412312000 METAR WIHH NIL=
202412311930 METAR WIHH NIL=
202412311900 METAR WIHH NIL=
202412311830 METAR WIHH NIL=
202412311800 METAR WIHH NIL=
202412311730 METAR WIHH NIL=
202412311700 METAR WIHH 311700Z 27003KT 9999 NSC 28/23 Q1010 NOSIG=
202412311630 METAR WIHH 311630Z 25003KT 9999 NSC 28/23 Q1010 NOSIG=
202412311600 METAR WIHH 311600Z 27003KT 9999 FEW020 28/22 Q1010 NOSIG=
202412311530 METAR WIHH 311530Z 27005KT 9999 FEW020 28/22 Q1010 NOSIG=
202412311500 METAR WIHH 311500Z 28005KT 9999 FEW020 28/23 Q1010 NOSIG=
202412311430 METAR WIHH 311430Z 28010KT 9999 FEW020 28/22 Q1010 NOSIG=
202412311400 METAR WIHH 311400Z 27008KT 9999 FEW020 29/22 Q1009 NOSIG=
202412311330 METAR WIHH 311330Z 24010KT 7000 SCT018 29/22 Q1009 NOSIG=
202412311300 METAR WIHH 311300Z 24010KT 7000 SCT018 31/23 Q1007 NOSIG=
202412311230 METAR WIHH 311230Z 25010KT 9999 FEW020 28/22 Q1008 NOSIG=
202412311200 METAR WIHH 311200Z 27008KT 9999 SCT018 30/22 Q1008 NOSIG=
202412311130 METAR WIHH 311130Z 24008KT 7000 SCT018 30/22 Q1007 NOSIG=
202412311100 METAR WIHH 311100Z 24010KT 7000 SCT018 31/23 Q1007 NOSIG=
202412311030 METAR WIHH 311030Z 28005KT 7000 SCT018 31/23 Q1006 NOSIG=
202412311000 METAR WIHH 311000Z 28005KT 7000 SCT018 31/23 Q1006 NOSIG=
202412310930 METAR WIHH 310930Z 34005KT 7000 SCT018 31/23 Q1006 NOSIG=
202412310900 METAR WIHH 310900Z 32010KT 7000 SCT018 32/23 Q1006 NOSIG=
202412310830 METAR WIHH 310830Z 01006KT 7000 SCT018 33/24 Q1007 NOSIG=
202412310800 METAR WIHH 310800Z 26005KT 7000 SCT018 31/24 Q1007 NOSIG=
202412310730 METAR WIHH 310730Z 27005KT 7000 SCT018 31/23 Q1007 NOSIG=
202412310700 METAR WIHH 310700Z 26005KT 7000 SCT018 32/24 Q1007 NOSIG=
202412310630 METAR WIHH 310630Z 29006KT 7000 SCT018 32/23 Q1008 NOSIG=
202412310600 METAR WIHH 310600Z 32007KT 7000 SCT018 31/23 Q1008 NOSIG=
202412310530 METAR WIHH 310530Z 32008KT 7000 SCT018 31/23 Q1009 NOSIG=
202412310500 METAR WIHH 310500Z 30007KT 7000 SCT018 31/23 Q1009 NOSIG=
202412310430 METAR WIHH 310430Z 28008KT 7000 SCT018 30/24 Q1010 NOSIG=
202412310400 METAR WIHH 310400Z 27008KT 7000 SCT018 30/23 Q1010 NOSIG=
202412310330 METAR WIHH 310330Z 27006KT 7000 SCT018 31/23 Q1010 NOSIG=
202412310300 METAR WIHH 310300Z 25009KT 7000 SCT018 30/23 Q1010 NOSIG=
202412310230 METAR WIHH 310230Z 28015KT 7000 SCT018 29/24 Q1011 NOSIG=
202412310200 METAR WIHH 310200Z 25012KT 7000 SCT018 29/24 Q1011 NOSIG=
202412310130 METAR WIHH 310130Z 27010KT 7000 SCT018 28/24 Q1010 NOSIG=
202412310100 METAR WIHH 310100Z 25005KT 7000 SCT018 27/24 Q1010 NOSIG=
202412310030 METAR WIHH 310030Z 24009KT 7000 FEW020 27/24 Q1010 NOSIG=
202412310000 METAR WIHH 310000Z 27007KT 7000 FEW020 26/23 Q1009 NOSIG=
202412302330 METAR WIHH 302330Z 26007KT 7000 FEW018 26/23 Q1009 NOSIG=
202412302300 METAR WIHH 302300Z 24006KT 6000 SCT018 25/23 Q1009 NOSIG=
202412302230 METAR WIHH 302230Z 25007KT 6000 SCT018 25/22 Q1008 NOSIG=
202412302200 METAR WIHH 302200Z 24007KT 6000 SCT018 25/22 Q1008 NOSIG=
202412302130 METAR WIHH 302130Z 26007KT 6000 SCT018 25/22 Q1008 NOSIG=
202412302100 METAR WIHH NIL=
202412302030 METAR WIHH NIL=
202412302000 METAR WIHH NIL=
202412301930 METAR WIHH NIL=
202412301900 METAR WIHH NIL=
202412301830 METAR WIHH NIL=
202412301800 METAR WIHH NIL=
202412301730 METAR WIHH NIL=
202412301700 METAR WIHH 301700Z 22012KT 5000 -RA BKN018 25/22 Q1011 NOSIG=
202412301630 METAR WIHH 301630Z 22009KT 7000 SCT020 27/21 Q1011 NOSIG=
202412301600 METAR WIHH 301600Z 23008KT 7000 SCT020 28/23 Q1011 NOSIG=
202412301530 METAR WIHH 301530Z 24008KT 7000 SCT020 28/23 Q1011 NOSIG=
202412301500 METAR WIHH 301500Z 24010KT 7000 SCT020 28/23 Q1012 NOSIG=
202412301430 METAR WIHH 301430Z 25012KT 7000 SCT020 28/23 Q1011 NOSIG=
202412301400 METAR WIHH 301400Z 25009KT 7000 SCT020 28/23 Q1011 NOSIG=
202412301330 METAR WIHH 301330Z 24010KT 7000 SCT020 28/23 Q1011 NOSIG=
202412301300 METAR WIHH 301300Z 24012KT 7000 SCT020 28/23 Q1010 NOSIG=
202412301230 METAR WIHH 301230Z 24012KT 7000 SCT020 28/23 Q1010 NOSIG=
202412301200 METAR WIHH 301200Z 23015KT 6000 SCT018 28/22 Q1009 NOSIG=
202412301130 METAR WIHH 301130Z 24011KT 6000 SCT018 28/22 Q1009 NOSIG=
202412301100 METAR WIHH 301100Z 25010KT 6000 SCT018 29/22 Q1009 NOSIG=
202412301030 METAR WIHH 301030Z 25015KT 6000 SCT017 29/22 Q1009 NOSIG=
202412301000 METAR WIHH 301000Z 24012KT 6000 SCT017 29/22 Q1008 NOSIG=
202412300930 METAR WIHH 300930Z 22015KT 6000 SCT017 30/23 Q1008 NOSIG=
202412300900 METAR WIHH 300900Z 23012KT 6000 SCT017 30/23 Q1008 NOSIG=
202412300830 METAR WIHH 300830Z 24017KT 6000 SCT017 30/22 Q1008 NOSIG=
202412300800 METAR WIHH 300800Z 23017KT 6000 SCT017 31/22 Q1008 NOSIG=
202412300730 METAR WIHH 300730Z 24012KT 6000 SCT017 31/22 Q1009 NOSIG=
202412300700 METAR WIHH 300700Z 25012KT 6000 SCT017 31/22 Q1009 NOSIG=
202412300630 METAR WIHH 300630Z 24015KT 6000 SCT017 31/22 Q1009 NOSIG=
202412300600 METAR WIHH 300600Z 27012KT 6000 SCT017 31/23 Q1010 NOSIG=
202412300530 METAR WIHH 300530Z 24015KT 6000 SCT017 30/23 Q1010 NOSIG=
202412300500 METAR WIHH 300500Z 24014KT 6000 SCT017 30/23 Q1010 NOSIG=
202412300430 METAR WIHH 300430Z 26014KT 6000 SCT017 29/23 Q1011 RMK RA TO W=
202412300400 METAR WIHH 300400Z 24014KT 6000 SCT017 29/23 Q1011 RMK RA TO W=
202412300330 METAR WIHH 300330Z 24010KT 6000 SCT017 28/23 Q1011 RMK RA TO W=
202412300300 METAR WIHH 300300Z 23014KT 6000 SCT017 27/23 Q1012 RMK RA TO N=
202412300230 METAR WIHH 300230Z 24014KT 6000 SCT017 27/23 Q1012 RMK RA TO W-N=
202412300200 METAR WIHH 300200Z 25014KT 6000 SCT018 28/23 Q1012 RMK RA TO NW=
202412300130 METAR WIHH 300130Z 25014KT 6000 SCT018 28/23 Q1012 RMK RA TO SW=
202412300100 METAR WIHH 300100Z 24006KT 6000 SCT018 27/23 Q1011 NOSIG=
202412300030 METAR WIHH 300030Z 28008KT 6000 SCT018 26/23 Q1011 RMK RA TO NW=
202412300000 METAR WIHH 300000Z 25010KT 6000 SCT018 26/23 Q1010 RMK RA TO W=
202412292330 METAR WIHH 292330Z 27010KT 6000 SCT018 26/23 Q1010 RMK RA TO W=
202412292300 METAR WIHH 292300Z 24007KT 6000 SCT018 25/23 Q1010 NOSIG=
202412292230 METAR WIHH 292230Z 24011KT 6000 SCT018 26/23 Q1009 RMK RA TO NW=
202412292200 METAR WIHH 292200Z 24015KT 6000 SCT018 26/23 Q1009 RMK RA TO N=
202412292130 METAR WIHH 292130Z 24012KT 6000 SCT018 26/23 Q1009 RMK RA TO N=
202412292100 METAR WIHH NIL=
202412292030 METAR WIHH NIL=
202412292000 METAR WIHH NIL=
202412291930 METAR WIHH NIL=
202412291900 METAR WIHH NIL=
202412291830 METAR WIHH NIL=
202412291800 METAR WIHH NIL=
202412291730 METAR WIHH NIL=
202412291700 METAR WIHH 291700Z 22003KT 6000 FEW020 29/22 Q1011 NOSIG=
202412291630 METAR WIHH 291630Z 25003KT 6000 FEW020 29/22 Q1011 NOSIG=
202412291600 METAR WIHH 291600Z 25003KT 6000 FEW020 29/22 Q1011 NOSIG=
202412291530 METAR WIHH 291530Z 24004KT 6000 FEW020 29/22 Q1011 NOSIG=
202412291500 METAR WIHH 291500Z 26004KT 6000 FEW020 29/22 Q1011 NOSIG=
202412291430 METAR WIHH 291430Z 26007KT 7000 FEW020 29/22 Q1010 NOSIG=
202412291400 METAR WIHH 291400Z 29006KT 7000 FEW020 29/23 Q1010 NOSIG=
202412291330 METAR WIHH 291330Z 27004KT 7000 FEW020 29/24 Q1010 NOSIG=
202412291300 METAR WIHH 291300Z 26003KT 6000 FEW020 29/25 Q1010 NOSIG=
202412291230 METAR WIHH 291230Z 31004KT 6000 FEW020 29/25 Q1009 NOSIG=
202412291200 METAR WIHH 291200Z 35005KT 6000 FEW020 29/25 Q1009 NOSIG=
202412291130 METAR WIHH 291130Z 34003KT 6000 SCT020 30/25 Q1008 NOSIG=
202412291100 METAR WIHH 291100Z 35003KT 6000 SCT020 31/24 Q1007 NOSIG=
202412291030 METAR WIHH 291030Z 30004KT 6000 SCT020 31/24 Q1007 NOSIG=
202412291000 METAR WIHH NIL=
202412290930 METAR WIHH 290930Z 33005KT 6000 SCT020 32/24 Q1007 NOSIG=
202412290900 METAR WIHH 290900Z 30004KT 6000 SCT020 31/24 Q1007 NOSIG=
202412290830 METAR WIHH 290830Z 30005KT 6000 SCT020 31/24 Q1007 NOSIG=
202412290800 METAR WIHH 290800Z 32008KT 6000 SCT020 31/24 Q1007 NOSIG=
202412290730 METAR WIHH 290730Z 36005KT 6000 SCT020 31/24 Q1007 NOSIG=
202412290700 METAR WIHH 290700Z 34005KT 6000 SCT020 33/24 Q1008 NOSIG=
202412290630 METAR WIHH 290630Z 28008KT 6000 SCT020 32/23 Q1008 NOSIG=
202412290600 METAR WIHH 290600Z 29005KT 6000 SCT020 33/23 Q1009 NOSIG=
202412290530 METAR WIHH 290530Z 27007KT 6000 SCT020 33/23 Q1009 NOSIG=
202412290500 METAR WIHH 290500Z 30006KT 6000 SCT020 33/23 Q1009 NOSIG=
202412290430 METAR WIHH 290430Z 25004KT 6000 SCT020 32/23 Q1009 NOSIG=
202412290400 METAR WIHH 290400Z 30003KT 6000 SCT020 31/24 Q1010 NOSIG=
202412290330 METAR WIHH 290330Z 30007KT 6000 SCT020 31/23 Q1010 NOSIG=
202412290300 METAR WIHH 290300Z 26008KT 6000 SCT020 30/24 Q1011 NOSIG=
202412290230 METAR WIHH 290230Z 25008KT 6000 SCT020 30/24 Q1011 NOSIG=
202412290200 METAR WIHH 290200Z 24004KT 6000 SCT020 29/23 Q1011 NOSIG=
202412290130 METAR WIHH 290130Z 27005KT 6000 SCT020 29/23 Q1011 NOSIG=
202412290100 METAR WIHH 290100Z 23005KT 6000 SCT020 28/23 Q1011 NOSIG=
202412290030 METAR WIHH 290030Z 26005KT 6000 FEW020 28/23 Q1010 NOSIG=
202412290000 METAR WIHH 290000Z 24005KT 6000 FEW020 27/22 Q1010 NOSIG=
202412282330 METAR WIHH 282330Z 24007KT 6000 FEW020 27/22 Q1010 NOSIG=
202412282300 METAR WIHH 282300Z 24005KT 6000 FEW020 27/22 Q1009 NOSIG=
202412282230 METAR WIHH 282230Z 26005KT 9000 FEW020 27/22 Q1009 NOSIG=
202412282200 METAR WIHH 282200Z 29003KT 9000 FEW020 27/22 Q1009 NOSIG=
202412282130 METAR WIHH NIL=
202412282100 METAR WIHH NIL=
202412282030 METAR WIHH NIL=
202412282000 METAR WIHH NIL=
202412281930 METAR WIHH NIL=
202412281900 METAR WIHH NIL=
202412281830 METAR WIHH NIL=
202412281800 METAR WIHH NIL=
202412281730 METAR WIHH NIL=
202412281700 METAR WIHH 281700Z 27002KT 9000 FEW020 27/23 Q1010 NOSIG=
202412281630 METAR WIHH 281630Z 24003KT 9000 FEW020 27/23 Q1010 NOSIG=
202412281600 METAR WIHH 281600Z 27003KT 9000 FEW020 28/23 Q1010 NOSIG=
202412281530 METAR WIHH 281530Z 00000KT 9000 FEW020 28/23 Q1010 NOSIG=
202412281500 METAR WIHH 281500Z 29004KT 9000 FEW020 29/23 Q1011 NOSIG=
202412281430 METAR WIHH 281430Z 30004KT 9999 FEW020 29/22 Q1011 NOSIG=
202412281400 METAR WIHH 281400Z 27003KT 9999 FEW020 29/23 Q1011 NOSIG=
202412281330 METAR WIHH 281330Z 28003KT 9999 FEW020 29/23 Q1010 NOSIG=
202412281300 METAR WIHH 281300Z 26003KT 9999 FEW020 30/22 Q1010 NOSIG=
202412281230 METAR WIHH 281230Z 29004KT 9999 FEW020 30/21 Q1009 NOSIG=
202412281200 METAR WIHH 281200Z 28005KT 9999 FEW020 31/19 Q1009 NOSIG=
202412281130 METAR WIHH 281130Z 25007KT 9999 FEW020 31/19 Q1009 NOSIG=
202412281100 METAR WIHH 281100Z 27005KT 9999 FEW020 31/18 Q1008 NOSIG=
202412281030 METAR WIHH 281030Z 26010KT 9999 SCT020 32/19 Q1008 NOSIG=
202412281000 METAR WIHH 281000Z 27008KT 9999 SCT020 33/19 Q1008 NOSIG=
202412280930 METAR WIHH 280930Z 28010KT 9999 SCT020 33/19 Q1007 NOSIG=
202412280900 METAR WIHH 280900Z 30010KT 9999 SCT020 33/23 Q1007 NOSIG=
202412280830 METAR WIHH 280830Z 24012KT 7000 SCT018 34/18 Q1007 NOSIG=
202412280800 METAR WIHH 280800Z 25012KT 8000 SCT018 34/20 Q1007 NOSIG=
202412280730 METAR WIHH 280730Z 23009KT 8000 SCT020 34/21 Q1007 NOSIG=
202412280700 METAR WIHH 280700Z 26008KT 8000 SCT020 34/22 Q1008 NOSIG=
202412280630 METAR WIHH NIL=
202412280600 METAR WIHH 280600Z 27010KT 7000 SCT020 33/22 Q1009 NOSIG=
202412280530 METAR WIHH 280530Z 30009KT 7000 SCT020 32/22 Q1009 NOSIG=
202412280500 METAR WIHH 280500Z 23007KT 7000 SCT020 32/21 Q1010 NOSIG=
202412280430 METAR WIHH 280430Z 26009KT 7000 SCT020 32/20 Q1010 NOSIG=
202412280400 METAR WIHH 280400Z 26012KT 7000 SCT020 32/19 Q1010 NOSIG=
202412280330 METAR WIHH 280330Z 25012KT 8000 SCT020 32/20 Q1011 NOSIG=
202412280300 METAR WIHH 280300Z 36012KT 8000 SCT020 31/21 Q1011 NOSIG=
202412280230 METAR WIHH 280230Z 24008KT 7000 SCT020 31/21 Q1011 NOSIG=
202412280200 METAR WIHH 280200Z 23007KT 7000 SCT020 30/22 Q1011 NOSIG=
202412280130 METAR WIHH 280130Z 24005KT 6000 FEW020 30/21 Q1011 NOSIG=
202412280100 METAR WIHH 280100Z 24005KT 6000 FEW020 28/21 Q1011 NOSIG=
202412280030 METAR WIHH 280030Z 22004KT 6000 FEW020 28/21 Q1011 NOSIG=
202412280000 METAR WIHH 280000Z 23004KT 6000 FEW020 27/22 Q1011 NOSIG=
202412272330 METAR WIHH 272330Z 26004KT 6000 FEW020 26/22 Q1010 NOSIG=
202412272300 METAR WIHH 272300Z 25003KT 6000 FEW020 26/22 Q1010 NOSIG=
202412272230 METAR WIHH 272230Z 24003KT 6000 FEW020 26/22 Q1010 NOSIG=
202412272200 METAR WIHH 272200Z 28003KT 6000 FEW020 27/22 Q1009 NOSIG=
202412272130 METAR WIHH NIL=
202412272100 METAR WIHH NIL=
202412272030 METAR WIHH NIL=
202412272000 METAR WIHH NIL=
202412271930 METAR WIHH NIL=
202412271900 METAR WIHH NIL=
202412271830 METAR WIHH NIL=
202412271800 METAR WIHH NIL=
202412271730 METAR WIHH NIL=
202412271700 METAR WIHH 271700Z 24003KT 6000 FEW020 27/24 Q1011 NOSIG=
202412271630 METAR WIHH 271630Z 27003KT 6000 FEW020 28/24 Q1011 NOSIG=
202412271600 METAR WIHH 271600Z 28004KT 6000 FEW020 28/24 Q1011 NOSIG=
202412271530 METAR WIHH 271530Z 25004KT 6000 FEW020 28/23 Q1011 NOSIG=
202412271500 METAR WIHH 271500Z 25004KT 6000 SCT020 29/23 Q1011 NOSIG=
202412271430 METAR WIHH 271430Z 27006KT 6000 SCT020 29/23 Q1011 NOSIG=
202412271400 METAR WIHH 271400Z 28006KT 6000 FEW020 29/22 Q1011 NOSIG=
202412271330 METAR WIHH 271330Z 23005KT 6000 FEW020 29/22 Q1011 NOSIG=
202412271300 METAR WIHH 271300Z 23003KT 6000 FEW020 29/22 Q1011 NOSIG=
202412271230 METAR WIHH 271230Z 24006KT 6000 FEW020 30/20 Q1010 NOSIG=
202412271200 METAR WIHH 271200Z 27005KT 6000 FEW020 30/21 Q1009 NOSIG=
202412271130 METAR WIHH 271130Z 30006KT 6000 FEW020 30/23 Q1009 NOSIG=
202412271100 METAR WIHH 271100Z 28003KT 6000 SCT020 31/24 Q1008 NOSIG=
202412271030 METAR WIHH 271030Z 25005KT 6000 SCT018 31/23 Q1008 NOSIG=
202412271000 METAR WIHH 271000Z 29005KT 6000 SCT018 32/24 Q1008 RMK RA TO E=
202412270930 METAR WIHH 270930Z 33005KT 6000 SCT017 32/24 Q1008 NOSIG=
202412270900 METAR WIHH 270900Z 34010KT 5000 HZ SCT020 33/25 Q1008 NOSIG=
202412270830 METAR WIHH 270830Z 33010KT 6000 SCT020 33/25 Q1007 NOSIG=
202412270800 METAR WIHH 270800Z 33006KT 6000 SCT020 34/24 Q1008 NOSIG=
202412270730 METAR WIHH 270730Z 30008KT 7000 FEW020 34/22 Q1008 NOSIG=
202412270700 METAR WIHH 270700Z 23008KT 7000 FEW020 34/20 Q1009 NOSIG=
202412270630 METAR WIHH 270630Z 27008KT 7000 FEW020 34/20 Q1009 NOSIG=
202412270600 METAR WIHH 270600Z 24010KT 7000 FEW020 33/21 Q1010 NOSIG=
202412270530 METAR WIHH 270530Z 29007KT 7000 FEW020 33/22 Q1010 NOSIG=
202412270500 METAR WIHH 270500Z 27007KT 7000 FEW020 33/22 Q1011 NOSIG=
202412270430 METAR WIHH 270430Z 26007KT 7000 FEW020 32/22 Q1011 NOSIG=
202412270400 METAR WIHH 270400Z 27004KT 7000 FEW020 32/22 Q1012 NOSIG=
202412270330 METAR WIHH 270330Z 26007KT 6000 FEW020 31/23 Q1012 NOSIG=
202412270300 METAR WIHH 270300Z 28005KT 6000 FEW020 30/23 Q1012 NOSIG=
202412270230 METAR WIHH 270230Z 25004KT 5000 HZ FEW020 29/23 Q1012 NOSIG=
202412270200 METAR WIHH 270200Z 25003KT 5000 HZ FEW020 28/24 Q1013 NOSIG=
202412270130 METAR WIHH 270130Z 22003KT 5000 HZ FEW020 27/24 Q1013 NOSIG=
202412270100 METAR WIHH 270100Z 22005KT 6000 FEW020 26/24 Q1012 NOSIG=
202412270030 METAR WIHH 270030Z 22005KT 6000 FEW020 26/24 Q1012 NOSIG=
202412270000 METAR WIHH 270000Z 23005KT 6000 FEW020 25/24 Q1012 NOSIG=
202412262330 METAR WIHH 262330Z 21003KT 6000 FEW020 25/24 Q1011 NOSIG=
202412262300 METAR WIHH 262300Z 24003KT 6000 FEW020 25/23 Q1011 NOSIG=
202412262230 METAR WIHH 262230Z 24003KT 6000 FEW020 25/23 Q1011 NOSIG=
202412262200 METAR WIHH 262200Z 25003KT 8000 FEW020 25/23 Q1011 NOSIG=
202412262130 METAR WIHH 262130Z 00000KT 8000 FEW020 25/23 Q1010 NOSIG=
202412262100 METAR WIHH 262100Z 26003KT 8000 FEW020 25/23 Q1010 NOSIG=
202412262030 METAR WIHH NIL=
202412262000 METAR WIHH NIL=
202412261930 METAR WIHH NIL=
202412261900 METAR WIHH NIL=
202412261830 METAR WIHH NIL=
202412261800 METAR WIHH NIL=
202412261730 METAR WIHH NIL=
202412261700 METAR WIHH 261700Z 24003KT 9999 SCT020 28/23 Q1012 NOSIG=
202412261630 METAR WIHH 261630Z 27003KT 9999 SCT020 28/23 Q1012 NOSIG=
202412261600 METAR WIHH 261600Z 28003KT 9999 SCT020 28/23 Q1012 NOSIG=
202412261530 METAR WIHH 261530Z 27003KT 9999 SCT020 28/23 Q1012 NOSIG=
202412261500 METAR WIHH 261500Z 25004KT 9999 SCT020 28/23 Q1012 NOSIG=
202412261430 METAR WIHH 261430Z 25005KT 9999 SCT020 28/23 Q1012 NOSIG=
202412261400 METAR WIHH 261400Z 28004KT 9999 SCT020 28/23 Q1012 NOSIG=
202412261330 METAR WIHH 261330Z 25004KT 9999 SCT020 28/23 Q1011 NOSIG=
202412261300 METAR WIHH 261300Z 27005KT 9999 SCT020 29/23 Q1011 NOSIG=
202412261230 METAR WIHH 261230Z 25004KT 9999 SCT020 28/23 Q1010 NOSIG=
202412261200 METAR WIHH 261200Z 23008KT 9999 SCT020 28/23 Q1010 NOSIG=
202412261130 METAR WIHH 261130Z 27008KT 8000 SCT020 30/23 Q1009 NOSIG=
202412261100 METAR WIHH 261100Z 26006KT 8000 SCT020 30/23 Q1009 NOSIG=
202412261030 METAR WIHH 261030Z 26009KT 8000 SCT020 30/23 Q1009 NOSIG=
202412261000 METAR WIHH 261000Z 25013KT 8000 SCT020 30/23 Q1009 NOSIG=
202412260930 METAR WIHH 260930Z 24012KT 8000 SCT019 30/23 Q1008 NOSIG=
202412260900 METAR WIHH 260900Z 26012KT 8000 SCT019 31/23 Q1008 NOSIG=
202412260830 METAR WIHH 260830Z 29015KT 8000 SCT018 32/22 Q1009 NOSIG=
202412260800 METAR WIHH 260800Z 24015KT 7000 SCT018 32/23 Q1009 RMK RA TO W=
202412260730 METAR WIHH 260730Z 24017KT 7000 SCT018 32/23 Q1009 RMK RA TO W=
202412260700 METAR WIHH 260700Z 26013KT 7000 SCT018 33/23 Q1010 NOSIG=
202412260630 METAR WIHH 260630Z 25016KT 7000 NIL SCT018 33/22 Q1010 NOSIG=
202412260600 METAR WIHH 260600Z 25010KT 7000 SCT018 33/22 Q1010 NOSIG=
202412260530 METAR WIHH 260530Z 24014KT 8000 SCT018 33/23 Q1011 NOSIG=
202412260500 METAR WIHH 260500Z 26012KT 8000 SCT018 32/22 Q1011 NOSIG=
202412260430 METAR WIHH 260430Z 28012KT 9999 SCT020 32/22 Q1012 NOSIG=
202412260400 METAR WIHH 260400Z 27010KT 7000 SCT020 31/23 Q1012 NOSIG=
202412260330 METAR WIHH 260330Z 24010KT 7000 SCT020 30/23 Q1012 NOSIG=
202412260300 METAR WIHH 260300Z 26010KT 7000 SCT020 31/22 Q1012 NOSIG=
202412260230 METAR WIHH 260230Z 27007KT 7000 FEW020 30/24 Q1012 NOSIG=
202412260200 METAR WIHH 260200Z 24008KT 7000 FEW020 30/24 Q1012 NOSIG=
202412260130 METAR WIHH 260130Z 24008KT 7000 FEW020 29/25 Q1012 NOSIG=
202412260100 METAR WIHH 260100Z 23006KT 6000 FEW020 28/24 Q1012 NOSIG=
202412260030 METAR WIHH 260030Z 25004KT 6000 FEW020 27/24 Q1011 NOSIG=
202412260000 METAR WIHH 260000Z 25005KT 6000 FEW020 27/25 Q1011 NOSIG=
202412252330 METAR WIHH 252330Z 25006KT 6000 FEW020 26/24 Q1011 NOSIG=
202412252300 METAR WIHH 252300Z 00000KT 6000 FEW018 25/23 Q1010 NOSIG=
202412252230 METAR WIHH 252230Z 25003KT 6000 FEW018 25/23 Q1010 NOSIG=
202412252200 METAR WIHH 252200Z 26003KT 6000 FEW018 25/23 Q1010 NOSIG=
202412252130 METAR WIHH 252130Z 00000KT 6000 FEW018 25/23 Q1010 NOSIG=
202412252100 METAR WIHH 252100Z 00000KT 6000 FEW018 25/23 Q1009 NOSIG=
202412252030 METAR WIHH NIL=
202412252000 METAR WIHH NIL=
202412251930 METAR WIHH NIL=
202412251900 METAR WIHH NIL=
202412251830 METAR WIHH NIL=
202412251800 METAR WIHH NIL=
202412251730 METAR WIHH NIL=
202412251700 METAR WIHH 251700Z 24003KT 5000 HZ SCT018 25/24 Q1012 NOSIG=
202412251630 METAR WIHH 251630Z 21003KT 5000 HZ SCT018 25/24 Q1012 NOSIG=
202412251600 METAR WIHH 251600Z 21003KT 5000 HZ SCT017 25/24 Q1012 NOSIG=
202412251530 METAR WIHH 251530Z 20003KT 5000 HZ SCT017 25/24 Q1012 NOSIG=
202412251500 METAR WIHH 251500Z 14003KT 5000 HZ SCT017 26/25 Q1012 NOSIG=
202412251430 METAR WIHH 251430Z 18003KT 5000 HZ SCT017 26/25 Q1012 NOSIG=
202412251400 METAR WIHH 251400Z 00000KT 5000 -RA SCT017 26/24 Q1012=
202412251330 METAR WIHH 251330Z 00000KT 6000 -RA SCT017 26/24 Q1012=
202412251300 METAR WIHH 251300Z 00000KT 6000 SCT017 26/24 Q1011 NOSIG=
202412251230 METAR WIHH 251230Z 00000KT 6000 -RA SCT017 25/24 Q1011=
202412251200 METAR WIHH 251200Z 00000KT 6000 -RA SCT017 26/24 Q1010=
202412251130 METAR WIHH 251130Z 00000KT 6000 -RA SCT017 26/24 Q1010=
202412251100 METAR WIHH 251100Z 09003KT 6000 -RA SCT017 26/24 Q1009=
202412251030 METAR WIHH 251030Z 00000KT 6000 -RA SCT017 26/24 Q1009=
202412251000 METAR WIHH 251000Z 22004KT 6000 SCT017 26/23 Q1009 RMK RA TO NE=
202412250930 METAR WIHH 250930Z 17003KT 6000 SCT017 26/23 Q1008 NOSIG=
202412250900 METAR WIHH 250900Z 21008KT 6000 SCT017 26/23 Q1008 RMK RA TO E=
202412250830 METAR WIHH 250830Z 21008KT 6000 TS SCT016 FEW017CB 26/23 Q1008 RMK CB AND RA TO SE=
202412250800 METAR WIHH 250800Z 33006KT 6000 TS SCT016 FEW017CB 29/24 Q1008 RMK CB AND RA TO S=
202412250730 METAR WIHH 250730Z 36006KT 6000 TS SCT016 FEW017CB 29/24 Q1008 RMK CB AND RA TO S=
202412250700 METAR WIHH 250700Z 33006KT 6000 TS SCT016 FEW017CB 30/24 Q1008 RMK CB AND RA TO S=
202412250630 METAR WIHH 250630Z 36007KT 6000 SCT016 30/24 Q1009 RMK RA TO S=
202412250600 METAR WIHH 250600Z 18003KT 5000 -RA SCT016 29/26 Q1009=
202412250530 METAR WIHH 250530Z 18003KT 5000 -RA SCT017 28/25 Q1010=
202412250500 METAR WIHH 250500Z 16005KT 6000 -RA SCT017 28/25 Q1010=
202412250430 METAR WIHH 250430Z 18007KT 6000 SCT016 FEW017CB 28/25 Q1010 RMK CB AND RA TO S=
202412250400 METAR WIHH 250400Z 36006KT 6000 TS SCT016 FEW017CB 29/24 Q1010 RMK CB AND RA TO S=
202412250330 METAR WIHH 250330Z 30005KT 6000 SCT017 30/24 Q1010 RMK RA TO S=
202412250300 METAR WIHH 250300Z 32004KT 6000 SCT017 29/25 Q1011 RMK RA TO W=
202412250230 METAR WIHH 250230Z 30005KT 6000 SCT018 29/25 Q1011 RMK RA TO NE=
202412250200 METAR WIHH 250200Z 28005KT 6000 SCT018 29/25 Q1011 RMK RA TO NE=
202412250130 METAR WIHH 250130Z 29003KT 7000 SCT020 28/25 Q1011 RMK RA TO NE=
202412250100 METAR WIHH 250100Z 27005KT 7000 SCT020 28/25 Q1011 RMK RA TO NE=
202412250030 METAR WIHH 250030Z 28003KT 7000 SCT020 27/24 Q1010 RMK RA TO NE=
202412250000 METAR WIHH 250000Z 25003KT 7000 SCT020 27/24 Q1010 RMK RA TO NW=
202412242330 METAR WIHH 242330Z 32003KT 7000 SCT020 26/24 Q1009 RMK RA TO N=
202412242300 METAR WIHH 242300Z 242300Z 29003KT 7000 SCT020 26/24 Q1009 NOSIG=
202412242230 METAR WIHH 242230Z 27004KT 6000 FEW017 26/24 Q1009 NOSIG=
202412242200 METAR WIHH NIL=
202412242130 METAR WIHH NIL=
202412242100 METAR WIHH NIL=
202412242030 METAR WIHH NIL=
202412242000 METAR WIHH NIL=
202412241930 METAR WIHH NIL=
202412241900 METAR WIHH NIL=
202412241830 METAR WIHH NIL=
202412241800 METAR WIHH NIL=
202412241730 METAR WIHH NIL=
202412241700 METAR WIHH 241700Z 22003KT 7000 SCT017 27/24 Q1010 NOSIG=
202412241630 METAR WIHH 241630Z 24003KT 7000 SCT017 27/24 Q1010 NOSIG=
202412241600 METAR WIHH 241600Z 28003KT 8000 SCT017 27/24 Q1010 NOSIG=
202412241530 METAR WIHH 241530Z 28004KT 8000 SCT017 27/24 Q1010 NOSIG=
202412241500 METAR WIHH 241500Z 29003KT 8000 SCT017 27/23 Q1010 NOSIG DUPE=
202412241430 METAR WIHH 241430Z 26005KT 8000 SCT017 27/24 Q1010 NOSIG=
202412241400 METAR WIHH 241400Z 27004KT 8000 SCT017 27/23 Q1010 NOSIG=
202412241330 METAR WIHH 241330Z 27005KT 8000 SCT017 27/23 Q1010 NOSIG=
202412241300 METAR WIHH 241300Z 24005KT 8000 SCT017 27/23 Q1010 NOSIG=
202412241230 METAR WIHH 241230Z 25006KT 8000 SCT017 27/23 Q1009 NOSIG=
202412241200 METAR WIHH 241200Z 21008KT 8000 SCT017 27/23 Q1009 NOSIG=
202412241130 METAR WIHH 241130Z 29005KT 8000 SCT017 28/23 Q1008 NOSIG=
202412241100 METAR WIHH 241100Z 24012KT 6000 -RA SCT017 28/23 Q1008 NOSIG=
202412241030 METAR WIHH 241030Z 24009KT 6000 -RA SCT017 28/23 Q1008 NOSIG=
202412241000 METAR WIHH 241000Z 22010KT 6000 -RA SCT016 29/24 Q1008 NOSIG=
202412240930 METAR WIHH 240930Z 23012KT 6000 -RA SCT016 29/23 Q1007 NOSIG=
202412240900 METAR WIHH 240900Z 24012KT 6000 SCT016 29/23 Q1007 RMK RA TO S=
202412240830 METAR WIHH 240830Z 22014KT 7000 SCT017 29/23 Q1007 RMK RA TO NE=
202412240800 METAR WIHH 240800Z 24015KT 7000 SCT017 30/24 Q1007 RMK RA TO N=
202412240730 METAR WIHH 240730Z 23012KT 7000 SCT017 30/23 Q1007 RMK RA TO N=
202412240700 METAR WIHH 240700Z 23008KT 7000 SCT018 31/24 Q1007 NOSIG=
202412240630 METAR WIHH 240630Z 24011KT 7000 SCT016 30/23 Q1007 NOSIG=
202412240600 METAR WIHH 240600Z 25012KT 7000 SCT016 31/23 Q1008 NOSIG=
202412240530 METAR WIHH 240530Z 27011KT 7000 SCT016 30/22 Q1008 NOSIG=
202412240500 METAR WIHH 240500Z 27007KT 7000 SCT016 30/24 Q1009 NOSIG=
202412240430 METAR WIHH 240430Z 21010KT 6000 SCT016 30/24 Q1009 NOSIG=
202412240400 METAR WIHH 240400Z 29008KT 6000 SCT016 29/23 Q1010 NOSIG=
202412240330 METAR WIHH 240330Z 30007KT 6000 SCT016 29/24 Q1010 NOSIG=
202412240300 METAR WIHH 240300Z 20004KT 6000 SCT016 28/25 Q1010 NOSIG=
202412240230 METAR WIHH 240230Z 20004KT 6000 SCT016 28/25 Q1010 NOSIG=
202412240200 METAR WIHH 240200Z 24005KT 6000 SCT016 27/24 Q1010 NOSIG=
202412240130 METAR WIHH 240130Z 26006KT 6000 SCT016 26/24 Q1010 RMK RA TO S=
202412240100 METAR WIHH 240100Z 25004KT 6000 SCT016 26/24 Q1010 RMK RA TO SW=
202412240030 METAR WIHH 240030Z 27004KT 6000 SCT018 27/25 Q1010 RMK RA TO SW=
202412240000 METAR WIHH 240000Z 00000KT 6000 SCT018 25/24 Q1009 NOSIG=
202412232330 METAR WIHH 232330Z 00000KT 6000 FEW018 25/24 Q1009 NOSIG=
202412232300 METAR WIHH 232300Z 00000KT 6000 FEW018 24/24 Q1008 NOSIG=
202412232230 METAR WIHH 232230Z 00000KT 6000 SCT018 24/24 Q1008 NOSIG=
202412232200 METAR WIHH 232200Z 23003KT 6000 SCT016 24/24 Q1008 NOSIG=
202412232130 METAR WIHH 232130Z 22004KT 6000 HZ SCT016 24/24 Q1008 RMK RA TO E=
202412232100 METAR WIHH NIL=
202412232030 METAR WIHH NIL=
202412232000 METAR WIHH NIL=
202412231930 METAR WIHH NIL=
202412231900 METAR WIHH NIL=
202412231830 METAR WIHH NIL=
202412231800 METAR WIHH NIL=
202412231730 METAR WIHH NIL=
202412231700 METAR WIHH 231700Z 23003KT 5000 HZ SCT018 26/25 Q1010 NOSIG=
202412231630 METAR WIHH 231630Z 21003KT 5000 HZ SCT018 26/25 Q1010 NOSIG=
202412231600 METAR WIHH 231600Z 22003KT 5000 HZ SCT018 26/25 Q1010 NOSIG=
202412231530 METAR WIHH 231530Z 00000KT 5000 HZ SCT018 26/25 Q1010 NOSIG=
202412231500 METAR WIHH 231500Z 00000KT 5000 HZ SCT018 26/25 Q1010 NOSIG=
202412231430 METAR WIHH 231430Z 00000KT 5000 HZ SCT018 26/25 Q1009 NOSIG=
202412231400 METAR WIHH 231400Z 00000KT 4000 HZ SCT018 26/25 Q1009 NOSIG=
202412231330 METAR WIHH 231330Z 00000KT 5000 HZ SCT018 26/25 Q1009 NOSIG=
202412231300 METAR WIHH 231300Z 21003KT 5000 HZ SCT018 26/25 Q1009 NOSIG=
202412231230 METAR WIHH NIL=
202412231200 METAR WIHH NIL=
202412231100 METAR WIHH NIL=
202412231000 METAR WIHH 231000Z 25005KT 5000 HZ SCT018 27/25 Q1006 NOSIG=
202412230930 METAR WIHH 230930Z 24004KT 6000 -RA SCT018 27/25 Q1006 NOSIG=
202412230900 METAR WIHH 230900Z 25004KT 6000 SCT018 27/25 Q1006 NOSIG=
202412230830 METAR WIHH 230830Z 25005KT 5000 HZ SCT018 27/25 Q1006 NOSIG=
202412230800 METAR WIHH 230800Z 22004KT 5000 -RA SCT018 27/25 Q1007 NOSIG=
202412230730 METAR WIHH 230730Z 29003KT 5000 -RA SCT018 26/25 Q1007 NOSIG=
202412230700 METAR WIHH 230700Z 28004KT 5000 -RA SCT018 25/24 Q1007 NOSIG=
202412230630 METAR WIHH 230630Z 26003KT 5000 -RA SCT016 25/24 Q1008 NOSIG=
202412230600 METAR WIHH 230600Z 24004KT 4000 -TSRA SCT016 FEW017CB 24/23 Q1009 RMK CB TO E=
202412230530 METAR WIHH 230530Z 26008KT 4000 -TSRA BKN015 FEW017CB 25/24 Q1009 RMK CB TO NW=
202412230500 METAR WIHH 230500Z 32005KT 5000 -RA BKN015 27/25 Q1009 NOSIG=
202412230430 METAR WIHH 230430Z 32007KT 4000 -TSRA BKN015 FEW017CB 27/25 Q1009 RMK CB TO NE=
202412230400 METAR WIHH 230400Z 29012KT 5000 HZ FEW017CB SCT017 30/24 Q1009 RMK CB AND RA TO N-NE=
202412230330 METAR WIHH NIL=
202412230300 METAR WIHH 230300Z 26005KT 6000 SCT018 29/24 Q1010 RMK RA TO NE=
202412230230 METAR WIHH 230230Z 25006KT 5000 -RA SCT017 29/24 Q1010 NOSIG=
202412230200 METAR WIHH 230200Z 29004KT 5000 HZ SCT017 29/24 Q1010 RMK RA TO W=
202412230130 METAR WIHH 230130Z 26003KT 5000 HZ SCT017 29/25 Q1010 RMK RA TO W=
202412230100 METAR WIHH 230100Z 33003KT 5000 HZ SCT020 28/25 Q1009 NOSIG=
202412230030 METAR WIHH 230030Z 24003KT 5000 HZ SCT020 27/26 Q1010 NOSIG=
202412230000 METAR WIHH 230000Z 23003KT 5000 HZ SCT020 27/26 Q1009 NOSIG=
202412222330 METAR WIHH 222330Z 19003KT 5000 HZ FEW020 26/25 Q1009 NOSIG=
202412222300 METAR WIHH 222300Z 03003KT 6000 SCT020 26/25 Q1008 NOSIG=
202412222230 METAR WIHH NIL=
202412222200 METAR WIHH 222200Z 03003KT 6000 SCT020 26/25 Q1008 NOSIG=
202412222130 METAR WIHH 222130Z 35002KT 6000 FEW020 26/25 Q1007 NOSIG=
202412222100 METAR WIHH 222100Z 01002KT 6000 FEW020 26/25 Q1007 NOSIG=
202412222030 METAR WIHH NIL=
202412222000 METAR WIHH NIL=
202412221930 METAR WIHH NIL=
202412221900 METAR WIHH NIL=
202412221830 METAR WIHH NIL=
202412221800 METAR WIHH NIL=
202412221730 METAR WIHH NIL=
202412221700 METAR WIHH 221700Z 30007KT 4000 TS FEW016CB BKN017 28/26 Q1009 RMK CB AND RA TO N=
202412221630 METAR WIHH 221630Z 18004KT 6000 FEW017CB SCT018 28/26 Q1009 RMK CB AND RA TO N=
202412221600 METAR WIHH 221600Z 18004KT 6000 SCT018 28/26 Q1009 NOSIG=
202412221530 METAR WIHH 221530Z 18004KT 6000 SCT018 28/26 Q1009 NOSIG=
202412221500 METAR WIHH 221500Z 16003KT 6000 SCT018 28/26 Q1009 NOSIG=
202412221430 METAR WIHH 221430Z 16003KT 6000 SCT018 28/25 Q1009 NOSIG=
202412221400 METAR WIHH 221400Z 30003KT 6000 SCT018 28/25 Q1009 NOSIG=
202412221330 METAR WIHH 221330Z 29003KT 5000 HZ SCT018 28/25 Q1009 NOSIG=
202412221300 METAR WIHH 221300Z 32003KT 5000 HZ SCT018 28/25 Q1009 NOSIG=
202412221230 METAR WIHH 221230Z 33003KT 5000 HZ SCT018 28/25 Q1008 RMK RA TO SE=
202412221200 METAR WIHH 221200Z 30004KT 5000 HZ SCT018 28/25 Q1007 RMK RA TO S=
202412221130 METAR WIHH 221130Z 30003KT 5000 HZ SCT018 29/24 Q1007 RMK RA TO S=
202412221100 METAR WIHH 221100Z 32005KT 5000 HZ SCT018 29/24 Q1007 RMK RA TO S=
202412221030 METAR WIHH 221030Z 34005KT 5000 HZ SCT018 30/25 Q1006 NOSIG=
202412221000 METAR WIHH 221000Z 01005KT 5000 HZ SCT018 30/25 Q1006 NOSIG=
202412220930 METAR WIHH 220930Z 33007KT 5000 HZ SCT017 31/25 Q1006 NOSIG=
202412220900 METAR WIHH 220900Z 02005KT 5000 HZ SCT017 31/25 Q1006 NOSIG=
202412220830 METAR WIHH 220830Z 02005KT 5000 HZ SCT017 31/25 Q1006 NOSIG=
202412220800 METAR WIHH 220800Z 36005KT 5000 HZ SCT017 32/25 Q1006 NOSIG=
202412220730 METAR WIHH 220730Z 33007KT 5000 HZ SCT017 31/25 Q1007 NOSIG=
202412220700 METAR WIHH 220700Z 31008KT 5000 HZ SCT017 31/25 Q1007 RMK RA TO S=
202412220630 METAR WIHH 220630Z 30006KT 5000 HZ SCT017 29/26 Q1008 RMK RA TO S=
202412220600 METAR WIHH 220600Z 32006KT 5000 HZ SCT017 30/26 Q1008 RMK RA TO S=
202412220530 METAR WIHH 220530Z 29003KT 5000 HZ SCT017 28/26 Q1009 RMK RA TO S=
202412220500 METAR WIHH 220500Z 31003KT 5000 HZ SCT017 28/26 Q1009 RMK RA TO SW=
202412220430 METAR WIHH 220430Z 30003KT 4000 -RA SCT017 26/26 Q1009 NOSIG=
202412220400 METAR WIHH 220400Z 19003KT 3000 -TSRA FEW014CB SCT016 26/25 Q1010 RMK CB TO N=
202412220330 METAR WIHH 220330Z 19003KT 2000 -TSRA FEW014CB BKN016 26/25 Q1010 RMK CB OTF=
202412220300 METAR WIHH 220300Z 21005KT 1500 RA FEW014CB BKN016 26/25 Q1011 RMK CB TO NW=
202412220230 METAR WIHH 220230Z 29003KT 5000 -RA SCT018 29/25 Q1011 NOSIG=
202412220200 METAR WIHH 220200Z 26005KT 5000 HZ SCT018 29/25 Q1011 NOSIG=
202412220130 METAR WIHH 220130Z 26007KT 5000 HZ SCT018 29/25 Q1011 NOSIG=
202412220100 METAR WIHH 220100Z 23004KT 5000 HZ SCT018 28/25 Q1010 NOSIG=
202412220030 METAR WIHH 220030Z 24004KT 5000 HZ SCT018 27/25 Q1010 NOSIG=
202412220000 METAR WIHH 220000Z 19004KT 5000 HZ SCT018 26/25 Q1010 NOSIG=
202412212330 METAR WIHH 212330Z 00000KT 5000 HZ SCT018 25/24 Q1009 NOSIG=
202412212300 METAR WIHH 212300Z 00000KT 5000 HZ SCT018 25/24 Q1009 NOSIG=
202412212230 METAR WIHH 212230Z 21004KT 5000 HZ SCT018 25/24 Q1009 RMK RA TO N=
202412212200 METAR WIHH 212200Z 21004KT 5000 HZ SCT018 25/24 Q1009 RMK RA TO N=
202412212130 METAR WIHH 212130Z 22004KT 5000 HZ SCT018 25/24 Q1008 RMK RA TO N=
202412212100 METAR WIHH 212100Z 23005KT 5000 HZ SCT018 25/24 Q1008 RMK RA TO N=
202412212030 METAR WIHH NIL=
202412212000 METAR WIHH NIL=
202412211930 METAR WIHH NIL=
202412211900 METAR WIHH NIL=
202412211830 METAR WIHH NIL=
202412211800 METAR WIHH NIL=
202412211730 METAR WIHH NIL=
202412211700 METAR WIHH 211700Z 24004KT 5000 HZ SCT017 27/23 Q1010 RMK RA TO NW=
202412211630 METAR WIHH 211630Z 25004KT 5000 HZ SCT017 28/23 Q1010 RMK RA TO N=
202412211600 METAR WIHH 211600Z 28004KT 5000 HZ SCT017 27/24 Q1010 NOSIG=
202412211530 METAR WIHH 211530Z 27004KT 5000 HZ SCT018 28/23 Q1010 NOSIG=
202412211500 METAR WIHH 211500Z 27005KT 5000 HZ SCT018 28/23 Q1010 NOSIG=
202412211430 METAR WIHH 211430Z 24005KT 5000 HZ SCT018 28/23 Q1010 RMK RA TO NW=
202412211400 METAR WIHH 211400Z 25005KT 5000 HZ SCT018 28/25 Q1010 NOSIG=
202412211330 METAR WIHH 211330Z 25005KT 5000 HZ SCT017 28/25 Q1009 RMK RA TO SE=
202412211300 METAR WIHH 211300Z 24005KT 5000 -RA SCT017 28/24 Q1009=
202412211230 METAR WIHH 211230Z 33005KT 6000 SCT017 28/24 Q1009 NOSIG=
202412211200 METAR WIHH 211200Z 30005KT 6000 SCT017 29/24 Q1007 NOSIG=
202412211130 METAR WIHH 211130Z 33005KT 6000 SCT017 29/24 Q1007 RMK RA TO SE=
202412211100 METAR WIHH 211100Z 33006KT 6000 TS FEW015CB SCT017 29/23 Q1007 RMK CB AND RA TO SE=
202412211030 METAR WIHH 211030Z 33008KT 6000 TS FEW015CB SCT017 30/24 Q1007 RMK CB AND RA TO S=
202412211000 METAR WIHH 211000Z 32008KT 6000 SCT017 30/24 Q1006 RMK RA TO SW=
202412210930 METAR WIHH 210930Z 34008KT 6000 SCT017 30/24 Q1006 RMK RA TO SW=
202412210900 METAR WIHH 210900Z 33008KT 6000 SCT017 31/23 Q1006 NOSIG=
202412210830 METAR WIHH 210830Z 34010KT 6000 SCT017 32/24 Q1006 NOSIG=
202412210800 METAR WIHH 210800Z 33010KT 6000 SCT017 31/23 Q1007 NOSIG=
202412210730 METAR WIHH 210730Z 33010KT 6000 SCT017 31/23 Q1007 NOSIG=
202412210700 METAR WIHH 210700Z 27010KT 6000 SCT017 31/23 Q1007 NOSIG=
202412210630 METAR WIHH 210630Z 30012KT 6000 SCT017 31/23 Q1007 NOSIG=
202412210600 METAR WIHH 210600Z 30010KT 6000 SCT017 31/23 Q1008 NOSIG=
202412210530 METAR WIHH 210530Z 31008KT 5000 HZ SCT017 31/23 Q1008 NOSIG=
202412210500 METAR WIHH 210500Z 28008KT 5000 HZ SCT017 30/24 Q1009 NOSIG=
202412210430 METAR WIHH NIL=
202412210400 METAR WIHH 210400Z 27008KT 5000 HZ SCT017 29/24 Q1009 NOSIG=
202412210330 METAR WIHH 210330Z 27008KT 5000 HZ SCT017 29/24 Q1009 RMK RA TO SE=
202412210300 METAR WIHH 210300Z 27007KT 5000 HZ SCT017 29/24 Q1009 RMK RA TO N=
202412210230 METAR WIHH 210230Z 24007KT 5000 HZ SCT017 28/24 Q1009 RMK RA TO NW=
202412210200 METAR WIHH 210200Z 23008KT 5000 HZ SCT017 28/25 Q1009 NOSIG=
202412210130 METAR WIHH 210130Z 24005KT 5000 HZ SCT017 27/25 Q1009 RMK RA TO N=
202412210100 METAR WIHH 210100Z 24008KT 6000 SCT017 27/25 Q1009 NOSIG=
202412210030 METAR WIHH 210030Z 24004KT 5000 HZ SCT016 26/25 Q1009 NOSIG=
202412210000 METAR WIHH 210000Z 23004KT 5000 HZ SCT016 26/25 Q1008 RMK RA TO S=
202412202330 METAR WIHH 202330Z 20004KT 5000 HZ SCT016 26/25 Q1008 RMK RA TO N=
202412202300 METAR WIHH 202300Z 22003KT 6000 SCT017 25/24 Q1008 NOSIG=
202412202230 METAR WIHH 202230Z 00000KT 6000 SCT018 25/24 Q1008 NOSIG=
202412202200 METAR WIHH 202200Z 00000KT 6000 SCT018 25/24 Q1008 RMK RA TO N=
202412202130 METAR WIHH 202130Z 25005KT 5000 -RA SCT017 25/25 Q1008 NOSIG=
202412202100 METAR WIHH NIL=
202412202030 METAR WIHH NIL=
202412202000 METAR WIHH NIL=
202412201930 METAR WIHH NIL=
202412201900 METAR WIHH NIL=
202412201830 METAR WIHH NIL=
202412201800 METAR WIHH NIL=
202412201730 METAR WIHH 201730Z 25005KT 5000 -RA SCT018 26/24 Q1009 NOSIG=
202412201700 METAR WIHH 201700Z 27008KT 5000 -RA SCT018 26/24 Q1009 NOSIG=
202412201630 METAR WIHH 201630Z 26007KT 5000 -RA SCT018 26/24 Q1009 NOSIG=
202412201600 METAR WIHH 201600Z 27005KT 6000 SCT018 26/24 Q1009 RMK RA TO N=
202412201530 METAR WIHH 201530Z 26004KT 6000 SCT018 26/24 Q1009 RMK RA TO N=
202412201500 METAR WIHH 201500Z 28004KT 6000 SCT018 26/24 Q1009 RMK RA TO N=
202412201430 METAR WIHH 201430Z 28003KT 6000 SCT018 26/24 Q1009 RMK RA TO N=
202412201400 METAR WIHH 201400Z 30004KT 6000 SCT018 26/24 Q1009 RMK RA TO NW=
202412201330 METAR WIHH 201330Z 22006KT 6000 SCT018 26/24 Q1009 NOSIG=
202412201300 METAR WIHH 201300Z 24005KT 6000 SCT018 26/24 Q1009 NOSIG=
202412201230 METAR WIHH 201230Z 24012KT 5000 -RA SCT017 26/24 Q1008 NOSIG=
202412201200 METAR WIHH 201200Z 25008KT 6000 SCT018 28/23 Q1008 NOSIG=
202412201130 METAR WIHH 201130Z 25012KT 7000 SCT018 28/23 Q1007 RMK RA TO NE=
202412201100 METAR WIHH 201100Z 24009KT 7000 SCT018 29/23 Q1007 RMK RA TO NE=
202412201030 METAR WIHH 201030Z 22009KT 7000 SCT018 30/23 Q1006 RMK RA TO NE=
202412201000 METAR WIHH 201000Z 27009KT 7000 SCT018 30/23 Q1006 RMK RA TO N=
202412200930 METAR WIHH 200930Z 23014KT 8000 SCT020 31/23 Q1005 NOSIG=
202412200900 METAR WIHH 200900Z 23014KT 8000 SCT020 31/23 Q1005 NOSIG=
202412200830 METAR WIHH 200830Z 26015KT 7000 SCT018 31/23 Q1006 NOSIG=
202412200800 METAR WIHH 200800Z 22010KT 7000 SCT018 29/22 Q1006 NOSIG=
202412200730 METAR WIHH 200730Z 24013KT 7000 SCT018 29/22 Q1006 RMK RA TO E=
202412200700 METAR WIHH 200700Z 23014KT 7000 SCT018 29/23 Q1006 RMK RA TO E=
202412200630 METAR WIHH 200630Z 24017KT 7000 SCT018 29/23 Q1007 RMK RA TO E=
202412200600 METAR WIHH 200600Z 23017KT 7000 SCT018 31/23 Q1007 RMK RA TO W=
202412200530 METAR WIHH 200530Z 26008KT 7000 SCT018 32/23 Q1007 RMK RA TO S=
202412200500 METAR WIHH 200500Z 34008KT 7000 SCT018 31/24 Q1008 RMK RA TO SE=
202412200430 METAR WIHH 200430Z 28007KT 7000 SCT018 31/23 Q1008 RMK RA TO SW=
202412200400 METAR WIHH 200400Z 31008KT 7000 SCT018 31/24 Q1008 NOSIG=
202412200330 METAR WIHH 200330Z 34006KT 7000 SCT018 31/24 Q1008 NOSIG=
202412200300 METAR WIHH 200300Z 27009KT 7000 SCT018 30/24 Q1009 RMK RA TO S=
202412200230 METAR WIHH 200230Z 28008KT 7000 SCT018 29/23 Q1009 RMK RA TO W DUPE=
202412200200 METAR WIHH 200200Z 25005KT 8000 SCT018 29/24 Q1009 NOSIG=
202412200130 METAR WIHH 200130Z 24007KT 7000 FEW020 29/24 Q1009 NOSIG=
202412200100 METAR WIHH 200100Z 27008KT 7000 SCT020 28/24 Q1009 NOSIG=
202412200030 METAR WIHH 200030Z 26004KT 7000 SCT018 27/24 Q1008 NOSIG=
202412200000 METAR WIHH 200000Z 29004KT 7000 SCT018 26/24 Q1008 NOSIG=
202412192330 METAR WIHH 192330Z 25006KT 7000 SCT018 26/23 Q1008 NOSIG=
202412192300 METAR WIHH 192300Z 25007KT 7000 SCT018 25/23 Q1007 NOSIG=
202412192230 METAR WIHH 192230Z 26004KT 7000 SCT018 25/24 Q1007 NOSIG=
202412192200 METAR WIHH 192200Z 27004KT 7000 FEW020 25/24 Q1007 NOSIG=
202412192130 METAR WIHH 192130Z 24005KT 7000 FEW018 25/24 Q1007 NOSIG=
202412192100 METAR WIHH 192100Z 26005KT 7000 FEW018 25/24 Q1007 NOSIG=
202412192030 METAR WIHH NIL=
202412192000 METAR WIHH NIL=
202412191930 METAR WIHH NIL=
202412191900 METAR WIHH NIL=
202412191830 METAR WIHH NIL=
202412191800 METAR WIHH NIL=
202412191730 METAR WIHH NIL=
202412191700 METAR WIHH 191700Z 22004KT 6000 SCT018 25/24 Q1009 RMK RA TO SW=
202412191630 METAR WIHH 191630Z 21005KT 6000 SCT018 25/24 Q1009 RMK RA TO SW=
202412191600 METAR WIHH 191600Z 24006KT 6000 SCT018 25/24 Q1009 RMK RA TO SW=
202412191530 METAR WIHH 191530Z 23004KT 6000 SCT018 25/24 Q1009 RMK RA TO SW=
202412191500 METAR WIHH 191500Z 25003KT 6000 SCT018 25/24 Q1009 RMK RA TO SW=
202412191430 METAR WIHH 191430Z 28003KT 6000 BKN017 25/24 Q1009 RMK RA TO NE=
202412191400 METAR WIHH 191400Z 28004KT 6000 -RA BKN017 25/24 Q1009 TEMPO TL1430 -RA=
202412191330 METAR WIHH 191330Z 28004KT 5000 -RA BKN017 24/24 Q1009 TEMPO TL1400 4000 -RA=
202412191300 METAR WIHH 191300Z 30004KT 5000 -RA BKN017 25/24 Q1009 TEMPO TL1330 4000 -RA=
202412191230 METAR WIHH 191230Z 32003KT 4000 -TSRA FEW016CB SCT017 25/24 Q1009 TEMPO TL1330 3000 -RA=
202412191200 METAR WIHH 191200Z 32003KT 6000 -RA SCT017 25/24 Q1008 TEMPO TL1230 3000 -RA=
202412191130 METAR WIHH 191130Z 29004KT 6000 -RA SCT017 25/24 Q1008 TEMPO TL1230 4000 -RA=
202412191100 METAR WIHH 191100Z 24004KT 5000 -TSRA FEW014CB SCT017 24/24 Q1007 TEMPO TL1130 -RA RMK CB TO SE=
202412191030 METAR WIHH 191030Z 24004KT 3000 -TSRA FEW014CB BKN016 24/23 Q1007 TEMPO TL1100 3000 -RA BKN016 RMK CB TO N=
202412191000 METAR WIHH 191000Z 26012KT 1000 TSRA FEW014CB BKN016 24/23 Q1007 TEMPO TL1100 3000 -RA BKN016 RMK CB OTF=
202412190930 METAR WIHH 190930Z 21015KT 2000 -RA FEW014CB SCT016 28/25 Q1006 RMK CB TO E=
202412190900 METAR WIHH 190900Z 28006KT 5000 -RA FEW014CB SCT016 28/26 Q1006 RMK CB TO NE=
202412190830 METAR WIHH 190830Z 35006KT 4000 -RA FEW015CB SCT016 29/25 Q1005 RMK CB TO E=
202412190800 METAR WIHH 190800Z 36005KT 6000 SCT016 29/25 Q1005 RMK RA TO W=
202412190730 METAR WIHH 190730Z 33005KT 6000 SCT016 29/25 Q1006 RMK RA TO E=
202412190700 METAR WIHH 190700Z 27005KT 4000 -RA SCT016 27/25 Q1006 TEMPO TL0730 3000 -RA BKN016=
202412190630 METAR WIHH 190630Z 29010KT 6000 SCT017 31/23 Q1006 RMK RA TO N=
202412190600 METAR WIHH 190600Z 24012KT 6000 SCT017 31/23 Q1007 RMK RA TO SW=
202412190530 METAR WIHH 190530Z 25010KT 6000 SCT017 31/23 Q1007 RMK RA TO SW=
202412190500 METAR WIHH 190500Z 30010KT 6000 SCT017 32/24 Q1007 RMK RA TO W=
202412190430 METAR WIHH 190430Z 29012KT 6000 SCT017 30/23 Q1008 NOSIG=
202412190400 METAR WIHH 190400Z 25010KT 6000 SCT017 30/23 Q1008 NOSIG=
202412190330 METAR WIHH 190330Z 27008KT 7000 SCT017 30/23 Q1008 NOSIG=
202412190300 METAR WIHH 190300Z 26015KT 7000 SCT017 30/24 Q1009 NOSIG=
202412190230 METAR WIHH 190230Z 27008KT 7000 SCT017 29/24 Q1009 RMK RA TO S=
202412190200 METAR WIHH 190200Z 26008KT 7000 SCT017 30/24 Q1009 NOSIG=
202412190130 METAR WIHH 190130Z 26008KT 7000 SCT017 29/24 Q1009 NOSIG=
202412190100 METAR WIHH 190100Z 24010KT 7000 SCT017 28/24 Q1009 NOSIG=
202412190030 METAR WIHH 190030Z 25008KT 7000 FEW017 27/24 Q1009 NOSIG=
202412190000 METAR WIHH 190000Z 23008KT 7000 FEW018 27/24 Q1008 NOSIG=
202412182330 METAR WIHH 182330Z 26007KT 7000 FEW018 26/23 Q1008 NOSIG=
202412182300 METAR WIHH 182300Z 24008KT 7000 FEW018 26/23 Q1008 NOSIG=
202412182230 METAR WIHH 182230Z 25007KT 6000 FEW018 26/23 Q1007 NOSIG=
202412182200 METAR WIHH 182200Z 24009KT 6000 NSC 26/23 Q1007 NOSIG=
202412182130 METAR WIHH NIL=
202412182100 METAR WIHH NIL=
202412182030 METAR WIHH NIL=
202412182000 METAR WIHH NIL=
202412181930 METAR WIHH NIL=
202412181900 METAR WIHH NIL=
202412181830 METAR WIHH NIL=
202412181800 METAR WIHH NIL=
202412181730 METAR WIHH NIL=
202412181700 METAR WIHH 181700Z 23007KT 7000 FEW018 26/22 Q1008 NOSIG=
202412181630 METAR WIHH 181630Z 26008KT 7000 FEW018 26/22 Q1008 NOSIG=
202412181600 METAR WIHH 181600Z 24008KT 7000 FEW018 26/21 Q1008 NOSIG=
202412181530 METAR WIHH 181530Z 27008KT 7000 SCT018 26/21 Q1008 NOSIG=
202412181500 METAR WIHH 181500Z 26006KT 7000 SCT018 26/22 Q1008 NOSIG=
202412181430 METAR WIHH 181430Z 24006KT 7000 SCT018 26/22 Q1008 NOSIG=
202412181400 METAR WIHH 181400Z 25008KT 7000 SCT018 26/22 Q1008 NOSIG=
202412181330 METAR WIHH 181330Z 23010KT 7000 SCT018 26/22 Q1008 NOSIG=
202412181300 METAR WIHH 181300Z 23012KT 7000 SCT018 25/22 Q1008 NOSIG=
202412181230 METAR WIHH 181230Z 22013KT 7000 SCT018 25/22 Q1008 NOSIG=
202412181200 METAR WIHH 181200Z 24015KT 6000 SCT017 25/23 Q1008 NOSIG=
202412181130 METAR WIHH 181130Z 27015KT 5000 -RA SCT016 25/22 Q1008 NOSIG=
202412181100 METAR WIHH 181100Z 27015KT 5000 -RA SCT018 27/22 Q1008 NOSIG=
202412181030 METAR WIHH 181030Z 25012KT 5000 -RA SCT018 29/22 Q1007 NOSIG=
202412181000 METAR WIHH 181000Z 23018KT 6000 SCT018 29/22 Q1006 RMK RA TO W=
202412180930 METAR WIHH 180930Z 23012KT 6000 SCT018 29/22 Q1006 RMK RA TO N=
202412180900 METAR WIHH 180900Z 24010KT 6000 SCT018 29/23 Q1006 NOSIG=
202412180830 METAR WIHH 180830Z 24015KT 6000 -RA SCT018 28/23 Q1006 NOSIG=
202412180800 METAR WIHH 180800Z 24015KT 6000 -RA SCT018 28/23 Q1006 NOSIG=
202412180730 METAR WIHH 180730Z 24015KT 6000 -RA SCT018 29/23 Q1006 NOSIG=
202412180700 METAR WIHH 180700Z 22015KT 7000 SCT018 31/23 Q1007 RMK RA TO SE=
202412180630 METAR WIHH 180630Z 24015KT 7000 SCT018 31/22 Q1007 RMK RA TO SE=
202412180600 METAR WIHH 180600Z 27015KT 7000 SCT018 31/23 Q1007 RMK RA TO S=
202412180530 METAR WIHH 180530Z 24015KT 7000 SCT018 32/23 Q1007 RMK RA TO S=
202412180500 METAR WIHH 180500Z 24010KT 7000 SCT018 33/23 Q1008 NOSIG=
202412180430 METAR WIHH 180430Z 27016KT 7000 SCT018 33/23 Q1008 NOSIG=
202412180400 METAR WIHH 180400Z 24015KT 7000 SCT018 32/23 Q1008 NOSIG=
202412180330 METAR WIHH 180330Z 23015KT 7000 SCT018 32/24 Q1009 NOSIG=
202412180300 METAR WIHH 180300Z 24015KT 7000 SCT018 32/23 Q1009 NOSIG=
202412180230 METAR WIHH 180230Z 24015KT 7000 SCT018 30/23 Q1010 NOSIG=
202412180200 METAR WIHH 180200Z 24015KT 7000 SCT018 30/23 Q1010 NOSIG=
202412180130 METAR WIHH 180130Z 24012KT 7000 FEW020 30/23 Q1009 NOSIG=
202412180100 METAR WIHH 180100Z 24007KT 7000 FEW020 28/23 Q1010 NOSIG=
202412180030 METAR WIHH 180030Z 22008KT 7000 FEW020 28/23 Q1009 NOSIG=
202412180000 METAR WIHH 180000Z 22006KT 7000 FEW020 27/23 Q1009 NOSIG=
202412172330 METAR WIHH 172330Z 24003KT 7000 FEW020 27/23 Q1009 NOSIG=
202412172300 METAR WIHH 172300Z 25004KT 7000 FEW020 26/23 Q1008 NOSIG=
202412172230 METAR WIHH 172230Z 26005KT 7000 FEW020 26/23 Q1008 NOSIG=
202412172200 METAR WIHH 172200Z 28004KT 7000 FEW020 26/23 Q1008 NOSIG=
202412172130 METAR WIHH 172130Z 27004KT 7000 FEW020 26/23 Q1008 NOSIG=
202412172100 METAR WIHH 172100Z 24006KT 7000 FEW020 26/22 Q1007 NOSIG=
202412172030 METAR WIHH NIL=
202412172000 METAR WIHH NIL=
202412171930 METAR WIHH NIL=
202412171900 METAR WIHH NIL=
202412171830 METAR WIHH NIL=
202412171800 METAR WIHH NIL=
202412171730 METAR WIHH 171730Z 26004KT 7000 NSC 28/21 Q1009 NOSIG=
202412171700 METAR WIHH 171700Z 27004KT 7000 NSC 28/21 Q1009 NOSIG=
202412171630 METAR WIHH 171630Z 27007KT 7000 NSC 28/21 Q1009 NOSIG=
202412171600 METAR WIHH 171600Z 28006KT 7000 NSC 28/21 Q1009 NOSIG=
202412171530 METAR WIHH 171530Z 27005KT 7000 NSC 29/21 Q1009 NOSIG=
202412171500 METAR WIHH 171500Z 25006KT 7000 FEW020 27/21 Q1009 NOSIG=
202412171430 METAR WIHH 171430Z 26005KT 7000 FEW020 29/21 Q1009 NOSIG=
202412171400 METAR WIHH 171400Z 24007KT 7000 FEW020 29/22 Q1009 NOSIG=
202412171330 METAR WIHH 171330Z 26007KT 7000 FEW020 28/22 Q1009 NOSIG=
202412171300 METAR WIHH 171300Z 26008KT 7000 FEW020 29/23 Q1008 NOSIG=
202412171230 METAR WIHH 171230Z 27007KT 7000 FEW020 29/22 Q1008 NOSIG=
202412171200 METAR WIHH 171200Z 26006KT 7000 FEW020 29/22 Q1008 NOSIG=
202412171130 METAR WIHH 171130Z 24007KT 7000 FEW020 29/21 Q1007 NOSIG=
202412171100 METAR WIHH 171100Z 24008KT 7000 FEW020 30/21 Q1007 NOSIG=
202412171030 METAR WIHH 171030Z 24008KT 7000 FEW020 30/22 Q1006 NOSIG=
202412171000 METAR WIHH 171000Z 24010KT 7000 SCT018 31/22 Q1006 RMK RA TO N=
202412170930 METAR WIHH 170930Z 23008KT 7000 SCT018 31/23 Q1006 NOSIG=
202412170900 METAR WIHH 170900Z 24008KT 7000 SCT018 31/24 Q1005 NOSIG=
202412170830 METAR WIHH 170830Z 24007KT 7000 SCT018 31/23 Q1005 NOSIG=
202412170800 METAR WIHH 170800Z 25007KT 7000 FEW018 31/23 Q1006 NOSIG=
202412170730 METAR WIHH 170730Z 23008KT 7000 SCT018 31/23 Q1006 NOSIG=
202412170700 METAR WIHH 170700Z 29007KT 7000 SCT018 31/23 Q1007 NOSIG=
202412170630 METAR WIHH 170630Z 23005KT 7000 SCT018 31/24 Q1007 NOSIG=
202412170600 METAR WIHH 170600Z 29005KT 7000 SCT018 30/24 Q1008 NOSIG=
202412170530 METAR WIHH 170530Z 28005KT 7000 SCT018 30/24 Q1009 NOSIG=
202412170500 METAR WIHH 170500Z 27004KT 7000 SCT018 29/24 Q1009 NOSIG=
202412170430 METAR WIHH 170430Z 24004KT 7000 SCT018 29/24 Q1010 NOSIG=
202412170400 METAR WIHH 170400Z 25005KT 7000 SCT018 29/24 Q1010 NOSIG=
202412170330 METAR WIHH 170330Z 30003KT 6000 SCT018 29/24 Q1010 NOSIG=
202412170300 METAR WIHH 170300Z 29005KT 6000 SCT018 29/24 Q1010 NOSIG=
202412170230 METAR WIHH 170230Z 30003KT 6000 SCT018 29/25 Q1010 NOSIG=
202412170200 METAR WIHH 170200Z 28003KT 6000 SCT018 27/25 Q1011 RA TO N=
202412170130 METAR WIHH 170130Z 15004KT 5000 HZ SCT018 27/25 Q1010 RA TO N=
202412170100 METAR WIHH 170100Z 17003KT 5000 -RA SCT018 26/25 Q1010 RA TO N=
202412170030 METAR WIHH 170030Z 25005KT 5000 -RA SCT018 25/25 Q1010=
202412170000 METAR WIHH 170000Z 24005KT 4000 -RA SCT018 25/25 Q1010=
202412162330 METAR WIHH 162330Z 22004KT 4000 -RA SCT018 25/25 Q1010=
202412162300 METAR WIHH 162300Z 22006KT 4000 -RA SCT018 25/24 Q1009=
202412162230 METAR WIHH 162230Z 25003KT 4000 -RA SCT018 25/24 Q1009=
202412162200 METAR WIHH 162200Z 27003KT 3000 -RA SCT018 26/24 Q1009=
202412162130 METAR WIHH 162130Z 27003KT 5000 -RA SCT018 26/24 Q1008=
202412162100 METAR WIHH 162100Z 26005KT 6000 SCT018 26/25 Q1008 RMK RA TO N=
202412162030 METAR WIHH NIL=
202412162000 METAR WIHH NIL=
202412161930 METAR WIHH NIL=
202412161900 METAR WIHH NIL=
202412161830 METAR WIHH NIL=
202412161800 METAR WIHH NIL=
202412161730 METAR WIHH NIL=
202412161700 METAR WIHH 161700Z 25004KT 8000 SCT020 26/24 Q1010 NOSIG=
202412161630 METAR WIHH 161630Z 27006KT 9999 SCT020 26/24 Q1010 NOSIG=
202412161600 METAR WIHH 161600Z 25006KT 9999 SCT020 26/24 Q1010 NOSIG=
202412161530 METAR WIHH 161530Z 26012KT 9999 SCT020 27/24 Q1010 NOSIG=
202412161500 METAR WIHH 161500Z 24012KT 9999 SCT020 27/24 Q1010 NOSIG=
202412161430 METAR WIHH 161430Z 27008KT 9999 SCT020 27/23 Q1010 NOSIG=
202412161400 METAR WIHH 161400Z 23007KT 9999 SCT020 27/23 Q1010 NOSIG=
202412161330 METAR WIHH 161330Z 24007KT 8000 SCT018 27/23 Q1009 NOSIG=
202412161300 METAR WIHH 161300Z 24005KT 8000 SCT018 27/23 Q1009 NOSIG=
202412161230 METAR WIHH 161230Z 26004KT 8000 SCT018 28/23 Q1009 RMK RA TO N=
202412161200 METAR WIHH 161200Z 28003KT 6000 SCT018 28/23 Q1009 NOSIG=
202412161130 METAR WIHH 161130Z 24005KT 6000 SCT018 28/23 Q1007 NOSIG=
202412161100 METAR WIHH 161100Z 25005KT 6000 SCT018 28/23 Q1007 RMK RA TO S=
202412161030 METAR WIHH 161030Z 22006KT 6000 SCT018 27/24 Q1007 RMK RA TO N=
202412161000 METAR WIHH 161000Z 24010KT 6000 SCT018 28/23 Q1007 RMK RA TO S=
202412160930 METAR WIHH 160930Z 24012KT 6000 SCT018 29/23 Q1006 RMK RA TO SW=
202412160900 METAR WIHH 160900Z 21010KT 6000 SCT018 29/24 Q1007 NOSIG=
202412160830 METAR WIHH 160830Z 23008KT 6000 SCT018 29/24 Q1007 NOSIG=
202412160800 METAR WIHH 160800Z 23010KT 6000 SCT018 28/24 Q1007 NOSIG=
202412160730 METAR WIHH 160730Z 24008KT 5000 HZ SCT018 28/24 Q1007 RMK RA TO S=
202412160700 METAR WIHH 160700Z 21013KT 5000 HZ FEW016CB SCT018 29/24 Q1008 RMK CB TO S=
202412160630 METAR WIHH 160630Z 21010KT 5000 HZ FEW016CB SCT018 28/25 Q1009 RMK CB TO S=
202412160600 METAR WIHH 160600Z 24009KT 6000 SCT018 30/23 Q1009 RMK RA TO S=
202412160530 METAR WIHH 160530Z 26008KT 6000 SCT016 30/24 Q1009 RMK RA TO SW=
202412160500 METAR WIHH 160500Z 27008KT 6000 SCT016 31/24 Q1009 RMK RA TO SW=
202412160430 METAR WIHH 160430Z 24009KT 6000 SCT017 30/25 Q1009 NOSIG=
202412160400 METAR WIHH 160400Z 23005KT 6000 SCT017 29/25 Q1009 RMK RA TO SW=
202412160330 METAR WIHH 160330Z 27007KT 6000 SCT017 30/25 Q1010 RMK RA TO NE=
202412160300 METAR WIHH 160300Z 24008KT 6000 SCT017 29/25 Q1010 NOSIG=
202412160230 METAR WIHH 160230Z 24008KT 6000 SCT017 29/25 Q1010 RMK RA TO S=
202412160200 METAR WIHH 160200Z 21005KT 6000 SCT017 28/25 Q1010 RMK RA TO SW=
202412160130 METAR WIHH 160130Z 21007KT 6000 SCT017 27/25 Q1010 RMK RA TO N=
202412160100 METAR WIHH 160100Z 23008KT 5000 HZ SCT018 27/25 Q1010 RMK RA TO NE NOSIG=
202412160030 METAR WIHH 160030Z 22010KT 5000 -RA SCT018 27/25 Q1009 NOSIG=
202412160000 METAR WIHH 160000Z 23006KT 5000 HZ SCT018 26/25 Q1009 RMK RA TO S=
202412152330 METAR WIHH 152330Z 23006KT 5000 HZ SCT018 25/24 Q1008 RMK RA TO SW=
202412152300 METAR WIHH 152300Z 22006KT 5000 -RA SCT018 25/24 Q1008 NOSIG=
202412152230 METAR WIHH 152230Z 22005KT 5000 -RA SCT018 25/24 Q1008 NOSIG=
202412152200 METAR WIHH 152200Z 24004KT 5000 -RA SCT018 25/24 Q1008 NOSIG=
202412152130 METAR WIHH 152130Z 26005KT 5000 -RA SCT018 25/24 Q1008 NOSIG=
202412152100 METAR WIHH 152100Z 26005KT 5000 -RA SCT018 25/24 Q1008 NOSIG=
202412152030 METAR WIHH NIL=
202412152000 METAR WIHH NIL=
202412151930 METAR WIHH NIL=
202412151900 METAR WIHH NIL=
202412151830 METAR WIHH NIL=
202412151800 METAR WIHH NIL=
202412151730 METAR WIHH NIL=
202412151700 METAR WIHH 151700Z 24005KT 6000 -RA SCT018 25/24 Q1009 NOSIG=
202412151630 METAR WIHH 151630Z 27004KT 6000 -RA SCT018 25/24 Q1009 NOSIG=
202412151600 METAR WIHH 151600Z 24006KT 6000 -RA SCT018 25/24 Q1010 NOSIG=
202412151530 METAR WIHH 151530Z 22006KT 6000 SCT018 25/24 Q1010 NOSIG=
202412151500 METAR WIHH 151500Z 24007KT 6000 SCT018 25/24 Q1010 NOSIG=
202412151430 METAR WIHH 151430Z 24006KT 6000 SCT018 25/24 Q1010 NOSIG=
202412151400 METAR WIHH 151400Z 25006KT 6000 SCT018 25/24 Q1010 NOSIG=
202412151330 METAR WIHH 151330Z 27004KT 5000 HZ SCT018 25/24 Q1009 NOSIG=
202412151300 METAR WIHH 151300Z 27004KT 5000 HZ SCT017 25/24 Q1009 NOSIG=
202412151230 METAR WIHH 151230Z 27005KT 5000 -RA SCT017 25/24 Q1009 NOSIG=
202412151200 METAR WIHH 151200Z 25005KT 5000 -RA BKN016 25/24 Q1009 NOSIG=
202412151130 METAR WIHH 151130Z 22007KT 4000 -RA BKN016 25/24 Q1009 NOSIG=
202412151100 METAR WIHH 151100Z 27007KT 4000 -RA BKN016 25/24 Q1008 NOSIG=
202412151030 METAR WIHH 151030Z 26005KT 3000 -RA BKN016 25/24 Q1008 NOSIG=
202412151000 METAR WIHH 151000Z 27006KT 3000 -RA FEW014CB BKN016 25/24 Q1008 RMK CB TO NW=
202412150930 METAR WIHH 150930Z 27005KT 4000 -TSRA FEW016 BKN016 25/24 Q1007 RMK CB TO E=
202412150900 METAR WIHH 150900Z 27006KT 4000 -TSRA FEW016 BKN016 24/23 Q1007 RMK CB TO E=
202412150830 METAR WIHH 150830Z 24020KT 1500 -TSRA FEW016 BKN016 25/24 Q1007 RMK CB OTF=
202412150800 METAR WIHH 150800Z 26012KT 6000 SCT017 30/23 Q1006 RMK RA TO W=
202412150730 METAR WIHH 150730Z 24012KT 6000 SCT017 31/22 Q1007 RMK RA TO E=
202412150700 METAR WIHH 150700Z 25015KT 6000 SCT017 31/22 Q1007 RMK RA TO E=
202412150630 METAR WIHH 150630Z 25012KT 6000 SCT017 32/23 Q1008 RMK RA TO SE=
202412150600 METAR WIHH 150600Z 27012KT 6000 SCT017 31/23 Q1009 RMK RA TO S=
202412150530 METAR WIHH 150530Z 27010KT 6000 SCT017 30/23 Q1009 RMK RA TO S=
202412150500 METAR WIHH 150500Z 26008KT 6000 SCT017 29/24 Q1009 RMK RA TO SW=
202412150430 METAR WIHH 150430Z 34010KT 7000 SCT017 29/24 Q1009 RMK RA TO E=
202412150400 METAR WIHH 150400Z 33012KT 7000 SCT017 30/24 Q1010 NOSIG=
202412150330 METAR WIHH 150330Z 27008KT 7000 SCT017 30/22 Q1010 NOSIG=
202412150300 METAR WIHH 150300Z 25012KT 7000 SCT017 30/22 Q1010 NOSIG=
202412150230 METAR WIHH 150230Z 23008KT 7000 SCT017 30/23 Q1010 NOSIG=
202412150200 METAR WIHH 150200Z 24007KT 7000 SCT017 29/23 Q1010 NOSIG=
202412150130 METAR WIHH 150130Z 22006KT 7000 SCT017 26/24 Q1010 RMK RA TO NE=
202412150100 METAR WIHH 150100Z 19006KT 7000 SCT017 26/23 Q1010 RMK RA TO NE=
202412150030 METAR WIHH 150030Z 22008KT 7000 SCT017 26/23 Q1009 TEMPO FM0040 4000 BKN014 RMK RA TO S AND W=
202412150000 METAR WIHH 150000Z 25010KT 7000 SCT018 26/23 Q1009 NOSIG=
202412142330 METAR WIHH 142330Z 23008KT 6000 -RA SCT018 27/24 Q1009 NOSIG=
202412142300 METAR WIHH 142300Z 24005KT 6000 SCT018 27/23 Q1008 NOSIG=
202412142230 METAR WIHH 142230Z 27004KT 6000 SCT018 26/23 Q1007 NOSIG=
202412142200 METAR WIHH 142200Z 00000KT 6000 SCT018 26/23 Q1007 NOSIG=
202412142130 METAR WIHH 142130Z 00000KT 6000 FEW018 26/23 Q1007 NOSIG=
202412142100 METAR WIHH 142100Z 00000KT 6000 FEW018 26/22 Q1007 NOSIG=
202412142030 METAR WIHH NIL=
202412142000 METAR WIHH NIL=
202412141930 METAR WIHH NIL=
202412141900 METAR WIHH NIL=
202412141830 METAR WIHH NIL=
202412141800 METAR WIHH NIL=
202412141730 METAR WIHH 141730Z 22008KT 8000 SCT018 27/22 Q1008 NOSIG=
202412141700 METAR WIHH NIL=
202412141630 METAR WIHH 141630Z 25010KT 8000 SCT018 27/23 Q1009 NOSIG=
202412141600 METAR WIHH 141600Z 23010KT 8000 SCT018 27/23 Q1009 NOSIG=
202412141530 METAR WIHH 141530Z 24010KT 8000 SCT018 27/23 Q1009 NOSIG=
202412141500 METAR WIHH 141500Z 24010KT 7000 SCT018 27/23 Q1009 NOSIG=
202412141430 METAR WIHH 141430Z 26010KT 7000 SCT018 27/23 Q1009 RMK RA TO SW=
202412141400 METAR WIHH 141400Z 24007KT 7000 SCT018 26/23 Q1009 NOSIG=
202412141330 METAR WIHH 141330Z 29003KT 7000 SCT018 26/23 Q1009 NOSIG=
202412141300 METAR WIHH 141300Z 23006KT 7000 SCT018 25/23 Q1008 NOSIG=
202412141230 METAR WIHH 141230Z 24005KT 6000 SCT018 25/23 Q1008 NOSIG=
202412141200 METAR WIHH 141200Z 22006KT 7000 SCT018 25/23 Q1007 NOSIG=
202412141130 METAR WIHH 141130Z 22006KT 6000 SCT018 25/23 Q1007 NOSIG=
202412141100 METAR WIHH 141100Z 23007KT 6000 -RA BKN015 25/23 Q1007 NOSIG=
202412141030 METAR WIHH 141030Z 23008KT 6000 -RA BKN015 25/23 Q1007 NOSIG=
202412141000 METAR WIHH 141000Z 23008KT 6000 SCT015 24/23 Q1007 RMK RA TO S=
202412140930 METAR WIHH 140930Z 23012KT 4000 -RA BKN012 24/23 Q1007 NOSIG=
202412140900 METAR WIHH 140900Z 25025G48KT 1500 RA BKN012 28/24 Q1007 TEMPO TL0930 4000 -RA=
202412140830 METAR WIHH 140830Z 25010KT 6000 SCT018 29/24 Q1006 NOSIG=
202412140800 METAR WIHH 140800Z 26010KT 6000 SCT018 29/23 Q1006 RMK RA TO S=
202412140730 METAR WIHH 140730Z 24010KT 6000 SCT018 29/23 Q1006 RMK RA TO E AND W=
202412140700 METAR WIHH 140700Z 24009KT 6000 SCT018 30/23 Q1006 RMK RA TO W AND N=
202412140630 METAR WIHH 140630Z 27007KT 6000 SCT018 31/24 Q1007 RMK RA TO SW=
202412140600 METAR WIHH 140600Z 23011KT 7000 SCT018 31/24 Q1007 NOSIG=
202412140530 METAR WIHH 140530Z 25010KT 7000 SCT018 31/24 Q1007 NOSIG=
202412140500 METAR WIHH 140500Z 24010KT 7000 SCT018 31/24 Q1008 NOSIG=
202412140430 METAR WIHH 140430Z 24010KT 6000 SCT018 31/24 Q1008 NOSIG=
202412140400 METAR WIHH 140400Z 24010KT 6000 SCT018 29/24 Q1009 NOSIG=
202412140330 METAR WIHH 140330Z 23010KT 6000 SCT018 27/24 Q1009 RMK RA TO E=
202412140300 METAR WIHH 140300Z 27007KT 4000 HZ SCT016 30/24 Q1009 RMK RA TO S,W=
202412140230 METAR WIHH 140230Z 23008KT 6000 SCT018 30/24 Q1009 NOSIG=
202412140200 METAR WIHH 140200Z 23008KT 6000 SCT018 29/23 Q1009 NOSIG=
202412140130 METAR WIHH 140130Z 24008KT 6000 SCT018 28/23 Q1009 NOSIG=
202412140100 METAR WIHH 140100Z 21009KT 6000 SCT018 28/24 Q1009 NOSIG=
202412140030 METAR WIHH 140030Z 23008KT 6000 SCT018 27/23 Q1008 NOSIG=
202412140000 METAR WIHH 140000Z 22010KT 6000 SCT018 26/23 Q1008 NOSIG=
202412132330 METAR WIHH 132330Z 22010KT 6000 SCT018 26/23 Q1008 NOSIG=
202412132300 METAR WIHH 132300Z 23010KT 6000 SCT018 26/23 Q1008 RMK RA TO S=
202412132230 METAR WIHH 132230Z 26010KT 6000 SCT018 27/23 Q1007 RMK RA TO SW=
202412132200 METAR WIHH 132200Z 26007KT 6000 SCT018 27/23 Q1007 NOSIG=
202412132130 METAR WIHH 132130Z 22008KT 6000 SCT018 27/23 Q1007 NOSIG=
202412132100 METAR WIHH 132100Z 24008KT 7000 SCT018 27/23 Q1007 NOSIG=
202412132030 METAR WIHH NIL=
202412132000 METAR WIHH NIL=
202412131930 METAR WIHH NIL=
202412131900 METAR WIHH NIL=
202412131830 METAR WIHH NIL=
202412131800 METAR WIHH NIL=
202412131730 METAR WIHH NIL=
202412131700 METAR WIHH 131700Z 23007KT 7000 FEW020 28/23 Q1007 NOSIG=
202412131630 METAR WIHH 131630Z 22007KT 8000 FEW020 28/23 Q1007 NOSIG=
202412131600 METAR WIHH 131600Z 22007KT 8000 FEW020 28/23 Q1007 NOSIG=
202412131530 METAR WIHH 131530Z 23008KT 8000 FEW020 28/23 Q1007 NOSIG=
202412131500 METAR WIHH 131500Z 24008KT 8000 FEW020 28/23 Q1007 NOSIG=
202412131430 METAR WIHH 131430Z 23007KT 8000 SCT020 28/23 Q1007 NOSIG=
202412131400 METAR WIHH 131400Z 24006KT 8000 SCT020 28/23 Q1007 NOSIG=
202412131330 METAR WIHH 131330Z 24007KT 7000 SCT020 28/23 Q1007 NOSIG=
202412131300 METAR WIHH 131300Z 24008KT 7000 SCT020 28/23 Q1007 NOSIG=
202412131230 METAR WIHH 131230Z 25008KT 7000 SCT018 29/23 Q1006 NOSIG=
202412131200 METAR WIHH 131200Z 23012KT 7000 SCT018 29/23 Q1006 NOSIG=
202412131130 METAR WIHH 131130Z 23015KT 7000 SCT018 29/23 Q1006 NOSIG=
202412131100 METAR WIHH 131100Z 22012KT 7000 SCT018 30/23 Q1005 NOSIG=
202412131030 METAR WIHH 131030Z 24012KT 7000 SCT018 30/23 Q1004 NOSIG=
202412131000 METAR WIHH 131000Z 24012KT 7000 SCT018 31/23 Q1004 NOSIG=
202412130930 METAR WIHH 130930Z 24015KT 7000 SCT018 31/22 Q1004 NOSIG=
202412130900 METAR WIHH 130900Z 27012KT 6000 FEW016CB SCT017 31/22 Q1004 RMK CB AND RA TO S=
202412130830 METAR WIHH 130830Z 22012KT 6000 SCT018 32/22 Q1004 NOSIG=
202412130800 METAR WIHH 130800Z 24014KT 6000 SCT018 32/23 Q1004 NOSIG=
202412130730 METAR WIHH 130730Z 27012KT 6000 SCT018 33/22 Q1004 NOSIG=
202412130700 METAR WIHH 130700Z 27010KT 6000 SCT018 33/22 Q1004 NOSIG=
202412130630 METAR WIHH 130630Z 29010KT 6000 SCT018 32/22 Q1005 NOSIG=
202412130600 METAR WIHH 130600Z 27014KT 6000 SCT018 31/22 Q1005 RMK RA TO N=
202412130530 METAR WIHH 130530Z 24014KT 6000 SCT018 31/21 Q1006 NOSIG=
202412130500 METAR WIHH 130500Z 24014KT 6000 SCT018 33/22 Q1006 NOSIG=
202412130430 METAR WIHH 130430Z 25010KT 6000 SCT018 33/23 Q1006 RMK RA TO E=
202412130400 METAR WIHH 130400Z 25012KT 6000 SCT018 31/22 Q1007 NOSIG=
202412130330 METAR WIHH 130330Z 26012KT 6000 SCT018 31/22 Q1007 NOSIG=
202412130300 METAR WIHH 130300Z 24012KT 6000 SCT018 31/22 Q1007 NOSIG=
202412130230 METAR WIHH 130230Z 22010KT 7000 SCT018 32/22 Q1007 NOSIG=
202412130200 METAR WIHH 130200Z 23010KT 7000 FEW018 31/23 Q1008 NOSIG=
202412130130 METAR WIHH 130130Z 23008KT 7000 FEW020 31/23 Q1008 NOSIG=
202412130100 METAR WIHH 130100Z 24008KT 7000 NSC 30/23 Q1007 NOSIG=
202412130030 METAR WIHH 130030Z 24008KT 7000 FEW020 29/22 Q1007 NOSIG=
202412130000 METAR WIHH 130000Z 24007KT 7000 NSC 28/22 Q1007 NOSIG=
202412122330 METAR WIHH 122330Z 24006KT 7000 FEW020 27/22 Q1007 NOSIG=
202412122300 METAR WIHH 122300Z 24003KT 7000 FEW020 26/22 Q1006 NOSIG=
202412122230 METAR WIHH 122230Z 22006KT 7000 FEW020 25/22 Q1006 NOSIG=
202412122200 METAR WIHH 122200Z 29004KT 7000 FEW020 26/22 Q1006 NOSIG=
202412122130 METAR WIHH 122130Z 22005KT 7000 FEW020 26/22 Q1006 NOSIG=
202412122100 METAR WIHH 122100Z 26005KT 7000 FEW020 27/22 Q1006 NOSIG=
202412122030 METAR WIHH NIL=
202412122000 METAR WIHH NIL=
202412121930 METAR WIHH NIL=
202412121900 METAR WIHH NIL=
202412121830 METAR WIHH NIL=
202412121800 METAR WIHH NIL=
202412121730 METAR WIHH NIL=
202412121700 METAR WIHH 121700Z 23007KT 7000 SCT020 27/22 Q1008 NOSIG=
202412121630 METAR WIHH 121630Z 25007KT 7000 SCT020 28/22 Q1008 NOSIG=
202412121600 METAR WIHH 121600Z 24007KT 7000 SCT020 28/22 Q1008 NOSIG=
202412121530 METAR WIHH 121530Z 24007KT 7000 SCT020 28/22 Q1008 NOSIG=
202412121500 METAR WIHH 121500Z 24008KT 7000 SCT020 28/22 Q1008 NOSIG=
202412121430 METAR WIHH 121430Z 22008KT 7000 SCT020 29/22 Q1008 NOSIG=
202412121400 METAR WIHH 121400Z 23010KT 7000 SCT020 29/22 Q1008 NOSIG=
202412121330 METAR WIHH 121330Z 24008KT 7000 SCT020 29/22 Q1008 NOSIG=
202412121300 METAR WIHH 121300Z 24009KT 7000 SCT020 29/22 Q1007 NOSIG=
202412121230 METAR WIHH 121230Z 23012KT 7000 FEW020 29/22 Q1007 NOSIG=
202412121200 METAR WIHH 121200Z 22012KT 7000 FEW020 29/22 Q1006 NOSIG=
202412121130 METAR WIHH 121130Z 23010KT 7000 FEW020 29/22 Q1006 NOSIG=
202412121100 METAR WIHH 121100Z 25010KT 7000 FEW020 30/22 Q1005 NOSIG=
202412121030 METAR WIHH 121030Z 24012KT 7000 FEW020 30/22 Q1004 NOSIG=
202412121000 METAR WIHH 121000Z 24012KT 7000 FEW020 30/22 Q1004 NOSIG=
202412120930 METAR WIHH 120930Z 23014KT 7000 FEW020 30/22 Q1004 NOSIG=
202412120900 METAR WIHH 120900Z 26011KT 7000 FEW020 31/22 Q1004 NOSIG=
202412120830 METAR WIHH 120830Z 24011KT 7000 FEW020 31/21 Q1003 NOSIG=
202412120800 METAR WIHH 120800Z 24010KT 7000 SCT020 32/22 Q1003 NOSIG=
202412120730 METAR WIHH 120730Z 24010KT 7000 FEW020 32/22 Q1004 NOSIG=
202412120700 METAR WIHH 120700Z 25011KT 7000 FEW020 32/22 Q1004 NOSIG=
202412120630 METAR WIHH 120630Z 24012KT 8000 FEW020 32/22 Q1004 NOSIG=
202412120600 METAR WIHH 120600Z 26010KT 8000 FEW020 33/22 Q1005 NOSIG=
202412120530 METAR WIHH 120530Z 24010KT 8000 FEW020 32/22 Q1005 NOSIG=
202412120500 METAR WIHH 120500Z 25010KT 8000 FEW020 32/21 Q1006 NOSIG=
202412120430 METAR WIHH 120430Z 24010KT 8000 FEW020 31/20 Q1006 NOSIG=
202412120400 METAR WIHH 120400Z 27010KT 8000 FEW018 31/22 Q1006 NOSIG=
202412120330 METAR WIHH 120330Z 27010KT 8000 FEW018 31/22 Q1006 NOSIG=
202412120300 METAR WIHH 120300Z 25011KT 8000 FEW018 30/22 Q1007 NOSIG=
202412120230 METAR WIHH 120230Z 26011KT 8000 FEW018 30/22 Q1007 NOSIG=
202412120200 METAR WIHH 120200Z 25012KT 8000 FEW018 30/22 Q1007 NOSIG=
202412120130 METAR WIHH 120130Z 25010G25KT 8000 FEW018 30/23 Q1007 NOSIG=
202412120100 METAR WIHH 120100Z 24010KT 8000 FEW020 29/23 Q1006 NOSIG=
202412120030 METAR WIHH 120030Z 24014KT 7000 FEW018 28/23 Q1006 NOSIG=
202412120000 METAR WIHH 120000Z 23014KT 7000 FEW018 27/23 Q1006 NOSIG=
202412112330 METAR WIHH 112330Z 23014KT 7000 FEW018 27/23 Q1006 NOSIG=
202412112300 METAR WIHH 112300Z 24012KT 7000 FEW018 26/23 Q1006 NOSIG=
202412112230 METAR WIHH 112230Z 25012KT 8000 SCT018 26/23 Q1006 RMK RA TO S=
202412112200 METAR WIHH 112200Z 25010KT 8000 FEW020 26/23 Q1006 NOSIG=
202412112130 METAR WIHH 112130Z 26010KT 7000 SCT020 26/23 Q1005 NOSIG=
202412112100 METAR WIHH NIL=
202412112030 METAR WIHH NIL=
202412112000 METAR WIHH NIL=
202412111930 METAR WIHH NIL=
202412111900 METAR WIHH NIL=
202412111830 METAR WIHH NIL=
202412111800 METAR WIHH NIL=
202412111730 METAR WIHH NIL=
202412111700 METAR WIHH 111700Z 24010KT 7000 SCT020 27/24 Q1007 RMK RA TO NW=
202412111630 METAR WIHH 111630Z 22012KT 7000 SCT020 27/24 Q1007 RMK RA TO W=
202412111600 METAR WIHH 111600Z 24014KT 7000 SCT020 28/24 Q1007 NOSIG=
202412111530 METAR WIHH 111530Z 25010KT 7000 SCT020 28/23 Q1007 NOSIG=
202412111500 METAR WIHH 111500Z 24010KT 7000 SCT020 28/23 Q1007 NOSIG=
202412111430 METAR WIHH 111430Z 24010KT 7000 SCT020 28/23 Q1007 NOSIG=
202412111400 METAR WIHH 111400Z 25010KT 7000 SCT020 28/23 Q1007 NOSIG=
202412111330 METAR WIHH 111330Z 22010KT 7000 SCT020 28/23 Q1007 NOSIG=
202412111300 METAR WIHH 111300Z 23010KT 7000 SCT020 28/23 Q1006 NOSIG=
202412111230 METAR WIHH 111230Z 22010KT 7000 SCT018 28/23 Q1006 NOSIG=
202412111200 METAR WIHH 111200Z 23010KT 7000 SCT018 28/23 Q1006 NOSIG=
202412111130 METAR WIHH 111130Z 26008KT 6000 SCT018 28/23 Q1005 NOSIG=
202412111100 METAR WIHH 111100Z 24012KT 5000 HZ SCT018 29/23 Q1005 NOSIG=
202412111030 METAR WIHH 111030Z 25012KT 5000 HZ SCT018 29/23 Q1004 RMK RA TO SE=
202412111000 METAR WIHH 111000Z 24012KT 5000 HZ SCT018 29/23 Q1004 RMK RA TO SE=
202412110930 METAR WIHH 110930Z 24014KT 5000 HZ SCT018 29/23 Q1004 RMK RA TO SE=
202412110900 METAR WIHH 110900Z 30012KT 5000 HZ SCT018 31/22 Q1004 RMK RA TO W=
202412110830 METAR WIHH 110830Z 32005KT 7000 SCT018 32/22 Q1003 RMK RA TO W=
202412110800 METAR WIHH 110800Z 30007KT 7000 SCT018 32/22 Q1003 RMK RA TO W=
202412110730 METAR WIHH 110730Z 24012KT 7000 SCT018 32/22 Q1004 NOSIG=
202412110700 METAR WIHH 110700Z 25012KT 7000 SCT018 32/23 Q1004 RMK RA TO E=
202412110630 METAR WIHH 110630Z 23012KT 7000 SCT018 32/23 Q1005 RMK RA TO E=
202412110600 METAR WIHH 110600Z 24013KT 7000 SCT018 32/22 Q1005 NOSIG=
202412110530 METAR WIHH 110530Z 24013KT 7000 SCT018 33/23 Q1006 NOSIG=
202412110500 METAR WIHH 110500Z 26015KT 7000 SCT018 32/22 Q1006 NOSIG=
202412110430 METAR WIHH 110430Z 23015KT 7000 SCT018 33/23 Q1006 NOSIG=
202412110400 METAR WIHH 110400Z 27015KT 7000 SCT018 32/23 Q1007 NOSIG=
202412110330 METAR WIHH 110330Z 26015KT 7000 SCT018 31/23 Q1007 NOSIG=
202412110300 METAR WIHH 110300Z 24015KT 7000 SCT018 30/23 Q1007 NOSIG=
202412110230 METAR WIHH 110230Z 25015KT 8000 SCT020 31/23 Q1007 NOSIG=
202412110200 METAR WIHH 110200Z 26014KT 8000 SCT020 29/24 Q1007 NOSIG=
202412110130 METAR WIHH 110130Z 24009KT 8000 SCT020 29/24 Q1007 NOSIG=
202412110100 METAR WIHH 110100Z 25009KT 8000 FEW020 28/24 Q1007 NOSIG=
202412110030 METAR WIHH 110030Z 27009KT 8000 SCT020 28/23 Q1007 NOSIG=
202412110000 METAR WIHH 110000Z 24007KT 8000 FEW020 28/24 Q1006 NOSIG=
202412102330 METAR WIHH 102330Z 22006KT 8000 FEW018 27/24 Q1006 NOSIG=
202412102300 METAR WIHH 102300Z 21006KT 6000 FEW018 25/24 Q1005 NOSIG=
202412102230 METAR WIHH 102230Z 23005KT 6000 SCT018 26/24 Q1005 NOSIG=
202412102200 METAR WIHH 102200Z 24006KT 6000 FEW020 26/24 Q1005 NOSIG=
202412102130 METAR WIHH 102130Z 25006KT 6000 FEW020 26/24 Q1004 NOSIG=
202412102100 METAR WIHH 102100Z 26009KT 6000 FEW018 26/24 Q1004 NOSIG=
202412102030 METAR WIHH NIL=
202412102000 METAR WIHH NIL=
202412101930 METAR WIHH NIL=
202412101900 METAR WIHH NIL=
202412101830 METAR WIHH NIL=
202412101800 METAR WIHH NIL=
202412101730 METAR WIHH 101730Z 23003KT 7000 FEW018 25/24 Q1007 NOSIG=
202412101700 METAR WIHH 101700Z 24003KT 7000 FEW018 25/24 Q1007 NOSIG=
202412101630 METAR WIHH 101630Z 23003KT 7000 SCT018 25/24 Q1007 NOSIG=
202412101600 METAR WIHH 101600Z 23006KT 6000 -RA SCT018 25/24 Q1007 NOSIG=
202412101530 METAR WIHH 101530Z 21006KT 6000 -RA SCT018 25/24 Q1008 NOSIG=
202412101500 METAR WIHH 101500Z 23007KT 6000 -RA SCT018 26/24 Q1008 NOSIG=
202412101430 METAR WIHH 101430Z 24008KT 7000 -RA SCT018 26/24 Q1008 NOSIG=
202412101400 METAR WIHH 101400Z 22008KT 7000 SCT018 26/24 Q1007 RMK RA TO SW=
202412101330 METAR WIHH 101330Z 21008KT 7000 -RA SCT018 26/24 Q1007 NOSIG=
202412101300 METAR WIHH 101300Z 23007KT 7000 SCT018 27/24 Q1006 RMK RA TO SW=
202412101230 METAR WIHH 101230Z 24009KT 7000 SCT018 27/24 Q1006 RMK RA TO SW=
202412101200 METAR WIHH 101200Z 23009KT 7000 SCT018 28/24 Q1005 NOSIG=
202412101130 METAR WIHH 101130Z 25008KT 6000 SCT018 27/24 Q1005 NOSIG=
202412101100 METAR WIHH 101100Z 23010KT 6000 SCT018 27/24 Q1004 RMK RA TO SE=
202412101030 METAR WIHH 101030Z 24011KT 6000 SCT018 28/23 Q1004 RMK RA TO S=
202412101000 METAR WIHH 101000Z 24013KT 7000 SCT018 29/24 Q1004 NOSIG=
202412100930 METAR WIHH 100930Z 24015KT 7000 FEW018 29/24 Q1003 NOSIG=
202412100900 METAR WIHH 100900Z 25010KT 6000 FEW018 30/24 Q1003 NOSIG=
202412100830 METAR WIHH 100830Z 24010KT 6000 FEW018 30/24 Q1003 NOSIG=
202412100800 METAR WIHH 100800Z 24010KT 6000 SCT018 29/24 Q1003 NOSIG=
202412100730 METAR WIHH 100730Z 23008KT 6000 SCT018 28/25 Q1004 NOSIG=
202412100700 METAR WIHH 100700Z 23008KT 6000 -RA SCT018 27/25 Q1004 NOSIG=
202412100630 METAR WIHH 100630Z 24010KT 6000 -RA SCT018 26/25 Q1005 NOSIG=
202412100600 METAR WIHH 100600Z 24010KT 6000 -RA SCT018 27/25 Q1006 NOSIG=
202412100530 METAR WIHH 100530Z 24010KT 6000 -RA SCT018 27/24 Q1006 NOSIG=
202412100500 METAR WIHH 100500Z 24010KT 6000 -RA SCT016 27/24 Q1006 NOSIG=
202412100430 METAR WIHH 100430Z 23009KT 6000 -RA SCT016 27/24 Q1006 NOSIG=
202412100400 METAR WIHH 100400Z 26009KT 6000 -RA SCT016 27/25 Q1007 NOSIG=
202412100330 METAR WIHH 100330Z 27009KT 6000 -RA SCT016 27/25 Q1007 NOSIG=
202412100300 METAR WIHH 100300Z 24010KT 6000 -RA SCT016 27/24 Q1008 NOSIG=
202412100230 METAR WIHH 100230Z 27011KT 6000 -RA SCT018 27/23 Q1008 NOSIG=
202412100200 METAR WIHH 100200Z 23010KT 6000 -RA SCT018 27/23 Q1007 NOSIG=
202412100130 METAR WIHH 100130Z 25015KT 6000 -RA SCT018 27/23 Q1007 NOSIG=
202412100100 METAR WIHH 100100Z 23016KT 7000 SCT018 27/23 Q1007 RMK RA TO SW=
202412100030 METAR WIHH 100030Z 25015KT 6000 -RA SCT016 26/23 Q1007 NOSIG=
202412100000 METAR WIHH 100000Z 24015KT 6000 SCT018 26/24 Q1006 RMK RA TO SW=
202412092330 METAR WIHH 092330Z 24015KT 6000 SCT018 26/24 Q1006 RMK RA TO SW=
202412092300 METAR WIHH 092300Z 24007KT 7000 FEW020 25/24 Q1006 NOSIG=
202412092230 METAR WIHH 092230Z 24004KT 6000 FEW020 25/24 Q1006 NOSIG=
202412092200 METAR WIHH 092200Z 24004KT 6000 FEW020 28/24 Q1005 NOSIG=
202412092130 METAR WIHH 092130Z 25003KT 6000 FEW020 28/24 Q1005 NOSIG=
202412092100 METAR WIHH 092100Z 25003KT 6000 FEW020 28/24 Q1005 NOSIG=
202412092030 METAR WIHH NIL=
202412092000 METAR WIHH NIL=
202412091930 METAR WIHH NIL=
202412091900 METAR WIHH NIL=
202412091830 METAR WIHH NIL=
202412091800 METAR WIHH NIL=
202412091730 METAR WIHH NIL=
202412091700 METAR WIHH 091700Z 22003KT 5000 HZ SCT018 26/24 Q1007 NOSIG=
202412091630 METAR WIHH 091630Z 26003KT 6000 SCT018 26/24 Q1007 NOSIG=
202412091600 METAR WIHH 091600Z 26003KT 6000 SCT018 26/25 Q1007 NOSIG=
202412091530 METAR WIHH 091530Z 28003KT 6000 SCT018 26/25 Q1007 NOSIG=
202412091500 METAR WIHH 091500Z 30003KT 6000 SCT018 26/25 Q1007 NOSIG=
202412091430 METAR WIHH 091430Z 24003KT 6000 SCT018 26/24 Q1007 NOSIG=
202412091400 METAR WIHH 091400Z 26003KT 6000 SCT018 26/25 Q1007 NOSIG=
202412091330 METAR WIHH 091330Z 24003KT 6000 SCT018 26/25 Q1007 NOSIG=
202412091300 METAR WIHH 091300Z 20003KT 6000 SCT018 26/25 Q1007 NOSIG=
202412091230 METAR WIHH 091230Z 24003KT 6000 SCT018 26/25 Q1007 NOSIG=
202412091200 METAR WIHH 091200Z 21003KT 6000 SCT018 26/25 Q1007 NOSIG=
202412091130 METAR WIHH 091130Z 26003KT 5000 HZ SCT018 26/25 Q1006 NOSIG=
202412091100 METAR WIHH 091100Z 25003KT 5000 HZ SCT017 26/25 Q1006 RMK RA TO W=
202412091030 METAR WIHH 091030Z 24003KT 5000 HZ SCT017 26/25 Q1006 RMK RA TO NW=
202412091000 METAR WIHH 091000Z 26003KT 5000 HZ SCT017 26/25 Q1006 RMK RA TO NW=
202412090930 METAR WIHH 090930Z 22004KT 5000 -RA SCT017 26/25 Q1006 NOSIG=
202412090900 METAR WIHH 090900Z 20004KT 4000 -RA SCT017 26/25 Q1005 NOSIG=
202412090830 METAR WIHH 090830Z 17004KT 4000 -RA SCT017 26/25 Q1006 NOSIG=
202412090800 METAR WIHH 090800Z 16004KT 4000 -RA SCT017 26/25 Q1006 NOSIG=
202412090730 METAR WIHH 090730Z 03004KT 4000 -RA SCT017 26/25 Q1006 NOSIG=
202412090700 METAR WIHH 090700Z 06004KT 4000 -RA SCT017 26/25 Q1007 NOSIG=
202412090630 METAR WIHH 090630Z 08004KT 4000 -RA FEW015CB SCT017 26/25 Q1008 RMK CB TO S=
202412090600 METAR WIHH 090600Z 18004KT 4000 -TSRA FEW015CB SCT017 25/25 Q1008 RMK CB TO NW=
202412090530 METAR WIHH 090530Z 23008KT 4000 -TSRA FEW015CB SCT017 26/25 Q1008 RMK CB TO N=
202412090500 METAR WIHH 090500Z 28010KT 3000 -RA FEW015CB SCT017 26/25 Q1009 RMK CB TO N=
202412090430 METAR WIHH 090430Z 24012KT 5000 -RA FEW015CB SCT017 26/25 Q1009 RMK CB TO S-W=
202412090400 METAR WIHH 090400Z 24010KT 5000 -RA FEW015CB SCT017 26/25 Q1008 TEMPO FL0415 3000 -TSRA RMK CB TO S-W=
202412090330 METAR WIHH 090330Z 26007KT 5000 HZ SCT017 26/25 Q1008 RMK RA TO NW=
202412090300 METAR WIHH 090300Z 33005KT 5000 HZ SCT017 26/25 Q1008 RMK RA TO S=
202412090230 METAR WIHH 090230Z 01007KT 4000 -RA SCT018 26/25 Q1008 NOSIG=
202412090200 METAR WIHH 090200Z 33003KT 4000 HZ SCT018 26/25 Q1008 RMK RA TO NW=
202412090130 METAR WIHH 090130Z 09003KT 4000 HZ SCT018 26/25 Q1008 NOSIG=
202412090100 METAR WIHH NIL=
202412090030 METAR WIHH 090030Z 14005KT 4000 HZ SCT018 26/25 Q1008 NOSIG=
202412090000 METAR WIHH 090000Z 14003KT 3000 HZ SCT018 26/25 Q1007 NOSIG=
202412082330 METAR WIHH 082330Z 11003KT 3000 HZ SCT017 26/25 Q1007 NOSIG=
202412082300 METAR WIHH 082300Z 14003KT 3000 HZ SCT015 26/25 Q1007 NOSIG=
202412082230 METAR WIHH 082230Z 08003KT 4000 HZ SCT018 26/25 Q1006 NOSIG=
202412082200 METAR WIHH 082200Z 13005KT 5000 -RA SCT018 26/25 Q1006 NOSIG=
202412082130 METAR WIHH 082130Z 13003KT 6000 -RA SCT018 26/25 Q1006 NOSIG=
202412082100 METAR WIHH 082100Z 13003KT 6000 -RA SCT018 26/25 Q1006 NOSIG=
202412082030 METAR WIHH NIL=
202412082000 METAR WIHH NIL=
202412081930 METAR WIHH NIL=
202412081900 METAR WIHH NIL=
202412081830 METAR WIHH NIL=
202412081800 METAR WIHH NIL=
202412081730 METAR WIHH 081730Z 23003KT 6000 FEW017CB SCT020 27/25 Q1007 RMK CB AND RA TO NE=
202412081700 METAR WIHH 081700Z 23003KT 6000 SCT020 27/25 Q1007 NOSIG=
202412081630 METAR WIHH 081630Z 25003KT 6000 SCT020 28/25 Q1007 NOSIG=
202412081600 METAR WIHH 081600Z 26003KT 6000 SCT020 28/25 Q1007 NOSIG=
202412081530 METAR WIHH 081530Z 26003KT 6000 SCT020 28/25 Q1007 NOSIG=
202412081500 METAR WIHH 081500Z 26005KT 6000 SCT020 28/24 Q1008 NOSIG=
202412081430 METAR WIHH 081430Z 25003KT 7000 FEW020 28/25 Q1008 NOSIG=
202412081400 METAR WIHH 081400Z 26003KT 7000 FEW020 28/25 Q1008 NOSIG=
202412081330 METAR WIHH 081330Z 00000KT 7000 FEW020 28/25 Q1007 NOSIG=
202412081300 METAR WIHH 081300Z 00000KT 7000 FEW020 28/25 Q1007 NOSIG=
202412081230 METAR WIHH 081230Z 32003KT 7000 FEW020 28/25 Q1007 NOSIG=
202412081200 METAR WIHH 081200Z 00000KT 7000 FEW020 29/25 Q1006 NOSIG=
202412081130 METAR WIHH 081130Z 04003KT 7000 FEW020 29/25 Q1006 NOSIG=
202412081100 METAR WIHH 081100Z 34003KT 7000 FEW020 30/25 Q1006 NOSIG=
202412081030 METAR WIHH 081030Z 35003KT 7000 FEW020 30/25 Q1005 NOSIG=
202412081000 METAR WIHH 081000Z 34003KT 7000 FEW020 31/25 Q1005 NOSIG=
202412080930 METAR WIHH 080930Z 33004KT 7000 FEW020 31/24 Q1004 NOSIG=
202412080900 METAR WIHH 080900Z 36006KT 7000 FEW020 32/24 Q1004 NOSIG=
202412080830 METAR WIHH 080830Z 30005KT 7000 FEW020 32/24 Q1004 NOSIG=
202412080800 METAR WIHH 080800Z 34006KT 6000 SCT016 32/24 Q1004 RMK RA TO SE=
202412080730 METAR WIHH 080730Z 28003KT 6000 SCT016 33/25 Q1005 RMK RA TO S=
202412080700 METAR WIHH 080700Z 27003KT 6000 SCT016 32/25 Q1005 RMK RA TO S=
202412080630 METAR WIHH 080630Z 01006KT 6000 SCT016 31/25 Q1005 RMK RA TO SE=
202412080600 METAR WIHH 080600Z 25005KT 6000 BKN015 31/26 Q1006 RMK RA TO NW=
202412080530 METAR WIHH 080530Z 27003KT 6000 SCT016 32/25 Q1006 RMK RA TO SW=
202412080500 METAR WIHH 080500Z 31004KT 6000 SCT016 31/24 Q1007 NOSIG=
202412080430 METAR WIHH 080430Z 25004KT 6000 SCT016 31/25 Q1007 RMK RA TO NE AND S=
202412080400 METAR WIHH 080400Z 29004KT 6000 SCT015 30/25 Q1007 NOSIG=
202412080330 METAR WIHH 080330Z 08003KT 6000 SCT018 30/25 Q1008 NOSIG=
202412080300 METAR WIHH 080300Z 20003KT 6000 SCT015 29/25 Q1008 NOSIG=
202412080230 METAR WIHH 080230Z 00000KT 6000 SCT015 29/25 Q1008 NOSIG=
202412080200 METAR WIHH 080200Z 20005KT 6000 FEW018 28/25 Q1009 NOSIG=
202412080130 METAR WIHH 080130Z 19004KT 6000 FEW018 27/25 Q1009 NOSIG=
202412080100 METAR WIHH 080100Z 24003KT 6000 SCT018 25/24 Q1009 NOSIG=
202412080030 METAR WIHH 080030Z 33003KT 6000 SCT018 25/24 Q1008 NOSIG=
202412080000 METAR WIHH 080000Z 16004KT 6000 SCT018 25/24 Q1008 RMK RA TO NW=
202412072330 METAR WIHH 072330Z 18005KT 5000 HZ FEW016CB SCT018 24/24 Q1008 RMK CB AND RA TO W=
202412072300 METAR WIHH 072300Z 23005KT 5000 -RA FEW016CB SCT018 24/24 Q1008 RMK CB TO W=
202412072230 METAR WIHH 072230Z 25004KT 5000 -RA FEW016CB SCT018 24/24 Q1008 RMK CB TO W=
202412072200 METAR WIHH 072200Z 23005KT 5000 -TSRA FEW016CB SCT018 24/24 Q1008 RMK CB TO S=
202412072130 METAR WIHH 072130Z 26005KT 5000 -TSRA FEW016CB SCT018 24/24 Q1008 RMK CB TO SW=
202412072100 METAR WIHH NIL=
202412072030 METAR WIHH NIL=
202412072000 METAR WIHH NIL=
202412071930 METAR WIHH NIL=
202412071900 METAR WIHH NIL=
202412071830 METAR WIHH NIL=
202412071800 METAR WIHH NIL=
202412071730 METAR WIHH NIL=
202412071700 METAR WIHH 071700Z 00000KT 6000 SCT020 26/25 Q1008 NOSIG=
202412071630 METAR WIHH 071630Z 12003KT 6000 SCT020 26/25 Q1008 NOSIG=
202412071600 METAR WIHH 071600Z 15003KT 6000 SCT020 26/25 Q1008 NOSIG=
202412071530 METAR WIHH 071530Z 18003KT 6000 SCT020 27/25 Q1008 NOSIG=
202412071500 METAR WIHH 071500Z 23003KT 6000 SCT020 27/25 Q1008 NOSIG=
202412071430 METAR WIHH 071430Z 19003KT 6000 SCT018 27/25 Q1008 NOSIG=
202412071400 METAR WIHH 071400Z 16003KT 6000 SCT018 27/25 Q1008 NOSIG=
202412071330 METAR WIHH 071330Z 05003KT 6000 SCT018 28/25 Q1008 NOSIG=
202412071300 METAR WIHH 071300Z 06004KT 6000 SCT018 28/25 Q1008 NOSIG=
202412071230 METAR WIHH 071230Z 03005KT 6000 SCT018 28/24 Q1007 NOSIG=
202412071200 METAR WIHH 071200Z 01005KT 6000 SCT018 28/25 Q1007 RMK RA TO S=
202412071130 METAR WIHH 071130Z 34004KT 6000 SCT018 30/24 Q1006 NOSIG=
202412071100 METAR WIHH 071100Z 35005KT 6000 SCT018 30/24 Q1006 NOSIG=
202412071030 METAR WIHH 071030Z 03005KT 6000 SCT018 30/24 Q1005 NOSIG=
202412071000 METAR WIHH 071000Z 33004KT 6000 SCT018 31/24 Q1005 NOSIG=
202412070930 METAR WIHH 070930Z 01003KT 6000 SCT018 31/24 Q1005 NOSIG=
202412070900 METAR WIHH 070900Z 04006KT 6000 SCT018 31/24 Q1005 NOSIG=
202412070830 METAR WIHH 070830Z 30004KT 6000 SCT018 31/24 Q1005 NOSIG=
202412070800 METAR WIHH 070800Z 33004KT 6000 SCT018 31/24 Q1005 NOSIG=
202412070730 METAR WIHH 070730Z 28003KT 6000 SCT018 31/25 Q1005 NOSIG=
202412070700 METAR WIHH 070700Z 18003KT 6000 SCT018 30/25 Q1006 NOSIG=
202412070630 METAR WIHH 070630Z 16003KT 5000 HZ SCT018 27/25 Q1007 NOSIG=
202412070600 METAR WIHH 070600Z 18003KT 5000 HZ SCT018 27/25 Q1007 NOSIG=
202412070530 METAR WIHH 070530Z 10003KT 5000 HZ SCT018 26/25 Q1007 RMK RA TO S=
202412070500 METAR WIHH 070500Z 16003KT 5000 -RA FEW016CB BKN018 26/25 Q1008 RMK CB TO SE=
202412070430 METAR WIHH 070430Z 17003KT 5000 -RA FEW016CB BKN018 25/25 Q1008 RMK CB TO SE=
202412070400 METAR WIHH NIL=
202412070330 METAR WIHH 070330Z 18004KT 4000 -TSRA FEW016CB BKN018 25/24 Q1009 TEMPO TL0400 3000 -RA RMK CB TO SW=
202412070300 METAR WIHH 070300Z 06003KT 4000 TSRA FEW017CB BKN016 25/24 Q1009 TEMPO TL0400 3000 -RA RMK CB OTF=
202412070230 METAR WIHH 070230Z 23010KT 1000 TSRA FEW017CB BKN016 25/24 Q1009 RMK CB OTF=
202412070200 METAR WIHH 070200Z 35010KT 4000 -RA FEW016CB SCT018 27/23 Q1009 RMK CB TO NW=
202412070130 METAR WIHH 070130Z 05003KT 4000 HZ FEW016CB SCT018 30/24 Q1008 RMK CB AND RA TO N=
202412070100 METAR WIHH 070100Z 12003KT 4000 HZ SCT018 29/25 Q1008 NOSIG=
202412070030 METAR WIHH 070030Z 19004KT 4000 HZ SCT020 28/24 Q1007 NOSIG=
202412070000 METAR WIHH 070000Z 00000KT 3000 HZ FEW020 27/25 Q1007 NOSIG=
202412062330 METAR WIHH NIL=
202412062300 METAR WIHH 062300Z 00000KT 2000 HZ SCT017 25/25 Q1006 RMK RA TO NE=
202412062230 METAR WIHH 062230Z 00000KT 2000 HZ SCT018 25/24 Q1006 RA TO N=
202412062200 METAR WIHH 062200Z 00000KT 2000 HZ SCT018 25/25 Q1006 NOSIG=
202412062130 METAR WIHH 062130Z 14003KT 2000 BR SCT018 25/25 Q1006 NOSIG=
202412062100 METAR WIHH 062100Z 00000KT 2000 BR SCT018 25/24 Q1006 NOSIG=
202412062030 METAR WIHH NIL=
202412062000 METAR WIHH NIL=
202412061930 METAR WIHH NIL=
202412061900 METAR WIHH NIL=
202412061830 METAR WIHH NIL=
202412061800 METAR WIHH NIL=
202412061730 METAR WIHH 061730Z 00000KT 5000 HZ FEW020 25/23 Q1007 NOSIG=
202412061700 METAR WIHH 061700Z 00000KT 5000 HZ FEW020 25/23 Q1007 NOSIG=
202412061630 METAR WIHH 061630Z 00000KT 5000 HZ FEW020 25/24 Q1007 NOSIG=
202412061600 METAR WIHH 061600Z 00000KT 5000 HZ FEW020 25/24 Q1007 NOSIG=
202412061530 METAR WIHH 061530Z 00000KT 5000 HZ FEW020 25/24 Q1007 NOSIG=
202412061500 METAR WIHH 061500Z 00000KT 5000 HZ FEW018 25/24 Q1007 NOSIG=
202412061430 METAR WIHH 061430Z 00000KT 5000 HZ FEW018 26/24 Q1007 NOSIG=
202412061400 METAR WIHH 061400Z 00000KT 6000 SCT018 26/24 Q1007 RMK RA TO N=
202412061330 METAR WIHH 061330Z 00000KT 6000 SCT018 26/24 Q1007 NOSIG=
202412061300 METAR WIHH 061300Z 00000KT 6000 SCT018 26/24 Q1007 NOSIG=
202412061230 METAR WIHH NIL=
202412061200 METAR WIHH 061200Z 06003KT 7000 SCT018 27/24 Q1007 NOSIG=
202412061130 METAR WIHH 061130Z 00000KT 6000 SCT018 28/23 Q1006 NOSIG=
202412061100 METAR WIHH 061100Z 02003KT 6000 SCT018 28/23 Q1006 NOSIG=
202412061030 METAR WIHH 061030Z 03003KT 6000 SCT018 28/23 Q1006 RMK RA TO N=
202412061000 METAR WIHH 061000Z 02004KT 6000 SCT018 28/24 Q1006 RMK RA TO NW=
202412060930 METAR WIHH 060930Z 00000KT 6000 SCT018 28/24 Q1005 RMK RA TO S AND W=
202412060900 METAR WIHH 060900Z 14003KT 6000 -RA SCT018 28/24 Q1005 NOSIG=
202412060830 METAR WIHH 060830Z 21003KT 6000 -RA SCT018 29/24 Q1005 NOSIG=
202412060800 METAR WIHH 060800Z 20003KT 6000 SCT018 28/24 Q1005 NOSIG=
202412060730 METAR WIHH 060730Z 23004KT 6000 SCT018 28/25 Q1005 NOSIG=
202412060700 METAR WIHH 060700Z 21004KT 6000 SCT017 28/25 Q1006 RMK RA TO SE=
202412060630 METAR WIHH 060630Z 20005KT 6000 -RA SCT017 28/25 Q1006 NOSIG=
202412060600 METAR WIHH 060600Z 20004KT 6000 -RA SCT017 28/25 Q1006 NOSIG=
202412060530 METAR WIHH 060530Z 23007KT 6000 -RA SCT017 28/25 Q1007 NOSIG=
202412060500 METAR WIHH 060500Z 25004KT 6000 -RA SCT017 28/24 Q1007 NOSIG=
202412060430 METAR WIHH 060430Z 21007KT 6000 -RA SCT017 28/25 Q1007 NOSIG=
202412060400 METAR WIHH 060400Z 27007KT 7000 -RA SCT017 27/24 Q1008 NOSIG=
202412060300 METAR WIHH NIL=
202412060230 METAR WIHH 060230Z 27003KT 6000 -RA SCT017 26/24 Q1008 NOSIG=
202412060200 METAR WIHH 060200Z 26004KT 6000 -RA SCT017 26/24 Q1008 NOSIG=
202412060130 METAR WIHH 060130Z 26006KT 6000 -RA SCT017 26/24 Q1008 NOSIG=
202412060100 METAR WIHH 060100Z 25007KT 6000 -RA SCT017 25/24 Q1008 NOSIG=
202412060030 METAR WIHH 060030Z 24004KT 6000 SCT017 25/24 Q1008 RMK RA TO NW=
202412060000 METAR WIHH 060000Z 24007KT 5000 HZ SCT018 25/24 Q1008 RMK RA TO N=
202412052330 METAR WIHH 052330Z 26005KT 5000 HZ SCT017 25/24 Q1007 NOSIG=
202412052300 METAR WIHH 052300Z 27006KT 5000 HZ SCT017 24/24 Q1007 NOSIG=
202412052230 METAR WIHH 052230Z 24006KT 4000 -RA SCT017 24/24 Q1007 NOSIG=
202412052200 METAR WIHH 052200Z 25006KT 4000 -RA SCT017 24/24 Q1007 NOSIG=
202412052130 METAR WIHH 052130Z 26004KT 4000 -RA SCT018 24/24 Q1006 NOSIG=
202412052100 METAR WIHH 052100Z 25005KT 4000 -RA SCT018 24/24 Q1006 NOSIG=
202412052030 METAR WIHH NIL=
202412052000 METAR WIHH NIL=
202412051930 METAR WIHH NIL=
202412051900 METAR WIHH NIL=
202412051830 METAR WIHH NIL=
202412051800 METAR WIHH NIL=
202412051730 METAR WIHH NIL=
202412051700 METAR WIHH 051700Z 25004KT 7000 FEW020 26/24 Q1008 NOSIG=
202412051630 METAR WIHH 051630Z 25006KT 7000 FEW020 26/24 Q1008 NOSIG=
202412051600 METAR WIHH 051600Z 25004KT 7000 FEW020 26/23 Q1008 NOSIG=
202412051530 METAR WIHH 051530Z 26007KT 7000 SCT018 26/24 Q1008 NOSIG=
202412051500 METAR WIHH 051500Z 24005KT 7000 SCT018 26/24 Q1008 NOSIG=
202412051430 METAR WIHH 051430Z 24005KT 7000 SCT020 27/24 Q1008 NOSIG=
202412051400 METAR WIHH 051400Z 24007KT 6000 SCT020 27/24 Q1007 RMK RA TO N=
202412051330 METAR WIHH 051330Z 24006KT 6000 SCT018 26/24 Q1007 RMK RA TO N=
202412051300 METAR WIHH 051300Z 26005KT 6000 -RA SCT018 27/24 Q1007 NOSIG=
202412051230 METAR WIHH 051230Z 23007KT 6000 -RA SCT018 27/24 Q1007 NOSIG=
202412051200 METAR WIHH 051200Z 23008KT 6000 SCT018 27/24 Q1007 RMK RA TO N=
202412051130 METAR WIHH 051130Z 24012KT 6000 SCT017 27/24 Q1006 RMK RA TO N=
202412051100 METAR WIHH 051100Z 24012KT 6000 SCT017 27/24 Q1005 RMK RA TO N-NE=
202412051030 METAR WIHH 051030Z 23013KT 6000 SCT017 27/24 Q1005 RMK RA TO N=
202412051000 METAR WIHH 051000Z 24013KT 6000 SCT017 27/24 Q1005 NOSIG=
202412050930 METAR WIHH 050930Z 24013KT 6000 SCT017 28/24 Q1004 NOSIG=
202412050900 METAR WIHH 050900Z 24006KT 6000 -TSRA SCT016 FEW017CB 27/25 Q1004 RMK CB TO NE-E=
202412050830 METAR WIHH 050830Z 24006KT 2500 -TSRA SCT016 FEW017CB 27/25 Q1004 RMK CB TO N-NE=
202412050800 METAR WIHH 050800Z 24012KT 6000 -RA SCT016 FEW017CB 29/25 Q1004 RMK CB TO N=
202412050730 METAR WIHH 050730Z 24010KT 6000 SCT017 30/24 Q1004 RMK RA TO E=
202412050700 METAR WIHH 050700Z 23010KT 6000 SCT017 30/24 Q1005 RMK RA TO E=
202412050630 METAR WIHH 050630Z 24010KT 6000 SCT017 30/24 Q1005 RMK RA TO E=
202412050600 METAR WIHH 050600Z 22010KT 6000 SCT017 30/25 Q1005 RMK RA TO SE=
202412050530 METAR WIHH 050530Z 24010KT 6000 BKN017 29/24 Q1006 RMK RA TO E-S=
202412050500 METAR WIHH 050500Z 25009KT 6000 BKN017 29/24 Q1006 RMK RA TO W=
202412050430 METAR WIHH 050430Z 24008KT 6000 SCT017 30/24 Q1006 RMK RA TO SE=
202412050400 METAR WIHH 050400Z 26008KT 6000 SCT017 30/25 Q1007 RMK RA TO E=
202412050330 METAR WIHH 050330Z 26006KT 6000 -RA BKN017 29/24 Q1007 NOSIG=
202412050300 METAR WIHH 050300Z 22008KT 7000 BKN017 29/24 Q1008 NOSIG=
202412050230 METAR WIHH 050230Z 24012KT 8000 SCT018 29/24 Q1008 NOSIG=
202412050200 METAR WIHH 050200Z 24012KT 8000 SCT018 29/24 Q1007 NOSIG=
202412050130 METAR WIHH 050130Z 28012KT 5000 HZ SCT018 29/25 Q1007 NOSIG=
202412050100 METAR WIHH 050100Z 24006KT 8000 SCT018 27/24 Q1008 NOSIG=
202412050030 METAR WIHH 050030Z 24006KT 8000 FEW020 27/24 Q1008 NOSIG=
202412050000 METAR WIHH 050000Z 25006KT 8000 FEW020 26/24 Q1007 NOSIG=
202412042330 METAR WIHH 042330Z 23007KT 7000 FEW020 25/24 Q1007 NOSIG=
202412042300 METAR WIHH 042300Z 24004KT 7000 FEW020 25/23 Q1006 NOSIG=
202412042230 METAR WIHH 042230Z 25006KT 7000 FEW020 25/23 Q1006 NOSIG=
202412042200 METAR WIHH 042200Z 25006KT 7000 FEW020 25/23 Q1006 NOSIG=
202412042130 METAR WIHH 042130Z 30005KT 7000 FEW020 25/23 Q1005 NOSIG=
202412042100 METAR WIHH 042100Z 26006KT 7000 FEW020 25/23 Q1005 NOSIG=
202412042030 METAR WIHH NIL=
202412042000 METAR WIHH NIL=
202412041930 METAR WIHH NIL=
202412041900 METAR WIHH NIL=
202412041830 METAR WIHH NIL=
202412041800 METAR WIHH NIL=
202412041730 METAR WIHH 041730Z 23005KT 7000 SCT020 25/22 Q1008 NOSIG=
202412041700 METAR WIHH 041700Z 25006KT 7000 SCT020 25/23 Q1008 NOSIG=
202412041630 METAR WIHH 041630Z 24008KT 7000 SCT020 25/23 Q1008 NOSIG=
202412041600 METAR WIHH 041600Z 25007KT 7000 SCT020 25/23 Q1008 NOSIG=
202412041530 METAR WIHH 041530Z 25008KT 7000 -RA SCT020 25/23 Q1008 NOSIG=
202412041500 METAR WIHH 041500Z 27007KT 7000 -RA SCT020 26/22 Q1008 NOSIG=
202412041430 METAR WIHH 041430Z 27008KT 7000 -RA SCT020 26/22 Q1008 NOSIG=
202412041400 METAR WIHH 041400Z 26008KT 7000 SCT020 26/22 Q1008 NOSIG=
202412041330 METAR WIHH 041330Z 26007KT 7000 SCT020 26/22 Q1008 RMK RA TO N=
202412041300 METAR WIHH 041300Z 24007KT 7000 SCT020 25/23 Q1007 RMK RA TO NW=
202412041230 METAR WIHH 041230Z 26008KT 7000 FEW020 25/23 Q1007 NOSIG=
202412041200 METAR WIHH 041200Z 28008KT 7000 FEW020 25/23 Q1007 NOSIG=
202412041130 METAR WIHH NIL=
202412041100 METAR WIHH 041100Z 23010KT 6000 SCT016 25/23 Q1007 NOSIG=
202412041030 METAR WIHH 041030Z 23009KT 6000 -RA BKN016 25/23 Q1007 NOSIG=
202412041000 METAR WIHH 041000Z 23012KT 2000 -RA BKN015 25/23 Q1007 NOSIG=
202412040930 METAR WIHH 040930Z 24012KT 6000 -RA SCT016 26/23 Q1006 NOSIG=
202412040900 METAR WIHH 040900Z 24012KT 6000 SCT016 26/23 Q1006 RMK RA TO SW=
202412040830 METAR WIHH 040830Z 26010KT 000 SCT018 28/24 Q1006 NOSIG=
202412040800 METAR WIHH 040800Z 27008KT 7000 SCT018 28/24 Q1006 NOSIG=
202412040730 METAR WIHH 040730Z 23012KT 7000 SCT018 29/24 Q1006 NOSIG=
202412040700 METAR WIHH 040700Z 27012KT 7000 SCT018 29/24 Q1006 NOSIG=
202412040630 METAR WIHH 040630Z 27010KT 7000 FEW018 28/23 Q1007 NOSIG=
202412040600 METAR WIHH 040600Z 24011KT 7000 SCT018 28/23 Q1007 NOSIG=
202412040530 METAR WIHH 040530Z 24012KT 6000 SCT018 27/23 Q1008 NOSIG=
202412040500 METAR WIHH 040500Z 26010KT 6000 SCT018 27/23 Q1008 NOSIG=
202412040430 METAR WIHH 040430Z 25015KT 5000 -RA SCT016 27/23 Q1009 NOSIG=
202412040400 METAR WIHH 040400Z 22009KT 6000 SCT018 27/24 Q1009 NOSIG=
202412040330 METAR WIHH NIL=
202412040300 METAR WIHH 040300Z 22006KT 6000 SCT018 27/24 Q1009 NOSIG=
202412040230 METAR WIHH 040230Z 23004KT 6000 SCT018 27/24 Q1009 RMK RA TO S=
202412040200 METAR WIHH 040200Z 23005KT 6000 SCT018 27/24 Q1009 NOSIG=
202412040130 METAR WIHH 040130Z 22004KT 5000 -RA SCT018 26/24 Q1009 NOSIG=
202412040100 METAR WIHH 040100Z 24006KT 5000 -RA SCT018 26/24 Q1008 NOSIG=
202412040030 METAR WIHH 040030Z 24010KT 5000 -RA SCT018 26/24 Q1008 NOSIG=
202412040000 METAR WIHH 040000Z 24010KT 6000 SCT018 26/24 Q1008 RMK RA TO W=
202412032330 METAR WIHH 032330Z 22008KT 6000 SCT018 26/24 Q1008 RMK RA TO SW=
202412032300 METAR WIHH 032300Z 25006KT 6000 SCT018 25/24 Q1007 RMK RA TO S=
202412032230 METAR WIHH 032230Z 24005KT 6000 SCT018 25/24 Q1007 NOSIG=
202412032200 METAR WIHH 032200Z 24007KT 7000 FEW020 25/24 Q1007 NOSIG=
202412032130 METAR WIHH 032130Z 23007KT 7000 FEW020 25/23 Q1007 NOSIG=
202412032100 METAR WIHH 032100Z 25006KT 7000 NSC 25/23 Q1007 NOSIG=
202412032030 METAR WIHH NIL=
202412032000 METAR WIHH NIL=
202412031930 METAR WIHH NIL=
202412031900 METAR WIHH NIL=
202412031830 METAR WIHH NIL=
202412031800 METAR WIHH NIL=
202412031730 METAR WIHH NIL=
202412031700 METAR WIHH 031700Z 25004KT 8000 FEW020 27/22 Q1009 NOSIG=
202412031630 METAR WIHH 031630Z 24006KT 8000 FEW020 27/22 Q1009 NOSIG=
202412031600 METAR WIHH 031600Z 24005KT 8000 FEW020 27/22 Q1009 NOSIG=
202412031530 METAR WIHH 031530Z 25008KT 8000 FEW020 27/21 Q1009 NOSIG=
202412031500 METAR WIHH 031500Z 23009KT 8000 FEW020 27/21 Q1009 NOSIG=
202412031430 METAR WIHH 031430Z 25010KT 8000 FEW020 27/21 Q1009 NOSIG=
202412031400 METAR WIHH 031400Z 23010KT 7000 FEW020 27/22 Q1009 NOSIG=
202412031330 METAR WIHH 031330Z 25010KT 6000 SCT018 27/22 Q1009 NLSIG=
202412031300 METAR WIHH 031300Z 26010KT 6000 SCT018 27/22 Q1009 RMK RA TO S=
202412031230 METAR WIHH 031230Z 26010KT 6000 SCT018 27/22 Q1008 RMK RA TO S=
202412031200 METAR WIHH 031200Z 24010KT 6000 SCT018 27/22 Q1008 RMK RA TO SE=
202412031130 METAR WIHH 031130Z 24010KT 6000 SCT017 27/22 Q1008 RMK RA TO SE=
202412031100 METAR WIHH 031100Z 23010KT 6000 SCT018 27/24 Q1007 NOSIG=
202412031030 METAR WIHH 031030Z 26010KT 6000 SCT017 27/24 Q1007 NOSIG=
202412031000 METAR WIHH 031000Z 26010KT 6000 SCT017 27/24 Q1007 NOSIG=
202412030930 METAR WIHH 030930Z 24010KT 6000 SCT018 27/24 Q1007 NOSIG=
202412030900 METAR WIHH 030900Z 24013KT 5000 HZ SCT017 27/24 Q1006 NOSIG=
202412030830 METAR WIHH 030830Z 23013KT 5000 SCT017 26/24 Q1006 NOSIG=
202412030800 METAR WIHH 030800Z 24015KT 5000 -RA SCT017 26/24 Q1007 NOSIG=
202412030730 METAR WIHH 030730Z 24018KT 5000 -RA SCT017 25/23 Q1007 NOSIG=
202412030700 METAR WIHH 030700Z 26018KT 5000 -RA SCT017 25/23 Q1008 NOSIG=
202412030630 METAR WIHH 030630Z 24018KT 4000 -RA SCT017 25/23 Q1008 NOSIG=
202412030600 METAR WIHH 030600Z 26015KT 5000 -RA SCT018 29/23 Q1008 NOSIG=
202412030530 METAR WIHH 030530Z 26015KT 6000 SCT018 29/23 Q1009 RMK RA TO E=
202412030500 METAR WIHH 030500Z 26015KT 6000 SCT018 30/23 Q1009 RMK RA TO SE=
202412030430 METAR WIHH 030430Z 24018KT 6000 SCT018 30/23 Q1009 NOSIG=
202412030400 METAR WIHH 030400Z 24015KT 6000 SCT018 28/23 Q1009 NOSIG=
202412030330 METAR WIHH 030330Z 24015KT 6000 -RA SCT018 28/23 Q1009 NOSIG=
202412030300 METAR WIHH 030300Z 24015KT 6000 -RA SCT018 28/22 Q1010 NOSIG=
202412030230 METAR WIHH 030230Z 23010KT 8000 SCT020 29/23 Q1010 NOSIG=
202412030200 METAR WIHH 030200Z 22010KT 8000 SCT020 28/23 Q1009 NOSIG=
202412030130 METAR WIHH 030130Z 23010KT 8000 SCT020 28/23 Q1009 NOSIG=
202412030100 METAR WIHH 030100Z 21010KT 8000 FEW020 28/22 Q1009 NOSIG=
202412030030 METAR WIHH NIL=
202412030000 METAR WIHH 030000Z 26009KT 8000 FEW020 27/22 Q1008 NOSIG=
202412022330 METAR WIHH 022330Z 24008KT 8000 FEW018 27/21 Q1008 NOSIG=
202412022300 METAR WIHH 022300Z 23009KT 8000 SCT018 26/21 Q1008 NOSIG=
202412022230 METAR WIHH 022230Z 25007KT 8000 SCT018 26/21 Q1008 RMK RA TO SE=
202412022200 METAR WIHH 022200Z 24012KT 8000 FEW018 26/21 Q1007 NOSIG=
202412022130 METAR WIHH 022130Z 25012KT 8000 FEW018 26/21 Q1007 NOSIG=
202412022100 METAR WIHH 022100Z 27015KT 8000 FEW018 26/21 Q1007 NOSIG=
202412022030 METAR WIHH NIL=
202412022000 METAR WIHH NIL=
202412021930 METAR WIHH NIL=
202412021900 METAR WIHH NIL=
202412021830 METAR WIHH NIL=
202412021800 METAR WIHH NIL=
202412021730 METAR WIHH NIL=
202412021700 METAR WIHH 021700Z 21008KT 8000 FEW018 26/23 Q1009 NOSIG=
202412021630 METAR WIHH 021630Z 24008KT 8000 FEW018 26/23 Q1009 NOSIG=
202412021600 METAR WIHH 021600Z 24010KT 8000 FEW018 26/23 Q1009 NOSIG=
202412021530 METAR WIHH 021530Z 24010KT 8000 FEW018 26/23 Q1009 NOSIG=
202412021500 METAR WIHH 021500Z 26010KT 8000 FEW018 26/23 Q1009 NOSIG=
202412021430 METAR WIHH 021430Z 24010KT 7000 FEW018 26/23 Q1009 NOSIG=
202412021400 METAR WIHH 021400Z 25015KT 7000 -RA SCT018 26/23 Q1009 NOSIG=
202412021330 METAR WIHH 021330Z 25010KT 7000 SCT018 26/23 Q1009 NOSIG=
202412021300 METAR WIHH 021300Z 25010KT 8000 SCT018 27/23 Q1009 RMK RA TO SE=
202412021230 METAR WIHH 021230Z 25010KT 8000 SCT018 27/23 Q1008 NOSIG=
202412021200 METAR WIHH 021200Z 25016KT 8000 SCT018 27/23 Q1008 NOSIG=
202412021130 METAR WIHH 021130Z 25013KT 7000 SCT018 27/23 Q1007 NOSIG=
202412021100 METAR WIHH 021100Z 25013KT 7000 SCT018 27/23 Q1007 NOSIG=
202412021030 METAR WIHH 021030Z 23015KT 7000 SCT018 27/23 Q1007 NOSIG=
202412021000 METAR WIHH 021000Z 22015KT 7000 SCT018 27/23 Q1006 NOSIG=
202412020930 METAR WIHH 020930Z 23010KT 8000 SCT018 27/23 Q1006 NOSIG=
202412020900 METAR WIHH 020900Z 25006KT 8000 SCT018 27/23 Q1006 NOSIG=
202412020830 METAR WIHH 020830Z 25015KT 8000 SCT018 27/23 Q1006 NOSIG=
202412020800 METAR WIHH 020800Z 26010KT 6000 SCT018 27/24 Q1006 RMK RA TO N=
202412020730 METAR WIHH 020730Z 24010KT 6000 SCT018 28/24 Q1006 RMK RA TO NW=
202412020700 METAR WIHH 020700Z 25015KT 6000 -RA SCT015 FEW017CB 26/23 Q1006 RMK CB TO NW=
202412020630 METAR WIHH 020630Z 24012KT 6000 TS FEW017CB SCT018 32/24 Q1005 TEMPO FM0645 25010 3000 TSRA BKN012 RMK CB AND RA TO S=
202412020600 METAR WIHH 020600Z 24006KT 7000 SCT020 33/24 Q1006 NOSIG=
202412020530 METAR WIHH 020530Z 27010KT 7000 SCT020 32/24 Q1006 NOSIG=
202412020500 METAR WIHH 020500Z 27010KT 7000 SCT020 32/24 Q1007 NOSIG=
202412020430 METAR WIHH 020430Z 23010KT 8000 SCT020 32/24 Q1007 NOSIG=
202412020400 METAR WIHH 020400Z 26012KT 8000 SCT020 32/25 Q1007 NOSIG=
202412020330 METAR WIHH 020330Z 25010KT 8000 SCT020 31/24 Q1007 NOSIG=
202412020300 METAR WIHH 020300Z 24010KT 8000 FEW020 31/24 Q1007 NOSIG=
202412020230 METAR WIHH 020230Z 24008KT 8000 FEW020 31/23 Q1008 NOSIG=
202412020200 METAR WIHH 020200Z 23008KT 7000 FEW020 31/22 Q1008 NOSIG=
202412020130 METAR WIHH 020130Z 23006KT 7000 FEW020 30/23 Q1008 NOSIG=
202412020100 METAR WIHH 020100Z 25005KT 7000 FEW020 28/23 Q1008 NOSIG=
202412020030 METAR WIHH 020030Z 21003KT 7000 FEW020 28/24 Q1008 NOSIG=
202412020000 METAR WIHH 020000Z 24003KT 7000 FEW020 27/24 Q1008 NOSIG=
202412012330 METAR WIHH 012330Z 18003KT 7000 FEW020 26/24 Q1007 NOSIG=
202412012300 METAR WIHH 012300Z 23004KT 8000 FEW020 25/23 Q1007 NOSIG=
202412012230 METAR WIHH NIL=
202412012200 METAR WIHH 012200Z 24004KT 8000 FEW020 26/24 Q1006 NOSIG=
202412012130 METAR WIHH 012130Z 22003KT 8000 FEW020 25/24 Q1006 NOSIG=
202412012100 METAR WIHH 012100Z 24003KT 8000 FEW020 25/24 Q1006 NOSIG=
202412012030 METAR WIHH NIL=
202412012000 METAR WIHH NIL=
202412011930 METAR WIHH NIL=
202412011900 METAR WIHH NIL=
202412011830 METAR WIHH NIL=
202412011800 METAR WIHH NIL=
202412011730 METAR WIHH NIL=
202412011700 METAR WIHH 011700Z 24003KT 7000 -RA SCT018 26/24 Q1009 NOSIG=
202412011630 METAR WIHH 011630Z 25003KT 7000 -RA SCT018 26/24 Q1009 NOSIG=
202412011600 METAR WIHH 011600Z 25003KT 8000 -RA SCT018 26/24 Q1009 NOSIG=
202412011530 METAR WIHH 011530Z 27003KT 8000 -RA SCT018 26/24 Q1009 NOSIG=
202412011500 METAR WIHH 011500Z 27003KT 8000 -RA SCT018 26/24 Q1009 NOSIG=
202412011430 METAR WIHH 011430Z 24010KT 8000 -RA SCT018 27/24 Q1009 NOSIG=
202412011400 METAR WIHH 011400Z 22010KT 8000 -RA SCT018 27/24 Q1009 NOSIG=
202412011330 METAR WIHH 011330Z 24010KT 8000 -RA FEW016CB SCT018 27/24 Q1008 RMK CB TO NE=
202412011300 METAR WIHH 011300Z 22010KT 8000 -RA FEW016CB SCT018 27/24 Q1008 RMK CB TO NE=
202412011230 METAR WIHH 011230Z 23010KT 8000 -RA FEW016CB SCT018 28/23 Q1008 RMK CB TO SE=
202412011200 METAR WIHH 011200Z 23010KT 8000 FEW016CB SCT018 29/23 Q1007 RMK CB AND RA TO SE=
202412011130 METAR WIHH 011130Z 23010KT 8000 FEW016CB SCT018 29/22 Q1007 RMK CB AND RA TO E=
202412011100 METAR WIHH 011100Z 24010KT 8000 SCT018 30/22 Q1006 RMK RA TO E=
202412011030 METAR WIHH 011030Z 26015KT 8000 SCT018 30/22 Q1005 RMK RA TO SE=
202412011000 METAR WIHH 011000Z 26015KT 8000 SCT020 30/23 Q1003 RMK RA TO SE=
202412010930 METAR WIHH 010930Z 24015KT 8000 SCT020 31/24 Q1003 NOSIG=
202412010900 METAR WIHH 010900Z 28015KT 8000 SCT020 31/22 Q1003 NOSIG=
202412010830 METAR WIHH 010830Z 27015KT 8000 SCT020 31/22 Q1004 NOSIG=
202412010800 METAR WIHH 010800Z 25015KT 8000 SCT020 33/23 Q1004 NOSIG=
202412010730 METAR WIHH 010730Z 24014KT 8000 SCT020 33/23 Q1004 NOSIG=
202412010700 METAR WIHH 010700Z 25012KT 8000 SCT020 33/23 Q1005 NOSIG=
202412010630 METAR WIHH 010630Z 25010KT 8000 SCT020 33/23 Q1005 NOSIG=
202412010600 METAR WIHH 010600Z 30010KT 8000 SCT020 33/23 Q1005 NOSIG=
202412010530 METAR WIHH 010530Z 25015KT 8000 SCT020 34/23 Q1006 NOSIG=
202412010500 METAR WIHH 010500Z 23015KT 8000 SCT020 34/23 Q1007 NOSIG=
202412010430 METAR WIHH 010430Z 22010KT 8000 SCT020 33/22 Q1008 NOSIG=
202412010400 METAR WIHH 010400Z 25015KT 8000 SCT020 33/22 Q1008 NOSIG=
202412010330 METAR WIHH 010330Z 21010KT 8000 FEW020 33/23 Q1008 NOSIG=
202412010300 METAR WIHH 010300Z 22008KT 8000 FEW020 31/23 Q1008 NOSIG=
202412010230 METAR WIHH 010230Z 25007KT 8000 FEW020 31/24 Q1008 NOSIG=
202412010200 METAR WIHH 010200Z 24006KT 8000 FEW020 31/24 Q1008 NOSIG=
202412010130 METAR WIHH 010130Z 22007KT 8000 FEW020 30/24 Q1008 NOSIG=
202412010100 METAR WIHH 010100Z 21008KT 8000 FEW020 29/24 Q1008 NOSIG=
202412010030 METAR WIHH 010030Z 24007KT 7000 FEW020 28/24 Q1008 NOSIG=
202412010000 METAR WIHH 010000Z 22007KT 7000 FEW020 27/24 Q1008 NOSIG=

# No short TAF reports from WIHH in databse.

###################################
#  large TAF from WIHH
###################################
202412312300 TAF WIHH 312300Z 0100/0200 27010KT 7000 FEW020
                      TEMPO 0107/0111 34012G22KT 4000 -RA SCT018
                       BECMG 0113/0115 5000 HZ=
202412311700 TAF WIHH 311700Z 3118/0118 27005KT 7000 FEW020
                      BECMG 0104/0106 30012KT 5000 HZ SCT018=
202412311100 TAF WIHH 311100Z 3112/0112 24006KT 7000 SCT020
                      BECMG 3115/3117 5000 HZ=
202412310500 TAF WIHH 310500Z 3106/0106 27008KT 6000 SCT018
                      TEMPO 3107/3110 31014G22KT 4000 -RA
                      BECMG 3112/3114 5000 HZ=
202412302300 TAF WIHH 302300Z 3100/0100 26012KT 7000 FEW020
                      TEMPO 3108/3111 31014G25KT 4000 -RA SCT018
                       BECMG 3112/3114 22010KT=
202412301700 TAF WIHH 301700Z 3018/3118 22012KT -RA 4000 BKN018
                      BECMG 3021/3023 25010KT 5000 HZ SCT020=
202412301100 TAF WIHH 301100Z 3012/3112 24010KT 7000 SCT020
                      BECMG 3018/3020 22004KT FEW022=
202412300500 TAF WIHH 300500Z 3006/3106 24012KT 7000 SCT016
                      TEMPO 3008/3012 32015KT 4000 -RA FEW017CB
                       BECMG 3014/3016 26005KT 5000 HZ FEW022=
202412292300 TAF WIHH 292300Z 3000/3100 24010KT 6000 SCT018
                      TEMPO 3001/3005 32012KT 4000 -RA
                      TEMPO 3007/3011 3000 -RA BKN016 FEW017CB
                       BECMG 3013/3015 26005KT 5000 HZ=
202412291700 TAF WIHH 291700Z 2918/3018 22003KT 6000 FEW022
                      BECMG 3002/3004 28010KT SCT020=
202412291100 TAF WIHH 291100Z 2912/3012 34006KT 7000 SCT020
                      BECMG 2917/2919 00000KT 5000 FEW022=
202412290500 TAF WIHH 290500Z 2906/3006 27010KT 7000 SCT020
                      TEMPO 2912/2915 24014KT 4000 -RA BKN016 FEW017CB
                       BECMG 2917/2919 22005KT 5000 HZ=
202412282300 TAF WIHH 282300Z 2900/3000 27006KT 7000 FEW020
                      TEMPO 2913/2916 34012KT 4000 -RA SC018
                      BECMG 2917/2919 5000 HZ=
202412281700 TAF WIHH 281700Z 2818/2918 30005KT 7000 FEW020
                      BECMG 2904/2906 24012KT 5000 HZ SCT020=
202412281100 TAF WIHH 281100Z 2812/2912 27006KT 6000 SCT020
                      BECMG 2819/2921 5000 HZ=
202412280500 TAF WIHH 280500Z 2806/2906 24008KT 6000 SCT020
                      TEMPO 2812/2815 27014KT 4000 -RA
                      BECMG 2816/2818 36003KT 5000 HZ=
202412272300 TAF WIHH 272300Z 2800/2900 27006KT 7000 FEW020
                      TEMPO 2813/2816 21012KT 4000 -RA SCT018=
202412271700 TAF WIHH 271700Z 2718/2818 27005KT 6000 FEW020
                      TEMPO 2807/2810 34014KT 4000 -RA SCT018=
202412271100 TAF WIHH 271100Z 2712/2812 24006KT 6000 SCT020=
202412270500 TAF WIHH 270500Z 2706/2806 27006KT 6000 SCT018
                      TEMPO 2707/2710 30014KT 4000 -RA
                      BECMG 2712/2714 7000 FEW020=
202412262300 TAF WIHH 262300Z 2700/2800 24006KT 6000 SCT018
                      TEMPO 2707/2710 34012G22KT 4000 -RA
                      BECMG 2712/2714 5000 HZ=
202412261700 TAF WIHH 261700Z 2618/2718 27006KT 6000 SCT018
                      TEMPO 2707/2710 34014KT 4000 -RA=
202412261100 TAF WIHH 261100Z 2612/2712 30006KT 7000 SCT020=
202412260500 TAF WIHH 260500Z 2606/2706 24008KT 7000 SCT018
                      TEMPO 2608/2611 30014KT 4000 -RA
                      BECMG 2613/2615 5000 HZ=
202412252300 TAF WIHH 252300Z 2600/2700 27008KT 6000 SCT018
                      TEMPO 2605/2609 34014KT 4000 -RA
                      BECMG 2612/2614 5000 HZ=
202412251700 TAF WIHH 251700Z 2518/2618 27005KT 5000 HZ SCT018
                      TEMPO 2602/2605 30010KT 3000 -RA
                      BECMG 2606/2608 6000=
202412251100 TAF WIHH 251100Z 2512/2612 30008KT 6000 SCT018
                      TEMPO 2512/2515 3000 -RA
                      BECMG 2516/2518 24003KT 5000 HZ=
202412250500 TAF WIHH 250500Z 2506/2606 27008KT 6000 SCT018
                      TEMPO 2506/2510 30012G25KT 3000 -TSRA BKN016
                       FEW018CB
                      BECMG 2512/2514 21005KT 5000 HZ=
202412242300 TAF WIHH 242300Z 2500/2600 29010KT 7000 FEW020
                      TEMPO 2507/2511 20012G25KT 4000 -TSRA BKN016
                       FEW017CB
                      BECMG 2513/2515 26006KT SCT018=
202412241700 TAF WIHH 241700Z 2418/2518 22004KT 6000 SCT020
                      TEMPO 2508/2511 27012G24KT 3000 -TSRA BKN016
                       FEW017CB=
202412241100 TAF WIHH 241100Z 2412/2512 20008KT 7000 SCT018
                      BECMG 2416/2418 25003KT=
202412240500 TAF WIHH 240500Z 2406/2506 23010KT 6000 SCT018
                      TEMPO 2409/2412 27012KT 4000 -RA BKN016 FEW017CB
                       BECMG 2414/2416 00000KT 5000 HZ=
202412232300 TAF WIHH 232300Z 2400/2500 22006KT 6000 SCT018
                      TEMPO 2402/2405 27008KT 4000 -RA BKN017
                      BECMG 2410/2412 23010KT 5000 HZ=
202412231700 TAF WIHH 231700Z 2318/2418 22003KT 5000 HZ SCT018
                      TEMPO 2319/2322 27010KT 3000 -RA BKN016 FEW017CB
                       BECMG 2401/2403 30012KT=
202412231100 TAF WIHH 231100Z 2312/2412 22005KT 6000 SCT018
                      BECMG 2318/2320 00000KT 5000 HZ=
202412230500 TAF WIHH 230500Z 2306/2406 32012KT 5000 HZ SCT018
                      TEMPO 2306/2310 3000 -TSRA BKN015 FEW017CB
                       TEMPO 2315/2319 26005KT 4000 -RA BKN016=
202412222300 TAF WIHH 222300Z 2300/2400 33008KT 6000 FEW020
                      TEMPO 2302/2305 3000 -TSRA FEW017CB SCT018
                       BECMG 2306/2308 30010G22KT
                      TEMPO 2315/2319 26007KT 4000 -RA BKN016=
202412221700 TAF WIHH 221700Z 2218/2318 31007KT 4000 TS FEW016CB BKN017
                      BECMG 2220/2222 22004KT 5000 HZ SCT018=
202412221100 TAF WIHH 221100Z 2212/2312 36006KT 6000 SCT018
                      TEMPO 2214/2217 4000 -RA BKN016
                      BECMG 2219/2221 22004KT 5000 HZ=
202412220500 TAF WIHH 220500Z 2206/2306 32007KT 6000 SCT018
                      TEMPO 2209/2212 21014KT 3000 -TSRA BKN016
                       FEW017CB
                      BECMG 2214/2216 27005KT=
202412212300 TAF WIHH 212300Z 2200/2300 31006KT 5000 HZ SCT018
                      TEMPO 2208/2212 24012G22KT 3000 -TSRA BKN016
                       FEW018CB
                      BECMG 2213/2215 6000
                      TEMPO 2219/2222 4000 -RA=
202412211700 TAF WIHH 211700Z 2118/2218 30006KT 5000 HZ SCT018
                      TEMPO 2118/2121 3000 -RA
                      BECMG 2123/2201 6000=
202412211100 TAF WIHH 211100Z 2112/2212 24008KT 6000 SCT018
                      TEMPO 2113/2116 3000 -RA
                      BECMG 2118/2120 VRB03KT 5000 HZ=
202412210500 TAF WIHH 210500Z 2106/2206 24008KT 6000 SCT018
                      TEMPO 2109/2112 27014KT 3000 -TSRA BKN016
                       FEW018CB
                      TEMPO 2114/2116 5000 HZ=
202412202300 TAF WIHH 202300Z 2100/2200 22007KT 6000 SCT018
                      TEMPO 2107/2111 32014KT 4000 -TSRA FEW016CB
                       BKN017
                      TEMPO 2112/2114 21005KT=
202412201700 TAF WIHH 201700Z 2018/2118 28005KT 4000 -RA BKN016
                      BECMG 2022/2100 24008KT 5000 HZ SCT018=
202412201100 TAF WIHH 201100Z 2012/2112 24010KT 7000 SCT018
                      BECMG 2016/2018 22006KT FEW020=
202412200500 TAF WIHH 200500Z 2006/2106 27010KT 7000 SCT018
                      TEMPO 2007/2011 24012G25KT 3000 -TSRA BKN015
                       FEW017CB
                      BECMG 2014/2016 25007KT=
202412192300 TAF WIHH 192300Z 2000/2100 27006KT 6000 SCT018
                      TEMPO 2007/2010 34013G25KT 3000 -TSRA BKN015
                       FEW017CB
                      BECMG 2012/2014 5000 HZ=
202412191700 TAF WIHH 191700Z 1918/2018 27006KT 6000 SCT018
                      TEMPO 2006/2009 34014KT 4000 -RA FEW017CB
                       BECMG 2011/2013 5000 HZ=
202412191100 TAF WIHH 191100Z 1912/2012 24006KT 5000 HZ SCT018
                      TEMPO 1912/1915 4000 -RA
                      BECMG 1916/1918 30003KT 7000 NSW=
202412190500 TAF WIHH 190500Z 1906/2006 27010KT 6000 SCT018
                      TEMPO 1906/1910 34012G22KT 4000 -RA FEW016CB
                       BECMG 1912/1914 21005KT=
202412182300 TAF WIHH 182300Z 1900/2000 24012KT 7000 FEW020
                      TEMPO 1909/1912 27014G25KT 4000 -RA FEW016CB
                       SCT018
                      BECMG 1914/1916 22007KT=
202412181700 TAF WIHH 181700Z 1818/1918 22008KT 6000 FEW020
                      BECMG 1900/1902 27012KT SCT018=
202412181100 TAF WIHH 181100Z 1812/1912 27012KT 5000 -RA SCT017
                      BECMG 1816/1818 21007KT 6000 FEW020=
202412180500 TAF WIHH 180500Z 1806/1906 24013KT 7000 SCT018
                      TEMPO 1809/1812 29014G25KT 3000 -RA FEW016CB
                       BKN017
                      BECMG 1814/1816 21007KT 5000 HZ FEW020=
202412172300 TAF WIHH 172300Z 1800/1900 24008KT 7000 SCT020
                      TEMPO 1809/1812 30010G20KT 3000 -TSRA FEW016CB
                       BKN018
                      BECMG 1814/1816 22006KT 5000 HZ FEW022=
202412171700 TAF WIHH 171700Z 1718/1818 24008KT 7000 FEW020
                      TEMPO 1721/1800 4000 -RA BKN017
                      BECMG 1802/1804 30010KT 5000 HZ=
202412171100 TAF WIHH 171100Z 1712/1812 23008KT 8000 FEW020
                      TEMPO 1721/1800 4000 -RA BKN017
                      BECMG 1802/1804 30005KT 5000 HZ=
202412170500 TAF WIHH 170500Z 1706/1806 24008KT 8000 SCT018
                      TEMPO 1706/1709 30013KT 3000 -RA FEW015CB
                       BKN017
                      BECMG 1711/1713 20004KT 5000 HZ=
202412162300 TAF WIHH 162300Z 1700/1800 27008KT 6000 SCT018
                      TEMPO 1700/1703 4000 -RA BKN014
                      TEMPO 1707/1710 34012G22KT 3000 -TSRA BKN015
                       FEW018CB
                      BECMG 1712/1714 20004KT 5000 HZ
                      TEMPO 1720/1723 3000 -RA=
202412161700 TAF WIHH 161700Z 1618/1718 24006KT 6000 SCT018
                      TEMPO 1620/1623 4000 -RA
                      BECMG 1701/1703 5000 HZ
                      TEMPO 1707/1710 34014KT 3000 -TSRA FEW017CB
                       BKN018=
202412161100 TAF WIHH 161100Z 1612/1712 21006KT 6000 SCT018
                      TEMPO 1615/1618 4000 -RA
                      BECMG 1619/1621 34003KT 7000 FEW020=
202412160500 TAF WIHH 160500Z 1606/1706 24008KT 6000 SCT018
                      TEMPO 1606/1610 30012G25KT 3000 -TSRA BKN015
                       FEW017CB
                      BECMG 1613/1615 5000 HZ=
202412152300 TAF WIHH 152300Z 1600/1700 27010KT 6000 SCT018
                      TEMPO 1607/1611 25012G28KT 3000 -TSRA FEW016CB
                       BKN017
                      BECMG 1612/1614 22007KT 5000 HZ=
202412151700 TAF WIHH 151700Z 1518/1618 24005KT 5000 HZ SCT020
                      BECMG 1600/1602 27010KT=
202412151100 TAF WIHH 151100Z 1512/1612 25008KT 4000 -RA BKN017
                      BECMG 1514/1516 22005KT 5000 HZ SCT018=
202412150500 TAF WIHH 150500Z 1506/1606 26010KT 7000 SCT020
                      TEMPO 1507/1510 28015G30KT 3000 -TSRA FEW016CB
                       BKN017
                      BECMG 1512/1514 20008KT=
202412142300 TAF AMD WIHH 150030Z 1501/1600 24010KT 8000 SCT020
                      TEMPO 1501/1504 4000 -RA BKN018
                      TEMPO 1506/1510 27015G30KT 3000 -TSRA FEW015CB
                       BKN017
                      BECMG 1512/1514 22010KT 5000 HZ FEW022=
202412141700 TAF WIHH 141700Z 1418/1518 24008KT 7000 SCT020
                      TEMPO 1507/1510 27015G30KT 3000 -RA BKN015
                       BECMG 1512/1514 22010KT 5000 HZ FEW022=
202412141100 TAF WIHH 141100Z 1412/1512 23010KT 7000 SCT018
                      TEMPO 1420/1423 27015KT 4000 -RA BKN018
                      BECMG 1501/1503 5000 HZ FEW022=
202412140500 TAF WIHH 140500Z 1406/1506 23010KT 6000 SCT018
                      TEMPO 1407/1410 29015KT 4000 -RA BKN018
                      BECMG 1412/1414 5000 HZ FEW022=
202412132300 TAF WIHH 132300Z 1400/1500 26012KT 6000 SCT018
                      TEMPO 1400/1403 4000 -RA
                      TEMPO 1407/1410 30014KT 3000 -TSRA FEW017CB
                       BKN018
                      BECMG 1412/1414 22007KT=
202412131700 TAF WIHH 131700Z 1318/1418 22007KT 7000 FEW022
                      BECMG 1401/1403 25010KT SCT020=
202412131100 TAF WIHH 131100Z 1312/1412 25008KT 7000 SCT020
                      BECMG 1318/1320 5000 HZ FEW022=
202412130500 TAF WIHH 130500Z 1306/1406 29012KT 6000 SCT018
                      TEMPO 1308/1311 23012G25KT 3000 -TSRA FEW016CB
                       BKN018
                      TEMPO 1314/1317 25008KT 4000 -RA=
202412122300 TAF WIHH 122300Z 1300/1400 26010KT 7000 SCT020
                      TEMPO 1309/1312 23012G25KT 3000 -TSRA FEW016CB
                       BKN018
                      BECMG 1314/1316 21006KT 5000 HZ=
202412121700 TAF WIHH 121700Z 1218/1318 25008KT 7000 FEW020
                      BECMG 1300/1302 5000 HZ SCT020=
202412121120 TAF COR WIHH 121120Z 1212/1312 24010KT 8000 FEW020
                      TEMPO 1218/1221 22015KT 4000 -RA BKN018
                      BECMG 1223/1301 5000 HZ SCT020=
202412121100 TAF WIHH 121100Z 1212/1312 24010KT 8000 FEW020
                      BECMG 1218/1221 22015KT 4000 -RA BKN018
                      BECMG 1223/1301 5000 HZ SCT020=
202412120530 TAF WIHH 120530Z 1206/1306 24010KT 7000 SCT020
                      TEMPO 1209/1212 32012G22KT 3000 -TSRA FEW016
                       SCT018
                      BECMG 1214/1216 22008KT 5000 HZ=
202412120500 TAF WIHH 120500Z NIL=
202412112300 TAF WIHH 112300Z 1200/1300 25012KT 7000 SCT018
                      TEMPO 1203/1206 27014G25KT 4000 -RA
                      TEMPO 1209/1212 3000 -TSRA BKN016 FEW017CB=
202412111700 TAF WIHH 111700Z 1118/1218 22012KT 5000 HZ SCT020
                      TEMPO 1118/1121 3000 -RA BKN018
                      BECMG 1201/1203 7000 SCT018=
202412111100 TAF WIHH 111100Z 1112/1212 22008KT 6000 SCT020
                      BECMG 1116/1118 5000 HZ FEW022=
202412110500 TAF WIHH 110500Z 1106/1206 23014KT 7000 SCT018
                      TEMPO 1107/1111 28012G25KT 3000 -RA BKN016
                       FEW017CB
                      BECMG 1112/1114 21006KT 5000 HZ FEW020=
202412102300 TAF WIHH 102300Z 1100/1200 27010KT 7000 SCT020
                      TEMPO 1102/1105 24012G22KT 4000 -RA BKN016
                       TEMPO 1107/1110 3000 -TSRA FEW017CB
                      BECMG 1112/1114 21006KT 5000 HZ FEW022=
202412101700 TAF WIHH 101700Z 1018/1118 26006KT 6000 SCT020
                      TEMPO 1022/1101 24010G20KT 3000 -RA FEW016CB
                       BKN018=
202412101100 TAF WIHH 101100Z 1012/1112 26008KT 7000 SCT020
                      TEMPO 1022/1101 24010G20KT 3000 -RA FEW016CB
                       BKN018=
202412100500 TAF WIHH 100500Z 1006/1106 28008KT 6000 SCT020
                      TEMPO 1006/1010 24010G22KT 3000 -TSRA BKN015
                       FEW017CB
                      BECMG 1012/1014 21003KT 5000 HZ=
202412092300 TAF AMD WIHH 100005Z 1000/1100 27012KT 5000 -RA SCT018
                      BECMG 1003/1005 6000
                      TEMPO 1007/1011 25014G24KT 3000 -TSRA BKN016
                       FEW017CB
                      BECMG 1012/1014 21003KT 5000 HZ=
202412091700 TAF WIHH 091700Z NIL=
202412091100 TAF WIHH 091100Z 0912/1012 26007KT 5000 HZ SCT020
                      BECMG 0916/0918 20005KT=
202412090500 TAF WIHH 090500Z 0906/1006 27006KT 5000 HZ SCT018
                      TEMPO 0906/0910 34012G22KT 3000 -TSRA BKN016
                       FEW018CB
                      BECMG 0912/0914 6000=
202412082300 TAF AMD WIHH 100005Z 1000/1100 27012KT 5000 -RA SCT018
                      BECMG 1003/1005 6000
                      TEMPO 1007/1011 25014G24KT 3000 -TSRA BKN016
                       FEW017CB
                      BECMG 1012/1014 21003KT 5000 HZ=
202412081700 TAF WIHH 081700Z 0818/0918 32005KT 7000 SCT020
                      TEMPO 0819/0822 18008KT 4000 -TSRA FEW016CB
                       BECMG 0900/0902 25008KT 5000 HZ SCT018=
202412081100 TAF WIHH 081100Z 0812/0912 35005KT 7000 FEW020
                      TEMPO 0819/0822 18008KT 4000 -TSRA FEW016CB
                       BECMG 0900/0902 25008KT 5000 HZ SCT018=
202412080500 TAF WIHH 080500Z 0806/0906 24008KT 6000 SCT020
                      TEMPO 0807/0810 34012KT 3000 -TSRA FEW015CB
                       BKN017
                      BECMG 0812/0814 18005KT 5000 HZ
                      TEMPO 0820/0823 26010KT 4000 -TSRA FEW016CB=
202412072300 TAF WIHH 072300Z 0800/0900 24008KT 6000 SCT018
                      TEMPO 0806/0810 34012G25KT 2000 TSRA BKN013
                       FEW017CB
                      BECMG 0812/0814 7000 NSW
                      TEMPO 0818/0821 21012KT 2000 TSRA FEW016CB=
202412071700 TAF WIHH 071700Z 0718/0818 31005KT 6000 SCT020
                      TEMPO 0723/0801 00000KT 4000 HZ
                      TEMPO 0806/0809 27014KT 3000 -TSRA FEW017CB
                       BKN018=
202412071100 TAF WIHH 071100Z 0712/0812 34006KT 6000 SCT018
                      TEMPO 0713/0716 21012KT 3000 -RA BKN018
                      BECMG 0716/0718 5000 HZ=
202412070500 TAF WIHH 070500Z 0706/0806 30006KT 6000 SCT018
                      TEMPO 0706/0710 27013KT 3000 -TSRA BKN016
                       FEW018CB
                      BECMG 0711/0713 5000 HZ
                      TEMPO 0717/0720 4000 -RA BKN018=
202412062300 TAF AMD WIHH 070200Z 0702/0800 24006KT 6000 SCT020
                      TEMPO 0702/0706 30014KT 3000 -TSRA FEW016CB
                       BKN018
                      BECMG 0709/0711 5000 HZ=
202412061700 TAF WIHH 061700Z 0618/0718 24006KT 7000 FEW020
                      TEMPO 0703/0706 4000 -RA SCT018
                      TEMPO 0708/0711 30010G20KT 3000 -TSRA FEW017CB=
202412061100 TAF WIHH 061100Z 0612/0712 26008KT 7000 SCT020
                      TEMPO 0613/0616 4000 -RA BKN016
                      BECMG 0618/0620 20005KT 5000 HZ=
202412060500 TAF WIHH 060500Z 0606/0706 24010KT 7000 SCT018
                      TEMPO 0607/0610 27013G23KT 3000 -TSRA FEW016CB
                       BKN018
                      TEMPO 0613/0616 4000 -RA BKN016
                      BECMG 0618/0620 00000KT 5000 HZ=
202412052300 TAF WIHH 052300Z 0600/0700 24008KT 6000 SCT018
                      TEMPO 0600/0603 4000 -RA
                      TEMPO 0608/0612 30012G25KT 3000 -TSRA BKN015
                       FEW017CB
                      BECMG 0614/0616 5000 HZ=
202412051700 TAF WIHH 051700Z 0518/0618 27006KT 6000 SCT018
                      TEMPO 0603/0607 30014KT 3000 -TSRA FEW017CB
                       BKN018=
202412051100 TAF WIHH 051100Z 0512/0612 24006KT 6000 SCT018
                      TEMPO 0512/0515 34010KT 4000 -RA
                      BECMG 0516/0518 5000 HZ FEW020=
202412050500 TAF WIHH 050500Z 0506/0606 24008KT 6000 SCT018
                      TEMPO 0506/0510 21012G25KT 3000 -TSRA BKN015
                       FEW017CB
                      BECMG 0513/0515 7000 FEW020=
202412042300 TAF WIHH 042300Z 0500/0600 27010KT 8000 SCT020
                      TEMPO 0506/0509 23012G25KT 3000 -TSRA FEW016CB
                       BECMG 0510/0512 21006KT 5000 HZ
                      TEMPO 0515/0518 3000 -RA BKN018
                      BECMG 0520/0522 VRB02KT 6000 FEW022=
202412041700 TAF WIHH 041700Z 0418/0518 24010KT 7000 SCT020
                      TEMPO 0505/0508 3000 -RA FEW016CB BKN018=
202412041100 TAF WIHH 041100Z 0412/0512 25010KT 7000 SCT020
                      TEMPO 0415/0418 4000 -RA BKN018=
202412040500 TAF WIHH 040500Z 0406/0506 26010KT 6000 SCT020
                      TEMPO 0406/0409 21015G28KT 4000 RA FEW016CB
                       BKN018=
202412032300 TAF AMD WIHH 040030Z 0401/0500 24008KT 6000 SCT018
                      TEMPO 0401/0403 4000 -RA
                      TEMPO 0408/0411 21013G24KT 2000 TSRA BKN016
                       FEW018CB
                      BECMG 0413/0415 7000 FEW020=
202412031700 TAF WIHH 031700Z 0318/0418 21008KT 6000 SCT018
                      TEMPO 0406/0410 27014KT 3000 -TSRA FEW017
                       BKN018CB
                      BECMG 0412/0414 7000 FEW020=
202412031100 TAF WIHH 031100Z 0312/0412 24008KT 6000 SCT018
                      TEMPO 0312/0315 4000 -RA
                      BECMG 0316/0318 7000 FEW020=
202412030500 TAF WIHH 030500Z 0306/0406 24010KT 6000 SCT018
                      TEMPO 0307/0311 21012G22KT 3000 -TSRA BKN016
                       FEW018CB
                      BECMG 0313/0315 7000 FEW020=
202412022300 TAF WIHH 022300Z 0300/0400 24008KT 6000 SCT018
                      TEMPO 0307/0310 21012G22KT 3000 -TSRA BKN016
                       FEW018CB
                      BECMG 0312/0314 7000 FEW020=
202412021700 TAF WIHH 021700Z 0218/0318 24008KT 7000 SCT018
                      TEMPO 0218/0221 4000 -RA
                      BECMG 0223/0301 34004KT 5000 HZ FEW020
                      TEMPO 0307/0310 18012G22KT 3000 -TSRA BKN016
                       FEW018CB=
202412021100 TAF WIHH 021100Z 0212/0312 24006KT 6000 SCT018
                      TEMPO 0212/0215 21014KT 3000 -RA BKN016 FEW017CB
                       BECMG 0216/0218 5000 HZ=
202412020500 TAF WIHH 020500Z 0206/0306 24006KT 6000 SCT020
                      TEMPO 0206/0210 15012G25KT 2000 TSRA BKN015
                       FEW017CB
                      BECMG 0213/0215 7000 NSW=
202412012300 TAF WIHH 012300Z 0200/0300 25010KT 8000 SCT020
                      TEMPO 0203/0210 27008G20KT 3000 -TSRA FEW016CB
                       BKN018
                      BECMG 0206/0208 21008KT 6000 FEW022=
202412011700 TAF WIHH 011700Z 0118/0218 23008KT 6000 SCT020
                      TEMPO 0210/0214 29015KT 3000 -RA FEW016CB
                       BKN018
                      BECMG 0216/0218 21005KT 5000 HZ FEW022=
202412011100 TAF WIHH 011100Z 0112/0212 25008KT 8000 SCT020
                      TEMPO 0113/0115 31010KT 3000 -RA FEW017CB
                       BKN018
                      BECMG 0116/0118 21005KT 5000 HZ FEW022=
202412010500 TAF WIHH 010500Z 0106/0206 24008KT 8000 SCT020
                      TEMPO 0110/0113 30013KT 3000 -RA FEW018CB
                       BECMG 0115/0117 20005KT 5000 HZ FEW022=
