##########################################################
# Query made at 05/04/2026 15:07:28 UTC
# Time interval: from 04/01/2022 00:00  to 04/30/2022 23:59  UTC
##########################################################

##########################################################
# WIHH, Jakarta Halim Perdanakusuma (Indonesia)
# WMO index: 96747. WIGOS ID: Unknown
# Latitude 06-15S. Longitude 106-54E. Altitude 30 m.
##########################################################

###################################
#  METAR/SPECI from WIHH
###################################
202204302330 METAR WIHH NIL=
202204302300 METAR WIHH NIL=
202204302230 METAR WIHH NIL=
202204302200 METAR WIHH NIL=
202204302130 METAR WIHH NIL=
202204302100 METAR WIHH NIL=
202204302030 METAR WIHH NIL=
202204302000 METAR WIHH NIL=
202204301930 METAR WIHH NIL=
202204301900 METAR WIHH NIL=
202204301830 METAR WIHH NIL=
202204301800 METAR WIHH NIL=
202204301730 METAR WIHH NIL=
202204301700 METAR WIHH NIL=
202204301630 METAR WIHH NIL=
202204301600 METAR WIHH NIL=
202204301530 METAR WIHH NIL=
202204301500 METAR WIHH NIL=
202204301430 METAR WIHH NIL=
202204301400 METAR WIHH NIL=
202204301330 METAR WIHH NIL=
202204301300 METAR WIHH NIL=
202204301230 METAR WIHH NIL=
202204301200 METAR WIHH NIL=
202204301130 METAR WIHH NIL=
202204301100 METAR WIHH NIL=
202204301030 METAR WIHH NIL=
202204301000 METAR WIHH NIL=
202204300930 METAR WIHH NIL=
202204300900 METAR WIHH NIL=
202204300830 METAR WIHH NIL=
202204300800 METAR WIHH NIL=
202204300730 METAR WIHH NIL=
202204300700 METAR WIHH NIL=
202204300630 METAR WIHH NIL=
202204300600 METAR WIHH NIL=
202204300530 METAR WIHH NIL=
202204300500 METAR WIHH NIL=
202204300430 METAR WIHH NIL=
202204300400 METAR WIHH NIL=
202204300330 METAR WIHH NIL=
202204300300 METAR WIHH NIL=
202204300230 METAR WIHH NIL=
202204300200 METAR WIHH NIL=
202204300130 METAR WIHH NIL=
202204300100 METAR WIHH NIL=
202204300030 METAR WIHH NIL=
202204300000 METAR WIHH NIL=
202204292330 METAR WIHH NIL=
202204292300 METAR WIHH NIL=
202204292230 METAR WIHH NIL=
202204292200 METAR WIHH NIL=
202204292130 METAR WIHH NIL=
202204292100 METAR WIHH NIL=
202204292030 METAR WIHH NIL=
202204292000 METAR WIHH NIL=
202204291930 METAR WIHH NIL=
202204291900 METAR WIHH NIL=
202204291830 METAR WIHH NIL=
202204291800 METAR WIHH NIL=
202204291730 METAR WIHH NIL=
202204291700 METAR WIHH NIL=
202204291630 METAR WIHH NIL=
202204291600 METAR WIHH NIL=
202204291530 METAR WIHH NIL=
202204291500 METAR WIHH NIL=
202204291430 METAR WIHH NIL=
202204291400 METAR WIHH NIL=
202204291330 METAR WIHH NIL=
202204291300 METAR WIHH NIL=
202204291230 METAR WIHH NIL=
202204291200 METAR WIHH NIL=
202204291130 METAR WIHH NIL=
202204291100 METAR WIHH NIL=
202204291030 METAR WIHH NIL=
202204291000 METAR WIHH NIL=
202204290930 METAR WIHH NIL=
202204290900 METAR WIHH NIL=
202204290830 METAR WIHH NIL=
202204290800 METAR WIHH NIL=
202204290730 METAR WIHH NIL=
202204290700 METAR WIHH NIL=
202204290630 METAR WIHH NIL=
202204290600 METAR WIHH NIL=
202204290530 METAR WIHH NIL=
202204290500 METAR WIHH NIL=
202204290430 METAR WIHH NIL=
202204290400 METAR WIHH NIL=
202204290330 METAR WIHH NIL=
202204290300 METAR WIHH NIL=
202204290230 METAR WIHH NIL=
202204290200 METAR WIHH NIL=
202204290130 METAR WIHH NIL=
202204290100 METAR WIHH NIL=
202204290030 METAR WIHH NIL=
202204290000 METAR WIHH NIL=
202204282330 METAR WIHH NIL=
202204282300 METAR WIHH NIL=
202204282230 METAR WIHH NIL=
202204282200 METAR WIHH NIL=
202204282130 METAR WIHH NIL=
202204282100 METAR WIHH NIL=
202204282030 METAR WIHH NIL=
202204282000 METAR WIHH NIL=
202204281930 METAR WIHH NIL=
202204281900 METAR WIHH NIL=
202204281830 METAR WIHH NIL=
202204281800 METAR WIHH NIL=
202204281730 METAR WIHH NIL=
202204281700 METAR WIHH NIL=
202204281630 METAR WIHH NIL=
202204281600 METAR WIHH NIL=
202204281530 METAR WIHH NIL=
202204281500 METAR WIHH NIL=
202204281430 METAR WIHH NIL=
202204281400 METAR WIHH NIL=
202204281330 METAR WIHH NIL=
202204281300 METAR WIHH NIL=
202204281230 METAR WIHH NIL=
202204281200 METAR WIHH NIL=
202204281130 METAR WIHH NIL=
202204281100 METAR WIHH NIL=
202204281030 METAR WIHH NIL=
202204281000 METAR WIHH NIL=
202204280930 METAR WIHH NIL=
202204280900 METAR WIHH NIL=
202204280830 METAR WIHH NIL=
202204280800 METAR WIHH NIL=
202204280730 METAR WIHH NIL=
202204280700 METAR WIHH NIL=
202204280630 METAR WIHH NIL=
202204280600 METAR WIHH NIL=
202204280530 METAR WIHH NIL=
202204280500 METAR WIHH NIL=
202204280430 METAR WIHH NIL=
202204280400 METAR WIHH NIL=
202204280330 METAR WIHH NIL=
202204280300 METAR WIHH NIL=
202204280230 METAR WIHH NIL=
202204280200 METAR WIHH NIL=
202204280130 METAR WIHH NIL=
202204280100 METAR WIHH NIL=
202204280030 METAR WIHH NIL=
202204280000 METAR WIHH NIL=
202204272330 METAR WIHH NIL=
202204272300 METAR WIHH NIL=
202204272230 METAR WIHH NIL=
202204272200 METAR WIHH NIL=
202204272130 METAR WIHH NIL=
202204272100 METAR WIHH NIL=
202204272030 METAR WIHH NIL=
202204272000 METAR WIHH NIL=
202204271930 METAR WIHH NIL=
202204271900 METAR WIHH NIL=
202204271830 METAR WIHH NIL=
202204271800 METAR WIHH NIL=
202204271730 METAR WIHH NIL=
202204271700 METAR WIHH NIL=
202204271630 METAR WIHH NIL=
202204271600 METAR WIHH NIL=
202204271530 METAR WIHH NIL=
202204271500 METAR WIHH NIL=
202204271430 METAR WIHH NIL=
202204271400 METAR WIHH NIL=
202204271330 METAR WIHH NIL=
202204271300 METAR WIHH NIL=
202204271230 METAR WIHH NIL=
202204271200 METAR WIHH NIL=
202204271130 METAR WIHH NIL=
202204271100 METAR WIHH NIL=
202204271030 METAR WIHH NIL=
202204271000 METAR WIHH NIL=
202204270930 METAR WIHH NIL=
202204270900 METAR WIHH NIL=
202204270830 METAR WIHH NIL=
202204270800 METAR WIHH NIL=
202204270730 METAR WIHH NIL=
202204270700 METAR WIHH NIL=
202204270630 METAR WIHH NIL=
202204270600 METAR WIHH NIL=
202204270530 METAR WIHH NIL=
202204270500 METAR WIHH NIL=
202204270430 METAR WIHH NIL=
202204270400 METAR WIHH NIL=
202204270330 METAR WIHH NIL=
202204270300 METAR WIHH NIL=
202204270230 METAR WIHH NIL=
202204270200 METAR WIHH NIL=
202204270130 METAR WIHH NIL=
202204270100 METAR WIHH NIL=
202204270030 METAR WIHH NIL=
202204270000 METAR WIHH NIL=
202204262330 METAR WIHH NIL=
202204262300 METAR WIHH NIL=
202204262230 METAR WIHH NIL=
202204262200 METAR WIHH NIL=
202204262130 METAR WIHH NIL=
202204262100 METAR WIHH NIL=
202204262030 METAR WIHH NIL=
202204262000 METAR WIHH NIL=
202204261930 METAR WIHH NIL=
202204261900 METAR WIHH NIL=
202204261830 METAR WIHH NIL=
202204261800 METAR WIHH NIL=
202204261730 METAR WIHH NIL=
202204261700 METAR WIHH NIL=
202204261630 METAR WIHH NIL=
202204261600 METAR WIHH NIL=
202204261530 METAR WIHH NIL=
202204261500 METAR WIHH NIL=
202204261430 METAR WIHH NIL=
202204261400 METAR WIHH NIL=
202204261330 METAR WIHH NIL=
202204261300 METAR WIHH NIL=
202204261230 METAR WIHH NIL=
202204261200 METAR WIHH NIL=
202204261130 METAR WIHH NIL=
202204261100 METAR WIHH NIL=
202204261030 METAR WIHH NIL=
202204261000 METAR WIHH NIL=
202204260930 METAR WIHH NIL=
202204260900 METAR WIHH NIL=
202204260830 METAR WIHH NIL=
202204260800 METAR WIHH NIL=
202204260730 METAR WIHH NIL=
202204260700 METAR WIHH NIL=
202204260630 METAR WIHH NIL=
202204260600 METAR WIHH NIL=
202204260530 METAR WIHH NIL=
202204260500 METAR WIHH NIL=
202204260430 METAR WIHH NIL=
202204260400 METAR WIHH NIL=
202204260330 METAR WIHH NIL=
202204260300 METAR WIHH NIL=
202204260230 METAR WIHH NIL=
202204260200 METAR WIHH NIL=
202204260130 METAR WIHH NIL=
202204260100 METAR WIHH NIL=
202204260030 METAR WIHH NIL=
202204260000 METAR WIHH NIL=
202204252330 METAR WIHH NIL=
202204252300 METAR WIHH NIL=
202204252230 METAR WIHH NIL=
202204252200 METAR WIHH NIL=
202204252130 METAR WIHH NIL=
202204252100 METAR WIHH NIL=
202204252030 METAR WIHH NIL=
202204252000 METAR WIHH NIL=
202204251930 METAR WIHH NIL=
202204251900 METAR WIHH NIL=
202204251830 METAR WIHH NIL=
202204251800 METAR WIHH NIL=
202204251730 METAR WIHH NIL=
202204251700 METAR WIHH NIL=
202204251630 METAR WIHH NIL=
202204251600 METAR WIHH NIL=
202204251530 METAR WIHH NIL=
202204251500 METAR WIHH NIL=
202204251430 METAR WIHH NIL=
202204251400 METAR WIHH NIL=
202204251330 METAR WIHH NIL=
202204251300 METAR WIHH NIL=
202204251230 METAR WIHH NIL=
202204251200 METAR WIHH NIL=
202204251130 METAR WIHH NIL=
202204251100 METAR WIHH NIL=
202204251030 METAR WIHH NIL=
202204251000 METAR WIHH NIL=
202204250930 METAR WIHH NIL=
202204250900 METAR WIHH NIL=
202204250830 METAR WIHH NIL=
202204250800 METAR WIHH NIL=
202204250730 METAR WIHH NIL=
202204250700 METAR WIHH NIL=
202204250630 METAR WIHH NIL=
202204250600 METAR WIHH NIL=
202204250530 METAR WIHH NIL=
202204250500 METAR WIHH NIL=
202204250430 METAR WIHH NIL=
202204250400 METAR WIHH NIL=
202204250330 METAR WIHH NIL=
202204250300 METAR WIHH NIL=
202204250230 METAR WIHH NIL=
202204250200 METAR WIHH NIL=
202204250130 METAR WIHH NIL=
202204250100 METAR WIHH NIL=
202204250030 METAR WIHH NIL=
202204250000 METAR WIHH NIL=
202204242330 METAR WIHH NIL=
202204242300 METAR WIHH NIL=
202204242230 METAR WIHH NIL=
202204242200 METAR WIHH NIL=
202204242130 METAR WIHH NIL=
202204242100 METAR WIHH NIL=
202204242030 METAR WIHH NIL=
202204242000 METAR WIHH NIL=
202204241930 METAR WIHH NIL=
202204241900 METAR WIHH NIL=
202204241830 METAR WIHH NIL=
202204241800 METAR WIHH NIL=
202204241730 METAR WIHH NIL=
202204241700 METAR WIHH NIL=
202204241630 METAR WIHH NIL=
202204241600 METAR WIHH NIL=
202204241530 METAR WIHH NIL=
202204241500 METAR WIHH NIL=
202204241430 METAR WIHH NIL=
202204241400 METAR WIHH NIL=
202204241330 METAR WIHH NIL=
202204241300 METAR WIHH NIL=
202204241230 METAR WIHH NIL=
202204241200 METAR WIHH NIL=
202204241130 METAR WIHH NIL=
202204241100 METAR WIHH NIL=
202204241030 METAR WIHH NIL=
202204241000 METAR WIHH NIL=
202204240930 METAR WIHH NIL=
202204240900 METAR WIHH NIL=
202204240830 METAR WIHH NIL=
202204240800 METAR WIHH NIL=
202204240730 METAR WIHH NIL=
202204240700 METAR WIHH NIL=
202204240630 METAR WIHH NIL=
202204240600 METAR WIHH NIL=
202204240530 METAR WIHH NIL=
202204240500 METAR WIHH NIL=
202204240430 METAR WIHH NIL=
202204240400 METAR WIHH NIL=
202204240330 METAR WIHH NIL=
202204240300 METAR WIHH NIL=
202204240230 METAR WIHH NIL=
202204240200 METAR WIHH NIL=
202204240130 METAR WIHH NIL=
202204240100 METAR WIHH NIL=
202204240030 METAR WIHH NIL=
202204240000 METAR WIHH NIL=
202204232330 METAR WIHH NIL=
202204232300 METAR WIHH NIL=
202204232230 METAR WIHH NIL=
202204232200 METAR WIHH NIL=
202204232130 METAR WIHH NIL=
202204232100 METAR WIHH NIL=
202204232030 METAR WIHH NIL=
202204232000 METAR WIHH NIL=
202204231930 METAR WIHH NIL=
202204231900 METAR WIHH NIL=
202204231830 METAR WIHH NIL=
202204231800 METAR WIHH NIL=
202204231730 METAR WIHH NIL=
202204231700 METAR WIHH NIL=
202204231630 METAR WIHH NIL=
202204231600 METAR WIHH NIL=
202204231530 METAR WIHH NIL=
202204231500 METAR WIHH NIL=
202204231430 METAR WIHH NIL=
202204231400 METAR WIHH NIL=
202204231330 METAR WIHH NIL=
202204231300 METAR WIHH NIL=
202204231230 METAR WIHH NIL=
202204231200 METAR WIHH NIL=
202204231130 METAR WIHH NIL=
202204231100 METAR WIHH NIL=
202204231030 METAR WIHH NIL=
202204231000 METAR WIHH NIL=
202204230930 METAR WIHH NIL=
202204230900 METAR WIHH NIL=
202204230830 METAR WIHH NIL=
202204230800 METAR WIHH NIL=
202204230730 METAR WIHH NIL=
202204230700 METAR WIHH NIL=
202204230630 METAR WIHH NIL=
202204230600 METAR WIHH NIL=
202204230530 METAR WIHH NIL=
202204230500 METAR WIHH NIL=
202204230430 METAR WIHH NIL=
202204230400 METAR WIHH NIL=
202204230330 METAR WIHH NIL=
202204230300 METAR WIHH NIL=
202204230230 METAR WIHH NIL=
202204230200 METAR WIHH NIL=
202204230130 METAR WIHH NIL=
202204230100 METAR WIHH NIL=
202204230030 METAR WIHH NIL=
202204230000 METAR WIHH NIL=
202204222330 METAR WIHH NIL=
202204222300 METAR WIHH NIL=
202204222230 METAR WIHH NIL=
202204222200 METAR WIHH NIL=
202204222130 METAR WIHH NIL=
202204222100 METAR WIHH NIL=
202204222030 METAR WIHH NIL=
202204222000 METAR WIHH NIL=
202204221930 METAR WIHH NIL=
202204221900 METAR WIHH NIL=
202204221830 METAR WIHH NIL=
202204221800 METAR WIHH NIL=
202204221730 METAR WIHH NIL=
202204221700 METAR WIHH NIL=
202204221630 METAR WIHH NIL=
202204221600 METAR WIHH NIL=
202204221530 METAR WIHH NIL=
202204221500 METAR WIHH NIL=
202204221430 METAR WIHH NIL=
202204221400 METAR WIHH NIL=
202204221330 METAR WIHH NIL=
202204221300 METAR WIHH NIL=
202204221230 METAR WIHH NIL=
202204221200 METAR WIHH NIL=
202204221130 METAR WIHH NIL=
202204221100 METAR WIHH NIL=
202204221030 METAR WIHH NIL=
202204221000 METAR WIHH NIL=
202204220930 METAR WIHH NIL=
202204220900 METAR WIHH NIL=
202204220830 METAR WIHH NIL=
202204220800 METAR WIHH NIL=
202204220730 METAR WIHH NIL=
202204220700 METAR WIHH NIL=
202204220630 METAR WIHH NIL=
202204220600 METAR WIHH NIL=
202204220530 METAR WIHH NIL=
202204220500 METAR WIHH NIL=
202204220430 METAR WIHH NIL=
202204220400 METAR WIHH NIL=
202204220330 METAR WIHH NIL=
202204220300 METAR WIHH NIL=
202204220230 METAR WIHH NIL=
202204220200 METAR WIHH NIL=
202204220130 METAR WIHH NIL=
202204220100 METAR WIHH NIL=
202204220030 METAR WIHH NIL=
202204220000 METAR WIHH NIL=
202204212330 METAR WIHH NIL=
202204212300 METAR WIHH NIL=
202204212230 METAR WIHH NIL=
202204212200 METAR WIHH NIL=
202204212130 METAR WIHH NIL=
202204212100 METAR WIHH NIL=
202204212030 METAR WIHH NIL=
202204212000 METAR WIHH NIL=
202204211930 METAR WIHH NIL=
202204211900 METAR WIHH NIL=
202204211830 METAR WIHH NIL=
202204211800 METAR WIHH NIL=
202204211730 METAR WIHH NIL=
202204211700 METAR WIHH NIL=
202204211630 METAR WIHH NIL=
202204211600 METAR WIHH NIL=
202204211530 METAR WIHH NIL=
202204211500 METAR WIHH NIL=
202204211430 METAR WIHH NIL=
202204211400 METAR WIHH NIL=
202204211330 METAR WIHH NIL=
202204211300 METAR WIHH NIL=
202204211230 METAR WIHH NIL=
202204211200 METAR WIHH NIL=
202204211130 METAR WIHH NIL=
202204211100 METAR WIHH NIL=
202204211030 METAR WIHH NIL=
202204211000 METAR WIHH NIL=
202204210930 METAR WIHH NIL=
202204210900 METAR WIHH NIL=
202204210830 METAR WIHH NIL=
202204210800 METAR WIHH NIL=
202204210730 METAR WIHH NIL=
202204210700 METAR WIHH NIL=
202204210630 METAR WIHH NIL=
202204210600 METAR WIHH NIL=
202204210530 METAR WIHH NIL=
202204210500 METAR WIHH NIL=
202204210430 METAR WIHH NIL=
202204210400 METAR WIHH NIL=
202204210330 METAR WIHH NIL=
202204210300 METAR WIHH NIL=
202204210230 METAR WIHH NIL=
202204210200 METAR WIHH NIL=
202204210130 METAR WIHH NIL=
202204210100 METAR WIHH NIL=
202204210030 METAR WIHH NIL=
202204210000 METAR WIHH NIL=
202204202330 METAR WIHH NIL=
202204202300 METAR WIHH NIL=
202204202230 METAR WIHH NIL=
202204202200 METAR WIHH NIL=
202204202130 METAR WIHH NIL=
202204202100 METAR WIHH NIL=
202204202030 METAR WIHH NIL=
202204202000 METAR WIHH NIL=
202204201930 METAR WIHH NIL=
202204201900 METAR WIHH NIL=
202204201830 METAR WIHH NIL=
202204201800 METAR WIHH NIL=
202204201730 METAR WIHH NIL=
202204201700 METAR WIHH NIL=
202204201630 METAR WIHH NIL=
202204201600 METAR WIHH NIL=
202204201530 METAR WIHH NIL=
202204201500 METAR WIHH NIL=
202204201430 METAR WIHH NIL=
202204201400 METAR WIHH NIL=
202204201330 METAR WIHH NIL=
202204201300 METAR WIHH NIL=
202204201230 METAR WIHH NIL=
202204201200 METAR WIHH NIL=
202204201130 METAR WIHH NIL=
202204201100 METAR WIHH NIL=
202204201030 METAR WIHH NIL=
202204201000 METAR WIHH NIL=
202204200930 METAR WIHH NIL=
202204200900 METAR WIHH NIL=
202204200830 METAR WIHH NIL=
202204200800 METAR WIHH NIL=
202204200730 METAR WIHH NIL=
202204200700 METAR WIHH NIL=
202204200630 METAR WIHH NIL=
202204200600 METAR WIHH NIL=
202204200530 METAR WIHH NIL=
202204200500 METAR WIHH NIL=
202204200430 METAR WIHH NIL=
202204200400 METAR WIHH NIL=
202204200330 METAR WIHH NIL=
202204200300 METAR WIHH NIL=
202204200230 METAR WIHH NIL=
202204200200 METAR WIHH NIL=
202204200130 METAR WIHH NIL=
202204200100 METAR WIHH NIL=
202204200030 METAR WIHH NIL=
202204200000 METAR WIHH NIL=
202204192330 METAR WIHH NIL=
202204192300 METAR WIHH NIL=
202204192230 METAR WIHH NIL=
202204192200 METAR WIHH NIL=
202204192130 METAR WIHH NIL=
202204192100 METAR WIHH NIL=
202204192030 METAR WIHH NIL=
202204192000 METAR WIHH NIL=
202204191930 METAR WIHH NIL=
202204191900 METAR WIHH NIL=
202204191830 METAR WIHH NIL=
202204191800 METAR WIHH NIL=
202204191730 METAR WIHH NIL=
202204191700 METAR WIHH NIL=
202204191630 METAR WIHH NIL=
202204191600 METAR WIHH NIL=
202204191530 METAR WIHH NIL=
202204191500 METAR WIHH NIL=
202204191430 METAR WIHH NIL=
202204191400 METAR WIHH NIL=
202204191330 METAR WIHH NIL=
202204191300 METAR WIHH NIL=
202204191230 METAR WIHH NIL=
202204191200 METAR WIHH NIL=
202204191130 METAR WIHH NIL=
202204191100 METAR WIHH NIL=
202204191030 METAR WIHH NIL=
202204191000 METAR WIHH NIL=
202204190930 METAR WIHH NIL=
202204190900 METAR WIHH NIL=
202204190830 METAR WIHH NIL=
202204190800 METAR WIHH NIL=
202204190730 METAR WIHH NIL=
202204190700 METAR WIHH NIL=
202204190630 METAR WIHH NIL=
202204190600 METAR WIHH NIL=
202204190530 METAR WIHH NIL=
202204190500 METAR WIHH NIL=
202204190430 METAR WIHH NIL=
202204190400 METAR WIHH NIL=
202204190330 METAR WIHH NIL=
202204190300 METAR WIHH NIL=
202204190230 METAR WIHH NIL=
202204190200 METAR WIHH NIL=
202204190130 METAR WIHH NIL=
202204190100 METAR WIHH NIL=
202204190030 METAR WIHH NIL=
202204190000 METAR WIHH NIL=
202204182330 METAR WIHH NIL=
202204182300 METAR WIHH NIL=
202204182230 METAR WIHH NIL=
202204182200 METAR WIHH NIL=
202204182130 METAR WIHH NIL=
202204182100 METAR WIHH NIL=
202204182030 METAR WIHH NIL=
202204182000 METAR WIHH NIL=
202204181930 METAR WIHH NIL=
202204181900 METAR WIHH NIL=
202204181830 METAR WIHH NIL=
202204181800 METAR WIHH NIL=
202204181730 METAR WIHH NIL=
202204181700 METAR WIHH NIL=
202204181630 METAR WIHH NIL=
202204181600 METAR WIHH NIL=
202204181530 METAR WIHH NIL=
202204181500 METAR WIHH NIL=
202204181430 METAR WIHH NIL=
202204181400 METAR WIHH NIL=
202204181330 METAR WIHH NIL=
202204181300 METAR WIHH NIL=
202204181230 METAR WIHH NIL=
202204181200 METAR WIHH NIL=
202204181130 METAR WIHH NIL=
202204181100 METAR WIHH NIL=
202204181030 METAR WIHH NIL=
202204181000 METAR WIHH NIL=
202204180930 METAR WIHH NIL=
202204180900 METAR WIHH NIL=
202204180830 METAR WIHH NIL=
202204180800 METAR WIHH NIL=
202204180730 METAR WIHH NIL=
202204180700 METAR WIHH NIL=
202204180630 METAR WIHH NIL=
202204180600 METAR WIHH NIL=
202204180530 METAR WIHH NIL=
202204180500 METAR WIHH NIL=
202204180430 METAR WIHH NIL=
202204180400 METAR WIHH NIL=
202204180330 METAR WIHH NIL=
202204180300 METAR WIHH NIL=
202204180230 METAR WIHH NIL=
202204180200 METAR WIHH NIL=
202204180130 METAR WIHH NIL=
202204180100 METAR WIHH NIL=
202204180030 METAR WIHH NIL=
202204180000 METAR WIHH NIL=
202204172330 METAR WIHH NIL=
202204172300 METAR WIHH NIL=
202204172230 METAR WIHH NIL=
202204172200 METAR WIHH NIL=
202204172130 METAR WIHH NIL=
202204172100 METAR WIHH NIL=
202204172030 METAR WIHH NIL=
202204172000 METAR WIHH NIL=
202204171930 METAR WIHH NIL=
202204171900 METAR WIHH NIL=
202204171830 METAR WIHH NIL=
202204171800 METAR WIHH NIL=
202204171730 METAR WIHH NIL=
202204171700 METAR WIHH NIL=
202204171630 METAR WIHH NIL=
202204171600 METAR WIHH NIL=
202204171530 METAR WIHH NIL=
202204171500 METAR WIHH NIL=
202204171430 METAR WIHH NIL=
202204171400 METAR WIHH NIL=
202204171330 METAR WIHH NIL=
202204171300 METAR WIHH NIL=
202204171230 METAR WIHH NIL=
202204171200 METAR WIHH NIL=
202204171130 METAR WIHH NIL=
202204171100 METAR WIHH NIL=
202204171030 METAR WIHH NIL=
202204171000 METAR WIHH NIL=
202204170930 METAR WIHH NIL=
202204170900 METAR WIHH NIL=
202204170830 METAR WIHH NIL=
202204170800 METAR WIHH NIL=
202204170730 METAR WIHH NIL=
202204170700 METAR WIHH NIL=
202204170630 METAR WIHH NIL=
202204170600 METAR WIHH NIL=
202204170530 METAR WIHH NIL=
202204170500 METAR WIHH NIL=
202204170430 METAR WIHH NIL=
202204170400 METAR WIHH NIL=
202204170330 METAR WIHH NIL=
202204170300 METAR WIHH NIL=
202204170230 METAR WIHH NIL=
202204170200 METAR WIHH NIL=
202204170130 METAR WIHH NIL=
202204170100 METAR WIHH NIL=
202204170030 METAR WIHH NIL=
202204170000 METAR WIHH NIL=
202204162330 METAR WIHH NIL=
202204162300 METAR WIHH NIL=
202204162230 METAR WIHH NIL=
202204162200 METAR WIHH NIL=
202204162130 METAR WIHH NIL=
202204162100 METAR WIHH NIL=
202204162030 METAR WIHH NIL=
202204162000 METAR WIHH NIL=
202204161930 METAR WIHH NIL=
202204161900 METAR WIHH NIL=
202204161830 METAR WIHH NIL=
202204161800 METAR WIHH NIL=
202204161730 METAR WIHH NIL=
202204161700 METAR WIHH NIL=
202204161630 METAR WIHH NIL=
202204161600 METAR WIHH NIL=
202204161530 METAR WIHH NIL=
202204161500 METAR WIHH NIL=
202204161430 METAR WIHH NIL=
202204161400 METAR WIHH NIL=
202204161330 METAR WIHH NIL=
202204161300 METAR WIHH NIL=
202204161230 METAR WIHH NIL=
202204161200 METAR WIHH NIL=
202204161130 METAR WIHH NIL=
202204161100 METAR WIHH NIL=
202204161030 METAR WIHH NIL=
202204161000 METAR WIHH NIL=
202204160930 METAR WIHH NIL=
202204160900 METAR WIHH NIL=
202204160830 METAR WIHH NIL=
202204160800 METAR WIHH NIL=
202204160730 METAR WIHH NIL=
202204160700 METAR WIHH NIL=
202204160630 METAR WIHH NIL=
202204160600 METAR WIHH NIL=
202204160530 METAR WIHH NIL=
202204160500 METAR WIHH NIL=
202204160430 METAR WIHH NIL=
202204160400 METAR WIHH NIL=
202204160330 METAR WIHH NIL=
202204160300 METAR WIHH NIL=
202204160230 METAR WIHH NIL=
202204160200 METAR WIHH NIL=
202204160130 METAR WIHH NIL=
202204160100 METAR WIHH NIL=
202204160030 METAR WIHH NIL=
202204160000 METAR WIHH NIL=
202204152330 METAR WIHH NIL=
202204152300 METAR WIHH NIL=
202204152230 METAR WIHH NIL=
202204152200 METAR WIHH NIL=
202204152130 METAR WIHH NIL=
202204152100 METAR WIHH NIL=
202204152030 METAR WIHH NIL=
202204152000 METAR WIHH NIL=
202204151930 METAR WIHH NIL=
202204151900 METAR WIHH NIL=
202204151830 METAR WIHH NIL=
202204151800 METAR WIHH NIL=
202204151730 METAR WIHH NIL=
202204151700 METAR WIHH NIL=
202204151630 METAR WIHH NIL=
202204151600 METAR WIHH NIL=
202204151530 METAR WIHH NIL=
202204151500 METAR WIHH NIL=
202204151430 METAR WIHH NIL=
202204151400 METAR WIHH NIL=
202204151330 METAR WIHH NIL=
202204151300 METAR WIHH NIL=
202204151230 METAR WIHH NIL=
202204151200 METAR WIHH NIL=
202204151130 METAR WIHH NIL=
202204151100 METAR WIHH NIL=
202204151030 METAR WIHH NIL=
202204151000 METAR WIHH NIL=
202204150930 METAR WIHH NIL=
202204150900 METAR WIHH NIL=
202204150830 METAR WIHH NIL=
202204150800 METAR WIHH NIL=
202204150730 METAR WIHH NIL=
202204150700 METAR WIHH NIL=
202204150630 METAR WIHH NIL=
202204150600 METAR WIHH NIL=
202204150530 METAR WIHH NIL=
202204150500 METAR WIHH NIL=
202204150430 METAR WIHH NIL=
202204150400 METAR WIHH NIL=
202204150330 METAR WIHH NIL=
202204150300 METAR WIHH NIL=
202204150230 METAR WIHH NIL=
202204150200 METAR WIHH NIL=
202204150130 METAR WIHH NIL=
202204150100 METAR WIHH NIL=
202204150030 METAR WIHH NIL=
202204150000 METAR WIHH NIL=
202204142330 METAR WIHH NIL=
202204142300 METAR WIHH NIL=
202204142230 METAR WIHH NIL=
202204142200 METAR WIHH NIL=
202204142130 METAR WIHH NIL=
202204142100 METAR WIHH NIL=
202204142030 METAR WIHH NIL=
202204142000 METAR WIHH NIL=
202204141930 METAR WIHH NIL=
202204141900 METAR WIHH NIL=
202204141830 METAR WIHH NIL=
202204141800 METAR WIHH NIL=
202204141730 METAR WIHH NIL=
202204141700 METAR WIHH NIL=
202204141630 METAR WIHH NIL=
202204141600 METAR WIHH NIL=
202204141530 METAR WIHH NIL=
202204141500 METAR WIHH NIL=
202204141430 METAR WIHH NIL=
202204141400 METAR WIHH NIL=
202204141330 METAR WIHH NIL=
202204141300 METAR WIHH NIL=
202204141230 METAR WIHH NIL=
202204141200 METAR WIHH NIL=
202204141130 METAR WIHH NIL=
202204141100 METAR WIHH NIL=
202204141030 METAR WIHH NIL=
202204141000 METAR WIHH NIL=
202204140930 METAR WIHH NIL=
202204140900 METAR WIHH NIL=
202204140830 METAR WIHH NIL=
202204140800 METAR WIHH NIL=
202204140730 METAR WIHH NIL=
202204140700 METAR WIHH NIL=
202204140630 METAR WIHH NIL=
202204140600 METAR WIHH NIL=
202204140530 METAR WIHH NIL=
202204140500 METAR WIHH NIL=
202204140430 METAR WIHH NIL=
202204140400 METAR WIHH NIL=
202204140330 METAR WIHH NIL=
202204140300 METAR WIHH NIL=
202204140230 METAR WIHH NIL=
202204140200 METAR WIHH NIL=
202204140130 METAR WIHH NIL=
202204140100 METAR WIHH NIL=
202204140030 METAR WIHH NIL=
202204140000 METAR WIHH NIL=
202204132330 METAR WIHH NIL=
202204132300 METAR WIHH NIL=
202204132230 METAR WIHH NIL=
202204132200 METAR WIHH NIL=
202204132130 METAR WIHH NIL=
202204132100 METAR WIHH NIL=
202204132030 METAR WIHH NIL=
202204132000 METAR WIHH NIL=
202204131930 METAR WIHH NIL=
202204131900 METAR WIHH NIL=
202204131830 METAR WIHH NIL=
202204131800 METAR WIHH NIL=
202204131730 METAR WIHH NIL=
202204131700 METAR WIHH NIL=
202204131630 METAR WIHH NIL=
202204131600 METAR WIHH NIL=
202204131530 METAR WIHH NIL=
202204131500 METAR WIHH NIL=
202204131430 METAR WIHH NIL=
202204131400 METAR WIHH NIL=
202204131330 METAR WIHH NIL=
202204131300 METAR WIHH NIL=
202204131230 METAR WIHH NIL=
202204131200 METAR WIHH NIL=
202204131130 METAR WIHH NIL=
202204131100 METAR WIHH NIL=
202204131030 METAR WIHH NIL=
202204131000 METAR WIHH NIL=
202204130930 METAR WIHH NIL=
202204130900 METAR WIHH NIL=
202204130830 METAR WIHH NIL=
202204130800 METAR WIHH NIL=
202204130730 METAR WIHH NIL=
202204130700 METAR WIHH NIL=
202204130630 METAR WIHH NIL=
202204130600 METAR WIHH NIL=
202204130530 METAR WIHH NIL=
202204130500 METAR WIHH NIL=
202204130430 METAR WIHH NIL=
202204130400 METAR WIHH NIL=
202204130330 METAR WIHH NIL=
202204130300 METAR WIHH NIL=
202204130230 METAR WIHH NIL=
202204130200 METAR WIHH NIL=
202204130130 METAR WIHH NIL=
202204130100 METAR WIHH NIL=
202204130030 METAR WIHH NIL=
202204130000 METAR WIHH NIL=
202204122330 METAR WIHH NIL=
202204122300 METAR WIHH NIL=
202204122230 METAR WIHH NIL=
202204122200 METAR WIHH NIL=
202204122130 METAR WIHH NIL=
202204122100 METAR WIHH NIL=
202204122030 METAR WIHH NIL=
202204122000 METAR WIHH NIL=
202204121930 METAR WIHH NIL=
202204121900 METAR WIHH NIL=
202204121830 METAR WIHH NIL=
202204121800 METAR WIHH NIL=
202204121730 METAR WIHH NIL=
202204121700 METAR WIHH NIL=
202204121630 METAR WIHH NIL=
202204121600 METAR WIHH NIL=
202204121530 METAR WIHH NIL=
202204121500 METAR WIHH NIL=
202204121430 METAR WIHH NIL=
202204121400 METAR WIHH NIL=
202204121330 METAR WIHH NIL=
202204121300 METAR WIHH NIL=
202204121230 METAR WIHH NIL=
202204121200 METAR WIHH NIL=
202204121130 METAR WIHH NIL=
202204121100 METAR WIHH NIL=
202204121030 METAR WIHH NIL=
202204121000 METAR WIHH NIL=
202204120930 METAR WIHH NIL=
202204120900 METAR WIHH NIL=
202204120830 METAR WIHH NIL=
202204120800 METAR WIHH NIL=
202204120730 METAR WIHH NIL=
202204120700 METAR WIHH NIL=
202204120630 METAR WIHH NIL=
202204120600 METAR WIHH NIL=
202204120530 METAR WIHH NIL=
202204120500 METAR WIHH NIL=
202204120430 METAR WIHH NIL=
202204120400 METAR WIHH NIL=
202204120330 METAR WIHH NIL=
202204120300 METAR WIHH NIL=
202204120230 METAR WIHH NIL=
202204120200 METAR WIHH NIL=
202204120130 METAR WIHH NIL=
202204120100 METAR WIHH NIL=
202204120030 METAR WIHH NIL=
202204120000 METAR WIHH NIL=
202204112330 METAR WIHH NIL=
202204112300 METAR WIHH NIL=
202204112230 METAR WIHH NIL=
202204112200 METAR WIHH NIL=
202204112130 METAR WIHH NIL=
202204112100 METAR WIHH NIL=
202204112030 METAR WIHH NIL=
202204112000 METAR WIHH NIL=
202204111930 METAR WIHH NIL=
202204111900 METAR WIHH NIL=
202204111830 METAR WIHH NIL=
202204111800 METAR WIHH NIL=
202204111730 METAR WIHH NIL=
202204111700 METAR WIHH NIL=
202204111630 METAR WIHH NIL=
202204111600 METAR WIHH NIL=
202204111530 METAR WIHH NIL=
202204111500 METAR WIHH NIL=
202204111430 METAR WIHH NIL=
202204111400 METAR WIHH NIL=
202204111330 METAR WIHH NIL=
202204111300 METAR WIHH NIL=
202204111230 METAR WIHH NIL=
202204111200 METAR WIHH NIL=
202204111130 METAR WIHH NIL=
202204111100 METAR WIHH NIL=
202204111030 METAR WIHH NIL=
202204111000 METAR WIHH NIL=
202204110930 METAR WIHH NIL=
202204110900 METAR WIHH NIL=
202204110830 METAR WIHH NIL=
202204110800 METAR WIHH NIL=
202204110730 METAR WIHH NIL=
202204110700 METAR WIHH NIL=
202204110630 METAR WIHH NIL=
202204110600 METAR WIHH NIL=
202204110530 METAR WIHH NIL=
202204110500 METAR WIHH NIL=
202204110430 METAR WIHH NIL=
202204110400 METAR WIHH NIL=
202204110330 METAR WIHH NIL=
202204110300 METAR WIHH NIL=
202204110230 METAR WIHH NIL=
202204110200 METAR WIHH NIL=
202204110130 METAR WIHH NIL=
202204110100 METAR WIHH NIL=
202204110030 METAR WIHH NIL=
202204110000 METAR WIHH NIL=
202204102330 METAR WIHH NIL=
202204102300 METAR WIHH NIL=
202204102230 METAR WIHH NIL=
202204102200 METAR WIHH NIL=
202204102130 METAR WIHH NIL=
202204102100 METAR WIHH NIL=
202204102030 METAR WIHH NIL=
202204102000 METAR WIHH NIL=
202204101930 METAR WIHH NIL=
202204101900 METAR WIHH NIL=
202204101830 METAR WIHH NIL=
202204101800 METAR WIHH NIL=
202204101730 METAR WIHH NIL=
202204101700 METAR WIHH NIL=
202204101630 METAR WIHH NIL=
202204101600 METAR WIHH NIL=
202204101530 METAR WIHH NIL=
202204101500 METAR WIHH NIL=
202204101430 METAR WIHH NIL=
202204101400 METAR WIHH NIL=
202204101330 METAR WIHH NIL=
202204101300 METAR WIHH NIL=
202204101230 METAR WIHH NIL=
202204101200 METAR WIHH NIL=
202204101130 METAR WIHH NIL=
202204101100 METAR WIHH NIL=
202204101030 METAR WIHH NIL=
202204101000 METAR WIHH NIL=
202204100930 METAR WIHH NIL=
202204100900 METAR WIHH NIL=
202204100830 METAR WIHH NIL=
202204100800 METAR WIHH NIL=
202204100730 METAR WIHH NIL=
202204100700 METAR WIHH NIL=
202204100630 METAR WIHH NIL=
202204100600 METAR WIHH NIL=
202204100530 METAR WIHH NIL=
202204100500 METAR WIHH NIL=
202204100430 METAR WIHH NIL=
202204100400 METAR WIHH NIL=
202204100330 METAR WIHH NIL=
202204100300 METAR WIHH NIL=
202204100230 METAR WIHH NIL=
202204100200 METAR WIHH NIL=
202204100130 METAR WIHH NIL=
202204100100 METAR WIHH NIL=
202204100030 METAR WIHH NIL=
202204100000 METAR WIHH NIL=
202204092330 METAR WIHH NIL=
202204092300 METAR WIHH NIL=
202204092230 METAR WIHH NIL=
202204092200 METAR WIHH NIL=
202204092130 METAR WIHH NIL=
202204092100 METAR WIHH NIL=
202204092030 METAR WIHH NIL=
202204092000 METAR WIHH NIL=
202204091930 METAR WIHH NIL=
202204091900 METAR WIHH NIL=
202204091830 METAR WIHH NIL=
202204091800 METAR WIHH NIL=
202204091730 METAR WIHH NIL=
202204091700 METAR WIHH NIL=
202204091630 METAR WIHH NIL=
202204091600 METAR WIHH NIL=
202204091530 METAR WIHH NIL=
202204091500 METAR WIHH NIL=
202204091430 METAR WIHH NIL=
202204091400 METAR WIHH NIL=
202204091330 METAR WIHH NIL=
202204091300 METAR WIHH NIL=
202204091230 METAR WIHH NIL=
202204091200 METAR WIHH NIL=
202204091130 METAR WIHH NIL=
202204091100 METAR WIHH NIL=
202204091030 METAR WIHH NIL=
202204091000 METAR WIHH NIL=
202204090930 METAR WIHH NIL=
202204090900 METAR WIHH NIL=
202204090830 METAR WIHH NIL=
202204090800 METAR WIHH NIL=
202204090730 METAR WIHH NIL=
202204090700 METAR WIHH NIL=
202204090630 METAR WIHH NIL=
202204090600 METAR WIHH NIL=
202204090530 METAR WIHH NIL=
202204090500 METAR WIHH NIL=
202204090430 METAR WIHH NIL=
202204090400 METAR WIHH NIL=
202204090330 METAR WIHH NIL=
202204090300 METAR WIHH NIL=
202204090230 METAR WIHH NIL=
202204090200 METAR WIHH NIL=
202204090130 METAR WIHH NIL=
202204090100 METAR WIHH NIL=
202204090030 METAR WIHH NIL=
202204090000 METAR WIHH NIL=
202204082330 METAR WIHH NIL=
202204082300 METAR WIHH NIL=
202204082230 METAR WIHH NIL=
202204082200 METAR WIHH NIL=
202204082130 METAR WIHH NIL=
202204082100 METAR WIHH NIL=
202204082030 METAR WIHH NIL=
202204082000 METAR WIHH NIL=
202204081930 METAR WIHH NIL=
202204081900 METAR WIHH NIL=
202204081830 METAR WIHH NIL=
202204081800 METAR WIHH NIL=
202204081730 METAR WIHH NIL=
202204081700 METAR WIHH NIL=
202204081630 METAR WIHH NIL=
202204081600 METAR WIHH NIL=
202204081530 METAR WIHH NIL=
202204081500 METAR WIHH NIL=
202204081430 METAR WIHH NIL=
202204081400 METAR WIHH NIL=
202204081330 METAR WIHH NIL=
202204081300 METAR WIHH NIL=
202204081230 METAR WIHH NIL=
202204081200 METAR WIHH NIL=
202204081130 METAR WIHH NIL=
202204081100 METAR WIHH NIL=
202204081030 METAR WIHH NIL=
202204081000 METAR WIHH NIL=
202204080930 METAR WIHH NIL=
202204080900 METAR WIHH NIL=
202204080830 METAR WIHH NIL=
202204080800 METAR WIHH NIL=
202204080730 METAR WIHH NIL=
202204080700 METAR WIHH NIL=
202204080630 METAR WIHH NIL=
202204080600 METAR WIHH NIL=
202204080530 METAR WIHH NIL=
202204080500 METAR WIHH NIL=
202204080430 METAR WIHH NIL=
202204080400 METAR WIHH NIL=
202204080330 METAR WIHH NIL=
202204080300 METAR WIHH NIL=
202204080230 METAR WIHH NIL=
202204080200 METAR WIHH NIL=
202204080130 METAR WIHH NIL=
202204080100 METAR WIHH NIL=
202204080030 METAR WIHH NIL=
202204080000 METAR WIHH NIL=
202204072330 METAR WIHH NIL=
202204072300 METAR WIHH NIL=
202204072230 METAR WIHH NIL=
202204072200 METAR WIHH NIL=
202204072130 METAR WIHH NIL=
202204072100 METAR WIHH NIL=
202204072030 METAR WIHH NIL=
202204072000 METAR WIHH NIL=
202204071930 METAR WIHH NIL=
202204071900 METAR WIHH NIL=
202204071830 METAR WIHH NIL=
202204071800 METAR WIHH NIL=
202204071730 METAR WIHH NIL=
202204071700 METAR WIHH NIL=
202204071630 METAR WIHH NIL=
202204071600 METAR WIHH NIL=
202204071530 METAR WIHH NIL=
202204071500 METAR WIHH NIL=
202204071430 METAR WIHH NIL=
202204071400 METAR WIHH NIL=
202204071330 METAR WIHH NIL=
202204071300 METAR WIHH NIL=
202204071230 METAR WIHH NIL=
202204071200 METAR WIHH NIL=
202204071130 METAR WIHH NIL=
202204071100 METAR WIHH NIL=
202204071030 METAR WIHH NIL=
202204071000 METAR WIHH NIL=
202204070930 METAR WIHH NIL=
202204070900 METAR WIHH NIL=
202204070830 METAR WIHH NIL=
202204070800 METAR WIHH NIL=
202204070730 METAR WIHH NIL=
202204070700 METAR WIHH NIL=
202204070630 METAR WIHH NIL=
202204070600 METAR WIHH NIL=
202204070530 METAR WIHH NIL=
202204070500 METAR WIHH NIL=
202204070430 METAR WIHH NIL=
202204070400 METAR WIHH NIL=
202204070330 METAR WIHH NIL=
202204070300 METAR WIHH NIL=
202204070230 METAR WIHH NIL=
202204070200 METAR WIHH NIL=
202204070130 METAR WIHH NIL=
202204070100 METAR WIHH NIL=
202204070030 METAR WIHH NIL=
202204070000 METAR WIHH NIL=
202204062330 METAR WIHH NIL=
202204062300 METAR WIHH NIL=
202204062230 METAR WIHH NIL=
202204062200 METAR WIHH NIL=
202204062130 METAR WIHH NIL=
202204062100 METAR WIHH NIL=
202204062030 METAR WIHH NIL=
202204062000 METAR WIHH NIL=
202204061930 METAR WIHH NIL=
202204061900 METAR WIHH NIL=
202204061830 METAR WIHH NIL=
202204061800 METAR WIHH NIL=
202204061730 METAR WIHH NIL=
202204061700 METAR WIHH NIL=
202204061630 METAR WIHH NIL=
202204061600 METAR WIHH NIL=
202204061530 METAR WIHH NIL=
202204061500 METAR WIHH NIL=
202204061430 METAR WIHH NIL=
202204061400 METAR WIHH NIL=
202204061330 METAR WIHH NIL=
202204061300 METAR WIHH NIL=
202204061230 METAR WIHH NIL=
202204061200 METAR WIHH NIL=
202204061130 METAR WIHH NIL=
202204061100 METAR WIHH NIL=
202204061030 METAR WIHH NIL=
202204061000 METAR WIHH NIL=
202204060930 METAR WIHH NIL=
202204060900 METAR WIHH NIL=
202204060830 METAR WIHH NIL=
202204060800 METAR WIHH NIL=
202204060730 METAR WIHH NIL=
202204060700 METAR WIHH NIL=
202204060630 METAR WIHH NIL=
202204060600 METAR WIHH NIL=
202204060530 METAR WIHH NIL=
202204060500 METAR WIHH NIL=
202204060430 METAR WIHH NIL=
202204060400 METAR WIHH NIL=
202204060330 METAR WIHH NIL=
202204060300 METAR WIHH NIL=
202204060230 METAR WIHH NIL=
202204060200 METAR WIHH NIL=
202204060130 METAR WIHH NIL=
202204060100 METAR WIHH NIL=
202204060030 METAR WIHH NIL=
202204060000 METAR WIHH NIL=
202204052330 METAR WIHH NIL=
202204052300 METAR WIHH NIL=
202204052230 METAR WIHH NIL=
202204052200 METAR WIHH NIL=
202204052130 METAR WIHH NIL=
202204052100 METAR WIHH NIL=
202204052030 METAR WIHH NIL=
202204052000 METAR WIHH NIL=
202204051930 METAR WIHH NIL=
202204051900 METAR WIHH NIL=
202204051830 METAR WIHH NIL=
202204051800 METAR WIHH NIL=
202204051730 METAR WIHH NIL=
202204051700 METAR WIHH NIL=
202204051630 METAR WIHH NIL=
202204051600 METAR WIHH NIL=
202204051530 METAR WIHH NIL=
202204051500 METAR WIHH NIL=
202204051430 METAR WIHH NIL=
202204051400 METAR WIHH NIL=
202204051330 METAR WIHH NIL=
202204051300 METAR WIHH NIL=
202204051230 METAR WIHH NIL=
202204051200 METAR WIHH NIL=
202204051130 METAR WIHH NIL=
202204051100 METAR WIHH NIL=
202204051030 METAR WIHH NIL=
202204051000 METAR WIHH NIL=
202204050930 METAR WIHH NIL=
202204050900 METAR WIHH 050900Z 15005KT 1000 -TSRA FEW016CB BKN017 26/25 Q1009 TEMPO TL1030 4000 -RA RMK CB OVER THE FIELD=
202204050830 METAR WIHH 050830Z 18008KT 4000 -TSRA FEW017CB SCT018 27/26 Q1008 TEMPO FM0830 3000 RMK CB TO E=
202204050800 METAR WIHH 050800Z 24006KT 4000 TS FEW017CB SCT018 31/24 Q1008 RMK CB AND RA TO SE-SW=
202204050730 METAR WIHH 050730Z 32006KT 5000 TS FEW017CB SCT018 31/24 Q1008 RMK CB AND RA TO SE-SW=
202204050700 METAR WIHH 050700Z 36010KT 5000 HZ SCT018 32/24 Q1008 RMK RA TO E AND W=
202204050630 METAR WIHH 050630Z 03010KT 5000 HZ SCT018 33/24 Q1008 TEMPO FM0645 4000 -RA RMK RA TO SW-NW=
202204050600 METAR WIHH 050600Z 03005KT 6000 SCT018 33/23 Q1009 RMK RA TO S=
202204050530 METAR WIHH 050530Z 12004KT 6000 SCT018 33/23 Q1009 NOSIG=
202204050500 METAR WIHH 050500Z 12005KT 6000 SCT018 34/23 Q1010 NOSIG=
202204050430 METAR WIHH 050430Z 18003KT 6000 SCT018 33/23 Q1011 NOSIG=
202204050400 METAR WIHH 050400Z 12004KT 6000 SCT018 33/24 Q1011 NOSIG=
202204050330 METAR WIHH 050330Z 18004KT 6000 FEW020 32/23 Q1012 NOSIG=
202204050300 METAR WIHH 050300Z 32003KT 6000 FEW020 31/24 Q1012 NOSIG=
202204050230 METAR WIHH 050230Z 27003KT 6000 FEW020 30/24 Q1012 NOSIG=
202204050200 METAR WIHH 050200Z 15003KT 5000 HZ FEW020 28/24 Q1013 NOSIG=
202204050130 METAR WIHH 050130Z 12003KT 5000 HZ FEW020 28/25 Q1013 NOSIG=
202204050100 METAR WIHH 050100Z 15003KT 5000 HZ FEW020 27/26 Q1012 NOSIG=
202204050030 METAR WIHH 050030Z 00000KT 4000 HZ FEW020 26/25 Q1012 NOSIG=
202204050000 METAR WIHH 050000Z 00000KT 4000 BR FEW020 25/25 Q1012 NOSIG=
202204042330 METAR WIHH 042330Z 00000KT 4000 BR SCT020 25/24 Q1011 NOSIG=
202204042300 METAR WIHH 042300Z 00000KT 4000 BR SCT020 25/24 Q1011 NOSIG=
202204042230 METAR WIHH 042230Z 00000KT 6000 FEW020 25/24 Q1011 NOSIG=
202204042200 METAR WIHH 042200Z 00000KT 6000 FEW020 25/24 Q1010 NOSIG=
202204042130 METAR WIHH NIL=
202204042100 METAR WIHH NIL=
202204042030 METAR WIHH NIL=
202204042000 METAR WIHH NIL=
202204041930 METAR WIHH NIL=
202204041900 METAR WIHH NIL=
202204041830 METAR WIHH NIL=
202204041800 METAR WIHH NIL=
202204041730 METAR WIHH NIL=
202204041700 METAR WIHH NIL=
202204041630 METAR WIHH NIL=
202204041600 METAR WIHH NIL=
202204041530 METAR WIHH NIL=
202204041500 METAR WIHH NIL=
202204041430 METAR WIHH NIL=
202204041400 METAR WIHH NIL=
202204041330 METAR WIHH NIL=
202204041300 METAR WIHH NIL=
202204041230 METAR WIHH NIL=
202204041200 METAR WIHH 041200Z 00000KT 6000 SCT018 26/26 Q1009 NOSIG=
202204041130 METAR WIHH 041130Z 29003KT 5000 HZ FEW018CB SCT018 26/26 Q1009 RMK CB TO SE=
202204041100 METAR WIHH 041100Z 15004KT 4000 -TSRA FEW018CB SCT018 26/25 Q1008 RMK CB TO S=
202204041030 METAR WIHH 041030Z 26005KT 4000 -TSRA FEW018CB SCT018 31/24 Q1008 RMK CB TO S=
202204041000 METAR WIHH 041000Z 34007KT 6000 FEW018CB FEW018 32/24 Q1007 RMK CB AND RA TO SE=
202204040930 METAR WIHH 040930Z 01008KT 6000 FEW018CB FEW018 32/24 Q1007 RMK CB TO S=
202204040900 METAR WIHH 040900Z 36006KT 7000 SCT018 33/25 Q1007 NOSIG=
202204040830 METAR WIHH 040830Z 34008KT 7000 SCT018 33/24 Q1007 NOSIG=
202204040800 METAR WIHH 040800Z 02010KT 6000 SCT018 33/24 Q1007 NOSIG=
202204040730 METAR WIHH 040730Z 02005KT 6000 SCT018 33/23 Q1007 NOSIG=
202204040700 METAR WIHH 040700Z 05006KT 6000 SCT018 32/23 Q1008 NOSIG=
202204040630 METAR WIHH 040630Z 04007KT 7000 SCT018 35/23 Q1008 NOSIG=
202204040600 METAR WIHH 040600Z 25005KT 7000 SCT018 34/21 Q1009 NOSIG=
202204040530 METAR WIHH 040530Z 32005KT 6000 SCT020 33/22 Q1009 NOSIG=
202204040500 METAR WIHH 040500Z 24006KT 7000 SCT020 32/22 Q1010 NOSIG=
202204040430 METAR WIHH 040430Z 24003KT 6000 FEW020 32/23 Q1010 NOSIG=
202204040400 METAR WIHH 040400Z 05003KT 6000 FEW020 32/23 Q1011 NOSIG=
202204040330 METAR WIHH 040330Z 00000KT 6000 FEW020 31/24 Q1011 NOSIG=
202204040300 METAR WIHH 040300Z 34003KT 6000 FEW020 30/24 Q1012 NOSIG=
202204040230 METAR WIHH 040230Z 01003KT 6000 FEW020 29/23 Q1012 NOSIG=
202204040200 METAR WIHH 040200Z 00000KT 6000 FEW020 28/24 Q1012 NOSIG=
202204040130 METAR WIHH 040130Z 00000KT 6000 FEW020 28/24 Q1011 NOSIG=
202204040100 METAR WIHH 040100Z 00000KT 6000 FEW020 27/25 Q1011 NOSIG=
202204040030 METAR WIHH 040030Z 13003KT 5000 BR SCT020 25/25 Q1011 NOSIG=
202204040000 METAR WIHH 040000Z 24003KT 5000 BR SCT020 25/25 Q1010 NOSIG=
202204032330 METAR WIHH 032330Z 24004KT 5000 HZ SCT020 25/24 Q1010 NOSIG=
202204032300 METAR WIHH 032300Z 00000KT 5000 HZ FEW020 25/24 Q1010 NOSIG=
202204032230 METAR WIHH 032230Z 00000KT 6000 FEW020 25/24 Q1010 NOSIG=
202204032200 METAR WIHH 032200Z 00000KT 6000 FEW020 25/24 Q1010 NOSIG=
202204032130 METAR WIHH NIL=
202204032100 METAR WIHH NIL=
202204032030 METAR WIHH NIL=
202204032000 METAR WIHH NIL=
202204031930 METAR WIHH NIL=
202204031900 METAR WIHH NIL=
202204031830 METAR WIHH NIL=
202204031800 METAR WIHH NIL=
202204031730 METAR WIHH NIL=
202204031700 METAR WIHH NIL=
202204031630 METAR WIHH NIL=
202204031600 METAR WIHH NIL=
202204031530 METAR WIHH NIL=
202204031500 METAR WIHH NIL=
202204031430 METAR WIHH NIL=
202204031400 METAR WIHH NIL=
202204031330 METAR WIHH NIL=
202204031300 METAR WIHH NIL=
202204031230 METAR WIHH NIL=
202204031200 METAR WIHH 031200Z 24004KT 5000 -RA BKN018 25/25 Q1009 NOSIG=
202204031130 METAR WIHH 031130Z 25003KT 4000 -RA BKN018 25/25 Q1009 NOSIG=
202204031100 METAR WIHH 031100Z 21003KT 4000 -RA BKN018 25/24 Q1009 NOSIG=
202204031030 METAR WIHH 031030Z 25003KT 4000 -RA BKN018 25/24 Q1009 NOSIG=
202204031000 METAR WIHH 031000Z 27004KT 4000 -RA BKN018 25/24 Q1009 NOSIG=
202204030930 METAR WIHH NIL=
202204030900 METAR WIHH 030900Z 25010KT 4000 -RA BKN018 25/24 Q1009 NOSIG=
202204030830 METAR WIHH 030830Z 22010KT 5000 -RA SCT018 25/24 Q1009 NOSIG=
202204030800 METAR WIHH NIL=
202204030730 METAR WIHH 030730Z 24010KT 5000 -RA SCT018 26/24 Q1008=
202204030700 METAR WIHH 030700Z 00000KT 5000 -TSRA FEW017CB SCT018 26/24 Q1009 RMK CB TO SE=
202204030630 METAR WIHH 030630Z 30015KT 4000 TS FEW017CB SCT018 25/24 Q1009 RMK CB TO E=
202204030600 METAR WIHH 030600Z 30015KT 4000 -RA FEW017CB SCT018 26/25 Q1009 RMK CB TO NW=
202204030530 METAR WIHH 030530Z 26013KT 6000 FEW017CB SCT018 34/23 Q1009 RMK CB AND RA TO W AND E=
202204030500 METAR WIHH 030500Z 26010KT 6000 SCT018 34/23 Q1009 RMK RA TO NE=
202204030430 METAR WIHH 030430Z 25005KT 6000 SCT018 32/24 Q1010 RMK RA TO N=
202204030400 METAR WIHH NIL=
202204030330 METAR WIHH NIL=
202204030300 METAR WIHH 030300Z 23010KT 6000 SCT018 32/24 Q1011 NOSIG=
202204030230 METAR WIHH 030230Z 21006KT 6000 SCT018 31/25 Q1011 NOSIG=
202204030200 METAR WIHH 030200Z 18006KT 6000 SCT018 30/25 Q1011 NOSIG=
202204030130 METAR WIHH 030130Z 24005KT 6000 FEW018 28/25 Q1011 NOSIG=
202204030100 METAR WIHH NIL=
202204030030 METAR WIHH NIL=
202204030000 METAR WIHH NIL=
202204022330 METAR WIHH 022330Z 00000KT 6000 SCT020 25/24 Q1009 NOSIG=
202204022300 METAR WIHH 022300Z 27003KT 6000 SCT020 25/24 Q1009 NOSIG=
202204022230 METAR WIHH 022230Z 00000KT 6000 SCT020 25/24 Q1009 RMK RA TO NE=
202204022200 METAR WIHH NIL=
202204022130 METAR WIHH NIL=
202204022100 METAR WIHH NIL=
202204022030 METAR WIHH NIL=
202204022000 METAR WIHH NIL=
202204021930 METAR WIHH NIL=
202204021900 METAR WIHH NIL=
202204021830 METAR WIHH NIL=
202204021800 METAR WIHH NIL=
202204021730 METAR WIHH NIL=
202204021700 METAR WIHH NIL=
202204021630 METAR WIHH NIL=
202204021600 METAR WIHH NIL=
202204021530 METAR WIHH NIL=
202204021500 METAR WIHH NIL=
202204021430 METAR WIHH NIL=
202204021400 METAR WIHH NIL=
202204021330 METAR WIHH NIL=
202204021300 METAR WIHH NIL=
202204021230 METAR WIHH NIL=
202204021200 METAR WIHH NIL=
202204021130 METAR WIHH 021130Z 32003KT 5000 HZ SCT018 28/26 Q1008 NOSIG=
202204021100 METAR WIHH 021100Z 28003KT 5000 HZ SCT018 28/26 Q1008 NOSIG=
202204021030 METAR WIHH 021030Z 00000KT 5000 HZ SCT018 28/26 Q1007 NOSIG=
202204021000 METAR WIHH 021000Z 00000KT 5000 HZ SCT018 28/26 Q1007 NOSIG=
202204020930 METAR WIHH 020930Z 00000KT 5000 HZ SCT018 29/26 Q1007 NOSIG=
202204020900 METAR WIHH 020900Z 00000KT 5000 HZ SCT018 28/26 Q1007 NOSIG=
202204020830 METAR WIHH 020830Z 31003KT 5000 HZ SCT018 28/26 Q1007 NOSIG=
202204020800 METAR WIHH 020800Z 36003KT 5000 HZ SCT018 27/26 Q1007 NOSIG=
202204020730 METAR WIHH NIL=
202204020700 METAR WIHH 020700Z 36004KT 5000 -RA FEW017CB SCT017 25/25 Q1008 RMK CB TO SE=
202204020630 METAR WIHH 020630Z 36012KT 6000 SCT020 27/25 Q1009 RMK CB OTF=
202204020600 METAR WIHH 020600Z 34005KT 6000 SCT020 32/24 Q1008 RMK RA TO W=
202204020530 METAR WIHH 020530Z 34004KT 6000 SCT020 32/25 Q1009 RMK RA TO E=
202204020500 METAR WIHH 020500Z 24010KT 6000 SCT020 32/23 Q1009 RMK RA TO N=
202204020430 METAR WIHH 020430Z 24008KT 6000 SCT020 34/23 Q1010 NOSIG=
202204020400 METAR WIHH 020400Z 24008KT 6000 SCT020 33/23 Q1010 NOSIG=
202204020330 METAR WIHH NIL=
202204020300 METAR WIHH 020300Z 26008KT 6000 FEW020 32/23 Q1011 NOSIG=
202204020230 METAR WIHH 020230Z 21008KT 6000 FEW020 31/24 Q1011 NOSIG=
202204020200 METAR WIHH NIL=
202204020130 METAR WIHH NIL=
202204020100 METAR WIHH 020100Z 00000KT 5000 HZ FEW020 28/24 Q1010 NOSIG=
202204020030 METAR WIHH 020030Z 00000KT 4000 HZ FEW020 28/25 Q1010 NOSIG=
202204020000 METAR WIHH 020000Z 00000KT 4000 HZ FEW020 26/25 Q1010 NOSIG=
202204012330 METAR WIHH 012330Z 00000KT 3000 HZ FEW020 25/24 Q1010 NOSIG=
202204012300 METAR WIHH 012300Z 00000KT 4000 HZ FEW020 25/24 Q1010 NOSIG=
202204012230 METAR WIHH NIL=
202204012200 METAR WIHH NIL=
202204012130 METAR WIHH NIL=
202204012100 METAR WIHH NIL=
202204012030 METAR WIHH NIL=
202204012000 METAR WIHH NIL=
202204011930 METAR WIHH NIL=
202204011900 METAR WIHH NIL=
202204011830 METAR WIHH NIL=
202204011800 METAR WIHH NIL=
202204011730 METAR WIHH NIL=
202204011700 METAR WIHH NIL=
202204011630 METAR WIHH NIL=
202204011600 METAR WIHH NIL=
202204011530 METAR WIHH NIL=
202204011500 METAR WIHH NIL=
202204011430 METAR WIHH NIL=
202204011400 METAR WIHH NIL=
202204011330 METAR WIHH NIL=
202204011300 METAR WIHH NIL=
202204011230 METAR WIHH NIL=
202204011200 METAR WIHH 011200Z 00000KT 6000 SCT020 29/25 Q1009 NOSIG=
202204011130 METAR WIHH 011130Z 28003KT 5000 HZ SCT020 30/24 Q1008 NOSIG=
202204011100 METAR WIHH 011100Z 30003KT 6000 SCT020 30/24 Q1008 NOSIG=
202204011030 METAR WIHH 011030Z 29004KT 6000 SCT020 30/23 Q1007 NOSIG=
202204011000 METAR WIHH 011000Z 29003KT 6000 SCT020 31/24 Q1007 NOSIG=
202204010930 METAR WIHH NIL=
202204010900 METAR WIHH 010900Z 30003KT 6000 SCT018 30/22 Q1007 NOSIG=
202204010830 METAR WIHH 010830Z 30004KT 5000 TS FEW018CB SCT018 30/24 Q1007 RMK CB AND RA TO NE=
202204010800 METAR WIHH 010800Z 00000KT 5000 HZ FEW018CB SCT018 31/23 Q1008 RMK CB AND RA TO N=
202204010730 METAR WIHH 010730Z 28003KT 6000 FEW018CB SCT018 31/23 Q1008 RMK CB AND RA TO E=
202204010700 METAR WIHH 010700Z 29005KT 6000 FEW018CB SCT018 32/24 Q1008 RMK CB AND RA TO E=
202204010630 METAR WIHH 010630Z 24005KT 5000 HZ FEW018CB SCT018 31/25 Q1009 RMK CB AND RA TO E=
202204010600 METAR WIHH 010600Z 26003KT 5000 TS FEW018CB SCT018 32/25 Q1009 RMK CB AND RA TO NE=
202204010530 METAR WIHH 010530Z 23004KT 5000 HZ SCT018 32/25 Q1010 NOSIG=
202204010500 METAR WIHH 010500Z 30004KT 5000 HZ SCT018 31/24 Q1010 NOSIG=
202204010430 METAR WIHH 010430Z 26005KT 5000 HZ SCT018 31/25 Q1010 NOSIG=
202204010400 METAR WIHH 010400Z 25006KT 5000 HZ SCT018 30/25 Q1011 NOSIG=
202204010330 METAR WIHH 010330Z 24004KT 5000 HZ SCT018 30/25 Q1011 NOSIG=
202204010300 METAR WIHH 010300Z 00000KT 5000 HZ SCT018 29/25 Q1012 NOSIG=
202204010230 METAR WIHH 010230Z 16003KT 4000 HZ SCT018 29/24 Q1012 NOSIG=
202204010200 METAR WIHH 010200Z 09004KT 4000 HZ SCT018 28/24 Q1011 NOSIG=
202204010130 METAR WIHH 010130Z 11004KT 4000 HZ SCT018 27/24 Q1011 NOSIG=
202204010100 METAR WIHH 010100Z 11003KT 4000 HZ SCT018 27/24 Q1011 NOSIG=
202204010030 METAR WIHH 010030Z 00000KT 4000 HZ SCT018 26/24 Q1011 NOSIG=
202204010000 METAR WIHH NIL=

# No short TAF reports from WIHH in databse.

###################################
#  large TAF from WIHH
###################################
202204302300 TAF WIHH 302300Z 0100/0200 12008KT 4000 HZ FEW022
                      BECMG 0101/0103 6000 SCT020
                      TEMPO 0108/0111 16012KT 4000 -RA FEW017CB
                       BECMG 0114/0116 00000KT 5000 HZ=
202204301700 TAF WIHH 301700Z 3018/0118 09004KT 5000 HZ SCT018
                      TEMPO 3018/3020 -RA
                      BECMG 0102/0104 22010KT 7000 NSW=
202204301100 TAF WIHH 301100Z 3012/0112 26010KT 4000 -RA SCT018
                      BECMG 3014/3016 06005KT 5000 HZ
                      BECMG 0101/0103 15008KT 7000 NSW=
202204300500 TAF WIHH 300500Z 3006/0106 15008KT 6000 SCT018
                      TEMPO 3006/3010 28010KT 3000 -TSRA FEW017CB
                       BECMG 3013/3015 09003KT 5000 HZ=
202204292300 TAF WIHH 292300Z 3000/0100 15006KT 7000 SCT020
                      TEMPO 3007/3010 25010KT 3000 -TSRA FEW018CB
                       BECMG 3013/3015 09003KT 5000 HZ=
202204291700 TAF WIHH 291700Z 2918/3018 15003KT 5000 HZ FEW018
                      BECMG 3001/3003 24010KT 7000 SCT020=
202204291100 TAF WIHH 291100Z 2912/3012 24008KT 6000 SCT020
                      BECMG 2914/2916 15004KT 5000 HZ
                      TEMPO 2918/2920 00000KT 4000 -RA FEW018CB=
202204290500 TAF WIHH 290500Z 2906/3006 22010KT 7000 SCT020
                      TEMPO 2909/2912 4000 -RA FEW018CB
                      BECMG 2913/2915 15003KT 5000 HZ=
202204282300 TAF WIHH 282300Z 2900/3000 20008KT 7000 SCT020
                      TEMPO 2907/2910 4000 -RA FEW018CB
                      BECMG 2914/2916 00000KT 5000 HZ=
202204281700 TAF WIHH 281700Z 2818/2918 24006KT 5000 HZ SCT020
                      BECMG 2900/2902 27008KT 6000
                      TEMPO 2908/2911 25012KT 4000 -RA FEW016CB=
202204281100 TAF WIHH 281100Z 2812/2912 27008KT 6000 SCT020
                      BECMG 2815/2817 23005KT 5000 HZ=
202204280530 TAF WIHH 280530Z 2806/2906 24008KT 7000 SCT020
                      TEMPO 2810/2813 27012KT 3000 TSRA FEW017CB
                       BKN018
                      BECMG 2815/2817 4000 HZ FEW022=
202204280500 TAF WIHH 280500Z NIL=
202204272300 TAF WIHH 272300Z 2800/2900 20005KT 6000 FEW022
                      TEMPO 2802/2804 27010KT 4000 -RA SCT018
                      TEMPO 2808/2811 24012KT 3000 -TSRA FEW017CB=
202204271700 TAF WIHH 271700Z 2718/2818 20003KT 4000 -RA BKN018
                      BECMG 2801/2803 09010KT 6000 SCT018=
202204271100 TAF WIHH 271100Z 2712/2812 20005KT 5000 HZ SCT020
                      TEMPO 2712/2715 33008KT 4000 -RA FEW018CB
                       BECMG 2722/2800 00000KT 3000 BR=
202204270500 TAF WIHH 270500Z 2706/2806 36010KT 6000 SCT018
                      TEMPO 2706/2710 25012KT -TSRA FEW017CB
                      TEMPO 2713/2716 33008KT -RA BKN016=
202204262300 TAF WIHH 262300Z 2700/2800 00000KT 5000 -RA SCT018
                      BECMG 2702/2704 33008KT 6000 SCT020
                      TEMPO 2708/2711 27008KT 4000 -TSRA FEW017CB=
202204261700 TAF WIHH 261700Z 2618/2718 00000KT 4000 HZ FEW022
                      BECMG 2702/2704 36008KT 6000 SCT020=
202204261100 TAF WIHH 261100Z 2612/2712 32006KT 6000 FEW022
                      BECMG 2615/2617 00000KT 5000 HZ=
202204260500 TAF WIHH 260500Z 2606/2706 33010KT 7000 SCT018
                      TEMPO 2608/2611 4000 -RA FEW017CB
                      BECMG 2614/2616 12004KT 5000 HZ=
202204252300 TAF WIHH 252300Z 2600/2700 00000KT 4000 HZ SCT020
                      BECMG 2602/2604 28008KT 6000
                      TEMPO 2608/2611 35012KT 4000 -RA FEW017CB
                       BECMG 2614/2616 12004KT 5000 HZ=
202204251700 TAF WIHH 251700Z 2518/2618 27005KT 3000 -RA BKN015
                      BECMG 2520/2522 15006KT BR SCT018
                      BECMG 2602/2604 24010KT 6000
                      TEMPO 2609/2612 3000 -TSRA FEW016CB
                      BECMG 2614/2616 00000KT 5000 HZ=
202204251100 TAF WIHH 251100Z 2512/2612 26007KT 4000 -TSRA FEW017CB SCT018
                      BECMG 2515/2517 15003KT 5000 HZ SCT018=
202204250500 TAF WIHH 250500Z 2506/2606 23008KT 7000 SCT020
                      TEMPO 2510/2513 35006KT 4000 -RA FEW017CB
                       BECMG 2514/2516 5000 HZ=
202204242300 TAF WIHH 242300Z 2500/2600 15004KT 5000 HZ FEW022
                      BECMG 2502/2504 34008KT 6000 SCT020
                      TEMPO 2507/2510 23010KT 4000 -RA FEW017CB=
202204241700 TAF WIHH 241700Z 2418/2518 15005KT 5000 HZ SCT018
                      BECMG 2502/2504 25010KT 6000
                      TEMPO 2508/2511 4000 -RA FEW017CB
                      BECMG 2514/2516 00000KT 5000 HZ=
202204241100 TAF WIHH 241100Z 2412/2512 35007KT 6000 SCT018
                      BECMG 2414/2416 15003KT 5000 HZ=
202204240500 TAF WIHH 240500Z 2406/2506 24008KT 6000 SCT018
                      TEMPO 2409/2412 4000 -RA FEW017CB
                      BECMG 2413/2415 03005KT 5000 HZ=
202204232300 TAF WIHH 232300Z 2400/2500 15004KT 5000 HZ SCT018
                      TEMPO 2400/2403 35008KT 3000 -RA FEW017CB
                       TEMPO 2407/2410 06008KT 3000 -TSRA FEW017CB=
202204231700 TAF WIHH 231700Z 2318/2418 23004KT 5000 HZ FEW022
                      BECMG 2322/2400 00000KT 3000 BR
                      BECMG 2402/2404 02010KT 6000 SCT020=
202204231100 TAF WIHH 231100Z 2312/2412 23005KT 6000 SCT020
                      BECMG 2315/2317 5000 HZ FEW022
                      BECMG 2322/2400 00000KT 3000 BR=
202204230500 TAF WIHH 230500Z 2306/2406 05008KT 6000 SCT018
                      TEMPO 2306/2309 4000 -RA FEW017
                      BECMG 2313/2315 00000KT 5000 HZ FEW020=
202204222300 TAF WIHH 222300Z 2300/2400 04008KT 4000 HZ FEW022
                      BECMG 2301/2303 6000 SCT018
                      TEMPO 2305/2308 33012KT 4000 -RA FEW017CB
                       BECMG 2312/2314 00000KT 5000 HZ=
202204221700 TAF WIHH 221700Z 2218/2318 18003KT 4000 HZ SCT020
                      BECMG 2222/2300 00000KT 3000 BR FEW022
                      BECMG 2302/2304 06008KT 6000=
202204221100 TAF WIHH 221100Z 2212/2312 21004KT 4000 -RA BKN017
                      BECMG 2213/2215 5000 HZ SCT020
                      BECMG 2222/2300 07004KT 3000 BR FEW022=
202204220500 TAF WIHH 220500Z 2206/2306 04010KT 4000 -RA BKN017
                      BECMG 2210/2212 18004KT 5000 HZ
                      BECMG 2221/2223 3000 BR FEW022=
202204212300 TAF COR WIHH 212300Z 2200/2300 04008KT 4000 HZ FEW022
                      BECMG 2202/2204 6000 SCT020
                      TEMPO 2207/2210 36012KT 4000 -RA FEW017CB
                       BECMG 2212/2214 00000KT 5000 HZ=
202204211700 TAF WIHH 211700Z 2118/2218 15004KT 5000 HZ SCT020
                      BECMG 2203/2205 27012KT 6000=
202204211100 TAF WIHH 211100Z 2112/2212 20005KT 5000 HZ SCT018
                      TEMPO 2113/2115 4000 -RA
                      BECMG 2117/2119 06003KT
                      TEMPO 2200/2203 35005KT 3000 -RA=
202204210500 TAF WIHH 210500Z 2106/2206 33008KT 4000 -RA BKN017
                      TEMPO 2109/2112 2500 -TSRA FEW016CB
                      BECMG 2113/2115 06004KT 5000 HZ FEW020=
202204202300 TAF WIHH 202300Z 2100/2200 33008KT 6000 SCT018
                      TEMPO 2103/2106 4000 -RA
                      TEMPO 2108/2112 27010KT 3000 -TSRA FEW017CB
                       BECMG 2114/2116 06004KT 5000 HZ=
202204201700 TAF WIHH 201700Z 2018/2118 20004KT 5000 HZ SCT020
                      BECMG 2101/2103 27012KT 7000
                      TEMPO 2107/2111 4000 -RA FEW018CB=
202204201100 TAF WIHH 201100Z 2012/2112 27008KT 6000 SCT020
                      BECMG 2015/2017 33003KT 4000 HZ=
202204200500 TAF WIHH 200500Z 2006/2106 27010KT 7000 SCT020
                      TEMPO 2008/2012 3000 -TSRA FEW017CB
                      BECMG 2014/2016 34003KT 5000 HZ=
202204192300 TAF WIHH 192300Z 2000/2100 18003KT 3000 BR SCT020
                      BECMG 2001/2003 27010KT 6000
                      TEMPO 2007/2011 3000 -TSRA FEW017CB
                      BECMG 2014/2016 00000KT 4000 HZ=
202204191700 TAF WIHH 191700Z 1918/2018 23003KT 4000 HZ FEW022
                      BECMG 2001/2003 27010KT 6000 SCT020
                      TEMPO 2006/2009 4000 -RA FEW017CB=
202204191100 TAF WIHH 191100Z 1912/2012 24006KT 3000 -RA SCT020
                      BECMG 1914/1916 00000KT 4000 HZ FEW022=
202204190500 TAF WIHH 190500Z 1906/2006 28008KT 6000 SCT018
                      TEMPO 1908/1911 23012KT 4000 -RA FEW017CB
                       BECMG 1914/1916 00000KT 5000 HZ FEW022=
202204182300 TAF WIHH 182300Z 1900/2000 20005KT 4000 HZ FEW022
                      BECMG 1902/1904 30008KT 6000 SCT020
                      TEMPO 1908/1911 24012KT 4000 -RA FEW018CB
                       BECMG 1913/1915 5000 HZ=
202204181700 TAF WIHH 181700Z 1818/1918 20005KT 4000 HZ FEW022
                      BECMG 1902/1904 05010KT 6000 SCT020=
202204181100 TAF WIHH 181100Z 1812/1912 15008KT 5000 HZ SCT018
                      BECMG 1817/1819 20004KT 4000 BR=
202204180500 TAF WIHH 180500Z 1806/1906 02010KT 6000 SCT018
                      TEMPO 1808/1811 17008KT 4000 -TSRA FEW017CB
                       BECMG 1814/1816 12004KT 5000 HZ FEW022=
202204172300 TAF WIHH 172300Z 1800/1900 06008KT 6000 SCT020
                      TEMPO 1808/1811 01012KT 4000 -RA FEW017CB
                       BECMG 1814/1816 12004KT 5000 HZ=
202204171700 TAF WIHH 171700Z 1718/1818 15004KT 5000 HZ SCT020
                      BECMG 1801/1803 06010KT 7000=
202204171100 TAF WIHH 171100Z 1712/1812 04010KT 6000 SCT022
                      BECMG 1715/1717 15003KT 4000 HZ=
202204170500 TAF WIHH 170500Z 1706/1806 09007KT 6000 SCT020
                      TEMPO 1709/1712 4000 -RA FEW018CB
                      BECMG 1714/1716 15003KT 5000 HZ=
202204162300 TAF WIHH 162300Z 1700/1800 15003KT 3000 BR SCT020
                      BECMG 1701/1703 06010KT 7000
                      TEMPO 1710/1713 5000 -RA FEW018CB
                      BECMG 1714/1716 00000KT 4000 HZ=
202204161700 TAF WIHH 161700Z 1618/1718 15004KT 4000 HZ SCT020
                      BECMG 1702/1704 03010KT 7000=
202204161100 TAF AMD WIHH 161100Z 1612/1712 03007KT 5000 HZ SCT018
                      TEMPO 1613/1615 3000 -TSRA FEW017CB
                      BECMG 1616/1618 15003KT 3000 BR=
202204160500 TAF WIHH 160500Z 1606/1706 12007KT 7000 SCT020
                      TEMPO 1609/1612 5000 -RA
                      BECMG 1615/1617 03004KT 4000 HZ=
202204152300 TAF WIHH 152300Z 1600/1700 09008KT 7000 SCT020
                      BECMG 1614/1616 15004KT 5000 HZ=
202204151700 TAF WIHH 151700Z 1518/1618 18004KT 4000 HZ FEW022
                      BECMG 1602/1604 03010KT 6000 SCT020=
202204151100 TAF WIHH 151100Z 1512/1612 18006KT 6000 FEW022
                      BECMG 1514/1516 00000KT 5000 HZ=
202204150500 TAF WIHH 150500Z 1506/1606 02008KT 6000 SCT020
                      TEMPO 1509/1512 18012KT 4000 -RA FEW017CB
                       BECMG 1514/1516 00000KT 5000 HZ FEW022=
202204142300 TAF WIHH 142300Z 1500/1600 10004KT 4000 BR FEW022
                      BECMG 1502/1504 02010KT 6000 SCT020
                      TEMPO 1509/1512 18012KT 4000 -RA FEW017CB
                       BECMG 1513/1515 00000KT 5000 HZ=
202204141700 TAF WIHH 141700Z 1418/1518 00000KT 4000 HZ FEW022
                      BECMG 1502/1504 03008KT 6000 SCT020
                      TEMPO 1509/1512 18012KT 4000 -RA FEW016CB=
202204141100 TAF WIHH 141100Z 1412/1512 17006KT 6000 FEW022
                      BECMG 1414/1416 5000 HZ=
202204140500 TAF WIHH 140500Z 1406/1506 03008KT 6000 SCT018
                      TEMPO 1408/1411 36012KT 3000 -TSRA FEW017CB
                       BECMG 1413/1415 18005KT 5000 HZ=
202204132300 TAF WIHH 132300Z 1400/1500 15004KT 4000 BR SCT020
                      BECMG 1401/1403 06008KT 6000
                      TEMPO 1407/1410 02012KT 3000 -TSRA FEW017CB
                       BECMG 1412/1414 18003KT 5000 HZ=
202204131700 TAF WIHH 131700Z 1318/1418 15005KT 4000 HZ SCT018
                      TEMPO 1318/1321 3000 -TSRA FEW017CB
                      BECMG 1402/1404 04010KT 6000=
202204131100 TAF WIHH 131100Z 1312/1412 29008KT 5000 HZ SCT018
                      TEMPO 1312/1315 3000 -TSRA FEW017CB
                      BECMG 1316/1318 15003KT 4000 BR=
202204130500 TAF WIHH 130500Z 1306/1406 33010KT 5000 HZ SCT018
                      TEMPO 1310/1314 2000 -TSRA FEW017CB
                      BECMG 1315/1317 15003KT 3000 BR=
202204122300 TAF WIHH 122300Z 1300/1400 00000KT 3000 BR SCT018
                      BECMG 1301/1303 15007KT 5000 HZ
                      TEMPO 1310/1314 06012KT 2500 -TSRA FEW017CB
                       BECMG 1315/1317 00000KT 3000 BR=
202204121700 TAF WIHH 121700Z 1218/1318 15005KT 3000 BR SCT020
                      BECMG 1301/1303 5000 HZ
                      TEMPO 1310/1314 3000 -TSRA FEW016CB BKN017
                       BECMG 1315/1317 00000KT 4000 BR=
202204121100 TAF WIHH 121100Z 1212/1312 24006KT 5000 HZ SCT018
                      TEMPO 1212/1215 3000 -RA FEW017CB
                      BECMG 1216/1218 00000KT 4000 BR=
202204120500 TAF WIHH 120500Z 1206/1306 15007KT 5000 HZ SCT018
                      TEMPO 1206/1210 3000 -TSRA FEW017CB
                      TEMPO 1213/1215 24005KT -RA
                      BECMG 1216/1218 00000KT 3000 BR=
202204112300 TAF WIHH 112300Z 1200/1300 00000KT 3000 BR SCT018
                      BECMG 1201/1203 15007KT 5000 HZ
                      TEMPO 1207/1210 24012KT 2500 -TSRA FEW017CB
                       BECMG 1214/1216 00000KT 3000 BR=
202204111700 TAF WIHH 111700Z 1118/1218 00000KT 4000 HZ FEW022
                      BECMG 1201/1203 02008KT 6000 SCT020
                      TEMPO 1208/1211 24012KT 3000 -TSRA FEW016CB=
202204111100 TAF WIHH 111100Z 1112/1212 18006KT 4000 -RA BKN018
                      BECMG 1115/1117 00000KT 5000 HZ SCT020=
202204110500 TAF WIHH 110500Z 1106/1206 03008KT 6000 SCT018
                      TEMPO 1108/1111 20012KT 4000 -TSRA FEW017CB
                       BECMG 1115/1117 00000KT 5000 HZ=
202204102300 TAF WIHH 102300Z 1100/1200 15005KT 5000 HZ SCT020
                      BECMG 1102/1104 05008KT 6000
                      TEMPO 1107/1110 35012KT 4000 -TSRA FEW017CB
                       BECMG 1116/1118 00000KT 4000 HZ=
202204101700 TAF WIHH 101700Z 1018/1118 20003KT 5000 HZ FEW022
                      BECMG 1021/1023 00000KT 3000 BR
                      BECMG 1102/1104 02008KT 6000 SCT020=
202204101100 TAF WIHH 101100Z 1012/1112 10006KT 6000 SCT020
                      BECMG 1014/1016 15003KT 5000 HZ FEW022=
202204100500 TAF WIHH 100500Z 1006/1106 36008KT 6000 SCT018
                      TEMPO 1008/1011 20012KT 3000 -TSRA FEW017CB
                       BECMG 1014/1016 15004KT 5000 HZ=
202204092300 TAF WIHH 092300Z 1000/1100 02008KT 6000 FEW020
                      TEMPO 1008/1011 20010KT 3000 -TSRA FEW017CB
                       SCT018
                      BECMG 1014/1016 15004KT 5000 HZ=
202204091700 TAF WIHH 091700Z 0918/1018 15006KT 6000 SCT020
                      TEMPO 1009/1012 4000 -TSRA FEW018CB
                      BECMG 1015/1017 00000KT 5000 HZ=
202204091100 TAF WIHH 091100Z 0912/1012 15008KT 5000 HZ SCT018
                      TEMPO 0912/0914 -RA FEW017CB
                      BECMG 0915/0917 21003KT=
202204090500 TAF WIHH 090500Z 0906/1006 15010KT 7000 SCT020
                      TEMPO 0910/0913 4000 -TSRA FEW018CB
                      BECMG 0914/0916 00000KT 5000 HZ=
202204082300 TAF WIHH 082300Z 0900/1000 15006KT 7000 FEW020
                      TEMPO 0909/0912 23010KT 4000 -TSRA FEW017CB
                       SCT018
                      BECMG 0915/0917 00000KT 5000 HZ=
202204081700 TAF WIHH 081700Z 0818/0918 15004KT 5000 HZ SCT020
                      BECMG 0901/0903 23010KT 7000
                      TEMPO 0908/0911 3000 -TSRA FEW018CB=
202204081100 TAF WIHH 081100Z 0812/0912 18008KT 5000 HZ SCT018
                      TEMPO 0812/0814 -RA FEW017CB
                      BECMG 0815/0817 00000KT 3000 BR=
202204080500 TAF WIHH 080500Z 0806/0906 24010KT 7000 SCT020
                      TEMPO 0809/0812 15006KT 3000 -RA FEW018CB
                       BECMG 0814/0816 00000KT 5000 HZ=
202204072300 TAF WIHH 072300Z 0800/0900 23010KT 7000 SCT020
                      TEMPO 0809/0812 15008KT 3000 -TSRA FEW018CB
                       BECMG 0814/0816 00000KT 5000 HZ=
202204071700 TAF WIHH 071700Z 0718/0818 18003KT 5000 HZ FEW022
                      BECMG 0801/0803 23008KT 6000 SCT020
                      TEMPO 0807/0810 3000 -TSRA FEW017CB=
202204071100 TAF WIHH 071100Z 0712/0812 15005KT 6000 SCT020
                      TEMPO 0712/0714 4000 -TSRA FEW018CB
                      BECMG 0715/0717 00000KT 5000 HZ=
202204070500 TAF WIHH 070500Z 0706/0806 35008KT 7000 SCT018
                      TEMPO 0709/0712 27010KT 3000 -RA FEW017CB
                       BECMG 0714/0716 18003KT 5000 HZ=
202204062300 TAF WIHH 062300Z 0700/0800 24004KT 4000 HZ FEW022
                      BECMG 0702/0704 35008KT 6000 SCT020
                      TEMPO 0708/0711 3000 -RA FEW017CB
                      BECMG 0713/0715 00000KT 5000 HZ=
202204061700 TAF WIHH 061700Z 0618/0718 23003KT 4000 HZ FEW022
                      BECMG 0621/0623 00000KT 3000 BR
                      BECMG 0701/0703 20008KT 6000 SCT020=
202204061100 TAF WIHH 061100Z 0612/0712 23005KT 6000 SCT018
                      BECMG 0613/0615 00000KT 5000 HZ=
202204060500 TAF WIHH 060500Z 0606/0706 19010KT 6000 SCT018
                      TEMPO 0608/0611 3000 -TSRA FEW017CB
                      BECMG 0614/0616 00000KT 5000 HZ=
202204052300 TAF WIHH 052300Z 0600/0700 26008KT 6000 FEW022
                      TEMPO 0607/0610 19010KT 3000 -TSRA FEW017CB
                       SCT018
                      BECMG 0612/0614 00000KT 5000 HZ=
202204051700 TAF WIHH 051700Z 0518/0618 15005KT 5000 HZ SCT018
                      BECMG 0601/0603 24012KT 7000
                      TEMPO 0608/0611 12010KT 3000 -TSRA FEW017CB
                       BECMG 0614/0616 00000KT 5000 HZ=
202204051100 TAF WIHH 051100Z 0512/0612 15005KT 2500 -TSRA FEW016CB BKN017
                      BECMG 0514/0516 00000KT 4000 HZ SCT018
                      BECMG 0519/0521 3000 BR=
202204050500 TAF WIHH 050500Z 0506/0606 23010KT 7000 SCT020
                      TEMPO 0510/0513 15008KT 3000 -TSRA FEW018CB
                       BECMG 0514/0516 00000KT 4000 HZ=
202204042300 TAF WIHH 042300Z 0500/0600 23008KT 7000 SCT020
                      TEMPO 0509/0512 15012KT 3000 -TSRA FEW017CB
                       BECMG 0514/0516 00000KT 5000 HZ=
202204041700 TAF WIHH 041700Z 0418/0518 15005KT 5000 HZ SCT018
                      TEMPO 0418/0421 3000 -RA BKN015
                      BECMG 0501/0503 24012KT 6000
                      TEMPO 0508/0511 4000 -TSRA FEW017CB=
202204041100 TAF WIHH 041100Z 0412/0512 31008KT 5000 HZ SCT020
                      TEMPO 0412/0414 4000 -TSRA FEW018CB
                      BECMG 0417/0419 21003KT=
202204040500 TAF WIHH 040500Z 0406/0506 24010KT 7000 SCT020
                      TEMPO 0408/0411 30012KT 3000 -TSRA FEW018CB
                       BECMG 0414/0416 15003KT 4000 HZ=
202204032300 TAF WIHH 032300Z 0400/0500 15004KT 5000 HZ SCT018
                      BECMG 0402/0404 24010KT 6000
                      TEMPO 0406/0409 3000 -TSRA FEW017CB
                      BECMG 0414/0416 17003KT 4000 HZ=
202204031700 TAF WIHH 031700Z 0318/0418 22004KT 4000 HZ FEW022
                      BECMG 0401/0403 26010KT 6000 SCT020
                      TEMPO 0407/0410 30012KT 3000 -TSRA FEW017CB=
202204031100 TAF WIHH 031100Z 0312/0412 25005KT 4000 -RA BKN018
                      BECMG 0314/0316 22003KT 5000 HZ SCT020=
202204030500 TAF WIHH 030500Z 0306/0406 26010KT 6000 SCT018
                      TEMPO 0306/0309 3000 -TSRA FEW017CB
                      BECMG 0312/0314 23005KT 5000 HZ=
202204022300 TAF WIHH 022300Z 0300/0400 26008KT 6000 FEW022
                      TEMPO 0305/0308 3000 -TSRA FEW016CB SCT017
                       BECMG 0312/0314 22003KT 5000 HZ=
202204021700 TAF WIHH 021700Z 0218/0318 23003KT 4000 HZ FEW022
                      BECMG 0301/0303 27008KT 6000 SCT020=
202204021100 TAF WIHH 021100Z 0212/0312 23006KT 6000 SCT018
                      BECMG 0214/0216 4000 HZ FEW022=
202204020500 TAF WIHH 020500Z 0206/0306 27010KT 6000 SCT018
                      TEMPO 0207/0210 3000 -TSRA FEW017CB
                      BECMG 0213/0215 23006KT 5000 HZ=
202204012300 TAF WIHH 012300Z 0200/0300 15004KT 6000 FEW022
                      BECMG 0202/0204 26008KT SCT020
                      TEMPO 0207/0210 3000 -TSRA FEW017CB
                      BECMG 0213/0215 00000KT 5000 HZ=
202204011700 TAF WIHH 011700Z 0118/0218 21006KT 5000 HZ SCT020
                      BECMG 0201/0203 28012KT 6000
                      TEMPO 0207/0210 4000 -TSRA FEW017CB=
202204011100 TAF WIHH 011100Z 0112/0212 27008KT 6000 SCT020
                      BECMG 0115/0117 20003KT 4000 HZ=
202204010500 TAF WIHH 010500Z 0106/0206 26010KT 6000 SCT020
                      TEMPO 0108/0111 4000 -TSRA FEW018CB
                      BECMG 0113/0115 20003KT 5000 HZ=
