##########################################################
# Query made at 05/05/2026 03:12:55 UTC
# Time interval: from 05/01/2022 00:00  to 05/31/2022 23:59  UTC
##########################################################

##########################################################
# WIHH, Jakarta Halim Perdanakusuma (Indonesia)
# WMO index: 96747. WIGOS ID: Unknown
# Latitude 06-15S. Longitude 106-54E. Altitude 30 m.
##########################################################

###################################
#  METAR/SPECI from WIHH
###################################
202205312330 METAR WIHH NIL=
202205312300 METAR WIHH NIL=
202205312230 METAR WIHH NIL=
202205312200 METAR WIHH NIL=
202205312130 METAR WIHH NIL=
202205312100 METAR WIHH NIL=
202205312030 METAR WIHH NIL=
202205312000 METAR WIHH NIL=
202205311930 METAR WIHH NIL=
202205311900 METAR WIHH NIL=
202205311830 METAR WIHH NIL=
202205311800 METAR WIHH NIL=
202205311730 METAR WIHH NIL=
202205311700 METAR WIHH NIL=
202205311630 METAR WIHH NIL=
202205311600 METAR WIHH NIL=
202205311530 METAR WIHH NIL=
202205311500 METAR WIHH NIL=
202205311430 METAR WIHH NIL=
202205311400 METAR WIHH NIL=
202205311330 METAR WIHH NIL=
202205311300 METAR WIHH NIL=
202205311230 METAR WIHH NIL=
202205311200 METAR WIHH NIL=
202205311130 METAR WIHH NIL=
202205311100 METAR WIHH NIL=
202205311030 METAR WIHH NIL=
202205311000 METAR WIHH NIL=
202205310930 METAR WIHH NIL=
202205310900 METAR WIHH NIL=
202205310830 METAR WIHH NIL=
202205310800 METAR WIHH NIL=
202205310730 METAR WIHH NIL=
202205310700 METAR WIHH NIL=
202205310630 METAR WIHH NIL=
202205310600 METAR WIHH NIL=
202205310530 METAR WIHH NIL=
202205310500 METAR WIHH NIL=
202205310430 METAR WIHH NIL=
202205310400 METAR WIHH NIL=
202205310330 METAR WIHH NIL=
202205310300 METAR WIHH NIL=
202205310230 METAR WIHH NIL=
202205310200 METAR WIHH NIL=
202205310130 METAR WIHH NIL=
202205310100 METAR WIHH NIL=
202205310030 METAR WIHH NIL=
202205310000 METAR WIHH NIL=
202205302330 METAR WIHH NIL=
202205302300 METAR WIHH NIL=
202205302230 METAR WIHH NIL=
202205302200 METAR WIHH NIL=
202205302130 METAR WIHH NIL=
202205302100 METAR WIHH NIL=
202205302030 METAR WIHH NIL=
202205302000 METAR WIHH NIL=
202205301930 METAR WIHH NIL=
202205301900 METAR WIHH NIL=
202205301830 METAR WIHH NIL=
202205301800 METAR WIHH NIL=
202205301730 METAR WIHH NIL=
202205301700 METAR WIHH NIL=
202205301630 METAR WIHH NIL=
202205301600 METAR WIHH NIL=
202205301530 METAR WIHH NIL=
202205301500 METAR WIHH NIL=
202205301430 METAR WIHH NIL=
202205301400 METAR WIHH NIL=
202205301330 METAR WIHH NIL=
202205301300 METAR WIHH NIL=
202205301230 METAR WIHH NIL=
202205301200 METAR WIHH NIL=
202205301130 METAR WIHH NIL=
202205301100 METAR WIHH NIL=
202205301030 METAR WIHH NIL=
202205301000 METAR WIHH NIL=
202205300930 METAR WIHH NIL=
202205300900 METAR WIHH NIL=
202205300830 METAR WIHH NIL=
202205300800 METAR WIHH NIL=
202205300730 METAR WIHH NIL=
202205300700 METAR WIHH NIL=
202205300630 METAR WIHH NIL=
202205300600 METAR WIHH NIL=
202205300530 METAR WIHH NIL=
202205300500 METAR WIHH NIL=
202205300430 METAR WIHH NIL=
202205300400 METAR WIHH NIL=
202205300330 METAR WIHH NIL=
202205300300 METAR WIHH NIL=
202205300230 METAR WIHH NIL=
202205300200 METAR WIHH NIL=
202205300130 METAR WIHH NIL=
202205300100 METAR WIHH NIL=
202205300030 METAR WIHH NIL=
202205300000 METAR WIHH NIL=
202205292330 METAR WIHH NIL=
202205292300 METAR WIHH NIL=
202205292230 METAR WIHH NIL=
202205292200 METAR WIHH NIL=
202205292130 METAR WIHH NIL=
202205292100 METAR WIHH NIL=
202205292030 METAR WIHH NIL=
202205292000 METAR WIHH NIL=
202205291930 METAR WIHH NIL=
202205291900 METAR WIHH NIL=
202205291830 METAR WIHH NIL=
202205291800 METAR WIHH NIL=
202205291730 METAR WIHH NIL=
202205291700 METAR WIHH NIL=
202205291630 METAR WIHH NIL=
202205291600 METAR WIHH NIL=
202205291530 METAR WIHH NIL=
202205291500 METAR WIHH NIL=
202205291430 METAR WIHH NIL=
202205291400 METAR WIHH NIL=
202205291330 METAR WIHH NIL=
202205291300 METAR WIHH NIL=
202205291230 METAR WIHH NIL=
202205291200 METAR WIHH NIL=
202205291130 METAR WIHH NIL=
202205291100 METAR WIHH NIL=
202205291030 METAR WIHH NIL=
202205291000 METAR WIHH NIL=
202205290930 METAR WIHH NIL=
202205290900 METAR WIHH NIL=
202205290830 METAR WIHH NIL=
202205290800 METAR WIHH NIL=
202205290730 METAR WIHH NIL=
202205290700 METAR WIHH NIL=
202205290630 METAR WIHH NIL=
202205290600 METAR WIHH NIL=
202205290530 METAR WIHH NIL=
202205290500 METAR WIHH NIL=
202205290430 METAR WIHH NIL=
202205290400 METAR WIHH NIL=
202205290330 METAR WIHH NIL=
202205290300 METAR WIHH NIL=
202205290230 METAR WIHH NIL=
202205290200 METAR WIHH NIL=
202205290130 METAR WIHH NIL=
202205290100 METAR WIHH NIL=
202205290030 METAR WIHH NIL=
202205290000 METAR WIHH NIL=
202205282330 METAR WIHH NIL=
202205282300 METAR WIHH NIL=
202205282230 METAR WIHH NIL=
202205282200 METAR WIHH NIL=
202205282130 METAR WIHH NIL=
202205282100 METAR WIHH NIL=
202205282030 METAR WIHH NIL=
202205282000 METAR WIHH NIL=
202205281930 METAR WIHH NIL=
202205281900 METAR WIHH NIL=
202205281830 METAR WIHH NIL=
202205281800 METAR WIHH NIL=
202205281730 METAR WIHH NIL=
202205281700 METAR WIHH NIL=
202205281630 METAR WIHH NIL=
202205281600 METAR WIHH NIL=
202205281530 METAR WIHH NIL=
202205281500 METAR WIHH NIL=
202205281430 METAR WIHH NIL=
202205281400 METAR WIHH NIL=
202205281330 METAR WIHH NIL=
202205281300 METAR WIHH NIL=
202205281230 METAR WIHH NIL=
202205281200 METAR WIHH NIL=
202205281130 METAR WIHH NIL=
202205281100 METAR WIHH NIL=
202205281030 METAR WIHH NIL=
202205281000 METAR WIHH NIL=
202205280930 METAR WIHH NIL=
202205280900 METAR WIHH NIL=
202205280830 METAR WIHH NIL=
202205280800 METAR WIHH NIL=
202205280730 METAR WIHH NIL=
202205280700 METAR WIHH NIL=
202205280630 METAR WIHH NIL=
202205280600 METAR WIHH NIL=
202205280530 METAR WIHH NIL=
202205280500 METAR WIHH NIL=
202205280430 METAR WIHH NIL=
202205280400 METAR WIHH NIL=
202205280330 METAR WIHH NIL=
202205280300 METAR WIHH NIL=
202205280230 METAR WIHH NIL=
202205280200 METAR WIHH NIL=
202205280130 METAR WIHH NIL=
202205280100 METAR WIHH NIL=
202205280030 METAR WIHH NIL=
202205280000 METAR WIHH NIL=
202205272330 METAR WIHH NIL=
202205272300 METAR WIHH NIL=
202205272230 METAR WIHH NIL=
202205272200 METAR WIHH NIL=
202205272130 METAR WIHH NIL=
202205272100 METAR WIHH NIL=
202205272030 METAR WIHH NIL=
202205272000 METAR WIHH NIL=
202205271930 METAR WIHH NIL=
202205271900 METAR WIHH NIL=
202205271830 METAR WIHH NIL=
202205271800 METAR WIHH NIL=
202205271730 METAR WIHH NIL=
202205271700 METAR WIHH NIL=
202205271630 METAR WIHH NIL=
202205271600 METAR WIHH NIL=
202205271530 METAR WIHH NIL=
202205271500 METAR WIHH NIL=
202205271430 METAR WIHH NIL=
202205271400 METAR WIHH NIL=
202205271330 METAR WIHH NIL=
202205271300 METAR WIHH NIL=
202205271230 METAR WIHH NIL=
202205271200 METAR WIHH NIL=
202205271130 METAR WIHH NIL=
202205271100 METAR WIHH NIL=
202205271030 METAR WIHH NIL=
202205271000 METAR WIHH NIL=
202205270930 METAR WIHH NIL=
202205270900 METAR WIHH NIL=
202205270830 METAR WIHH NIL=
202205270800 METAR WIHH NIL=
202205270730 METAR WIHH NIL=
202205270700 METAR WIHH NIL=
202205270630 METAR WIHH NIL=
202205270600 METAR WIHH NIL=
202205270530 METAR WIHH NIL=
202205270500 METAR WIHH NIL=
202205270430 METAR WIHH NIL=
202205270400 METAR WIHH NIL=
202205270330 METAR WIHH NIL=
202205270300 METAR WIHH NIL=
202205270230 METAR WIHH NIL=
202205270200 METAR WIHH NIL=
202205270130 METAR WIHH NIL=
202205270100 METAR WIHH NIL=
202205270030 METAR WIHH NIL=
202205270000 METAR WIHH NIL=
202205262330 METAR WIHH NIL=
202205262300 METAR WIHH NIL=
202205262230 METAR WIHH NIL=
202205262200 METAR WIHH NIL=
202205262130 METAR WIHH NIL=
202205262100 METAR WIHH NIL=
202205262030 METAR WIHH NIL=
202205262000 METAR WIHH NIL=
202205261930 METAR WIHH NIL=
202205261900 METAR WIHH NIL=
202205261830 METAR WIHH NIL=
202205261800 METAR WIHH NIL=
202205261730 METAR WIHH NIL=
202205261700 METAR WIHH NIL=
202205261630 METAR WIHH NIL=
202205261600 METAR WIHH NIL=
202205261530 METAR WIHH NIL=
202205261500 METAR WIHH NIL=
202205261430 METAR WIHH NIL=
202205261400 METAR WIHH NIL=
202205261330 METAR WIHH NIL=
202205261300 METAR WIHH NIL=
202205261230 METAR WIHH NIL=
202205261200 METAR WIHH NIL=
202205261130 METAR WIHH NIL=
202205261100 METAR WIHH NIL=
202205261030 METAR WIHH NIL=
202205261000 METAR WIHH NIL=
202205260930 METAR WIHH NIL=
202205260900 METAR WIHH NIL=
202205260830 METAR WIHH NIL=
202205260800 METAR WIHH NIL=
202205260730 METAR WIHH NIL=
202205260700 METAR WIHH NIL=
202205260630 METAR WIHH NIL=
202205260600 METAR WIHH NIL=
202205260530 METAR WIHH NIL=
202205260500 METAR WIHH NIL=
202205260430 METAR WIHH NIL=
202205260400 METAR WIHH NIL=
202205260330 METAR WIHH NIL=
202205260300 METAR WIHH NIL=
202205260230 METAR WIHH NIL=
202205260200 METAR WIHH NIL=
202205260130 METAR WIHH NIL=
202205260100 METAR WIHH NIL=
202205260030 METAR WIHH NIL=
202205260000 METAR WIHH NIL=
202205252330 METAR WIHH NIL=
202205252300 METAR WIHH NIL=
202205252230 METAR WIHH NIL=
202205252200 METAR WIHH NIL=
202205252130 METAR WIHH NIL=
202205252100 METAR WIHH NIL=
202205252030 METAR WIHH NIL=
202205252000 METAR WIHH NIL=
202205251930 METAR WIHH NIL=
202205251900 METAR WIHH NIL=
202205251830 METAR WIHH NIL=
202205251800 METAR WIHH NIL=
202205251730 METAR WIHH NIL=
202205251700 METAR WIHH NIL=
202205251630 METAR WIHH NIL=
202205251600 METAR WIHH NIL=
202205251530 METAR WIHH NIL=
202205251500 METAR WIHH NIL=
202205251430 METAR WIHH NIL=
202205251400 METAR WIHH NIL=
202205251330 METAR WIHH NIL=
202205251300 METAR WIHH NIL=
202205251230 METAR WIHH NIL=
202205251200 METAR WIHH NIL=
202205251130 METAR WIHH NIL=
202205251100 METAR WIHH NIL=
202205251030 METAR WIHH NIL=
202205251000 METAR WIHH NIL=
202205250930 METAR WIHH NIL=
202205250900 METAR WIHH NIL=
202205250830 METAR WIHH NIL=
202205250800 METAR WIHH NIL=
202205250730 METAR WIHH NIL=
202205250700 METAR WIHH NIL=
202205250630 METAR WIHH NIL=
202205250600 METAR WIHH NIL=
202205250530 METAR WIHH NIL=
202205250500 METAR WIHH NIL=
202205250430 METAR WIHH NIL=
202205250400 METAR WIHH NIL=
202205250330 METAR WIHH NIL=
202205250300 METAR WIHH NIL=
202205250230 METAR WIHH NIL=
202205250200 METAR WIHH NIL=
202205250130 METAR WIHH NIL=
202205250100 METAR WIHH NIL=
202205250030 METAR WIHH NIL=
202205250000 METAR WIHH NIL=
202205242330 METAR WIHH NIL=
202205242300 METAR WIHH NIL=
202205242230 METAR WIHH NIL=
202205242200 METAR WIHH NIL=
202205242130 METAR WIHH NIL=
202205242100 METAR WIHH NIL=
202205242030 METAR WIHH NIL=
202205242000 METAR WIHH NIL=
202205241930 METAR WIHH NIL=
202205241900 METAR WIHH NIL=
202205241830 METAR WIHH NIL=
202205241800 METAR WIHH NIL=
202205241730 METAR WIHH NIL=
202205241700 METAR WIHH NIL=
202205241630 METAR WIHH NIL=
202205241600 METAR WIHH NIL=
202205241530 METAR WIHH NIL=
202205241500 METAR WIHH NIL=
202205241430 METAR WIHH NIL=
202205241400 METAR WIHH NIL=
202205241330 METAR WIHH NIL=
202205241300 METAR WIHH NIL=
202205241230 METAR WIHH NIL=
202205241200 METAR WIHH NIL=
202205241130 METAR WIHH NIL=
202205241100 METAR WIHH NIL=
202205241030 METAR WIHH NIL=
202205241000 METAR WIHH NIL=
202205240930 METAR WIHH NIL=
202205240900 METAR WIHH NIL=
202205240830 METAR WIHH NIL=
202205240800 METAR WIHH NIL=
202205240730 METAR WIHH NIL=
202205240700 METAR WIHH NIL=
202205240630 METAR WIHH NIL=
202205240600 METAR WIHH NIL=
202205240530 METAR WIHH NIL=
202205240500 METAR WIHH NIL=
202205240430 METAR WIHH NIL=
202205240400 METAR WIHH NIL=
202205240330 METAR WIHH NIL=
202205240300 METAR WIHH NIL=
202205240230 METAR WIHH NIL=
202205240200 METAR WIHH NIL=
202205240130 METAR WIHH NIL=
202205240100 METAR WIHH NIL=
202205240030 METAR WIHH NIL=
202205240000 METAR WIHH NIL=
202205232330 METAR WIHH NIL=
202205232300 METAR WIHH NIL=
202205232230 METAR WIHH NIL=
202205232200 METAR WIHH NIL=
202205232130 METAR WIHH NIL=
202205232100 METAR WIHH NIL=
202205232030 METAR WIHH NIL=
202205232000 METAR WIHH NIL=
202205231930 METAR WIHH NIL=
202205231900 METAR WIHH NIL=
202205231830 METAR WIHH NIL=
202205231800 METAR WIHH NIL=
202205231730 METAR WIHH NIL=
202205231700 METAR WIHH NIL=
202205231630 METAR WIHH NIL=
202205231600 METAR WIHH NIL=
202205231530 METAR WIHH NIL=
202205231500 METAR WIHH NIL=
202205231430 METAR WIHH NIL=
202205231400 METAR WIHH NIL=
202205231330 METAR WIHH NIL=
202205231300 METAR WIHH NIL=
202205231230 METAR WIHH NIL=
202205231200 METAR WIHH NIL=
202205231130 METAR WIHH NIL=
202205231100 METAR WIHH NIL=
202205231030 METAR WIHH NIL=
202205231000 METAR WIHH NIL=
202205230930 METAR WIHH NIL=
202205230900 METAR WIHH NIL=
202205230830 METAR WIHH NIL=
202205230800 METAR WIHH NIL=
202205230730 METAR WIHH NIL=
202205230700 METAR WIHH NIL=
202205230630 METAR WIHH NIL=
202205230600 METAR WIHH NIL=
202205230530 METAR WIHH NIL=
202205230500 METAR WIHH NIL=
202205230430 METAR WIHH NIL=
202205230400 METAR WIHH NIL=
202205230330 METAR WIHH NIL=
202205230300 METAR WIHH NIL=
202205230230 METAR WIHH NIL=
202205230200 METAR WIHH NIL=
202205230130 METAR WIHH NIL=
202205230100 METAR WIHH NIL=
202205230030 METAR WIHH NIL=
202205230000 METAR WIHH NIL=
202205222330 METAR WIHH NIL=
202205222300 METAR WIHH NIL=
202205222230 METAR WIHH NIL=
202205222200 METAR WIHH NIL=
202205222130 METAR WIHH NIL=
202205222100 METAR WIHH NIL=
202205222030 METAR WIHH NIL=
202205222000 METAR WIHH NIL=
202205221930 METAR WIHH NIL=
202205221900 METAR WIHH NIL=
202205221830 METAR WIHH NIL=
202205221800 METAR WIHH NIL=
202205221730 METAR WIHH NIL=
202205221700 METAR WIHH NIL=
202205221630 METAR WIHH NIL=
202205221600 METAR WIHH NIL=
202205221530 METAR WIHH NIL=
202205221500 METAR WIHH NIL=
202205221430 METAR WIHH NIL=
202205221400 METAR WIHH NIL=
202205221330 METAR WIHH NIL=
202205221300 METAR WIHH NIL=
202205221230 METAR WIHH NIL=
202205221200 METAR WIHH NIL=
202205221130 METAR WIHH NIL=
202205221100 METAR WIHH NIL=
202205221030 METAR WIHH NIL=
202205221000 METAR WIHH NIL=
202205220930 METAR WIHH NIL=
202205220900 METAR WIHH NIL=
202205220830 METAR WIHH NIL=
202205220800 METAR WIHH NIL=
202205220730 METAR WIHH NIL=
202205220700 METAR WIHH NIL=
202205220630 METAR WIHH NIL=
202205220600 METAR WIHH NIL=
202205220530 METAR WIHH NIL=
202205220500 METAR WIHH NIL=
202205220430 METAR WIHH NIL=
202205220400 METAR WIHH NIL=
202205220330 METAR WIHH NIL=
202205220300 METAR WIHH NIL=
202205220230 METAR WIHH NIL=
202205220200 METAR WIHH NIL=
202205220130 METAR WIHH NIL=
202205220100 METAR WIHH NIL=
202205220030 METAR WIHH NIL=
202205220000 METAR WIHH NIL=
202205212330 METAR WIHH NIL=
202205212300 METAR WIHH NIL=
202205212230 METAR WIHH NIL=
202205212200 METAR WIHH NIL=
202205212130 METAR WIHH NIL=
202205212100 METAR WIHH NIL=
202205212030 METAR WIHH NIL=
202205212000 METAR WIHH NIL=
202205211930 METAR WIHH NIL=
202205211900 METAR WIHH NIL=
202205211830 METAR WIHH NIL=
202205211800 METAR WIHH NIL=
202205211730 METAR WIHH NIL=
202205211700 METAR WIHH NIL=
202205211630 METAR WIHH NIL=
202205211600 METAR WIHH NIL=
202205211530 METAR WIHH NIL=
202205211500 METAR WIHH NIL=
202205211430 METAR WIHH NIL=
202205211400 METAR WIHH NIL=
202205211330 METAR WIHH NIL=
202205211300 METAR WIHH NIL=
202205211230 METAR WIHH NIL=
202205211200 METAR WIHH NIL=
202205211130 METAR WIHH NIL=
202205211100 METAR WIHH NIL=
202205211030 METAR WIHH NIL=
202205211000 METAR WIHH NIL=
202205210930 METAR WIHH NIL=
202205210900 METAR WIHH NIL=
202205210830 METAR WIHH NIL=
202205210800 METAR WIHH NIL=
202205210730 METAR WIHH NIL=
202205210700 METAR WIHH NIL=
202205210630 METAR WIHH NIL=
202205210600 METAR WIHH NIL=
202205210530 METAR WIHH NIL=
202205210500 METAR WIHH NIL=
202205210430 METAR WIHH NIL=
202205210400 METAR WIHH NIL=
202205210330 METAR WIHH NIL=
202205210300 METAR WIHH NIL=
202205210230 METAR WIHH NIL=
202205210200 METAR WIHH NIL=
202205210130 METAR WIHH NIL=
202205210100 METAR WIHH NIL=
202205210030 METAR WIHH NIL=
202205210000 METAR WIHH NIL=
202205202330 METAR WIHH NIL=
202205202300 METAR WIHH NIL=
202205202230 METAR WIHH NIL=
202205202200 METAR WIHH NIL=
202205202130 METAR WIHH NIL=
202205202100 METAR WIHH NIL=
202205202030 METAR WIHH NIL=
202205202000 METAR WIHH NIL=
202205201930 METAR WIHH NIL=
202205201900 METAR WIHH NIL=
202205201830 METAR WIHH NIL=
202205201800 METAR WIHH NIL=
202205201730 METAR WIHH NIL=
202205201700 METAR WIHH NIL=
202205201630 METAR WIHH NIL=
202205201600 METAR WIHH NIL=
202205201530 METAR WIHH NIL=
202205201500 METAR WIHH NIL=
202205201430 METAR WIHH NIL=
202205201400 METAR WIHH NIL=
202205201330 METAR WIHH NIL=
202205201300 METAR WIHH NIL=
202205201230 METAR WIHH NIL=
202205201200 METAR WIHH NIL=
202205201130 METAR WIHH NIL=
202205201100 METAR WIHH NIL=
202205201030 METAR WIHH NIL=
202205201000 METAR WIHH NIL=
202205200930 METAR WIHH NIL=
202205200900 METAR WIHH NIL=
202205200830 METAR WIHH NIL=
202205200800 METAR WIHH NIL=
202205200730 METAR WIHH NIL=
202205200700 METAR WIHH NIL=
202205200630 METAR WIHH NIL=
202205200600 METAR WIHH NIL=
202205200530 METAR WIHH NIL=
202205200500 METAR WIHH NIL=
202205200430 METAR WIHH NIL=
202205200400 METAR WIHH NIL=
202205200330 METAR WIHH NIL=
202205200300 METAR WIHH NIL=
202205200230 METAR WIHH NIL=
202205200200 METAR WIHH NIL=
202205200130 METAR WIHH NIL=
202205200100 METAR WIHH NIL=
202205200030 METAR WIHH NIL=
202205200000 METAR WIHH NIL=
202205192330 METAR WIHH NIL=
202205192300 METAR WIHH NIL=
202205192230 METAR WIHH NIL=
202205192200 METAR WIHH NIL=
202205192130 METAR WIHH NIL=
202205192100 METAR WIHH NIL=
202205192030 METAR WIHH NIL=
202205192000 METAR WIHH NIL=
202205191930 METAR WIHH NIL=
202205191900 METAR WIHH NIL=
202205191830 METAR WIHH NIL=
202205191800 METAR WIHH NIL=
202205191730 METAR WIHH NIL=
202205191700 METAR WIHH NIL=
202205191630 METAR WIHH NIL=
202205191600 METAR WIHH NIL=
202205191530 METAR WIHH NIL=
202205191500 METAR WIHH NIL=
202205191430 METAR WIHH NIL=
202205191400 METAR WIHH NIL=
202205191330 METAR WIHH NIL=
202205191300 METAR WIHH NIL=
202205191230 METAR WIHH NIL=
202205191200 METAR WIHH NIL=
202205191130 METAR WIHH NIL=
202205191100 METAR WIHH NIL=
202205191030 METAR WIHH NIL=
202205191000 METAR WIHH NIL=
202205190930 METAR WIHH NIL=
202205190900 METAR WIHH NIL=
202205190830 METAR WIHH NIL=
202205190800 METAR WIHH NIL=
202205190730 METAR WIHH NIL=
202205190700 METAR WIHH NIL=
202205190630 METAR WIHH NIL=
202205190600 METAR WIHH NIL=
202205190530 METAR WIHH NIL=
202205190500 METAR WIHH NIL=
202205190430 METAR WIHH NIL=
202205190400 METAR WIHH NIL=
202205190330 METAR WIHH NIL=
202205190300 METAR WIHH NIL=
202205190230 METAR WIHH NIL=
202205190200 METAR WIHH NIL=
202205190130 METAR WIHH NIL=
202205190100 METAR WIHH NIL=
202205190030 METAR WIHH NIL=
202205190000 METAR WIHH NIL=
202205182330 METAR WIHH NIL=
202205182300 METAR WIHH NIL=
202205182230 METAR WIHH NIL=
202205182200 METAR WIHH NIL=
202205182130 METAR WIHH NIL=
202205182100 METAR WIHH NIL=
202205182030 METAR WIHH NIL=
202205182000 METAR WIHH NIL=
202205181930 METAR WIHH NIL=
202205181900 METAR WIHH NIL=
202205181830 METAR WIHH NIL=
202205181800 METAR WIHH NIL=
202205181730 METAR WIHH NIL=
202205181700 METAR WIHH NIL=
202205181630 METAR WIHH NIL=
202205181600 METAR WIHH NIL=
202205181530 METAR WIHH NIL=
202205181500 METAR WIHH NIL=
202205181430 METAR WIHH NIL=
202205181400 METAR WIHH NIL=
202205181330 METAR WIHH NIL=
202205181300 METAR WIHH NIL=
202205181230 METAR WIHH NIL=
202205181200 METAR WIHH NIL=
202205181130 METAR WIHH NIL=
202205181100 METAR WIHH NIL=
202205181030 METAR WIHH NIL=
202205181000 METAR WIHH NIL=
202205180930 METAR WIHH NIL=
202205180900 METAR WIHH NIL=
202205180830 METAR WIHH NIL=
202205180800 METAR WIHH NIL=
202205180730 METAR WIHH NIL=
202205180700 METAR WIHH NIL=
202205180630 METAR WIHH NIL=
202205180600 METAR WIHH NIL=
202205180530 METAR WIHH NIL=
202205180500 METAR WIHH NIL=
202205180430 METAR WIHH NIL=
202205180400 METAR WIHH NIL=
202205180330 METAR WIHH NIL=
202205180300 METAR WIHH NIL=
202205180230 METAR WIHH NIL=
202205180200 METAR WIHH NIL=
202205180130 METAR WIHH NIL=
202205180100 METAR WIHH NIL=
202205180030 METAR WIHH NIL=
202205180000 METAR WIHH NIL=
202205172330 METAR WIHH NIL=
202205172300 METAR WIHH NIL=
202205172230 METAR WIHH NIL=
202205172200 METAR WIHH NIL=
202205172130 METAR WIHH NIL=
202205172100 METAR WIHH NIL=
202205172030 METAR WIHH NIL=
202205172000 METAR WIHH NIL=
202205171930 METAR WIHH NIL=
202205171900 METAR WIHH NIL=
202205171830 METAR WIHH NIL=
202205171800 METAR WIHH NIL=
202205171730 METAR WIHH NIL=
202205171700 METAR WIHH NIL=
202205171630 METAR WIHH NIL=
202205171600 METAR WIHH NIL=
202205171530 METAR WIHH NIL=
202205171500 METAR WIHH NIL=
202205171430 METAR WIHH NIL=
202205171400 METAR WIHH NIL=
202205171330 METAR WIHH NIL=
202205171300 METAR WIHH NIL=
202205171230 METAR WIHH NIL=
202205171200 METAR WIHH NIL=
202205171130 METAR WIHH NIL=
202205171100 METAR WIHH NIL=
202205171030 METAR WIHH NIL=
202205171000 METAR WIHH NIL=
202205170930 METAR WIHH NIL=
202205170900 METAR WIHH NIL=
202205170830 METAR WIHH NIL=
202205170800 METAR WIHH NIL=
202205170730 METAR WIHH NIL=
202205170700 METAR WIHH NIL=
202205170630 METAR WIHH NIL=
202205170600 METAR WIHH NIL=
202205170530 METAR WIHH NIL=
202205170500 METAR WIHH NIL=
202205170430 METAR WIHH NIL=
202205170400 METAR WIHH NIL=
202205170330 METAR WIHH NIL=
202205170300 METAR WIHH NIL=
202205170230 METAR WIHH NIL=
202205170200 METAR WIHH NIL=
202205170130 METAR WIHH NIL=
202205170100 METAR WIHH NIL=
202205170030 METAR WIHH NIL=
202205170000 METAR WIHH NIL=
202205162330 METAR WIHH NIL=
202205162300 METAR WIHH NIL=
202205162230 METAR WIHH NIL=
202205162200 METAR WIHH NIL=
202205162130 METAR WIHH NIL=
202205162100 METAR WIHH NIL=
202205162030 METAR WIHH NIL=
202205162000 METAR WIHH NIL=
202205161930 METAR WIHH NIL=
202205161900 METAR WIHH NIL=
202205161830 METAR WIHH NIL=
202205161800 METAR WIHH NIL=
202205161730 METAR WIHH NIL=
202205161700 METAR WIHH NIL=
202205161630 METAR WIHH NIL=
202205161600 METAR WIHH NIL=
202205161530 METAR WIHH NIL=
202205161500 METAR WIHH NIL=
202205161430 METAR WIHH NIL=
202205161400 METAR WIHH NIL=
202205161330 METAR WIHH NIL=
202205161300 METAR WIHH NIL=
202205161230 METAR WIHH NIL=
202205161200 METAR WIHH NIL=
202205161130 METAR WIHH NIL=
202205161100 METAR WIHH NIL=
202205161030 METAR WIHH NIL=
202205161000 METAR WIHH NIL=
202205160930 METAR WIHH NIL=
202205160900 METAR WIHH NIL=
202205160830 METAR WIHH NIL=
202205160800 METAR WIHH NIL=
202205160730 METAR WIHH NIL=
202205160700 METAR WIHH NIL=
202205160630 METAR WIHH NIL=
202205160600 METAR WIHH NIL=
202205160530 METAR WIHH NIL=
202205160500 METAR WIHH NIL=
202205160430 METAR WIHH NIL=
202205160400 METAR WIHH NIL=
202205160330 METAR WIHH NIL=
202205160300 METAR WIHH NIL=
202205160230 METAR WIHH NIL=
202205160200 METAR WIHH NIL=
202205160130 METAR WIHH NIL=
202205160100 METAR WIHH NIL=
202205160030 METAR WIHH NIL=
202205160000 METAR WIHH NIL=
202205152330 METAR WIHH NIL=
202205152300 METAR WIHH NIL=
202205152230 METAR WIHH NIL=
202205152200 METAR WIHH NIL=
202205152130 METAR WIHH NIL=
202205152100 METAR WIHH NIL=
202205152030 METAR WIHH NIL=
202205152000 METAR WIHH NIL=
202205151930 METAR WIHH NIL=
202205151900 METAR WIHH NIL=
202205151830 METAR WIHH NIL=
202205151800 METAR WIHH NIL=
202205151730 METAR WIHH NIL=
202205151700 METAR WIHH NIL=
202205151630 METAR WIHH NIL=
202205151600 METAR WIHH NIL=
202205151530 METAR WIHH NIL=
202205151500 METAR WIHH NIL=
202205151430 METAR WIHH NIL=
202205151400 METAR WIHH NIL=
202205151330 METAR WIHH NIL=
202205151300 METAR WIHH NIL=
202205151230 METAR WIHH NIL=
202205151200 METAR WIHH NIL=
202205151130 METAR WIHH NIL=
202205151100 METAR WIHH NIL=
202205151030 METAR WIHH NIL=
202205151000 METAR WIHH NIL=
202205150930 METAR WIHH NIL=
202205150900 METAR WIHH NIL=
202205150830 METAR WIHH NIL=
202205150800 METAR WIHH NIL=
202205150730 METAR WIHH NIL=
202205150700 METAR WIHH NIL=
202205150630 METAR WIHH NIL=
202205150600 METAR WIHH NIL=
202205150530 METAR WIHH NIL=
202205150500 METAR WIHH NIL=
202205150430 METAR WIHH NIL=
202205150400 METAR WIHH NIL=
202205150330 METAR WIHH NIL=
202205150300 METAR WIHH NIL=
202205150230 METAR WIHH NIL=
202205150200 METAR WIHH NIL=
202205150130 METAR WIHH NIL=
202205150100 METAR WIHH NIL=
202205150030 METAR WIHH NIL=
202205150000 METAR WIHH NIL=
202205142330 METAR WIHH NIL=
202205142300 METAR WIHH NIL=
202205142230 METAR WIHH NIL=
202205142200 METAR WIHH NIL=
202205142130 METAR WIHH NIL=
202205142100 METAR WIHH NIL=
202205142030 METAR WIHH NIL=
202205142000 METAR WIHH NIL=
202205141930 METAR WIHH NIL=
202205141900 METAR WIHH NIL=
202205141830 METAR WIHH NIL=
202205141800 METAR WIHH NIL=
202205141730 METAR WIHH NIL=
202205141700 METAR WIHH NIL=
202205141630 METAR WIHH NIL=
202205141600 METAR WIHH NIL=
202205141530 METAR WIHH NIL=
202205141500 METAR WIHH NIL=
202205141430 METAR WIHH NIL=
202205141400 METAR WIHH NIL=
202205141330 METAR WIHH NIL=
202205141300 METAR WIHH NIL=
202205141230 METAR WIHH NIL=
202205141200 METAR WIHH NIL=
202205141130 METAR WIHH NIL=
202205141100 METAR WIHH NIL=
202205141030 METAR WIHH NIL=
202205141000 METAR WIHH NIL=
202205140930 METAR WIHH NIL=
202205140900 METAR WIHH NIL=
202205140830 METAR WIHH NIL=
202205140800 METAR WIHH NIL=
202205140730 METAR WIHH NIL=
202205140700 METAR WIHH NIL=
202205140630 METAR WIHH NIL=
202205140600 METAR WIHH NIL=
202205140530 METAR WIHH NIL=
202205140500 METAR WIHH NIL=
202205140430 METAR WIHH NIL=
202205140400 METAR WIHH NIL=
202205140330 METAR WIHH NIL=
202205140300 METAR WIHH NIL=
202205140230 METAR WIHH NIL=
202205140200 METAR WIHH NIL=
202205140130 METAR WIHH NIL=
202205140100 METAR WIHH NIL=
202205140030 METAR WIHH NIL=
202205140000 METAR WIHH NIL=
202205132330 METAR WIHH NIL=
202205132300 METAR WIHH NIL=
202205132230 METAR WIHH NIL=
202205132200 METAR WIHH NIL=
202205132130 METAR WIHH NIL=
202205132100 METAR WIHH NIL=
202205132030 METAR WIHH NIL=
202205132000 METAR WIHH NIL=
202205131930 METAR WIHH NIL=
202205131900 METAR WIHH NIL=
202205131830 METAR WIHH NIL=
202205131800 METAR WIHH NIL=
202205131730 METAR WIHH NIL=
202205131700 METAR WIHH NIL=
202205131630 METAR WIHH NIL=
202205131600 METAR WIHH NIL=
202205131530 METAR WIHH NIL=
202205131500 METAR WIHH NIL=
202205131430 METAR WIHH NIL=
202205131400 METAR WIHH NIL=
202205131330 METAR WIHH NIL=
202205131300 METAR WIHH NIL=
202205131230 METAR WIHH NIL=
202205131200 METAR WIHH NIL=
202205131130 METAR WIHH NIL=
202205131100 METAR WIHH NIL=
202205131030 METAR WIHH NIL=
202205131000 METAR WIHH NIL=
202205130930 METAR WIHH NIL=
202205130900 METAR WIHH NIL=
202205130830 METAR WIHH NIL=
202205130800 METAR WIHH NIL=
202205130730 METAR WIHH NIL=
202205130700 METAR WIHH NIL=
202205130630 METAR WIHH NIL=
202205130600 METAR WIHH NIL=
202205130530 METAR WIHH NIL=
202205130500 METAR WIHH NIL=
202205130430 METAR WIHH NIL=
202205130400 METAR WIHH NIL=
202205130330 METAR WIHH NIL=
202205130300 METAR WIHH NIL=
202205130230 METAR WIHH NIL=
202205130200 METAR WIHH NIL=
202205130130 METAR WIHH NIL=
202205130100 METAR WIHH NIL=
202205130030 METAR WIHH NIL=
202205130000 METAR WIHH NIL=
202205122330 METAR WIHH NIL=
202205122300 METAR WIHH NIL=
202205122230 METAR WIHH NIL=
202205122200 METAR WIHH NIL=
202205122130 METAR WIHH NIL=
202205122100 METAR WIHH NIL=
202205122030 METAR WIHH NIL=
202205122000 METAR WIHH NIL=
202205121930 METAR WIHH NIL=
202205121900 METAR WIHH NIL=
202205121830 METAR WIHH NIL=
202205121800 METAR WIHH NIL=
202205121730 METAR WIHH NIL=
202205121700 METAR WIHH NIL=
202205121630 METAR WIHH NIL=
202205121600 METAR WIHH NIL=
202205121530 METAR WIHH NIL=
202205121500 METAR WIHH NIL=
202205121430 METAR WIHH NIL=
202205121400 METAR WIHH NIL=
202205121330 METAR WIHH NIL=
202205121300 METAR WIHH NIL=
202205121230 METAR WIHH NIL=
202205121200 METAR WIHH NIL=
202205121130 METAR WIHH NIL=
202205121100 METAR WIHH NIL=
202205121030 METAR WIHH NIL=
202205121000 METAR WIHH NIL=
202205120930 METAR WIHH NIL=
202205120900 METAR WIHH NIL=
202205120830 METAR WIHH NIL=
202205120800 METAR WIHH NIL=
202205120730 METAR WIHH NIL=
202205120700 METAR WIHH NIL=
202205120630 METAR WIHH NIL=
202205120600 METAR WIHH NIL=
202205120530 METAR WIHH NIL=
202205120500 METAR WIHH NIL=
202205120430 METAR WIHH NIL=
202205120400 METAR WIHH NIL=
202205120330 METAR WIHH NIL=
202205120300 METAR WIHH NIL=
202205120230 METAR WIHH NIL=
202205120200 METAR WIHH NIL=
202205120130 METAR WIHH NIL=
202205120100 METAR WIHH NIL=
202205120030 METAR WIHH NIL=
202205120000 METAR WIHH NIL=
202205112330 METAR WIHH NIL=
202205112300 METAR WIHH NIL=
202205112230 METAR WIHH NIL=
202205112200 METAR WIHH NIL=
202205112130 METAR WIHH NIL=
202205112100 METAR WIHH NIL=
202205112030 METAR WIHH NIL=
202205112000 METAR WIHH NIL=
202205111930 METAR WIHH NIL=
202205111900 METAR WIHH NIL=
202205111830 METAR WIHH NIL=
202205111800 METAR WIHH NIL=
202205111730 METAR WIHH NIL=
202205111700 METAR WIHH NIL=
202205111630 METAR WIHH NIL=
202205111600 METAR WIHH NIL=
202205111530 METAR WIHH NIL=
202205111500 METAR WIHH NIL=
202205111430 METAR WIHH NIL=
202205111400 METAR WIHH NIL=
202205111330 METAR WIHH NIL=
202205111300 METAR WIHH NIL=
202205111230 METAR WIHH NIL=
202205111200 METAR WIHH NIL=
202205111130 METAR WIHH NIL=
202205111100 METAR WIHH NIL=
202205111030 METAR WIHH NIL=
202205111000 METAR WIHH NIL=
202205110930 METAR WIHH NIL=
202205110900 METAR WIHH NIL=
202205110830 METAR WIHH NIL=
202205110800 METAR WIHH NIL=
202205110730 METAR WIHH NIL=
202205110700 METAR WIHH NIL=
202205110630 METAR WIHH NIL=
202205110600 METAR WIHH NIL=
202205110530 METAR WIHH NIL=
202205110500 METAR WIHH NIL=
202205110430 METAR WIHH NIL=
202205110400 METAR WIHH NIL=
202205110330 METAR WIHH NIL=
202205110300 METAR WIHH NIL=
202205110230 METAR WIHH NIL=
202205110200 METAR WIHH NIL=
202205110130 METAR WIHH NIL=
202205110100 METAR WIHH NIL=
202205110030 METAR WIHH NIL=
202205110000 METAR WIHH NIL=
202205102330 METAR WIHH NIL=
202205102300 METAR WIHH NIL=
202205102230 METAR WIHH NIL=
202205102200 METAR WIHH NIL=
202205102130 METAR WIHH NIL=
202205102100 METAR WIHH NIL=
202205102030 METAR WIHH NIL=
202205102000 METAR WIHH NIL=
202205101930 METAR WIHH NIL=
202205101900 METAR WIHH NIL=
202205101830 METAR WIHH NIL=
202205101800 METAR WIHH NIL=
202205101730 METAR WIHH NIL=
202205101700 METAR WIHH NIL=
202205101630 METAR WIHH NIL=
202205101600 METAR WIHH NIL=
202205101530 METAR WIHH NIL=
202205101500 METAR WIHH NIL=
202205101430 METAR WIHH NIL=
202205101400 METAR WIHH NIL=
202205101330 METAR WIHH NIL=
202205101300 METAR WIHH NIL=
202205101230 METAR WIHH NIL=
202205101200 METAR WIHH NIL=
202205101130 METAR WIHH NIL=
202205101100 METAR WIHH NIL=
202205101030 METAR WIHH NIL=
202205101000 METAR WIHH NIL=
202205100930 METAR WIHH NIL=
202205100900 METAR WIHH NIL=
202205100830 METAR WIHH NIL=
202205100800 METAR WIHH NIL=
202205100730 METAR WIHH NIL=
202205100700 METAR WIHH NIL=
202205100630 METAR WIHH NIL=
202205100600 METAR WIHH NIL=
202205100530 METAR WIHH NIL=
202205100500 METAR WIHH NIL=
202205100430 METAR WIHH NIL=
202205100400 METAR WIHH NIL=
202205100330 METAR WIHH NIL=
202205100300 METAR WIHH NIL=
202205100230 METAR WIHH NIL=
202205100200 METAR WIHH NIL=
202205100130 METAR WIHH NIL=
202205100100 METAR WIHH NIL=
202205100030 METAR WIHH NIL=
202205100000 METAR WIHH NIL=
202205092330 METAR WIHH NIL=
202205092300 METAR WIHH NIL=
202205092230 METAR WIHH NIL=
202205092200 METAR WIHH NIL=
202205092130 METAR WIHH NIL=
202205092100 METAR WIHH NIL=
202205092030 METAR WIHH NIL=
202205092000 METAR WIHH NIL=
202205091930 METAR WIHH NIL=
202205091900 METAR WIHH NIL=
202205091830 METAR WIHH NIL=
202205091800 METAR WIHH NIL=
202205091730 METAR WIHH NIL=
202205091700 METAR WIHH NIL=
202205091630 METAR WIHH NIL=
202205091600 METAR WIHH NIL=
202205091530 METAR WIHH NIL=
202205091500 METAR WIHH NIL=
202205091430 METAR WIHH NIL=
202205091400 METAR WIHH NIL=
202205091330 METAR WIHH NIL=
202205091300 METAR WIHH NIL=
202205091230 METAR WIHH NIL=
202205091200 METAR WIHH NIL=
202205091130 METAR WIHH NIL=
202205091100 METAR WIHH NIL=
202205091030 METAR WIHH NIL=
202205091000 METAR WIHH NIL=
202205090930 METAR WIHH NIL=
202205090900 METAR WIHH NIL=
202205090830 METAR WIHH NIL=
202205090800 METAR WIHH NIL=
202205090730 METAR WIHH NIL=
202205090700 METAR WIHH NIL=
202205090630 METAR WIHH NIL=
202205090600 METAR WIHH NIL=
202205090530 METAR WIHH NIL=
202205090500 METAR WIHH NIL=
202205090430 METAR WIHH NIL=
202205090400 METAR WIHH NIL=
202205090330 METAR WIHH NIL=
202205090300 METAR WIHH NIL=
202205090230 METAR WIHH NIL=
202205090200 METAR WIHH NIL=
202205090130 METAR WIHH NIL=
202205090100 METAR WIHH NIL=
202205090030 METAR WIHH NIL=
202205090000 METAR WIHH NIL=
202205082330 METAR WIHH NIL=
202205082300 METAR WIHH NIL=
202205082230 METAR WIHH NIL=
202205082200 METAR WIHH NIL=
202205082130 METAR WIHH NIL=
202205082100 METAR WIHH NIL=
202205082030 METAR WIHH NIL=
202205082000 METAR WIHH NIL=
202205081930 METAR WIHH NIL=
202205081900 METAR WIHH NIL=
202205081830 METAR WIHH NIL=
202205081800 METAR WIHH NIL=
202205081730 METAR WIHH NIL=
202205081700 METAR WIHH NIL=
202205081630 METAR WIHH NIL=
202205081600 METAR WIHH NIL=
202205081530 METAR WIHH NIL=
202205081500 METAR WIHH NIL=
202205081430 METAR WIHH NIL=
202205081400 METAR WIHH NIL=
202205081330 METAR WIHH NIL=
202205081300 METAR WIHH NIL=
202205081230 METAR WIHH NIL=
202205081200 METAR WIHH NIL=
202205081130 METAR WIHH NIL=
202205081100 METAR WIHH NIL=
202205081030 METAR WIHH NIL=
202205081000 METAR WIHH NIL=
202205080930 METAR WIHH NIL=
202205080900 METAR WIHH NIL=
202205080830 METAR WIHH NIL=
202205080800 METAR WIHH NIL=
202205080730 METAR WIHH NIL=
202205080700 METAR WIHH NIL=
202205080630 METAR WIHH NIL=
202205080600 METAR WIHH NIL=
202205080530 METAR WIHH NIL=
202205080500 METAR WIHH NIL=
202205080430 METAR WIHH NIL=
202205080400 METAR WIHH NIL=
202205080330 METAR WIHH NIL=
202205080300 METAR WIHH NIL=
202205080230 METAR WIHH NIL=
202205080200 METAR WIHH NIL=
202205080130 METAR WIHH NIL=
202205080100 METAR WIHH NIL=
202205080030 METAR WIHH NIL=
202205080000 METAR WIHH NIL=
202205072330 METAR WIHH NIL=
202205072300 METAR WIHH NIL=
202205072230 METAR WIHH NIL=
202205072200 METAR WIHH NIL=
202205072130 METAR WIHH NIL=
202205072100 METAR WIHH NIL=
202205072030 METAR WIHH NIL=
202205072000 METAR WIHH NIL=
202205071930 METAR WIHH NIL=
202205071900 METAR WIHH NIL=
202205071830 METAR WIHH NIL=
202205071800 METAR WIHH NIL=
202205071730 METAR WIHH NIL=
202205071700 METAR WIHH NIL=
202205071630 METAR WIHH NIL=
202205071600 METAR WIHH NIL=
202205071530 METAR WIHH NIL=
202205071500 METAR WIHH NIL=
202205071430 METAR WIHH NIL=
202205071400 METAR WIHH NIL=
202205071330 METAR WIHH NIL=
202205071300 METAR WIHH NIL=
202205071230 METAR WIHH NIL=
202205071200 METAR WIHH NIL=
202205071130 METAR WIHH NIL=
202205071100 METAR WIHH NIL=
202205071030 METAR WIHH NIL=
202205071000 METAR WIHH NIL=
202205070930 METAR WIHH NIL=
202205070900 METAR WIHH NIL=
202205070830 METAR WIHH NIL=
202205070800 METAR WIHH NIL=
202205070730 METAR WIHH NIL=
202205070700 METAR WIHH NIL=
202205070630 METAR WIHH NIL=
202205070600 METAR WIHH NIL=
202205070530 METAR WIHH NIL=
202205070500 METAR WIHH NIL=
202205070430 METAR WIHH NIL=
202205070400 METAR WIHH NIL=
202205070330 METAR WIHH NIL=
202205070300 METAR WIHH NIL=
202205070230 METAR WIHH NIL=
202205070200 METAR WIHH NIL=
202205070130 METAR WIHH NIL=
202205070100 METAR WIHH NIL=
202205070030 METAR WIHH NIL=
202205070000 METAR WIHH NIL=
202205062330 METAR WIHH NIL=
202205062300 METAR WIHH NIL=
202205062230 METAR WIHH NIL=
202205062200 METAR WIHH NIL=
202205062130 METAR WIHH NIL=
202205062100 METAR WIHH NIL=
202205062030 METAR WIHH NIL=
202205062000 METAR WIHH NIL=
202205061930 METAR WIHH NIL=
202205061900 METAR WIHH NIL=
202205061830 METAR WIHH NIL=
202205061800 METAR WIHH NIL=
202205061730 METAR WIHH NIL=
202205061700 METAR WIHH NIL=
202205061630 METAR WIHH NIL=
202205061600 METAR WIHH NIL=
202205061530 METAR WIHH NIL=
202205061500 METAR WIHH NIL=
202205061430 METAR WIHH NIL=
202205061400 METAR WIHH NIL=
202205061330 METAR WIHH NIL=
202205061300 METAR WIHH NIL=
202205061230 METAR WIHH NIL=
202205061200 METAR WIHH NIL=
202205061130 METAR WIHH NIL=
202205061100 METAR WIHH NIL=
202205061030 METAR WIHH NIL=
202205061000 METAR WIHH NIL=
202205060930 METAR WIHH NIL=
202205060900 METAR WIHH NIL=
202205060830 METAR WIHH NIL=
202205060800 METAR WIHH NIL=
202205060730 METAR WIHH NIL=
202205060700 METAR WIHH NIL=
202205060630 METAR WIHH NIL=
202205060600 METAR WIHH NIL=
202205060530 METAR WIHH NIL=
202205060500 METAR WIHH NIL=
202205060430 METAR WIHH NIL=
202205060400 METAR WIHH NIL=
202205060330 METAR WIHH NIL=
202205060300 METAR WIHH NIL=
202205060230 METAR WIHH NIL=
202205060200 METAR WIHH NIL=
202205060130 METAR WIHH NIL=
202205060100 METAR WIHH NIL=
202205060030 METAR WIHH NIL=
202205060000 METAR WIHH NIL=
202205052330 METAR WIHH NIL=
202205052300 METAR WIHH NIL=
202205052230 METAR WIHH NIL=
202205052200 METAR WIHH NIL=
202205052130 METAR WIHH NIL=
202205052100 METAR WIHH NIL=
202205052030 METAR WIHH NIL=
202205052000 METAR WIHH NIL=
202205051930 METAR WIHH NIL=
202205051900 METAR WIHH NIL=
202205051830 METAR WIHH NIL=
202205051800 METAR WIHH NIL=
202205051730 METAR WIHH NIL=
202205051700 METAR WIHH NIL=
202205051630 METAR WIHH NIL=
202205051600 METAR WIHH NIL=
202205051530 METAR WIHH NIL=
202205051500 METAR WIHH NIL=
202205051430 METAR WIHH NIL=
202205051400 METAR WIHH NIL=
202205051330 METAR WIHH NIL=
202205051300 METAR WIHH NIL=
202205051230 METAR WIHH NIL=
202205051200 METAR WIHH NIL=
202205051130 METAR WIHH NIL=
202205051100 METAR WIHH NIL=
202205051030 METAR WIHH NIL=
202205051000 METAR WIHH NIL=
202205050930 METAR WIHH NIL=
202205050900 METAR WIHH NIL=
202205050830 METAR WIHH NIL=
202205050800 METAR WIHH NIL=
202205050730 METAR WIHH NIL=
202205050700 METAR WIHH NIL=
202205050630 METAR WIHH NIL=
202205050600 METAR WIHH NIL=
202205050530 METAR WIHH NIL=
202205050500 METAR WIHH NIL=
202205050430 METAR WIHH NIL=
202205050400 METAR WIHH NIL=
202205050330 METAR WIHH NIL=
202205050300 METAR WIHH NIL=
202205050230 METAR WIHH NIL=
202205050200 METAR WIHH NIL=
202205050130 METAR WIHH NIL=
202205050100 METAR WIHH NIL=
202205050030 METAR WIHH NIL=
202205050000 METAR WIHH NIL=
202205042330 METAR WIHH NIL=
202205042300 METAR WIHH NIL=
202205042230 METAR WIHH NIL=
202205042200 METAR WIHH NIL=
202205042130 METAR WIHH NIL=
202205042100 METAR WIHH NIL=
202205042030 METAR WIHH NIL=
202205042000 METAR WIHH NIL=
202205041930 METAR WIHH NIL=
202205041900 METAR WIHH NIL=
202205041830 METAR WIHH NIL=
202205041800 METAR WIHH NIL=
202205041730 METAR WIHH NIL=
202205041700 METAR WIHH NIL=
202205041630 METAR WIHH NIL=
202205041600 METAR WIHH NIL=
202205041530 METAR WIHH NIL=
202205041500 METAR WIHH NIL=
202205041430 METAR WIHH NIL=
202205041400 METAR WIHH NIL=
202205041330 METAR WIHH NIL=
202205041300 METAR WIHH NIL=
202205041230 METAR WIHH NIL=
202205041200 METAR WIHH NIL=
202205041130 METAR WIHH NIL=
202205041100 METAR WIHH NIL=
202205041030 METAR WIHH NIL=
202205041000 METAR WIHH NIL=
202205040930 METAR WIHH NIL=
202205040900 METAR WIHH NIL=
202205040830 METAR WIHH NIL=
202205040800 METAR WIHH NIL=
202205040730 METAR WIHH NIL=
202205040700 METAR WIHH NIL=
202205040630 METAR WIHH NIL=
202205040600 METAR WIHH NIL=
202205040530 METAR WIHH NIL=
202205040500 METAR WIHH NIL=
202205040430 METAR WIHH NIL=
202205040400 METAR WIHH NIL=
202205040330 METAR WIHH NIL=
202205040300 METAR WIHH NIL=
202205040230 METAR WIHH NIL=
202205040200 METAR WIHH NIL=
202205040130 METAR WIHH NIL=
202205040100 METAR WIHH NIL=
202205040030 METAR WIHH NIL=
202205040000 METAR WIHH NIL=
202205032330 METAR WIHH NIL=
202205032300 METAR WIHH NIL=
202205032230 METAR WIHH NIL=
202205032200 METAR WIHH NIL=
202205032130 METAR WIHH NIL=
202205032100 METAR WIHH NIL=
202205032030 METAR WIHH NIL=
202205032000 METAR WIHH NIL=
202205031930 METAR WIHH NIL=
202205031900 METAR WIHH NIL=
202205031830 METAR WIHH NIL=
202205031800 METAR WIHH NIL=
202205031730 METAR WIHH NIL=
202205031700 METAR WIHH NIL=
202205031630 METAR WIHH NIL=
202205031600 METAR WIHH NIL=
202205031530 METAR WIHH NIL=
202205031500 METAR WIHH NIL=
202205031430 METAR WIHH NIL=
202205031400 METAR WIHH NIL=
202205031330 METAR WIHH NIL=
202205031300 METAR WIHH NIL=
202205031230 METAR WIHH NIL=
202205031200 METAR WIHH NIL=
202205031130 METAR WIHH NIL=
202205031100 METAR WIHH NIL=
202205031030 METAR WIHH NIL=
202205031000 METAR WIHH NIL=
202205030930 METAR WIHH NIL=
202205030900 METAR WIHH NIL=
202205030830 METAR WIHH NIL=
202205030800 METAR WIHH NIL=
202205030730 METAR WIHH NIL=
202205030700 METAR WIHH NIL=
202205030630 METAR WIHH NIL=
202205030600 METAR WIHH NIL=
202205030530 METAR WIHH NIL=
202205030500 METAR WIHH NIL=
202205030430 METAR WIHH NIL=
202205030400 METAR WIHH NIL=
202205030330 METAR WIHH NIL=
202205030300 METAR WIHH NIL=
202205030230 METAR WIHH NIL=
202205030200 METAR WIHH NIL=
202205030130 METAR WIHH NIL=
202205030100 METAR WIHH NIL=
202205030030 METAR WIHH NIL=
202205030000 METAR WIHH NIL=
202205022330 METAR WIHH NIL=
202205022300 METAR WIHH NIL=
202205022230 METAR WIHH NIL=
202205022200 METAR WIHH NIL=
202205022130 METAR WIHH NIL=
202205022100 METAR WIHH NIL=
202205022030 METAR WIHH NIL=
202205022000 METAR WIHH NIL=
202205021930 METAR WIHH NIL=
202205021900 METAR WIHH NIL=
202205021830 METAR WIHH NIL=
202205021800 METAR WIHH NIL=
202205021730 METAR WIHH NIL=
202205021700 METAR WIHH NIL=
202205021630 METAR WIHH NIL=
202205021600 METAR WIHH NIL=
202205021530 METAR WIHH NIL=
202205021500 METAR WIHH NIL=
202205021430 METAR WIHH NIL=
202205021400 METAR WIHH NIL=
202205021330 METAR WIHH NIL=
202205021300 METAR WIHH NIL=
202205021230 METAR WIHH NIL=
202205021200 METAR WIHH NIL=
202205021130 METAR WIHH NIL=
202205021100 METAR WIHH NIL=
202205021030 METAR WIHH NIL=
202205021000 METAR WIHH NIL=
202205020930 METAR WIHH NIL=
202205020900 METAR WIHH NIL=
202205020830 METAR WIHH NIL=
202205020800 METAR WIHH NIL=
202205020730 METAR WIHH NIL=
202205020700 METAR WIHH NIL=
202205020630 METAR WIHH NIL=
202205020600 METAR WIHH NIL=
202205020530 METAR WIHH NIL=
202205020500 METAR WIHH NIL=
202205020430 METAR WIHH NIL=
202205020400 METAR WIHH NIL=
202205020330 METAR WIHH NIL=
202205020300 METAR WIHH NIL=
202205020230 METAR WIHH NIL=
202205020200 METAR WIHH NIL=
202205020130 METAR WIHH NIL=
202205020100 METAR WIHH NIL=
202205020030 METAR WIHH NIL=
202205020000 METAR WIHH NIL=
202205012330 METAR WIHH NIL=
202205012300 METAR WIHH NIL=
202205012230 METAR WIHH NIL=
202205012200 METAR WIHH NIL=
202205012130 METAR WIHH NIL=
202205012100 METAR WIHH NIL=
202205012030 METAR WIHH NIL=
202205012000 METAR WIHH NIL=
202205011930 METAR WIHH NIL=
202205011900 METAR WIHH NIL=
202205011830 METAR WIHH NIL=
202205011800 METAR WIHH NIL=
202205011730 METAR WIHH NIL=
202205011700 METAR WIHH NIL=
202205011630 METAR WIHH NIL=
202205011600 METAR WIHH NIL=
202205011530 METAR WIHH NIL=
202205011500 METAR WIHH NIL=
202205011430 METAR WIHH NIL=
202205011400 METAR WIHH NIL=
202205011330 METAR WIHH NIL=
202205011300 METAR WIHH NIL=
202205011230 METAR WIHH NIL=
202205011200 METAR WIHH NIL=
202205011130 METAR WIHH NIL=
202205011100 METAR WIHH NIL=
202205011030 METAR WIHH NIL=
202205011000 METAR WIHH NIL=
202205010930 METAR WIHH NIL=
202205010900 METAR WIHH NIL=
202205010830 METAR WIHH NIL=
202205010800 METAR WIHH NIL=
202205010730 METAR WIHH NIL=
202205010700 METAR WIHH NIL=
202205010630 METAR WIHH NIL=
202205010600 METAR WIHH NIL=
202205010530 METAR WIHH NIL=
202205010500 METAR WIHH NIL=
202205010430 METAR WIHH NIL=
202205010400 METAR WIHH NIL=
202205010330 METAR WIHH NIL=
202205010300 METAR WIHH NIL=
202205010230 METAR WIHH NIL=
202205010200 METAR WIHH NIL=
202205010130 METAR WIHH NIL=
202205010100 METAR WIHH NIL=
202205010030 METAR WIHH NIL=
202205010000 METAR WIHH NIL=

# No short TAF reports from WIHH in databse.

###################################
#  large TAF from WIHH
###################################
202205312300 TAF WIHH 312300Z 0100/0200 22005KT 6000 FEW022
                      TEMPO 0106/0110 33008KT 3000 -TSRA FEW018CB
                       SCT020
                      BECMG 0112/0114 15003KT 5000 HZ=
202205311700 TAF WIHH 311700Z 3118/0118 22004KT 5000 HZ FEW022
                      BECMG 3122/0100 00000KT 3000 BR
                      BECMG 0102/0104 08008KT 6000 SCT020=
202205311100 TAF WIHH 311100Z 3112/0112 25008KT 6000 SCT018
                      BECMG 3114/3116 22004KT 5000 HZ FEW022
                      BECMG 3122/0100 00000KT 3000 BR=
202205310500 TAF WIHH 310500Z 3106/0106 27008KT 6000 SCT018
                      TEMPO 3108/3111 4000 -RA FEW017CB
                      BECMG 3113/3115 21004KT 5000 HZ FEW022
                      BECMG 3122/0100 00000KT 3000 BR=
202205302300 TAF WIHH 302300Z 3100/0100 28006KT 6000 FEW022
                      TEMPO 3107/3110 23010KT 4000 -RA FEW018CB
                       SCT020
                      BECMG 3113/3115 21004KT 5000 HZ=
202205301700 TAF WIHH 301700Z 3018/3118 22004KT 5000 HZ FEW022
                      BECMG 3022/3100 00000KT 3000 BR
                      BECMG 3101/3103 29008KT 6000 SCT020=
202205301100 TAF WIHH 301100Z 3012/3112 21006KT 6000 FEW022
                      BECMG 3014/3016 26003KT 5000 HZ
                      TEMPO 3020/3023 00000KT 4000 -RA=
202205300500 TAF WIHH 300500Z 3006/3106 28008KT 6000 SCT018
                      TEMPO 3007/3011 3000 -RA FEW017CB
                      BECMG 3013/3015 22005KT 5000 HZ FEW022=
202205292300 TAF WIHH 292300Z 3000/3100 27008KT 6000 SCT020
                      TEMPO 3000/3002 4000 -RA
                      TEMPO 3008/3012 30010KT 3000 -RA FEW017CB
                       BECMG 3013/3015 23005KT 5000 HZ=
202205291700 TAF WIHH 291700Z 2918/3018 15005KT 5000 HZ SCT018
                      BECMG 3002/3004 33010KT 7000 NSW
                      BECMG 3013/3015 00000KT 5000 HZ=
202205291100 TAF WIHH 291100Z 2912/3012 24006KT 5000 HZ SCT020
                      TEMPO 2919/2923 34008KT 3000 -TSRA FEW017CB
                       BKN018
                      BECMG 3003/3005 6000 NSW=
202205290500 TAF WIHH 290500Z 2906/3006 24008KT 7000 SCT020
                      BECMG 2912/2914 5000 HZ
                      TEMPO 2918/2922 30006KT 3000 -TSRA FEW016CB
                       BKN017=
202205282300 TAF WIHH 282300Z 2900/3000 15004KT 3000 -RA BKN017
                      BECMG 2902/2904 5000 HZ SCT020
                      TEMPO 2909/2911 26008KT -RA
                      BECMG 2912/2914 02003KT=
202205281700 TAF WIHH 281700Z 2818/2918 15005KT 5000 HZ SCT018
                      TEMPO 2819/2822 26008KT 3000 -TSRA FEW016CB
                       BKN017
                      BECMG 2905/2907 03010KT 6000 NSW
                      BECMG 2913/2915 00000KT 5000 HZ=
202205281100 TAF WIHH 281100Z 2812/2912 06005KT 6000 SCT020
                      BECMG 2815/2817 00000KT 5000 HZ=
202205280500 TAF WIHH 280500Z 2806/2906 03008KT 5000 HZ SCT018
                      TEMPO 2808/2812 3000 -TSRA FEW017CB
                      BECMG 2815/2817 33004KT=
202205272300 TAF WIHH 272300Z 2800/2900 27006KT 3000 -TSRA FEW016CB BKN017
                      BECMG 2801/2803 15007KT 5000 HZ SCT018
                      TEMPO 2808/2811 02012KT 2500 -TSRA FEW017CB
                       BECMG 2812/2814 00000KT=
202205271700 TAF WIHH 271700Z 2718/2818 12004KT 4000 HZ FEW022
                      TEMPO 2721/2800 27005KT 3000 -RA
                      BECMG 2802/2804 08008KT=
202205271145 TAF COR WIHH 271145Z 2712/2812 18006KT 6000 SCT020
                      TEMPO 2712/2714 4000 -RA
                      BECMG 2715/2717 00000KT 5000 HZ=
202205271100 TAF WIHH 271100Z 2712/2812 18006KT 6000 SCT020
                      BECMG 2714/2716 22003KT 5000 HZ FEW022
                      BECMG 2722/2800 00000KT 4000 BR=
202205270500 TAF WIHH 270500Z 2706/2806 35010KT 6000 SCT020
                      TEMPO 2709/2712 4000 -RA FEW018CB
                      BECMG 2714/2716 18005KT 5000 HZ
                      BECMG 2722/2800 00000KT 4000 BR FEW022=
202205262300 TAF WIHH 262300Z 2700/2800 21005KT 4000 BR FEW022
                      BECMG 2702/2704 35008KT 6000 SCT020
                      TEMPO 2709/2712 4000 -RA FEW017CB
                      BECMG 2714/2716 18004KT 5000 HZ=
202205261700 TAF WIHH 261700Z 2618/2718 12004KT 5000 HZ FEW022
                      BECMG 2622/2700 00000KT 3000 BR
                      BECMG 2701/2703 23008KT 6000 SCT020=
202205261100 TAF WIHH 261100Z 2612/2712 12006KT 6000 SCT018
                      BECMG 2614/2616 5000 HZ FEW022
                      BECMG 2622/2700 00000KT 3000 BR=
202205260500 TAF WIHH 260500Z 2606/2706 07008KT 6000 SCT018
                      TEMPO 2608/2611 02010KT 4000 -RA FEW017CB
                       BECMG 2614/2616 20006KT 5000 HZ FEW022=
202205252300 TAF WIHH 252300Z 2600/2700 28005KT 6000 SCT018
                      TEMPO 2600/2602 4000 -RA FEW017CB
                      BECMG 2603/2605 03008KT
                      BECMG 2614/2616 20006KT 5000 HZ=
202205251700 TAF WIHH 251700Z 2518/2618 15005KT 5000 HZ SCT020
                      BECMG 2602/2604 26010KT 7000 NSW
                      TEMPO 2608/2610 30012KT 4000 -RA FEW018CB
                       BECMG 2613/2615 00000KT 5000 HZ=
202205251100 TAF WIHH 251100Z 2512/2612 18005KT 5000 HZ SCT018
                      TEMPO 2517/2520 30006KT 4000 -RA
                      BECMG 2602/2604 34008KT 6000 NSW=
202205250500 TAF WIHH 250500Z 2506/2606 09010KT 5000 HZ SCT018
                      TEMPO 2507/2510 21012KT 3000 -TSRA FEW017CB
                       BECMG 2514/2516 15004KT=
202205242300 TAF WIHH 242300Z 2500/2600 09008KT 6000 SCT022
                      TEMPO 2506/2509 22012KT 4000 -RA FEW018CB
                       BECMG 2512/2514 17004KT 5000 HZ=
202205241700 TAF WIHH 241700Z 2418/2518 15005KT 5000 HZ SCT020
                      BECMG 2501/2503 09010KT 7000 NSW
                      TEMPO 2507/2510 22012KT 4000 -RA FEW018CB
                       BECMG 2513/2515 00000KT 4000 HZ=
202205241100 TAF WIHH 241100Z 2412/2512 15004KT 6000 SCT022
                      BECMG 2415/2417 15005KT 5000 HZ=
202205240500 TAF WIHH 240500Z 2406/2506 08012KT 6000 SCT020
                      TEMPO 2408/2411 21015KT 3000 -TSRA FEW018CB
                       BECMG 2414/2416 00000KT 5000 HZ=
202205232300 TAF WIHH 232300Z 2400/2500 09010KT 7000 SCT022
                      TEMPO 2408/2411 4000 -RA FEW018CB
                      BECMG 2412/2414 15004KT 5000 HZ=
202205231700 TAF WIHH 231700Z 2318/2418 11005KT 5000 HZ FEW022
                      BECMG 2322/2400 3000 BR
                      BECMG 2401/2403 07010KT 6000 SCT020=
202205231100 TAF WIHH 231100Z 2312/2412 11006KT 6000 FEW022
                      BECMG 2314/2316 5000 HZ SCT020
                      TEMPO 2318/2321 06010KT 4000 -RA=
202205230500 TAF WIHH 230500Z 2306/2406 07012KT 6000 SCT018
                      TEMPO 2308/2311 4000 -RA FEW017CB
                      BECMG 2313/2315 15005KT 5000 HZ=
202205222300 TAF WIHH 222300Z 2300/2400 12005KT 4000 HZ FEW022
                      BECMG 2302/2304 09008KT 6000 SCT020
                      TEMPO 2308/2311 4000 -RA FEW017CB
                      BECMG 2313/2315 15005KT 5000 HZ=
202205221700 TAF WIHH 221700Z 2218/2318 04005KT 5000 HZ SCT020
                      BECMG 2219/2222 4000 -RA
                      BECMG 2302/2304 09010KT 6000=
202205221100 TAF WIHH 221100Z 2212/2312 12008KT 6000 SCT020
                      BECMG 2213/2215 5000 HZ
                      TEMPO 2220/2223 06005KT 4000 RA BKN018=
202205220500 TAF WIHH 220500Z 2206/2306 06008KT 6000 SCT020
                      TEMPO 2208/2211 4000 -RA FEW017CB
                      BECMG 2213/2215 21004KT 5000 HZ FEW022=
202205212300 TAF WIHH 212300Z 2200/2300 12005KT 6000 FEW022
                      TEMPO 2208/2211 06010KT 4000 -RA FEW017CB
                       SCT020
                      BECMG 2213/2215 21004KT 5000 HZ=
202205211700 TAF WIHH 211700Z NIL=
202205211100 TAF WIHH 211100Z 2112/2212 15005KT 6000 FEW022
                      BECMG 2114/2116 00000KT 5000 HZ
                      BECMG 2122/2200 3000 BR=
202205210500 TAF WIHH 210500Z 2106/2206 03008KT 6000 SCT020
                      TEMPO 2107/2111 35010KT 3000 -TSRA FEW017CB
                       BECMG 2113/2115 18005KT 5000 HZ=
202205202300 TAF WIHH 202300Z 2100/2200 17004KT 4000 BR SCT020
                      BECMG 2102/2104 09008KT 6000
                      TEMPO 2107/2110 15010KT 3000 -TSRA FEW017CB
                       BECMG 2113/2115 00000KT 5000 HZ=
202205201700 TAF WIHH 201700Z 2018/2118 15003KT 3000 -RA BKN016
                      BECMG 2022/2100 4000 HZ SCT018
                      TEMPO 2105/2109 30015KT 2500 TSRA FEW016CB
                       BKN017=
202205201100 TAF WIHH 201100Z 2012/2112 15004KT 5000 HZ SCT018
                      BECMG 2018/2020 3000 BR
                      BECMG 2103/2105 06010KT 6000 NSW
                      TEMPO 2107/2110 24012KT 2500 TSRA FEW015CB
                       BKN016=
202205200500 TAF WIHH 200500Z 2006/2106 03008KT 6000 SCT018
                      TEMPO 2008/2012 15012KT 2500 TSRA FEW015CB
                       BKN016
                      BECMG 2013/2015 09004KT 4000 HZ=
202205192300 TAF WIHH 192300Z 2000/2100 12004KT 3000 BR SCT018
                      BECMG 2002/2004 22010KT 6000 NSW
                      TEMPO 2008/2012 2500 TSRA FEW016CB BKN017
                       BECMG 2013/2015 00000KT 4000 HZ=
202205191700 TAF WIHH 191700Z 1918/2018 09003KT 4000 HZ SCT018
                      BECMG 2003/2005 18010KT 6000 NSW
                      TEMPO 2008/2011 30015KT 3000 TSRA FEW016CB
                       BKN017
                      BECMG 2012/2014 00000KT 4000 HZ=
202205191100 TAF WIHH 191100Z 1912/2012 15004KT 3000 -RA FEW017CB SCT018
                      TEMPO 1916/1918 4000 BR SCT018
                      BECMG 2001/2003 09008KT 6000 NSW=
202205190500 TAF WIHH 190500Z 1906/2006 24007KT 5000 HZ SCT018
                      TEMPO 1906/1909 3000 -TSRA FEW017CB
                      TEMPO 1912/1915 12006KT 3000 -RA FEW017CB
                       BECMG 1916/1918 00000KT 4000 BR=
202205182300 TAF WIHH 182300Z 1900/2000 15004KT 3000 BR SCT018
                      BECMG 1902/1904 25010KT 6000 NSW
                      TEMPO 1907/1911 2500 TSRA FEW016CB BKN017
                       BECMG 1912/1914 00000KT 4000 HZ=
202205181700 TAF WIHH 181700Z 1818/1918 20003KT 5000 HZ FEW022
                      BECMG 1822/1900 00000KT 3000 BR
                      BECMG 1902/1904 06008KT 6000 SCT020=
202205181100 TAF WIHH 181100Z 1812/1912 24005KT 5000 HZ SCT018
                      BECMG 1822/1900 00000KT 3000 BR FEW022=
202205180500 TAF WIHH 180500Z 1806/1906 03008KT 6000 SCT018
                      TEMPO 1808/1811 4000 -RA FEW017CB
                      BECMG 1814/1816 16005KT 5000 HZ
                      BECMG 1822/1900 00000KT 4000 BR=
202205172300 TAF WIHH 172300Z 1800/1900 22004KT 4000 HZ FEW020
                      BECMG 1802/1804 09008KT 6000 SCT020
                      TEMPO 1808/1811 01010KT 4000 -RA FEW017CB
                       BECMG 1814/1816 16005KT 5000 HZ=
202205171700 TAF WIHH 171700Z 1718/1818 22003KT 5000 HZ SCT018
                      BECMG 1803/1805 15010KT 7000 NSW
                      TEMPO 1808/1811 26015KT 3000 TSRA FEW016CB
                       BKN017
                      BECMG 1813/1815 00000KT 4000 HZ=
202205171100 TAF WIHH 171100Z 1712/1812 22007KT 5000 HZ SCT018
                      TEMPO 1713/1716 03005KT 4000 -RA
                      BECMG 1717/1719 09003KT=
202205170500 TAF WIHH 170500Z 1706/1806 18008KT 6000 SCT020
                      TEMPO 1708/1711 25012KT 3000 -TSRA FEW016CB
                       BKN017
                      BECMG 1714/1716 09003KT 5000 HZ=
202205162300 TAF WIHH 162300Z 1700/1800 18008KT 7000 SCT020
                      TEMPO 1708/1711 24012KT 3000 -TSRA FEW016CB
                       BKN017
                      BECMG 1714/1716 09003KT 5000 HZ=
202205161700 TAF WIHH 161700Z 1618/1718 15004KT 5000 HZ SCT018
                      BECMG 1702/1704 26012KT 7000 NSW
                      TEMPO 1708/1711 3000 -TSRA FEW016CB BKN017
                       BECMG 1713/1715 00000KT 5000 HZ=
202205161100 TAF WIHH 161100Z 1612/1712 15004KT 5000 HZ SCT018
                      TEMPO 1613/1616 3000 -RA FEW017CB
                      BECMG 1618/1620 00000KT 4000 BR=
202205160500 TAF WIHH 160500Z 1606/1706 22008KT 6000 SCT018
                      TEMPO 1607/1611 33012KT 3000 -TSRA FEW016CB
                       BKN017
                      BECMG 1614/1616 15003KT 4000 HZ=
202205152300 TAF WIHH 152300Z 1600/1700 00000KT 3000 BR SCT020
                      BECMG 1601/1603 15008KT 7000 NSW
                      TEMPO 1607/1610 27012KT 3000 -TSRA FEW017CB
                       BECMG 1614/1616 00000KT 4000 HZ=
202205151700 TAF WIHH 151700Z 1518/1618 20003KT 4000 HZ FEW022
                      BECMG 1522/1600 00000KT 3000 BR=
202205151100 TAF WIHH 151100Z 1512/1612 25004KT 5000 HZ SCT020
                      TEMPO 1512/1514 4000 -RA
                      BECMG 1517/1519 00000KT 4000 BR=
202205150500 TAF WIHH 150500Z 1506/1606 06008KT 6000 SCT020
                      TEMPO 1507/1510 4000 -RA FEW017CB
                      TEMPO 1513/1515 28006KT 3000 -TSRA FEW018CB
                       BECMG 1516/1518 00000KT 4000 HZ=
202205142300 TAF WIHH 142300Z 1500/1600 12004KT 4000 BR FEW022
                      BECMG 1502/1504 06008KT 6000 SCT020
                      TEMPO 1508/1511 4000 -RA FEW017CB
                      BECMG 1514/1516 00000KT 5000 HZ=
202205141700 TAF WIHH 141700Z NIL=
202205141100 TAF WIHH 141100Z 1412/1512 10006KT 5000 HZ SCT020
                      BECMG 1414/1416 15003KT FEW022=
202205140500 TAF WIHH 140500Z 1406/1506 03010KT 6000 SCT020
                      TEMPO 1408/1411 4000 -RA FEW017CB
                      BECMG 1414/1416 15005KT 5000 HZ=
202205132300 TAF WIHH 132300Z 1400/1500 09008KT 5000 HZ FEW022
                      TEMPO 1408/1411 03010KT 4000 -RA FEW017CB
                       SCT018
                      BECMG 1413/1415 15005KT=
202205131700 TAF WIHH 131700Z 1318/1418 23004KT 5000 HZ SCT020
                      BECMG 1401/1403 12012KT 7000 NSW=
202205131100 TAF WIHH 131100Z 1312/1412 24008KT 6000 SCT020
                      BECMG 1315/1317 15003KT 5000 HZ=
202205130500 TAF WIHH 130500Z 1306/1406 23010KT 7000 SCT020
                      TEMPO 1308/1311 30012KT 4000 -RA FEW018CB
                       BECMG 1313/1315 15004KT 5000 HZ=
202205122300 TAF WIHH 122300Z 1300/1400 24008KT 6000 SCT020
                      TEMPO 1307/1310 3000 -TSRA FEW018CB
                      BECMG 1313/1315 00000KT 5000 HZ=
202205121700 TAF WIHH 121700Z 1218/1318 15004KT 5000 HZ SCT020
                      TEMPO 1219/1222 4000 -RA
                      BECMG 1302/1304 27010KT 7000 NSW
                      TEMPO 1307/1310 3000 -TSRA FEW018CB
                      BECMG 1314/1316 00000KT 5000 HZ=
202205121100 TAF WIHH 121100Z 1212/1312 24008KT 6000 SCT020
                      BECMG 1216/1218 15003KT 5000 HZ=
202205120500 TAF WIHH 120500Z 1206/1306 23010KT 7000 SCT020
                      TEMPO 1211/1214 33008KT 4000 -RA FEW018CB
                       BECMG 1215/1217 15003KT 5000 HZ=
202205112300 TAF WIHH 112300Z 1200/1300 15005KT 5000 HZ SCT018
                      TEMPO 1200/1202 -RA
                      BECMG 1205/1207 26010KT 6000 NSW
                      TEMPO 1210/1213 3000 -RA FEW017CB
                      BECMG 1214/1216 00000KT 5000 HZ=
202205111700 TAF WIHH 111700Z 1118/1218 25004KT 5000 HZ FEW022
                      BECMG 1122/1200 00000KT 4000 BR=
202205111100 TAF WIHH 111100Z 1112/1212 19006KT 6000 SCT020
                      BECMG 1114/1116 14003KT 5000 HZ=
202205110500 TAF WIHH 110500Z 1106/1206 35008KT 6000 SCT018
                      TEMPO 1107/1110 4000 -RA FEW017CB
                      BECMG 1113/1115 15004KT 5000 HZ=
202205102300 TAF WIHH 102300Z 1100/1200 11005KT 6000 SCT020
                      TEMPO 1107/1110 35008KT 4000 -RA
                      BECMG 1114/1116 15004KT 5000 HZ=
202205101700 TAF WIHH 101700Z 1018/1118 15003KT 5000 HZ FEW022
                      BECMG 1022/1100 00000KT 4000 BR
                      BECMG 1102/1104 36008KT 6000 SCT020=
202205101100 TAF WIHH 101100Z 1012/1112 23006KT 6000 SCT020
                      BECMG 1014/1016 18003KT 5000 HZ FEW022=
202205100500 TAF WIHH 100500Z 1006/1106 03008KT 6000 SCT020
                      TEMPO 1010/1013 08010KT 3000 -TSRA FEW017CB
                       BKN018
                      BECMG 1015/1017 15003KT 5000 HZ FEW022=
202205092300 TAF WIHH 092300Z 1000/1100 13005KT 4000 HZ FEW022
                      BECMG 1002/1004 08010KT 6000 SCT020
                      TEMPO 1009/1012 02008KT 3000 -TSRA FEW017CB
                       BKN018
                      BECMG 1015/1017 18003KT 5000 HZ=
202205091700 TAF WIHH 091700Z 0918/1018 15004KT 5000 HZ SCT020
                      BECMG 1001/1003 07010KT 7000 NSW
                      TEMPO 1009/1013 16012KT 3000 -TSRA FEW017CB
                       BECMG 1014/1016 00000KT 5000 HZ=
202205091100 TAF WIHH 091100Z 0912/1012 22010KT 3000 -TSRA FEW017CB SCT018
                      BECMG 0916/0918 15003KT 5000 HZ SCT020
                      BECMG 1001/1003 03010KT 7000 NSW=
202205090500 TAF WIHH 090500Z 0906/1006 03012KT 6000 SCT018
                      BECMG 0914/0916 12004KT 5000 HZ=
202205082300 TAF WIHH 082300Z 0900/1000 06008KT 7000 SCT020
                      BECMG 0913/0915 20003KT 5000 HZ=
202205081700 TAF WIHH 081700Z 0818/0918 15004KT 5000 HZ SCT020
                      BECMG 0902/0904 06010KT 7000 NSW
                      TEMPO 0907/0910 25012KT 3000 -TSRA FEW017CB=
202205081100 TAF WIHH 081100Z 0812/0912 24008KT 7000 SCT020
                      BECMG 0816/0818 15004KT 5000 HZ=
202205080500 TAF WIHH 080500Z 0806/0906 09008KT 7000 SCT020
                      TEMPO 0809/0813 28010KT 3000 -RA FEW018CB
                       BECMG 0814/0816 15004KT 5000 HZ=
202205072300 TAF WIHH 072300Z 0800/0900 15005KT 5000 HZ SCT020
                      BECMG 0802/0804 09010KT 7000 NSW
                      TEMPO 0808/0812 29012KT 3000 -RA FEW017CB
                       BECMG 0813/0815 00000KT 5000 HZ=
202205071700 TAF WIHH 071700Z 0718/0818 15004KT 4000 HZ SCT020
                      BECMG 0801/0803 08012KT 7000 NSW
                      TEMPO 0806/0809 22012KT 3000 -TSRA FEW018CB=
202205071100 TAF WIHH 071100Z 0712/0812 28005KT 5000 HZ SCT020
                      BECMG 0715/0717 15003KT
                      BECMG 0801/0803 09010KT 7000 NSW=
202205070700 TAF AMD WIHH 070700Z 0707/0806 07008KT 5000 HZ SCT020
                      TEMPO 0707/0711 27010G25KT 1000 TSRA FEW016CB
                       BKN017
                      BECMG 0715/0717 00000KT 4000 BR=
202205070500 TAF WIHH 070500Z 0706/0806 07008KT 6000 SCT020
                      TEMPO 0708/0711 15010KT 4000 -RA FEW018CB
                       BECMG 0715/0717 00000KT 5000 HZ=
202205062300 TAF WIHH 062300Z 0700/0800 09010KT 7000 SCT022
                      BECMG 0713/0715 15004KT 5000 HZ=
202205061700 TAF WIHH 061700Z 0618/0718 22004KT 5000 HZ FEW022
                      BECMG 0622/0700 00000KT 4000 BR
                      BECMG 0702/0704 07008KT 6000 SCT020=
202205061100 TAF WIHH 061100Z 0612/0712 11008KT 6000 FEW022
                      BECMG 0615/0617 24004KT 5000 HZ=
202205060500 TAF WIHH 060500Z 0606/0706 04010KT 7000 SCT018
                      BECMG 0614/0616 24005KT 5000 HZ FEW022=
202205052300 TAF WIHH 052300Z 0600/0700 12004KT 6000 FEW022
                      BECMG 0602/0604 03010KT SCT020
                      BECMG 0614/0616 22003KT 5000 HZ=
202205051700 TAF WIHH 051700Z 0518/0618 20003KT 5000 HZ FEW022
                      BECMG 0522/0600 00000KT 3000 BR
                      BECMG 0602/0604 06008KT 6000=
202205051100 TAF WIHH 051100Z 0512/0612 15008KT 6000 FEW022
                      BECMG 0514/0516 23004KT 5000 HZ
                      BECMG 0522/0600 00000KT 3000 BR=
202205050500 TAF WIHH 050500Z 0506/0606 02010KT 6000 SCT018
                      BECMG 0514/0516 16003KT 5000 HZ FEW022
                      BECMG 0522/0600 00000KT 3000 BR=
202205042300 TAF WIHH 042300Z 0500/0600 21004KT 6000 FEW022
                      BECMG 0502/0504 08008KT SCT020
                      BECMG 0514/0516 16003KT 5000 HZ=
202205041700 TAF WIHH 041700Z 0418/0518 16004KT 5000 HZ FEW022
                      BECMG 0500/0502 23008KT 6000 SCT018=
202205041100 TAF WIHH 041100Z 0412/0512 10005KT 6000 SCT018
                      BECMG 0415/0417 17003KT 5000 HZ FEW022=
202205040500 TAF WIHH 040500Z 0406/0506 33008KT 7000 SCT018
                      BECMG 0415/0417 17003KT 4000 HZ FEW022=
202205032300 TAF WIHH 032300Z 0400/0500 23005KT 5000 HZ FEW022
                      BECMG 0402/0404 35008KT 6000 SCT020
                      BECMG 0415/0417 17003KT 4000 HZ=
202205031700 TAF WIHH 031700Z 0318/0418 03005KT 5000 HZ SCT020
                      BECMG 0401/0403 09012KT 7000 NSW=
202205031100 TAF WIHH 031100Z 0312/0412 09010KT 6000 SCT020
                      BECMG 0315/0317 00000KT 5000 HZ=
202205030500 TAF WIHH 030500Z 0306/0406 09012KT 7000 FEW020
                      TEMPO 0309/0312 01010KT 4000 -RA FEW017CB
                       SCT018
                      BECMG 0313/0315 00000KT 5000 HZ=
202205022300 TAF WIHH 022300Z 0300/0400 15005KT 7000 FEW020
                      BECMG 0304/0306 09012KT SCT018
                      TEMPO 0308/0312 23012KT 3000 -TSRA FEW017CB
                       BECMG 0315/0317 00000KT 5000 HZ=
202205021700 TAF WIHH 021700Z 0218/0318 15004KT 4000 HZ SCT018
                      BECMG 0302/0304 09012KT 7000 NSW
                      TEMPO 0307/0310 02012KT 3000 -TSRA FEW017CB
                       BECMG 0314/0316 00000KT 5000 HZ=
202205021100 TAF WIHH 021100Z 0212/0312 03008KT 3000 -TSRA FEW017CB BKN018
                      BECMG 0214/0216 28005KT 5000 HZ SCT018
                      BECMG 0302/0304 15010KT 7000 NSW=
202205020500 TAF WIHH 020500Z 0206/0306 09010KT 7000 SCT018
                      TEMPO 0206/0209 15008KT 4000 -TSRA FEW017CB
                       BECMG 0213/0215 00000KT 5000 HZ=
202205012300 TAF WIHH 012300Z 0200/0300 15005KT 7000 FEW020
                      BECMG 0205/0207 08010KT SCT018
                      TEMPO 0210/0213 15012KT 3000 -TSRA FEW017CB
                       BECMG 0215/0217 00000KT 5000 HZ=
202205011700 TAF WIHH 011700Z 0118/0218 22004KT 5000 HZ SCT020
                      BECMG 0200/0202 30008KT 6000
                      TEMPO 0207/0210 27012KT 4000 -TSRA FEW016CB=
202205011100 TAF WIHH 011100Z 0112/0212 15006KT 6000 SCT020
                      BECMG 0114/0116 20003KT 5000 HZ=
202205010500 TAF WIHH 010500Z 0106/0206 04008KT 6000 SCT018
                      TEMPO 0108/0111 16012KT 4000 -RA FEW017CB
                       BECMG 0114/0116 00000KT 5000 HZ=
