##########################################################
# Query made at 05/05/2026 03:38:25 UTC
# Time interval: from 05/01/2026 00:00  to 05/31/2026 23:59  UTC
##########################################################

##########################################################
# WIHH, Jakarta Halim Perdanakusuma (Indonesia)
# WMO index: 96747. WIGOS ID: Unknown
# Latitude 06-15S. Longitude 106-54E. Altitude 30 m.
##########################################################

###################################
#  METAR/SPECI from WIHH
###################################
202605050300 METAR WIHH 050300Z 02005KT 6000 SCT020 30/24 Q1011 NOSIG=
202605050230 METAR WIHH 050230Z 02005KT 6000 SCT020 30/24 Q1011 NOSIG=
202605050200 METAR WIHH 050200Z 03005KT 6000 SCT020 30/25 Q1011 NOSIG=
202605050130 METAR WIHH 050130Z 04005KT 6000 FEW020 28/24 Q1010 NOSIG=
202605050100 METAR WIHH 050100Z 00000KT 6000 FEW020 27/25 Q1010 NOSIG=
202605050030 METAR WIHH 050030Z 00000KT 4000 HZ FEW020 26/25 Q1009 NOSIG=
202605050000 METAR WIHH 050000Z 00000KT 4000 BR FEW020 25/25 Q1009 NOSIG=
202605042330 METAR WIHH 042330Z 00000KT 4000 BR SCT020 24/24 Q1009 NOSIG=
202605042300 METAR WIHH 042300Z 00000KT 3000 BR SCT020 24/24 Q1009 NOSIG=
202605042230 METAR WIHH 042230Z 00000KT 5000 BR SCT020 24/24 Q1009 NOSIG=
202605042200 METAR WIHH 042200Z 00000KT 5000 BR SCT020 24/24 Q1009 NOSIG=
202605042130 METAR WIHH 042130Z 00000KT 5000 HZ FEW020 24/24 Q1009 NOSIG=
202605042100 METAR WIHH 042100Z 00000KT 5000 HZ FEW020 24/24 Q1008=
202605042030 METAR WIHH 042030Z 00000KT 5000 HZ FEW020 24/24 Q1008 NOSIG=
202605042000 METAR WIHH 042000Z 00000KT 5000 HZ FEW020 25/25 Q1008 NOSIG=
202605041930 METAR WIHH 041930Z 00000KT 5000 HZ FEW020 25/24 Q1009 NOSIG=
202605041900 METAR WIHH 041900Z 00000KT 5000 HZ FEW020 25/24 Q1009 NOSIG=
202605041830 METAR WIHH 041830Z 00000KT 5000 HZ FEW020 25/25 Q1009 NOSIG=
202605041800 METAR WIHH 041800Z 00000KT 5000 HZ FEW020 25/25 Q1009 NOSIG=
202605041730 METAR WIHH 041730Z 00000KT 6000 FEW020 25/25 Q1009 NOSIG=
202605041700 METAR WIHH 041700Z 16003KT 6000 FEW018 25/25 Q1010 NOSIG=
202605041630 METAR WIHH 041630Z 00000KT 6000 FEW020 25/25 Q1010 NOSIG=
202605041600 METAR WIHH 041600Z 00000KT 7000 SCT016 24/24 Q1010 RMK RA TO N=
202605041530 METAR WIHH 041530Z 00000KT 7000 FEW016 24/24 Q1010 NOSIG=
202605041500 METAR WIHH 041500Z 15003KT 6000 SCT016 24/24 Q1009 RMK RA TO N=
202605041430 METAR WIHH 041430Z 19004KT 6000 SCT016 24/24 Q1010 RMK RA TO S=
202605041400 METAR WIHH 041400Z 14004KT 6000 -RA SCT016 24/24 Q1010 NOSIG=
202605041330 METAR WIHH 041330Z 13004KT 6000 -RA SCT016 25/25 Q1010 NOSIG=
202605041300 METAR WIHH 041300Z 11005KT 6000 -RA SCT016 25/25 Q1011 NOSIG=
202605041230 METAR WIHH 041230Z 09003KT 6000 TS SCT016 FEW018CB 25/25 Q1011 RMK CB AND RA TO N=
202605041210 SPECI WIHH 041210Z 14004KT 6000 TS SCT016 FEW018CB 24/24 Q1011 RMK CB AND RA TO NE=
202605041200 METAR WIHH 041200Z 21004KT 5000 -TSRA SCT014 FEW016CB 24/24 Q1011 RMK CB TO NE=
202605041130 METAR WIHH 041130Z 02004KT 4000 -TSRA BKN014 FEW016CB 24/24 Q1011 RMK CB OTF=
202605041100 METAR WIHH 041100Z 23004KT 2000 -TSRA BKN014 FEW016CB 24/24 Q1011 RMK CB OTF=
202605041039 SPECI WIHH 041039Z 04004KT 0800 TSRA BKN014 FEW016CB 25/25 Q1010 RMK CB OTF=
202605041030 METAR WIHH 041030Z 04006KT 1500 TSRA BKN014 FEW016CB 25/25 Q1010 RMK CB TO W=
202605041000 METAR WIHH 041000Z 28005KT 5000 -TSRA BKN014 FEW016CB 25/25 Q1010 RMK CB TO W=
202605040930 METAR WIHH 040930Z 11005KT 5000 TS BKN014 26/24 Q1009 RMK CB AND RA TO S-W=
202605040900 METAR WIHH 040900Z 06008KT 5000 TS BKN014 FEW016CB 29/25 Q1008 RMK CB AND RA TO S-W=
202605040830 METAR WIHH 040830Z 04007KT 5000 -TSRA BKN016 FEW017CB 29/27 Q1008 RMK CB TO SW=
202605040800 METAR WIHH 040800Z 03006KT 3000 BKN016 FEW017CB 29/27 Q1008 RMK CB TO SE=
202605040730 METAR WIHH 040730Z 34008KT 2000 -TSRA BKN016 FEW017CB 27/26 Q1008 RMK CB TO SE=
202605040710 SPECI WIHH 040710Z 35007KT 4000 -TSRA BKN016 FEW017CB 29/27 Q1008 RMK CB TO SE=
202605040700 METAR WIHH 040700Z 35007KT 6000 SCT016 FEW017CB 31/25 Q1008 RMK CB AND RA TO SE=
202605040630 METAR WIHH 040630Z 35010KT 6000 SCT016 FEW017CB 30/25 Q1008 RMK CB AN D RA TO SE=
202605040600 METAR WIHH 040600Z 33005KT 6000 TS SCT016 FEW017CB 30/25 Q1009 RMK CB AND RA TO S=
202605040530 METAR WIHH 040530Z 33010KT 6000 SCT015 FEW017CB 31/25 Q1009 RMK CB AND RA TO S=
202605040500 METAR WIHH 040500Z 03012KT 6000 TS SCT015 FEW017CB 30/26 Q1009 RMK CB AND RA TO N=
202605040430 METAR WIHH 040430Z 09005KT 6000 SCT018 34/23 Q1009 RMK RA TO NE=
202605040400 METAR WIHH 040400Z 15006KT 6000 SCT018 33/24 Q1010 NOSIG=
202605040330 METAR WIHH 040330Z 09005KT 7000 SCT018 32/24 Q1010 NOSIG=
202605040300 METAR WIHH 040300Z 18003KT 7000 SCT020 32/24 Q1011 NOSIG=
202605040230 METAR WIHH 040230Z 14004KT 7000 FEW020 33/24 Q1011 NOSIG=
202605040200 METAR WIHH 040200Z 13004KT 7000 FEW020 31/24 Q1011 NOSIG=
202605040130 METAR WIHH 040130Z 23005KT 6000 FEW020 30/25 Q1011 NOSIG=
202605040100 METAR WIHH 040100Z 24003KT 6000 FEW020 28/25 Q1010 NOSIG=
202605040030 METAR WIHH 040030Z 22004KT 6000 FEW020 27/25 Q1010 NOSIG=
202605040000 METAR WIHH 040000Z 24004KT 5000 BR FEW020 26/25 Q1010 NOSIG=
202605032330 METAR WIHH 032330Z 00000KT 4000 BR FEW020 25/25 Q1010 NOSIG=
202605032300 METAR WIHH 032300Z 20003KT 4000 BR FEW020 25/25 Q1009 NOSIG=
202605032230 METAR WIHH 032230Z 00000KT 5000 BR FEW020 25/25 Q1009 NOSIG=
202605032200 METAR WIHH 032200Z 21004KT 5000 BR FEW020 25/25 Q1009 NOSIG=
202605032130 METAR WIHH 032130Z 22005KT 6000 FEW020 25/25 Q1009 NOSIG=
202605032100 METAR WIHH 032100Z 00000KT 6000 FEW020 25/25 Q1009 NOSIG=
202605032030 METAR WIHH 032030Z 00000KT 7000 FEW020 25/25 Q1009 NOSIG=
202605032000 METAR WIHH 032000Z 00000KT 8000 FEW020 25/25 Q1009 NOSIG=
202605031930 METAR WIHH 031930Z 00000KT 8000 FEW020 25/25 Q1009 NOSIG=
202605031900 METAR WIHH 031900Z 00000KT 8000 FEW020 25/25 Q1009 NOSIG=
202605031830 METAR WIHH 031830Z 00000KT 8000 FEW020 26/24 Q1009 NOSIG=
202605031800 METAR WIHH 031800Z 00000KT 8000 FEW020 26/24 Q1010 NOSIG=
202605031730 METAR WIHH 031730Z 23002KT 7000 FEW020 26/25 Q1010 NOSIG=
202605031700 METAR WIHH 031700Z 22004KT 7000 FEW020 26/25 Q1010 NOSIG=
202605031630 METAR WIHH 031630Z 21004KT 7000 FEW020 26/25 Q1011 NOSIG=
202605031600 METAR WIHH 031600Z 22004KT 7000 FEW018 26/25 Q1011 NOSIG=
202605031530 METAR WIHH 031530Z 21004KT 7000 SCT017 26/25 Q1011 NOSIG=
202605031500 METAR WIHH 031500Z 20005KT 7000 SCT017 26/25 Q1011 NOSIG=
202605031430 METAR WIHH 031430Z 18003KT 7000 SCT016 26/25 Q1010 NOSIG=
202605031400 METAR WIHH 031400Z 18009KT 7000 SCT017 27/25 Q1010 NOSIG=
202605031330 METAR WIHH 031330Z 23005KT 7000 SCT016 FEW017CB 28/25 Q1010 NOSIG RMK CB AND RA TO SW-W=
202605031300 METAR WIHH 031300Z 19010KT 7000 SCT016 FEW017CB 29/25 Q1010 NOSIG RMK CB AND RA TO SW=
202605031230 METAR WIHH NIL=
202605031200 METAR WIHH 031200Z 05013KT 6000 FEW016CB BKN017 29/25 Q1009 RMK CB AND RA TO S-SW=
202605031130 METAR WIHH 031130Z 06010KT 6000 SCT016 FEW017CB 30/24 Q1008 RMK CB AND RA TO S-SW=
202605031100 METAR WIHH 031100Z 03010KT 6000 SCT016 FEW017CB 30/24 Q1008 RMK CB AND RA TO SW-W=
202605031030 METAR WIHH 031030Z 04008KT 6000 SCT016 FEW017CB 31/24 Q1007 RMK CB AN D RA TO SW=
202605031000 METAR WIHH 031000Z 03010KT 7000 SCT016 FEW017CB 31/24 Q1007 RMK CB AND RA TO SW=
202605030930 METAR WIHH 030930Z 05012KT 7000 SCT016 FEW017CB 31/24 Q1006 RMK CB AN D RA TO SW=
202605030900 METAR WIHH 030900Z 03012KT 7000 SCT016 FEW017CB 33/24 Q1006 RMK CB AN D RA TO S=
202605030830 METAR WIHH 030830Z 03014KT 7000 SCT016 FEW017CB 32/25 Q1006 RMK CB AN D RA TO S=
202605030800 METAR WIHH 030800Z 03010KT 7000 TS SCT016 FEW017CB 32/25 Q1006 RMK CB AND RA TO SW=
202605030730 METAR WIHH 030730Z 24004KT 5000 TS SCT016 FEW017CB 29/25 Q1006 RMK CB TO SE=
202605030700 METAR WIHH 030700Z 16003KT 3000 -RA SCT016 FEW017CB 32/25 Q1006 RMK CB TO SE-S=
202605030630 METAR WIHH 030630Z 02010KT 7000 SCT017 34/24 Q1007 RMK RA TO SE=
202605030600 METAR WIHH 030600Z 02006KT 8000 SCT017 34/24 Q1007 NOSIG=
202605030530 METAR WIHH 030530Z 03006KT 8000 SCT017 33/24 Q1008 NOSIG=
202605030500 METAR WIHH 030500Z 07007KT 8000 SCT018 33/24 Q1008 NOSIG=
202605030430 METAR WIHH 030430Z 06004KT 7000 SCT018 33/24 Q1009 NOSIG=
202605030400 METAR WIHH 030400Z 04006KT 6000 SCT018 33/24 Q1009 NOSIG=
202605030330 METAR WIHH 030330Z 06006KT 6000 SCT020 32/24 Q1010 NOSIG=
202605030300 METAR WIHH 030300Z 04005KT 6000 FEW020 32/24 Q1010 NOSIG=
202605030230 METAR WIHH 030230Z 08005KT 5000 HZ FEW020 31/25 Q1010 NOSIG=
202605030200 METAR WIHH 030200Z 09001KT 5000 HZ FEW020 30/25 Q1010 NOSIG=
202605030130 METAR WIHH 030130Z 00000KT 3000 HZ FEW020 29/25 Q1010 NOSIG=
202605030100 METAR WIHH 030100Z 00000KT 3000 BR FEW020 28/26 Q1009 NOSIG=
202605030030 METAR WIHH 030030Z 00000KT 2000 BR FEW020 26/26 Q1009 NOSIG=
202605030000 METAR WIHH 030000Z 00000KT 1000 BR FEW020 26/26 Q1009 NOSIG=
202605022330 METAR WIHH 022330Z 00000KT 1000 BR NSC 25/25 Q1008 NOSIG=
202605022300 METAR WIHH 022300Z 00000KT 0100 FG NSC 25/25 Q1008 NOSIG=
202605022230 METAR WIHH 022230Z 00000KT 0200 FG NSC 25/25 Q1007 NOSIG=
202605022200 METAR WIHH 022200Z 00000KT 0200 FG NSC 25/25 Q1007 NOSIG=
202605022130 METAR WIHH 022130Z 00000KT 0200 FG NSC 25/25 Q1008=
202605022100 METAR WIHH 022100Z 00000KT 2000 BR FEW018 25/25 Q1008 NOSIG=
202605022030 METAR WIHH 022030Z 00000KT 2000 BR FEW018 25/25 Q1008 NOSIG=
202605022000 METAR WIHH 022000Z 00000KT 2000 BR FEW018 25/25 Q1008 NOSIG=
202605021930 METAR WIHH 021930Z 00000KT 3000 BR FEW018 25/25 Q1008 NOSIG=
202605021900 METAR WIHH 021900Z 00000KT 3000 BR FEW020 25/25 Q1008 NOSIG=
202605021830 METAR WIHH 021830Z 00000KT 2000 BR FEW020 25/25 Q1008 NOSIG=
202605021800 METAR WIHH 021800Z 00000KT 2000 BR FEW020 25/25 Q1008 NOSIG=
202605021730 METAR WIHH 021730Z 00000KT 5000 HZ FEW020 25/25 Q1009 NOSIG=
202605021700 METAR WIHH 021700Z 00000KT 5000 HZ FEW020 25/25 Q1009 NOSIG=
202605021630 METAR WIHH 021630Z 00000KT 2000 FEW020 25/25 Q1009 NOSIG=
202605021600 METAR WIHH 021600Z 00000KT 2000 BR FEW020 25/25 Q1009 NOSIG=
202605021530 METAR WIHH 021530Z 00000KT 2000 BR FEW020 25/25 Q1009 NOSIG=
202605021500 METAR WIHH 021500Z 00000KT 3000 BR SCT016 25/25 Q1009 NOSIG=
202605021430 METAR WIHH 021430Z 00000KT 3000 BR SCT016 25/25 Q1009 NOSIG=
202605021400 METAR WIHH 021400Z 22002KT 3000 BR SCT016 25/25 Q1009 NOSIG=
202605021330 METAR WIHH 021330Z 00000KT 4000 BR SCT016 26/26 Q1009 NOSIG=
202605021300 METAR WIHH 021300Z 00000KT 4000 BR SCT016 25/25 Q1009 NOSIG=
202605021230 METAR WIHH 021230Z 00000KT 4000 BR SCT017 25/25 Q1008 NOSIG=
202605021200 METAR WIHH 021200Z 00000KT 3000 BR SCT017 26/25 Q1008 NOSIG=
202605021130 METAR WIHH 021130Z 00000KT 4000 BR SCT017 26/25 Q1007 NOSIG=
202605021100 METAR WIHH 021100Z 00000KT 2000 BR SCT017 26/26 Q1007 NOSIG=
202605021030 METAR WIHH 021030Z 09003KT 6000 SCT017 26/26 Q1007 NOSIG RMK RA TO SW=
202605021000 METAR WIHH 021000Z 00000KT 6000 SCT017 26/26 Q1007 NOSIG=
202605020930 METAR WIHH 020930Z 00000KT 6000 SCT017 26/26 Q1007 RMK RA TO NW=
202605020900 METAR WIHH 020900Z 18005KT 5000 -TSRA SCT015 FEW017CB 25/25 Q1007 RMK CB TO NW=
202605020830 METAR WIHH 020830Z 12010KT 5000 -TSRA SCT015 FEW017CB 25/25 Q1007 RMK CB TO NW=
202605020800 METAR WIHH 020800Z 12010KT 4000 -TSRA BKN013 FEW016CB 25/25 Q1007 RMK CB OTF=
202605020730 METAR WIHH 020730Z 12010KT 3000 -TSRA BKN013 FEW016CB 25/24 Q1007 RMK CB OVER THE FIELD=
202605020700 METAR WIHH 020700Z 04010KT 1000 TSRA BKN013 FEW016CB 26/26 Q1007 RMK CB OVER THE FIELD=
202605020637 SPECI WIHH 020637Z 04012KT 1500 TSRA SCT013 FEW016CB 28/26 Q1007 RMK CB OVER THE FIELD=
202605020630 METAR WIHH 020630Z 03005KT 4000 -RA BKN015 FEW017CB 31/25 Q1007 RMK C B OVER THE FIELD=
202605020600 METAR WIHH 020600Z 24005KT 6000 SCT015 FEW017CB 31/25 Q1008 RMK CB AND RA TO NW=
202605020530 METAR WIHH 020530Z 20005KT 6000 SCT015 FEW017CB 32/25 Q1008 RMK CB AN D RA TO W=
202605020500 METAR WIHH 020500Z 18005KT 5000 HZ BKN015 FEW017CB 28/23 Q1009 RMK CB TO N=
202605020430 METAR WIHH 020430Z 02004KT 5000 -RA BKN015 FEW017CB 31/23 Q1009 RMK C B TO N=
202605020409 SPECI WIHH 020409Z 00000KT 5000 -RA BKN015 FEW017CB 32/23 Q1009 RMK CB TO N=
202605020400 METAR WIHH 020400Z 28003KT 6000 SCT016 32/24 Q1009 NOSIG RMK RA TO N AND E=
202605020330 METAR WIHH 020330Z 06004KT 7000 SCT020 33/23 Q1010 NOSIG=
202605020300 METAR WIHH 020300Z 06005KT 7000 FEW020 32/22 Q1010 NOSIG=
202605020230 METAR WIHH 020230Z 00000KT 6000 FEW019 32/23 Q1010 NOSIG=
202605020200 METAR WIHH 020200Z 00000KT 6000 FEW020 31/23 Q1010 NOSIG=
202605020130 METAR WIHH 020130Z 00000KT 6000 FEW020 31/23 Q1010 NOSIG=
202605020100 METAR WIHH 020100Z 00000KT 5000 HZ FEW020 29/24 Q1010 NOSIG=
202605020030 METAR WIHH 020030Z 00000KT 4000 BR FEW020 26/26 Q1009 NOSIG=
202605020000 METAR WIHH 020000Z 00000KT 3000 BR FEW020 25/25 Q1009 NOSIG=
202605012330 METAR WIHH 012330Z 00000KT 3000 BR FEW020 24/24 Q1008 NOSIG=
202605012300 METAR WIHH 012300Z 00000KT 3000 BR FEW020 24/24 Q1008 NOSIG=
202605012230 METAR WIHH 012230Z 00000KT 3000 BR FEW020 24/24 Q1008 NOSIG=
202605012200 METAR WIHH 012200Z 00000KT 3000 BR FEW020 24/24 Q1008 NOSIG=
202605012130 METAR WIHH 012130Z 00000KT 3000 BR FEW020 24/24 Q1008 NOSIG=
202605012100 METAR WIHH 012100Z 00000KT 4000 BR FEW020 24/24 Q1008 NOSIG=
202605012000 METAR WIHH 012000Z 00000KT 6000 SCT015 24/24 Q1008 NOSIG=
202605011930 METAR WIHH 011930Z 00000KT 6000 SCT015 24/24 Q1008 NOSIG=
202605011900 METAR WIHH 011900Z 00000KT 6000 SCT015 24/24 Q1008 NOSIG=
202605011830 METAR WIHH 011830Z 00000KT 4000 HZ FEW020 25/25 Q1009 NOSIG=
202605011800 METAR WIHH 011800Z 00000KT 4000 HZ FEW020 25/25 Q1009 NOSIG=
202605011730 METAR WIHH 011730Z 00000KT 5000 HZ FEW020 25/25 Q1009 NOSIG=
202605011700 METAR WIHH 011700Z 00000KT 5000 FEW020 25/25 Q1009 NOSIG=
202605011630 METAR WIHH 011630Z 00000KT 5000 HZ FEW020 25/25 Q1010 NOSIG=
202605011600 METAR WIHH 011600Z 00000KT 5000 HZ FEW020 25/25 Q1009 NOSIG=
202605011530 METAR WIHH 011530Z 00000KT 6000 FEW020 25/25 Q1010 NOSIG=
202605011500 METAR WIHH 011500Z 29003KT 6000 BKN015 25/24 Q1009 NOSIG=
202605011430 METAR WIHH 011430Z 33003KT 6000 BKN015 25/24 Q1009 NOSIG=
202605011400 METAR WIHH 011400Z 14003KT 6000 BKN015 25/24 Q1009 NOSIG=
202605011330 METAR WIHH 011330Z 17003KT 6000 BKN015 25/24 Q1009 NOSIG=
202605011300 METAR WIHH 011300Z 21003KT 6000 BKN015 25/24 Q1009 NOSIG=
202605011230 METAR WIHH 011230Z 05004KT 6000 BKN015 25/25 Q1009 RMK RA TO SW=
202605011200 METAR WIHH 011200Z 17004KT 6000 -RA BKN015 25/25 Q1008 NOSIG=
202605011130 METAR WIHH 011130Z 21005KT 6000 -RA BKN015 25/25 Q1008 NOSIG=
202605011100 METAR WIHH 011100Z 21004KT 6000 BKN015 25/24 Q1008 RMK RA TO S=
202605011030 METAR WIHH 011030Z 18004KT 5000 -TSRA BKN015 FEW017CB 25/24 Q1008 RMK CB TO S=
202605011000 METAR WIHH 011000Z 15005KT 2000 -TSRA BKN015 FEW017CB 25/24 Q1009 RMK CB TO S=
202605010935 SPECI WIHH 010935Z 13015KT 2000 -TSRA BKN015 FEW017CB 26/24 Q1009 RMK CB TO SE=
202605010930 METAR WIHH 010930Z 21015KT 6000 BKN015 26/24 Q1008 RMK CB AND RA TO S=
202605010900 METAR WIHH 010900Z 19015KT 6000 BKN015 FEW017CB 27/25 Q1008 RMK CB AND RA TO S=
202605010830 METAR WIHH 010830Z 16005KT 6000 TS SCT015 FEW017CB 27/24 Q1007 RMK CB AND RA TO S=
202605010800 METAR WIHH 010800Z 14005KT 5000 -TSRA SCT015 FEW017CB 26/24 Q1007 RMK CB TO S=
202605010730 METAR WIHH 010730Z 09015KT 3000 -TSRA SCT015 FEW017CB 27/24 Q1007 RMK CB TO S=
202605010700 METAR WIHH 010700Z 03015KT 4000 -TSRA SCT015 27/24 Q1007 RMK CB TO SE=
202605010635 SPECI WIHH 010635Z 01012KT 5000 -TSRA SCT015 33/25 Q1007 RMK CB TO E=
202605010630 METAR WIHH 010630Z 35010KT 9999 SCT015 34/24 Q1007 RMK RA TO NE=
202605010600 METAR WIHH 010600Z 03005KT 9999 SCT015 35/22 Q1008 NOSIG=
202605010530 METAR WIHH 010530Z 06006KT 9999 SCT015 35/22 Q1008 NOSIG=
202605010500 METAR WIHH 010500Z 33004KT 9999 SCT015 34/22 Q1009 NOSIG=
202605010430 METAR WIHH 010430Z 09005KT 9999 SCT015 34/22 Q1009 NOSIG=
202605010400 METAR WIHH 010400Z 09005KT 9999 SCT015 34/23 Q1010 NOSIG=
202605010330 METAR WIHH 010330Z 17007KT 9999 SCT015 33/24 Q1011 NOSIG=
202605010300 METAR WIHH 010300Z 11005KT 9999 FEW015 32/23 Q1011 NOSIG=
202605010230 METAR WIHH 010230Z 10005KT 9999 FEW015 31/23 Q1011 NOSIG=
202605010200 METAR WIHH 010200Z 09005KT 6000 FEW015 30/23 Q1011 NOSIG=
202605010130 METAR WIHH 010130Z 08004KT 6000 FEW020 28/24 Q1011 NOSIG=
202605010100 METAR WIHH 010100Z 09002KT 5000 HZ SCT018 27/24 Q1011 NOSIG=
202605010030 METAR WIHH 010030Z 11005KT 5000 HZ SCT018 26/24 Q1011 NOSIG=
202605010000 METAR WIHH 010000Z 00000KT 6000 SCT018 26/26 Q1010 NOSIG=

# No short TAF reports from WIHH in databse.

###################################
#  large TAF from WIHH
###################################
202605042300 TAF WIHH 042300Z 0500/0600 06005KT 7000 SCT018
                      TEMPO 0508/0512 15015KT 3000 -TSRA BKN015
                       FEW017CB
                      BECMG 0513/0515 20005KT 5000 HZ FEW020=
202605041700 TAF WIHH 041700Z 0418/0518 16003KT 5000 HZ FEW020
                      BECMG 0420/0422 00000KT 3000 BR=
202605041100 TAF WIHH 041100Z 0412/0512 20008KT 3000 -TSRA BKN015 FEW017CB
                      BECMG 0415/0417 00000KT 5000 HZ SCT020=
202605040500 TAF WIHH 040500Z 0406/0506 03010KT 7000 SCT018
                      TEMPO 0406/0410 16015KT 3000 -TSRA BKN015
                       FEW017CB
                      BECMG 0412/0414 11005KT 5000 HZ=
202605032300 TAF WIHH 032300Z 0400/0500 09006KT 7000 FEW020
                      TEMPO 0407/0410 15015KT 3000 -TSRA BKN015
                       FEW017CB
                      BECMG 0412/0414 5000 HZ SCT018=
202605031700 TAF WIHH 031700Z 0318/0418 12005KT 7000 SCT020
                      BECMG 0322/0400 00000KT 4000 BR FEW020
                      TEMPO 0407/0410 05015KT 3000 -TSRA BKN015
                       FEW017CB=
202605031100 TAF WIHH 031100Z 0312/0412 06006KT 6000 SCT018
                      BECMG 0317/0319 00000KT 5000 HZ=
202605030500 TAF WIHH 030500Z 0306/0406 09006KT 7000 SCT018
                      TEMPO 0309/0312 15015KT 3000 -TSRA BKN015
                       FEW017CB
                      BECMG 0313/0315 5000 HZ=
202605022300 TAF WIHH 022300Z 0300/0400 18005KT 5000 HZ FEW020
                      BECMG 0302/0304 04008KT 7000 SCT018
                      TEMPO 0306/0310 12015KT 3000 -TSRA FEW015CB
                       BKN016=
202605021700 TAF WIHH 021700Z 0218/0318 20005KT 6000 SCT020
                      BECMG 0221/0223 VRB03KT 5000 HZ FEW020
                      TEMPO 0306/0309 04015KT 3000 -TSRA FEW016CB
                       BKN018=
202605021100 TAF WIHH 021100Z 0212/0312 17005KT 5000 HZ SCT018
                      BECMG 0217/0219 VRB03KT 6000=
202605020500 TAF WIHH 020500Z 0206/0306 09006KT 6000 SCT018
                      TEMPO 0206/0209 03015KT 3000 -TSRA BKN016
                       FEW017CB
                      BECMG 0212/0214 17005KT 5000 HZ=
202605012300 TAF WIHH 012300Z 0200/0300 36005KT 6000 FEW020
                      TEMPO 0207/0210 12015KT 3000 -TSRA BKN016
                       FEW017CB
                      TEMPO 0213/0216 4000 -RA BKN015=
202605011700 TAF WIHH 011700Z 0118/0218 00000KT 4000 HZ FEW020
                      BECMG 0201/0203 24006KT 7000 SCT018=
202605011150 TAF COR WIHH 011150Z 0112/0212 16005KT 7000 BKN015
                      TEMPO 0112/0115 5000 -RA
                      BECMG 0118/0120 00000KT 5000 HZ SCT018=
202605011100 TAF WIHH 011100Z 0112/0212 16005KT 7000 BKN015
                      BECMG 0118/0120 00000KT 5000 HZ SCT018=
202605010500 TAF WIHH 010500Z 0106/0206 03008KT 9999 SCT018
                      TEMPO 0109/0112 16015KT 3000 -TSRA BKN015
                       FEW017CB
                      BECMG 0114/0116 20005KT 8000 FEW020=
