##########################################################
# Query made at 05/05/2026 03:18:31 UTC
# Time interval: from 06/01/2022 00:00  to 06/30/2022 23:59  UTC
##########################################################

##########################################################
# WIHH, Jakarta Halim Perdanakusuma (Indonesia)
# WMO index: 96747. WIGOS ID: Unknown
# Latitude 06-15S. Longitude 106-54E. Altitude 30 m.
##########################################################

###################################
#  METAR/SPECI from WIHH
###################################
202206302330 METAR WIHH NIL=
202206302300 METAR WIHH NIL=
202206302230 METAR WIHH NIL=
202206302200 METAR WIHH NIL=
202206302130 METAR WIHH NIL=
202206302100 METAR WIHH NIL=
202206302030 METAR WIHH NIL=
202206302000 METAR WIHH NIL=
202206301930 METAR WIHH NIL=
202206301900 METAR WIHH NIL=
202206301830 METAR WIHH NIL=
202206301800 METAR WIHH NIL=
202206301730 METAR WIHH NIL=
202206301700 METAR WIHH NIL=
202206301630 METAR WIHH NIL=
202206301600 METAR WIHH NIL=
202206301530 METAR WIHH NIL=
202206301500 METAR WIHH NIL=
202206301430 METAR WIHH NIL=
202206301400 METAR WIHH NIL=
202206301330 METAR WIHH NIL=
202206301300 METAR WIHH NIL=
202206301230 METAR WIHH NIL=
202206301200 METAR WIHH NIL=
202206301130 METAR WIHH NIL=
202206301100 METAR WIHH NIL=
202206301030 METAR WIHH NIL=
202206301000 METAR WIHH NIL=
202206300930 METAR WIHH NIL=
202206300900 METAR WIHH NIL=
202206300830 METAR WIHH NIL=
202206300800 METAR WIHH NIL=
202206300730 METAR WIHH NIL=
202206300700 METAR WIHH NIL=
202206300630 METAR WIHH NIL=
202206300600 METAR WIHH NIL=
202206300530 METAR WIHH NIL=
202206300500 METAR WIHH NIL=
202206300430 METAR WIHH NIL=
202206300400 METAR WIHH NIL=
202206300330 METAR WIHH NIL=
202206300300 METAR WIHH NIL=
202206300230 METAR WIHH NIL=
202206300200 METAR WIHH NIL=
202206300130 METAR WIHH NIL=
202206300100 METAR WIHH NIL=
202206300030 METAR WIHH NIL=
202206300000 METAR WIHH NIL=
202206292330 METAR WIHH NIL=
202206292300 METAR WIHH NIL=
202206292230 METAR WIHH NIL=
202206292200 METAR WIHH NIL=
202206292130 METAR WIHH NIL=
202206292100 METAR WIHH NIL=
202206292030 METAR WIHH NIL=
202206292000 METAR WIHH NIL=
202206291930 METAR WIHH NIL=
202206291900 METAR WIHH NIL=
202206291830 METAR WIHH NIL=
202206291800 METAR WIHH NIL=
202206291730 METAR WIHH NIL=
202206291700 METAR WIHH NIL=
202206291630 METAR WIHH NIL=
202206291600 METAR WIHH NIL=
202206291530 METAR WIHH NIL=
202206291500 METAR WIHH NIL=
202206291430 METAR WIHH NIL=
202206291400 METAR WIHH NIL=
202206291330 METAR WIHH NIL=
202206291300 METAR WIHH NIL=
202206291230 METAR WIHH NIL=
202206291200 METAR WIHH NIL=
202206291130 METAR WIHH NIL=
202206291100 METAR WIHH NIL=
202206291030 METAR WIHH NIL=
202206291000 METAR WIHH NIL=
202206290930 METAR WIHH NIL=
202206290900 METAR WIHH NIL=
202206290830 METAR WIHH NIL=
202206290800 METAR WIHH NIL=
202206290730 METAR WIHH NIL=
202206290700 METAR WIHH NIL=
202206290630 METAR WIHH NIL=
202206290600 METAR WIHH NIL=
202206290530 METAR WIHH NIL=
202206290500 METAR WIHH NIL=
202206290430 METAR WIHH NIL=
202206290400 METAR WIHH NIL=
202206290330 METAR WIHH NIL=
202206290300 METAR WIHH NIL=
202206290230 METAR WIHH NIL=
202206290200 METAR WIHH NIL=
202206290130 METAR WIHH NIL=
202206290100 METAR WIHH NIL=
202206290030 METAR WIHH NIL=
202206290000 METAR WIHH NIL=
202206282330 METAR WIHH NIL=
202206282300 METAR WIHH NIL=
202206282230 METAR WIHH NIL=
202206282200 METAR WIHH NIL=
202206282130 METAR WIHH NIL=
202206282100 METAR WIHH NIL=
202206282030 METAR WIHH NIL=
202206282000 METAR WIHH NIL=
202206281930 METAR WIHH NIL=
202206281900 METAR WIHH NIL=
202206281830 METAR WIHH NIL=
202206281800 METAR WIHH NIL=
202206281730 METAR WIHH NIL=
202206281700 METAR WIHH NIL=
202206281630 METAR WIHH NIL=
202206281600 METAR WIHH NIL=
202206281530 METAR WIHH NIL=
202206281500 METAR WIHH NIL=
202206281430 METAR WIHH NIL=
202206281400 METAR WIHH NIL=
202206281330 METAR WIHH NIL=
202206281300 METAR WIHH NIL=
202206281230 METAR WIHH NIL=
202206281200 METAR WIHH NIL=
202206281130 METAR WIHH NIL=
202206281100 METAR WIHH NIL=
202206281030 METAR WIHH NIL=
202206281000 METAR WIHH NIL=
202206280930 METAR WIHH NIL=
202206280900 METAR WIHH NIL=
202206280830 METAR WIHH NIL=
202206280800 METAR WIHH NIL=
202206280730 METAR WIHH NIL=
202206280700 METAR WIHH NIL=
202206280630 METAR WIHH NIL=
202206280600 METAR WIHH NIL=
202206280530 METAR WIHH NIL=
202206280500 METAR WIHH NIL=
202206280430 METAR WIHH NIL=
202206280400 METAR WIHH NIL=
202206280330 METAR WIHH NIL=
202206280300 METAR WIHH NIL=
202206280230 METAR WIHH NIL=
202206280200 METAR WIHH NIL=
202206280130 METAR WIHH NIL=
202206280100 METAR WIHH NIL=
202206280030 METAR WIHH NIL=
202206280000 METAR WIHH NIL=
202206272330 METAR WIHH NIL=
202206272300 METAR WIHH NIL=
202206272230 METAR WIHH NIL=
202206272200 METAR WIHH NIL=
202206272130 METAR WIHH NIL=
202206272100 METAR WIHH NIL=
202206272030 METAR WIHH NIL=
202206272000 METAR WIHH NIL=
202206271930 METAR WIHH NIL=
202206271900 METAR WIHH NIL=
202206271830 METAR WIHH NIL=
202206271800 METAR WIHH NIL=
202206271730 METAR WIHH NIL=
202206271700 METAR WIHH NIL=
202206271630 METAR WIHH NIL=
202206271600 METAR WIHH NIL=
202206271530 METAR WIHH NIL=
202206271500 METAR WIHH NIL=
202206271430 METAR WIHH NIL=
202206271400 METAR WIHH NIL=
202206271330 METAR WIHH NIL=
202206271300 METAR WIHH NIL=
202206271230 METAR WIHH NIL=
202206271200 METAR WIHH NIL=
202206271130 METAR WIHH NIL=
202206271100 METAR WIHH NIL=
202206271030 METAR WIHH NIL=
202206271000 METAR WIHH NIL=
202206270930 METAR WIHH NIL=
202206270900 METAR WIHH NIL=
202206270830 METAR WIHH NIL=
202206270800 METAR WIHH NIL=
202206270730 METAR WIHH NIL=
202206270700 METAR WIHH NIL=
202206270630 METAR WIHH NIL=
202206270600 METAR WIHH NIL=
202206270530 METAR WIHH NIL=
202206270500 METAR WIHH NIL=
202206270430 METAR WIHH NIL=
202206270400 METAR WIHH NIL=
202206270330 METAR WIHH NIL=
202206270300 METAR WIHH NIL=
202206270230 METAR WIHH NIL=
202206270200 METAR WIHH NIL=
202206270130 METAR WIHH NIL=
202206270100 METAR WIHH NIL=
202206270030 METAR WIHH NIL=
202206270000 METAR WIHH NIL=
202206262330 METAR WIHH NIL=
202206262300 METAR WIHH NIL=
202206262230 METAR WIHH NIL=
202206262200 METAR WIHH NIL=
202206262130 METAR WIHH NIL=
202206262100 METAR WIHH NIL=
202206262030 METAR WIHH NIL=
202206262000 METAR WIHH NIL=
202206261930 METAR WIHH NIL=
202206261900 METAR WIHH NIL=
202206261830 METAR WIHH NIL=
202206261800 METAR WIHH NIL=
202206261730 METAR WIHH NIL=
202206261700 METAR WIHH NIL=
202206261630 METAR WIHH NIL=
202206261600 METAR WIHH NIL=
202206261530 METAR WIHH NIL=
202206261500 METAR WIHH NIL=
202206261430 METAR WIHH NIL=
202206261400 METAR WIHH NIL=
202206261330 METAR WIHH NIL=
202206261300 METAR WIHH NIL=
202206261230 METAR WIHH NIL=
202206261200 METAR WIHH NIL=
202206261130 METAR WIHH NIL=
202206261100 METAR WIHH NIL=
202206261030 METAR WIHH NIL=
202206261000 METAR WIHH NIL=
202206260930 METAR WIHH NIL=
202206260900 METAR WIHH NIL=
202206260830 METAR WIHH NIL=
202206260800 METAR WIHH NIL=
202206260730 METAR WIHH NIL=
202206260700 METAR WIHH NIL=
202206260630 METAR WIHH NIL=
202206260600 METAR WIHH NIL=
202206260530 METAR WIHH NIL=
202206260500 METAR WIHH NIL=
202206260430 METAR WIHH NIL=
202206260400 METAR WIHH NIL=
202206260330 METAR WIHH NIL=
202206260300 METAR WIHH NIL=
202206260230 METAR WIHH NIL=
202206260200 METAR WIHH NIL=
202206260130 METAR WIHH NIL=
202206260100 METAR WIHH NIL=
202206260030 METAR WIHH NIL=
202206260000 METAR WIHH NIL=
202206252330 METAR WIHH NIL=
202206252300 METAR WIHH NIL=
202206252230 METAR WIHH NIL=
202206252200 METAR WIHH NIL=
202206252130 METAR WIHH NIL=
202206252100 METAR WIHH NIL=
202206252030 METAR WIHH NIL=
202206252000 METAR WIHH NIL=
202206251930 METAR WIHH NIL=
202206251900 METAR WIHH NIL=
202206251830 METAR WIHH NIL=
202206251800 METAR WIHH NIL=
202206251730 METAR WIHH NIL=
202206251700 METAR WIHH NIL=
202206251630 METAR WIHH NIL=
202206251600 METAR WIHH NIL=
202206251530 METAR WIHH NIL=
202206251500 METAR WIHH NIL=
202206251430 METAR WIHH NIL=
202206251400 METAR WIHH NIL=
202206251330 METAR WIHH NIL=
202206251300 METAR WIHH NIL=
202206251230 METAR WIHH NIL=
202206251200 METAR WIHH NIL=
202206251130 METAR WIHH NIL=
202206251100 METAR WIHH NIL=
202206251030 METAR WIHH NIL=
202206251000 METAR WIHH NIL=
202206250930 METAR WIHH NIL=
202206250900 METAR WIHH NIL=
202206250830 METAR WIHH NIL=
202206250800 METAR WIHH NIL=
202206250730 METAR WIHH NIL=
202206250700 METAR WIHH NIL=
202206250630 METAR WIHH NIL=
202206250600 METAR WIHH NIL=
202206250530 METAR WIHH NIL=
202206250500 METAR WIHH NIL=
202206250430 METAR WIHH NIL=
202206250400 METAR WIHH NIL=
202206250330 METAR WIHH NIL=
202206250300 METAR WIHH NIL=
202206250230 METAR WIHH NIL=
202206250200 METAR WIHH NIL=
202206250130 METAR WIHH NIL=
202206250100 METAR WIHH NIL=
202206250030 METAR WIHH NIL=
202206250000 METAR WIHH NIL=
202206242330 METAR WIHH NIL=
202206242300 METAR WIHH NIL=
202206242230 METAR WIHH NIL=
202206242200 METAR WIHH NIL=
202206242130 METAR WIHH NIL=
202206242100 METAR WIHH NIL=
202206242030 METAR WIHH NIL=
202206242000 METAR WIHH NIL=
202206241930 METAR WIHH NIL=
202206241900 METAR WIHH NIL=
202206241830 METAR WIHH NIL=
202206241800 METAR WIHH NIL=
202206241730 METAR WIHH NIL=
202206241700 METAR WIHH NIL=
202206241630 METAR WIHH NIL=
202206241600 METAR WIHH NIL=
202206241530 METAR WIHH NIL=
202206241500 METAR WIHH NIL=
202206241430 METAR WIHH NIL=
202206241400 METAR WIHH NIL=
202206241330 METAR WIHH NIL=
202206241300 METAR WIHH NIL=
202206241230 METAR WIHH NIL=
202206241200 METAR WIHH NIL=
202206241130 METAR WIHH NIL=
202206241100 METAR WIHH NIL=
202206241030 METAR WIHH NIL=
202206241000 METAR WIHH NIL=
202206240930 METAR WIHH NIL=
202206240900 METAR WIHH NIL=
202206240830 METAR WIHH NIL=
202206240800 METAR WIHH NIL=
202206240730 METAR WIHH NIL=
202206240700 METAR WIHH NIL=
202206240630 METAR WIHH NIL=
202206240600 METAR WIHH NIL=
202206240530 METAR WIHH NIL=
202206240500 METAR WIHH NIL=
202206240430 METAR WIHH NIL=
202206240400 METAR WIHH NIL=
202206240330 METAR WIHH NIL=
202206240300 METAR WIHH NIL=
202206240230 METAR WIHH NIL=
202206240200 METAR WIHH NIL=
202206240130 METAR WIHH NIL=
202206240100 METAR WIHH NIL=
202206240030 METAR WIHH NIL=
202206240000 METAR WIHH NIL=
202206232330 METAR WIHH NIL=
202206232300 METAR WIHH NIL=
202206232230 METAR WIHH NIL=
202206232200 METAR WIHH NIL=
202206232130 METAR WIHH NIL=
202206232100 METAR WIHH NIL=
202206232030 METAR WIHH NIL=
202206232000 METAR WIHH NIL=
202206231930 METAR WIHH NIL=
202206231900 METAR WIHH NIL=
202206231830 METAR WIHH NIL=
202206231800 METAR WIHH NIL=
202206231730 METAR WIHH NIL=
202206231700 METAR WIHH NIL=
202206231630 METAR WIHH NIL=
202206231600 METAR WIHH NIL=
202206231530 METAR WIHH NIL=
202206231500 METAR WIHH NIL=
202206231430 METAR WIHH NIL=
202206231400 METAR WIHH NIL=
202206231330 METAR WIHH NIL=
202206231300 METAR WIHH NIL=
202206231230 METAR WIHH NIL=
202206231200 METAR WIHH NIL=
202206231130 METAR WIHH NIL=
202206231100 METAR WIHH NIL=
202206231030 METAR WIHH NIL=
202206231000 METAR WIHH NIL=
202206230930 METAR WIHH NIL=
202206230900 METAR WIHH NIL=
202206230830 METAR WIHH NIL=
202206230800 METAR WIHH NIL=
202206230730 METAR WIHH NIL=
202206230700 METAR WIHH NIL=
202206230630 METAR WIHH NIL=
202206230600 METAR WIHH NIL=
202206230530 METAR WIHH NIL=
202206230500 METAR WIHH NIL=
202206230430 METAR WIHH NIL=
202206230400 METAR WIHH NIL=
202206230330 METAR WIHH NIL=
202206230300 METAR WIHH NIL=
202206230230 METAR WIHH NIL=
202206230200 METAR WIHH NIL=
202206230130 METAR WIHH NIL=
202206230100 METAR WIHH NIL=
202206230030 METAR WIHH NIL=
202206230000 METAR WIHH NIL=
202206222330 METAR WIHH NIL=
202206222300 METAR WIHH NIL=
202206222230 METAR WIHH NIL=
202206222200 METAR WIHH NIL=
202206222130 METAR WIHH NIL=
202206222100 METAR WIHH NIL=
202206222030 METAR WIHH NIL=
202206222000 METAR WIHH NIL=
202206221930 METAR WIHH NIL=
202206221900 METAR WIHH NIL=
202206221830 METAR WIHH NIL=
202206221800 METAR WIHH NIL=
202206221730 METAR WIHH NIL=
202206221700 METAR WIHH NIL=
202206221630 METAR WIHH NIL=
202206221600 METAR WIHH NIL=
202206221530 METAR WIHH NIL=
202206221500 METAR WIHH NIL=
202206221430 METAR WIHH NIL=
202206221400 METAR WIHH NIL=
202206221330 METAR WIHH NIL=
202206221300 METAR WIHH NIL=
202206221230 METAR WIHH NIL=
202206221200 METAR WIHH NIL=
202206221130 METAR WIHH NIL=
202206221100 METAR WIHH NIL=
202206221030 METAR WIHH NIL=
202206221000 METAR WIHH NIL=
202206220930 METAR WIHH NIL=
202206220900 METAR WIHH NIL=
202206220830 METAR WIHH NIL=
202206220800 METAR WIHH NIL=
202206220730 METAR WIHH NIL=
202206220700 METAR WIHH NIL=
202206220630 METAR WIHH NIL=
202206220600 METAR WIHH NIL=
202206220530 METAR WIHH NIL=
202206220500 METAR WIHH NIL=
202206220430 METAR WIHH NIL=
202206220400 METAR WIHH NIL=
202206220330 METAR WIHH NIL=
202206220300 METAR WIHH NIL=
202206220230 METAR WIHH NIL=
202206220200 METAR WIHH NIL=
202206220130 METAR WIHH NIL=
202206220100 METAR WIHH NIL=
202206220030 METAR WIHH NIL=
202206220000 METAR WIHH NIL=
202206212330 METAR WIHH NIL=
202206212300 METAR WIHH NIL=
202206212230 METAR WIHH NIL=
202206212200 METAR WIHH NIL=
202206212130 METAR WIHH NIL=
202206212100 METAR WIHH NIL=
202206212030 METAR WIHH NIL=
202206212000 METAR WIHH NIL=
202206211930 METAR WIHH NIL=
202206211900 METAR WIHH NIL=
202206211830 METAR WIHH NIL=
202206211800 METAR WIHH NIL=
202206211730 METAR WIHH NIL=
202206211700 METAR WIHH NIL=
202206211630 METAR WIHH NIL=
202206211600 METAR WIHH NIL=
202206211530 METAR WIHH NIL=
202206211500 METAR WIHH NIL=
202206211430 METAR WIHH NIL=
202206211400 METAR WIHH NIL=
202206211330 METAR WIHH NIL=
202206211300 METAR WIHH NIL=
202206211230 METAR WIHH NIL=
202206211200 METAR WIHH NIL=
202206211130 METAR WIHH NIL=
202206211100 METAR WIHH NIL=
202206211030 METAR WIHH NIL=
202206211000 METAR WIHH NIL=
202206210930 METAR WIHH NIL=
202206210900 METAR WIHH NIL=
202206210830 METAR WIHH NIL=
202206210800 METAR WIHH NIL=
202206210730 METAR WIHH NIL=
202206210700 METAR WIHH NIL=
202206210630 METAR WIHH NIL=
202206210600 METAR WIHH NIL=
202206210530 METAR WIHH NIL=
202206210500 METAR WIHH NIL=
202206210430 METAR WIHH NIL=
202206210400 METAR WIHH NIL=
202206210330 METAR WIHH NIL=
202206210300 METAR WIHH NIL=
202206210230 METAR WIHH NIL=
202206210200 METAR WIHH NIL=
202206210130 METAR WIHH NIL=
202206210100 METAR WIHH NIL=
202206210030 METAR WIHH NIL=
202206210000 METAR WIHH NIL=
202206202330 METAR WIHH NIL=
202206202300 METAR WIHH NIL=
202206202230 METAR WIHH NIL=
202206202200 METAR WIHH NIL=
202206202130 METAR WIHH NIL=
202206202100 METAR WIHH NIL=
202206202030 METAR WIHH NIL=
202206202000 METAR WIHH NIL=
202206201930 METAR WIHH NIL=
202206201900 METAR WIHH NIL=
202206201830 METAR WIHH NIL=
202206201800 METAR WIHH NIL=
202206201730 METAR WIHH NIL=
202206201700 METAR WIHH NIL=
202206201630 METAR WIHH NIL=
202206201600 METAR WIHH NIL=
202206201530 METAR WIHH NIL=
202206201500 METAR WIHH NIL=
202206201430 METAR WIHH NIL=
202206201400 METAR WIHH NIL=
202206201330 METAR WIHH NIL=
202206201300 METAR WIHH NIL=
202206201230 METAR WIHH NIL=
202206201200 METAR WIHH NIL=
202206201130 METAR WIHH NIL=
202206201100 METAR WIHH NIL=
202206201030 METAR WIHH NIL=
202206201000 METAR WIHH NIL=
202206200930 METAR WIHH NIL=
202206200900 METAR WIHH NIL=
202206200830 METAR WIHH NIL=
202206200800 METAR WIHH NIL=
202206200730 METAR WIHH NIL=
202206200700 METAR WIHH NIL=
202206200630 METAR WIHH NIL=
202206200600 METAR WIHH NIL=
202206200530 METAR WIHH NIL=
202206200500 METAR WIHH NIL=
202206200430 METAR WIHH NIL=
202206200400 METAR WIHH NIL=
202206200330 METAR WIHH NIL=
202206200300 METAR WIHH NIL=
202206200230 METAR WIHH NIL=
202206200200 METAR WIHH NIL=
202206200130 METAR WIHH NIL=
202206200100 METAR WIHH NIL=
202206200030 METAR WIHH NIL=
202206200000 METAR WIHH NIL=
202206192330 METAR WIHH NIL=
202206192300 METAR WIHH NIL=
202206192230 METAR WIHH NIL=
202206192200 METAR WIHH NIL=
202206192130 METAR WIHH NIL=
202206192100 METAR WIHH NIL=
202206192030 METAR WIHH NIL=
202206192000 METAR WIHH NIL=
202206191930 METAR WIHH NIL=
202206191900 METAR WIHH NIL=
202206191830 METAR WIHH NIL=
202206191800 METAR WIHH NIL=
202206191730 METAR WIHH NIL=
202206191700 METAR WIHH NIL=
202206191630 METAR WIHH NIL=
202206191600 METAR WIHH NIL=
202206191530 METAR WIHH NIL=
202206191500 METAR WIHH NIL=
202206191430 METAR WIHH NIL=
202206191400 METAR WIHH NIL=
202206191330 METAR WIHH NIL=
202206191300 METAR WIHH NIL=
202206191230 METAR WIHH NIL=
202206191200 METAR WIHH NIL=
202206191130 METAR WIHH NIL=
202206191100 METAR WIHH NIL=
202206191030 METAR WIHH NIL=
202206191000 METAR WIHH NIL=
202206190930 METAR WIHH NIL=
202206190900 METAR WIHH NIL=
202206190830 METAR WIHH NIL=
202206190800 METAR WIHH NIL=
202206190730 METAR WIHH NIL=
202206190700 METAR WIHH NIL=
202206190630 METAR WIHH NIL=
202206190600 METAR WIHH NIL=
202206190530 METAR WIHH NIL=
202206190500 METAR WIHH NIL=
202206190430 METAR WIHH NIL=
202206190400 METAR WIHH NIL=
202206190330 METAR WIHH NIL=
202206190300 METAR WIHH NIL=
202206190230 METAR WIHH NIL=
202206190200 METAR WIHH NIL=
202206190130 METAR WIHH NIL=
202206190100 METAR WIHH NIL=
202206190030 METAR WIHH NIL=
202206190000 METAR WIHH NIL=
202206182330 METAR WIHH NIL=
202206182300 METAR WIHH NIL=
202206182230 METAR WIHH NIL=
202206182200 METAR WIHH NIL=
202206182130 METAR WIHH NIL=
202206182100 METAR WIHH NIL=
202206182030 METAR WIHH NIL=
202206182000 METAR WIHH NIL=
202206181930 METAR WIHH NIL=
202206181900 METAR WIHH NIL=
202206181830 METAR WIHH NIL=
202206181800 METAR WIHH NIL=
202206181730 METAR WIHH NIL=
202206181700 METAR WIHH NIL=
202206181630 METAR WIHH NIL=
202206181600 METAR WIHH NIL=
202206181530 METAR WIHH NIL=
202206181500 METAR WIHH NIL=
202206181430 METAR WIHH NIL=
202206181400 METAR WIHH NIL=
202206181330 METAR WIHH NIL=
202206181300 METAR WIHH NIL=
202206181230 METAR WIHH NIL=
202206181200 METAR WIHH NIL=
202206181130 METAR WIHH NIL=
202206181100 METAR WIHH NIL=
202206181030 METAR WIHH NIL=
202206181000 METAR WIHH NIL=
202206180930 METAR WIHH NIL=
202206180900 METAR WIHH NIL=
202206180830 METAR WIHH NIL=
202206180800 METAR WIHH NIL=
202206180730 METAR WIHH NIL=
202206180700 METAR WIHH NIL=
202206180630 METAR WIHH NIL=
202206180600 METAR WIHH NIL=
202206180530 METAR WIHH NIL=
202206180500 METAR WIHH NIL=
202206180430 METAR WIHH NIL=
202206180400 METAR WIHH NIL=
202206180330 METAR WIHH NIL=
202206180300 METAR WIHH NIL=
202206180230 METAR WIHH NIL=
202206180200 METAR WIHH NIL=
202206180130 METAR WIHH NIL=
202206180100 METAR WIHH NIL=
202206180030 METAR WIHH NIL=
202206180000 METAR WIHH NIL=
202206172330 METAR WIHH NIL=
202206172300 METAR WIHH NIL=
202206172230 METAR WIHH NIL=
202206172200 METAR WIHH NIL=
202206172130 METAR WIHH NIL=
202206172100 METAR WIHH NIL=
202206172030 METAR WIHH NIL=
202206172000 METAR WIHH NIL=
202206171930 METAR WIHH NIL=
202206171900 METAR WIHH NIL=
202206171830 METAR WIHH NIL=
202206171800 METAR WIHH NIL=
202206171730 METAR WIHH NIL=
202206171700 METAR WIHH NIL=
202206171630 METAR WIHH NIL=
202206171600 METAR WIHH NIL=
202206171530 METAR WIHH NIL=
202206171500 METAR WIHH NIL=
202206171430 METAR WIHH NIL=
202206171400 METAR WIHH NIL=
202206171330 METAR WIHH NIL=
202206171300 METAR WIHH NIL=
202206171230 METAR WIHH NIL=
202206171200 METAR WIHH NIL=
202206171130 METAR WIHH NIL=
202206171100 METAR WIHH NIL=
202206171030 METAR WIHH NIL=
202206171000 METAR WIHH NIL=
202206170930 METAR WIHH NIL=
202206170900 METAR WIHH NIL=
202206170830 METAR WIHH NIL=
202206170800 METAR WIHH NIL=
202206170730 METAR WIHH NIL=
202206170700 METAR WIHH NIL=
202206170630 METAR WIHH NIL=
202206170600 METAR WIHH NIL=
202206170530 METAR WIHH NIL=
202206170500 METAR WIHH NIL=
202206170430 METAR WIHH NIL=
202206170400 METAR WIHH NIL=
202206170330 METAR WIHH NIL=
202206170300 METAR WIHH NIL=
202206170230 METAR WIHH NIL=
202206170200 METAR WIHH NIL=
202206170130 METAR WIHH NIL=
202206170100 METAR WIHH NIL=
202206170030 METAR WIHH NIL=
202206170000 METAR WIHH NIL=
202206162330 METAR WIHH NIL=
202206162300 METAR WIHH NIL=
202206162230 METAR WIHH NIL=
202206162200 METAR WIHH NIL=
202206162130 METAR WIHH NIL=
202206162100 METAR WIHH NIL=
202206162030 METAR WIHH NIL=
202206162000 METAR WIHH NIL=
202206161930 METAR WIHH NIL=
202206161900 METAR WIHH NIL=
202206161830 METAR WIHH NIL=
202206161800 METAR WIHH NIL=
202206161730 METAR WIHH NIL=
202206161700 METAR WIHH NIL=
202206161630 METAR WIHH NIL=
202206161600 METAR WIHH NIL=
202206161530 METAR WIHH NIL=
202206161500 METAR WIHH NIL=
202206161430 METAR WIHH NIL=
202206161400 METAR WIHH NIL=
202206161330 METAR WIHH NIL=
202206161300 METAR WIHH NIL=
202206161230 METAR WIHH NIL=
202206161200 METAR WIHH NIL=
202206161130 METAR WIHH NIL=
202206161100 METAR WIHH NIL=
202206161030 METAR WIHH NIL=
202206161000 METAR WIHH NIL=
202206160930 METAR WIHH NIL=
202206160900 METAR WIHH NIL=
202206160830 METAR WIHH NIL=
202206160800 METAR WIHH NIL=
202206160730 METAR WIHH NIL=
202206160700 METAR WIHH NIL=
202206160630 METAR WIHH NIL=
202206160600 METAR WIHH NIL=
202206160530 METAR WIHH NIL=
202206160500 METAR WIHH NIL=
202206160430 METAR WIHH NIL=
202206160400 METAR WIHH NIL=
202206160330 METAR WIHH NIL=
202206160300 METAR WIHH NIL=
202206160230 METAR WIHH NIL=
202206160200 METAR WIHH NIL=
202206160130 METAR WIHH NIL=
202206160100 METAR WIHH NIL=
202206160030 METAR WIHH NIL=
202206160000 METAR WIHH NIL=
202206152330 METAR WIHH NIL=
202206152300 METAR WIHH NIL=
202206152230 METAR WIHH NIL=
202206152200 METAR WIHH NIL=
202206152130 METAR WIHH NIL=
202206152100 METAR WIHH NIL=
202206152030 METAR WIHH NIL=
202206152000 METAR WIHH NIL=
202206151930 METAR WIHH NIL=
202206151900 METAR WIHH NIL=
202206151830 METAR WIHH NIL=
202206151800 METAR WIHH NIL=
202206151730 METAR WIHH NIL=
202206151700 METAR WIHH NIL=
202206151630 METAR WIHH NIL=
202206151600 METAR WIHH NIL=
202206151530 METAR WIHH NIL=
202206151500 METAR WIHH NIL=
202206151430 METAR WIHH NIL=
202206151400 METAR WIHH NIL=
202206151330 METAR WIHH NIL=
202206151300 METAR WIHH NIL=
202206151230 METAR WIHH NIL=
202206151200 METAR WIHH NIL=
202206151130 METAR WIHH NIL=
202206151100 METAR WIHH NIL=
202206151030 METAR WIHH NIL=
202206151000 METAR WIHH NIL=
202206150930 METAR WIHH NIL=
202206150900 METAR WIHH NIL=
202206150830 METAR WIHH NIL=
202206150800 METAR WIHH NIL=
202206150730 METAR WIHH NIL=
202206150700 METAR WIHH NIL=
202206150630 METAR WIHH NIL=
202206150600 METAR WIHH NIL=
202206150530 METAR WIHH NIL=
202206150500 METAR WIHH NIL=
202206150430 METAR WIHH NIL=
202206150400 METAR WIHH NIL=
202206150330 METAR WIHH NIL=
202206150300 METAR WIHH NIL=
202206150230 METAR WIHH NIL=
202206150200 METAR WIHH NIL=
202206150130 METAR WIHH NIL=
202206150100 METAR WIHH NIL=
202206150030 METAR WIHH NIL=
202206150000 METAR WIHH NIL=
202206142330 METAR WIHH NIL=
202206142300 METAR WIHH NIL=
202206142230 METAR WIHH NIL=
202206142200 METAR WIHH NIL=
202206142130 METAR WIHH NIL=
202206142100 METAR WIHH NIL=
202206142030 METAR WIHH NIL=
202206142000 METAR WIHH NIL=
202206141930 METAR WIHH NIL=
202206141900 METAR WIHH NIL=
202206141830 METAR WIHH NIL=
202206141800 METAR WIHH NIL=
202206141730 METAR WIHH NIL=
202206141700 METAR WIHH NIL=
202206141630 METAR WIHH NIL=
202206141600 METAR WIHH NIL=
202206141530 METAR WIHH NIL=
202206141500 METAR WIHH NIL=
202206141430 METAR WIHH NIL=
202206141400 METAR WIHH NIL=
202206141330 METAR WIHH NIL=
202206141300 METAR WIHH NIL=
202206141230 METAR WIHH NIL=
202206141200 METAR WIHH NIL=
202206141130 METAR WIHH NIL=
202206141100 METAR WIHH NIL=
202206141030 METAR WIHH NIL=
202206141000 METAR WIHH NIL=
202206140930 METAR WIHH NIL=
202206140900 METAR WIHH NIL=
202206140830 METAR WIHH NIL=
202206140800 METAR WIHH NIL=
202206140730 METAR WIHH NIL=
202206140700 METAR WIHH NIL=
202206140630 METAR WIHH NIL=
202206140600 METAR WIHH NIL=
202206140530 METAR WIHH NIL=
202206140500 METAR WIHH NIL=
202206140430 METAR WIHH NIL=
202206140400 METAR WIHH NIL=
202206140330 METAR WIHH NIL=
202206140300 METAR WIHH NIL=
202206140230 METAR WIHH NIL=
202206140200 METAR WIHH NIL=
202206140130 METAR WIHH NIL=
202206140100 METAR WIHH NIL=
202206140030 METAR WIHH NIL=
202206140000 METAR WIHH NIL=
202206132330 METAR WIHH NIL=
202206132300 METAR WIHH NIL=
202206132230 METAR WIHH NIL=
202206132200 METAR WIHH NIL=
202206132130 METAR WIHH NIL=
202206132100 METAR WIHH NIL=
202206132030 METAR WIHH NIL=
202206132000 METAR WIHH NIL=
202206131930 METAR WIHH NIL=
202206131900 METAR WIHH NIL=
202206131830 METAR WIHH NIL=
202206131800 METAR WIHH NIL=
202206131730 METAR WIHH NIL=
202206131700 METAR WIHH NIL=
202206131630 METAR WIHH NIL=
202206131600 METAR WIHH NIL=
202206131530 METAR WIHH NIL=
202206131500 METAR WIHH NIL=
202206131430 METAR WIHH NIL=
202206131400 METAR WIHH NIL=
202206131330 METAR WIHH NIL=
202206131300 METAR WIHH NIL=
202206131230 METAR WIHH NIL=
202206131200 METAR WIHH NIL=
202206131130 METAR WIHH NIL=
202206131100 METAR WIHH NIL=
202206131030 METAR WIHH NIL=
202206131000 METAR WIHH NIL=
202206130930 METAR WIHH NIL=
202206130900 METAR WIHH NIL=
202206130830 METAR WIHH NIL=
202206130800 METAR WIHH NIL=
202206130730 METAR WIHH NIL=
202206130700 METAR WIHH NIL=
202206130630 METAR WIHH NIL=
202206130600 METAR WIHH NIL=
202206130530 METAR WIHH NIL=
202206130500 METAR WIHH NIL=
202206130430 METAR WIHH NIL=
202206130400 METAR WIHH NIL=
202206130330 METAR WIHH NIL=
202206130300 METAR WIHH NIL=
202206130230 METAR WIHH NIL=
202206130200 METAR WIHH NIL=
202206130130 METAR WIHH NIL=
202206130100 METAR WIHH NIL=
202206130030 METAR WIHH NIL=
202206130000 METAR WIHH NIL=
202206122330 METAR WIHH NIL=
202206122300 METAR WIHH NIL=
202206122230 METAR WIHH NIL=
202206122200 METAR WIHH NIL=
202206122130 METAR WIHH NIL=
202206122100 METAR WIHH NIL=
202206122030 METAR WIHH NIL=
202206122000 METAR WIHH NIL=
202206121930 METAR WIHH NIL=
202206121900 METAR WIHH NIL=
202206121830 METAR WIHH NIL=
202206121800 METAR WIHH NIL=
202206121730 METAR WIHH NIL=
202206121700 METAR WIHH NIL=
202206121630 METAR WIHH NIL=
202206121600 METAR WIHH NIL=
202206121530 METAR WIHH NIL=
202206121500 METAR WIHH NIL=
202206121430 METAR WIHH NIL=
202206121400 METAR WIHH NIL=
202206121330 METAR WIHH NIL=
202206121300 METAR WIHH NIL=
202206121230 METAR WIHH NIL=
202206121200 METAR WIHH NIL=
202206121130 METAR WIHH NIL=
202206121100 METAR WIHH NIL=
202206121030 METAR WIHH NIL=
202206121000 METAR WIHH NIL=
202206120930 METAR WIHH NIL=
202206120900 METAR WIHH NIL=
202206120830 METAR WIHH NIL=
202206120800 METAR WIHH NIL=
202206120730 METAR WIHH NIL=
202206120700 METAR WIHH NIL=
202206120630 METAR WIHH NIL=
202206120600 METAR WIHH NIL=
202206120530 METAR WIHH NIL=
202206120500 METAR WIHH NIL=
202206120430 METAR WIHH NIL=
202206120400 METAR WIHH NIL=
202206120330 METAR WIHH NIL=
202206120300 METAR WIHH NIL=
202206120230 METAR WIHH NIL=
202206120200 METAR WIHH NIL=
202206120130 METAR WIHH NIL=
202206120100 METAR WIHH NIL=
202206120030 METAR WIHH NIL=
202206120000 METAR WIHH NIL=
202206112330 METAR WIHH NIL=
202206112300 METAR WIHH NIL=
202206112230 METAR WIHH NIL=
202206112200 METAR WIHH NIL=
202206112130 METAR WIHH NIL=
202206112100 METAR WIHH NIL=
202206112030 METAR WIHH NIL=
202206112000 METAR WIHH NIL=
202206111930 METAR WIHH NIL=
202206111900 METAR WIHH NIL=
202206111830 METAR WIHH NIL=
202206111800 METAR WIHH NIL=
202206111730 METAR WIHH NIL=
202206111700 METAR WIHH NIL=
202206111630 METAR WIHH NIL=
202206111600 METAR WIHH NIL=
202206111530 METAR WIHH NIL=
202206111500 METAR WIHH NIL=
202206111430 METAR WIHH NIL=
202206111400 METAR WIHH NIL=
202206111330 METAR WIHH NIL=
202206111300 METAR WIHH NIL=
202206111230 METAR WIHH NIL=
202206111200 METAR WIHH NIL=
202206111130 METAR WIHH NIL=
202206111100 METAR WIHH NIL=
202206111030 METAR WIHH NIL=
202206111000 METAR WIHH NIL=
202206110930 METAR WIHH NIL=
202206110900 METAR WIHH NIL=
202206110830 METAR WIHH NIL=
202206110800 METAR WIHH NIL=
202206110730 METAR WIHH NIL=
202206110700 METAR WIHH NIL=
202206110630 METAR WIHH NIL=
202206110600 METAR WIHH NIL=
202206110530 METAR WIHH NIL=
202206110500 METAR WIHH NIL=
202206110430 METAR WIHH NIL=
202206110400 METAR WIHH NIL=
202206110330 METAR WIHH NIL=
202206110300 METAR WIHH NIL=
202206110230 METAR WIHH NIL=
202206110200 METAR WIHH NIL=
202206110130 METAR WIHH NIL=
202206110100 METAR WIHH NIL=
202206110030 METAR WIHH NIL=
202206110000 METAR WIHH NIL=
202206102330 METAR WIHH NIL=
202206102300 METAR WIHH NIL=
202206102230 METAR WIHH NIL=
202206102200 METAR WIHH NIL=
202206102130 METAR WIHH NIL=
202206102100 METAR WIHH NIL=
202206102030 METAR WIHH NIL=
202206102000 METAR WIHH NIL=
202206101930 METAR WIHH NIL=
202206101900 METAR WIHH NIL=
202206101830 METAR WIHH NIL=
202206101800 METAR WIHH NIL=
202206101730 METAR WIHH NIL=
202206101700 METAR WIHH NIL=
202206101630 METAR WIHH NIL=
202206101600 METAR WIHH NIL=
202206101530 METAR WIHH NIL=
202206101500 METAR WIHH NIL=
202206101430 METAR WIHH NIL=
202206101400 METAR WIHH NIL=
202206101330 METAR WIHH NIL=
202206101300 METAR WIHH NIL=
202206101230 METAR WIHH NIL=
202206101200 METAR WIHH NIL=
202206101130 METAR WIHH NIL=
202206101100 METAR WIHH NIL=
202206101030 METAR WIHH NIL=
202206101000 METAR WIHH NIL=
202206100930 METAR WIHH NIL=
202206100900 METAR WIHH NIL=
202206100830 METAR WIHH NIL=
202206100800 METAR WIHH NIL=
202206100730 METAR WIHH NIL=
202206100700 METAR WIHH NIL=
202206100630 METAR WIHH NIL=
202206100600 METAR WIHH NIL=
202206100530 METAR WIHH NIL=
202206100500 METAR WIHH NIL=
202206100430 METAR WIHH NIL=
202206100400 METAR WIHH NIL=
202206100330 METAR WIHH NIL=
202206100300 METAR WIHH NIL=
202206100230 METAR WIHH NIL=
202206100200 METAR WIHH NIL=
202206100130 METAR WIHH NIL=
202206100100 METAR WIHH NIL=
202206100000 METAR WIHH NIL=
202206092300 METAR WIHH NIL=
202206092200 METAR WIHH NIL=
202206092100 METAR WIHH NIL=
202206092000 METAR WIHH NIL=
202206091900 METAR WIHH NIL=
202206091830 METAR WIHH NIL=
202206091800 METAR WIHH NIL=
202206091730 METAR WIHH NIL=
202206091700 METAR WIHH NIL=
202206091630 METAR WIHH NIL=
202206091600 METAR WIHH NIL=
202206091530 METAR WIHH NIL=
202206091500 METAR WIHH NIL=
202206091430 METAR WIHH NIL=
202206091400 METAR WIHH NIL=
202206091330 METAR WIHH NIL=
202206091300 METAR WIHH NIL=
202206091230 METAR WIHH NIL=
202206091200 METAR WIHH NIL=
202206091130 METAR WIHH NIL=
202206091100 METAR WIHH NIL=
202206091030 METAR WIHH NIL=
202206091000 METAR WIHH NIL=
202206090930 METAR WIHH NIL=
202206090900 METAR WIHH NIL=
202206090830 METAR WIHH NIL=
202206090800 METAR WIHH NIL=
202206090730 METAR WIHH NIL=
202206090700 METAR WIHH NIL=
202206090630 METAR WIHH NIL=
202206090600 METAR WIHH NIL=
202206090530 METAR WIHH NIL=
202206090500 METAR WIHH NIL=
202206090430 METAR WIHH NIL=
202206090400 METAR WIHH NIL=
202206090330 METAR WIHH NIL=
202206090300 METAR WIHH NIL=
202206090230 METAR WIHH NIL=
202206090200 METAR WIHH NIL=
202206090130 METAR WIHH NIL=
202206090100 METAR WIHH NIL=
202206090030 METAR WIHH NIL=
202206090000 METAR WIHH NIL=
202206082330 METAR WIHH NIL=
202206082300 METAR WIHH NIL=
202206082230 METAR WIHH NIL=
202206082200 METAR WIHH NIL=
202206082130 METAR WIHH NIL=
202206082100 METAR WIHH NIL=
202206082030 METAR WIHH NIL=
202206082000 METAR WIHH NIL=
202206081930 METAR WIHH NIL=
202206081900 METAR WIHH NIL=
202206081830 METAR WIHH NIL=
202206081800 METAR WIHH NIL=
202206081730 METAR WIHH NIL=
202206081700 METAR WIHH NIL=
202206081630 METAR WIHH NIL=
202206081600 METAR WIHH NIL=
202206081530 METAR WIHH NIL=
202206081500 METAR WIHH NIL=
202206081430 METAR WIHH NIL=
202206081400 METAR WIHH NIL=
202206081330 METAR WIHH NIL=
202206081300 METAR WIHH NIL=
202206081230 METAR WIHH NIL=
202206081200 METAR WIHH NIL=
202206081130 METAR WIHH NIL=
202206081100 METAR WIHH NIL=
202206081030 METAR WIHH NIL=
202206081000 METAR WIHH NIL=
202206080930 METAR WIHH NIL=
202206080900 METAR WIHH NIL=
202206080830 METAR WIHH NIL=
202206080800 METAR WIHH NIL=
202206080730 METAR WIHH NIL=
202206080700 METAR WIHH NIL=
202206080630 METAR WIHH NIL=
202206080600 METAR WIHH NIL=
202206080530 METAR WIHH NIL=
202206080500 METAR WIHH NIL=
202206080430 METAR WIHH NIL=
202206080400 METAR WIHH NIL=
202206080330 METAR WIHH NIL=
202206080300 METAR WIHH NIL=
202206080230 METAR WIHH NIL=
202206080200 METAR WIHH NIL=
202206080130 METAR WIHH NIL=
202206080100 METAR WIHH NIL=
202206080030 METAR WIHH NIL=
202206080000 METAR WIHH NIL=
202206072330 METAR WIHH NIL=
202206072300 METAR WIHH NIL=
202206072230 METAR WIHH NIL=
202206072200 METAR WIHH NIL=
202206072130 METAR WIHH NIL=
202206072100 METAR WIHH NIL=
202206072030 METAR WIHH NIL=
202206072000 METAR WIHH NIL=
202206071930 METAR WIHH NIL=
202206071900 METAR WIHH NIL=
202206071830 METAR WIHH NIL=
202206071800 METAR WIHH NIL=
202206071730 METAR WIHH NIL=
202206071700 METAR WIHH NIL=
202206071630 METAR WIHH NIL=
202206071600 METAR WIHH NIL=
202206071530 METAR WIHH NIL=
202206071500 METAR WIHH NIL=
202206071430 METAR WIHH NIL=
202206071400 METAR WIHH NIL=
202206071330 METAR WIHH NIL=
202206071300 METAR WIHH NIL=
202206071230 METAR WIHH NIL=
202206071200 METAR WIHH NIL=
202206071130 METAR WIHH NIL=
202206071100 METAR WIHH NIL=
202206071030 METAR WIHH NIL=
202206071000 METAR WIHH NIL=
202206070930 METAR WIHH NIL=
202206070900 METAR WIHH NIL=
202206070830 METAR WIHH NIL=
202206070800 METAR WIHH NIL=
202206070730 METAR WIHH NIL=
202206070700 METAR WIHH NIL=
202206070630 METAR WIHH NIL=
202206070600 METAR WIHH NIL=
202206070530 METAR WIHH NIL=
202206070500 METAR WIHH NIL=
202206070430 METAR WIHH NIL=
202206070400 METAR WIHH NIL=
202206070330 METAR WIHH NIL=
202206070300 METAR WIHH NIL=
202206070230 METAR WIHH NIL=
202206070200 METAR WIHH NIL=
202206070130 METAR WIHH NIL=
202206070100 METAR WIHH NIL=
202206070030 METAR WIHH NIL=
202206070000 METAR WIHH NIL=
202206062330 METAR WIHH NIL=
202206062300 METAR WIHH NIL=
202206062230 METAR WIHH NIL=
202206062200 METAR WIHH NIL=
202206062130 METAR WIHH NIL=
202206062100 METAR WIHH NIL=
202206062030 METAR WIHH NIL=
202206062000 METAR WIHH NIL=
202206061930 METAR WIHH NIL=
202206061900 METAR WIHH NIL=
202206061830 METAR WIHH NIL=
202206061800 METAR WIHH NIL=
202206061730 METAR WIHH NIL=
202206061700 METAR WIHH NIL=
202206061630 METAR WIHH NIL=
202206061600 METAR WIHH NIL=
202206061530 METAR WIHH NIL=
202206061500 METAR WIHH NIL=
202206061430 METAR WIHH NIL=
202206061400 METAR WIHH NIL=
202206061330 METAR WIHH NIL=
202206061300 METAR WIHH NIL=
202206061230 METAR WIHH NIL=
202206061200 METAR WIHH NIL=
202206061130 METAR WIHH NIL=
202206061100 METAR WIHH NIL=
202206061030 METAR WIHH NIL=
202206061000 METAR WIHH NIL=
202206060930 METAR WIHH NIL=
202206060900 METAR WIHH NIL=
202206060830 METAR WIHH NIL=
202206060800 METAR WIHH NIL=
202206060730 METAR WIHH NIL=
202206060700 METAR WIHH NIL=
202206060630 METAR WIHH NIL=
202206060600 METAR WIHH NIL=
202206060530 METAR WIHH NIL=
202206060500 METAR WIHH NIL=
202206060430 METAR WIHH NIL=
202206060400 METAR WIHH NIL=
202206060330 METAR WIHH NIL=
202206060300 METAR WIHH NIL=
202206060230 METAR WIHH NIL=
202206060200 METAR WIHH NIL=
202206060130 METAR WIHH NIL=
202206060100 METAR WIHH NIL=
202206060030 METAR WIHH NIL=
202206060000 METAR WIHH NIL=
202206052330 METAR WIHH NIL=
202206052300 METAR WIHH NIL=
202206052230 METAR WIHH NIL=
202206052200 METAR WIHH NIL=
202206052130 METAR WIHH NIL=
202206052100 METAR WIHH NIL=
202206052030 METAR WIHH NIL=
202206052000 METAR WIHH NIL=
202206051930 METAR WIHH NIL=
202206051900 METAR WIHH NIL=
202206051830 METAR WIHH NIL=
202206051800 METAR WIHH NIL=
202206051730 METAR WIHH NIL=
202206051700 METAR WIHH NIL=
202206051630 METAR WIHH NIL=
202206051600 METAR WIHH NIL=
202206051530 METAR WIHH NIL=
202206051500 METAR WIHH NIL=
202206051430 METAR WIHH NIL=
202206051400 METAR WIHH NIL=
202206051330 METAR WIHH NIL=
202206051300 METAR WIHH NIL=
202206051230 METAR WIHH NIL=
202206051200 METAR WIHH NIL=
202206051130 METAR WIHH NIL=
202206051100 METAR WIHH NIL=
202206051030 METAR WIHH NIL=
202206051000 METAR WIHH NIL=
202206050930 METAR WIHH NIL=
202206050900 METAR WIHH NIL=
202206050830 METAR WIHH NIL=
202206050800 METAR WIHH NIL=
202206050730 METAR WIHH NIL=
202206050700 METAR WIHH NIL=
202206050630 METAR WIHH NIL=
202206050600 METAR WIHH NIL=
202206050530 METAR WIHH NIL=
202206050500 METAR WIHH NIL=
202206050430 METAR WIHH NIL=
202206050400 METAR WIHH NIL=
202206050330 METAR WIHH NIL=
202206050300 METAR WIHH NIL=
202206050230 METAR WIHH NIL=
202206050200 METAR WIHH NIL=
202206050130 METAR WIHH NIL=
202206050100 METAR WIHH NIL=
202206050030 METAR WIHH NIL=
202206050000 METAR WIHH NIL=
202206042330 METAR WIHH NIL=
202206042300 METAR WIHH NIL=
202206042230 METAR WIHH NIL=
202206042200 METAR WIHH NIL=
202206042130 METAR WIHH NIL=
202206042100 METAR WIHH NIL=
202206042030 METAR WIHH NIL=
202206042000 METAR WIHH NIL=
202206041930 METAR WIHH NIL=
202206041900 METAR WIHH NIL=
202206041830 METAR WIHH NIL=
202206041800 METAR WIHH NIL=
202206041730 METAR WIHH NIL=
202206041700 METAR WIHH NIL=
202206041630 METAR WIHH NIL=
202206041600 METAR WIHH NIL=
202206041530 METAR WIHH NIL=
202206041500 METAR WIHH NIL=
202206041430 METAR WIHH NIL=
202206041400 METAR WIHH NIL=
202206041330 METAR WIHH NIL=
202206041300 METAR WIHH NIL=
202206041230 METAR WIHH NIL=
202206041200 METAR WIHH NIL=
202206041130 METAR WIHH NIL=
202206041100 METAR WIHH NIL=
202206041030 METAR WIHH NIL=
202206041000 METAR WIHH NIL=
202206040930 METAR WIHH NIL=
202206040900 METAR WIHH NIL=
202206040830 METAR WIHH NIL=
202206040800 METAR WIHH NIL=
202206040730 METAR WIHH NIL=
202206040700 METAR WIHH NIL=
202206040630 METAR WIHH NIL=
202206040600 METAR WIHH NIL=
202206040530 METAR WIHH NIL=
202206040500 METAR WIHH NIL=
202206040430 METAR WIHH NIL=
202206040400 METAR WIHH NIL=
202206040330 METAR WIHH NIL=
202206040300 METAR WIHH NIL=
202206040230 METAR WIHH NIL=
202206040200 METAR WIHH NIL=
202206040130 METAR WIHH NIL=
202206040100 METAR WIHH NIL=
202206040030 METAR WIHH NIL=
202206040000 METAR WIHH NIL=
202206032330 METAR WIHH NIL=
202206032300 METAR WIHH NIL=
202206032230 METAR WIHH NIL=
202206032200 METAR WIHH NIL=
202206032130 METAR WIHH NIL=
202206032100 METAR WIHH NIL=
202206032030 METAR WIHH NIL=
202206032000 METAR WIHH NIL=
202206031930 METAR WIHH NIL=
202206031900 METAR WIHH NIL=
202206031830 METAR WIHH NIL=
202206031800 METAR WIHH NIL=
202206031730 METAR WIHH NIL=
202206031700 METAR WIHH NIL=
202206031630 METAR WIHH NIL=
202206031600 METAR WIHH NIL=
202206031530 METAR WIHH NIL=
202206031500 METAR WIHH NIL=
202206031430 METAR WIHH NIL=
202206031400 METAR WIHH NIL=
202206031330 METAR WIHH NIL=
202206031300 METAR WIHH NIL=
202206031230 METAR WIHH NIL=
202206031200 METAR WIHH NIL=
202206031130 METAR WIHH NIL=
202206031100 METAR WIHH NIL=
202206031030 METAR WIHH NIL=
202206031000 METAR WIHH NIL=
202206030930 METAR WIHH NIL=
202206030900 METAR WIHH NIL=
202206030830 METAR WIHH NIL=
202206030800 METAR WIHH NIL=
202206030730 METAR WIHH NIL=
202206030700 METAR WIHH NIL=
202206030630 METAR WIHH NIL=
202206030600 METAR WIHH NIL=
202206030530 METAR WIHH NIL=
202206030500 METAR WIHH NIL=
202206030430 METAR WIHH NIL=
202206030400 METAR WIHH NIL=
202206030330 METAR WIHH NIL=
202206030300 METAR WIHH NIL=
202206030230 METAR WIHH NIL=
202206030200 METAR WIHH NIL=
202206030130 METAR WIHH NIL=
202206030100 METAR WIHH NIL=
202206030030 METAR WIHH NIL=
202206030000 METAR WIHH NIL=
202206022330 METAR WIHH NIL=
202206022300 METAR WIHH NIL=
202206022230 METAR WIHH NIL=
202206022200 METAR WIHH NIL=
202206022130 METAR WIHH NIL=
202206022100 METAR WIHH NIL=
202206022030 METAR WIHH NIL=
202206022000 METAR WIHH NIL=
202206021930 METAR WIHH NIL=
202206021900 METAR WIHH NIL=
202206021830 METAR WIHH NIL=
202206021800 METAR WIHH NIL=
202206021730 METAR WIHH NIL=
202206021700 METAR WIHH NIL=
202206021630 METAR WIHH NIL=
202206021600 METAR WIHH NIL=
202206021530 METAR WIHH NIL=
202206021500 METAR WIHH NIL=
202206021430 METAR WIHH NIL=
202206021400 METAR WIHH NIL=
202206021330 METAR WIHH NIL=
202206021300 METAR WIHH NIL=
202206021230 METAR WIHH NIL=
202206021200 METAR WIHH NIL=
202206021130 METAR WIHH NIL=
202206021100 METAR WIHH NIL=
202206021030 METAR WIHH NIL=
202206021000 METAR WIHH NIL=
202206020930 METAR WIHH NIL=
202206020900 METAR WIHH NIL=
202206020830 METAR WIHH NIL=
202206020800 METAR WIHH NIL=
202206020730 METAR WIHH NIL=
202206020700 METAR WIHH NIL=
202206020630 METAR WIHH NIL=
202206020600 METAR WIHH NIL=
202206020530 METAR WIHH NIL=
202206020500 METAR WIHH NIL=
202206020430 METAR WIHH NIL=
202206020400 METAR WIHH NIL=
202206020330 METAR WIHH NIL=
202206020300 METAR WIHH NIL=
202206020230 METAR WIHH NIL=
202206020200 METAR WIHH NIL=
202206020130 METAR WIHH NIL=
202206020100 METAR WIHH NIL=
202206020030 METAR WIHH NIL=
202206020000 METAR WIHH NIL=
202206012330 METAR WIHH NIL=
202206012300 METAR WIHH NIL=
202206012230 METAR WIHH NIL=
202206012200 METAR WIHH NIL=
202206012130 METAR WIHH NIL=
202206012100 METAR WIHH NIL=
202206012030 METAR WIHH NIL=
202206012000 METAR WIHH NIL=
202206011930 METAR WIHH NIL=
202206011900 METAR WIHH NIL=
202206011830 METAR WIHH NIL=
202206011800 METAR WIHH NIL=
202206011730 METAR WIHH NIL=
202206011700 METAR WIHH NIL=
202206011630 METAR WIHH NIL=
202206011600 METAR WIHH NIL=
202206011530 METAR WIHH NIL=
202206011500 METAR WIHH NIL=
202206011430 METAR WIHH NIL=
202206011400 METAR WIHH NIL=
202206011330 METAR WIHH NIL=
202206011300 METAR WIHH NIL=
202206011230 METAR WIHH NIL=
202206011200 METAR WIHH NIL=
202206011130 METAR WIHH NIL=
202206011100 METAR WIHH NIL=
202206011030 METAR WIHH NIL=
202206011000 METAR WIHH NIL=
202206010930 METAR WIHH NIL=
202206010900 METAR WIHH NIL=
202206010830 METAR WIHH NIL=
202206010800 METAR WIHH NIL=
202206010730 METAR WIHH NIL=
202206010700 METAR WIHH NIL=
202206010630 METAR WIHH NIL=
202206010600 METAR WIHH NIL=
202206010530 METAR WIHH NIL=
202206010500 METAR WIHH NIL=
202206010430 METAR WIHH NIL=
202206010400 METAR WIHH NIL=
202206010330 METAR WIHH NIL=
202206010300 METAR WIHH NIL=
202206010230 METAR WIHH NIL=
202206010200 METAR WIHH NIL=
202206010130 METAR WIHH NIL=
202206010100 METAR WIHH NIL=
202206010030 METAR WIHH NIL=
202206010000 METAR WIHH NIL=

# No short TAF reports from WIHH in databse.

###################################
#  large TAF from WIHH
###################################
202206302300 TAF WIHH 302300Z 0100/0200 18005KT 4000 BR FEW022
                      BECMG 0102/0104 09008KT 6000 SCT020
                      BECMG 0114/0116 00000KT 5000 HZ=
202206301700 TAF WIHH 301700Z NIL=
202206301600 TAF WIHH 301600Z 3018/0118 18003KT 5000 HZ FEW022
                      BECMG 3022/0100 00000KT 4000 BR
                      BECMG 0102/0104 08008KT 6000 SCT020=
202206301100 TAF WIHH 301100Z 3012/0112 36005KT 6000 SCT020
                      BECMG 3014/3016 18003KT 5000 HZ FEW022=
202206300500 TAF WIHH 300500Z 3006/0106 03010KT 6000 SCT020
                      TEMPO 3008/3011 34012KT 4000 -TSRA FEW017CB
                       BECMG 3013/3015 15005KT 5000 HZ FEW022=
202206292320 TAF AMD WIHH 292320Z 3000/0100 18004KT 4000 BR FEW022
                      BECMG 3001/3003 01010KT 6000 SCT020
                      TEMPO 3008/3011 04012KT 4000 -TSRA FEW017CB
                       BECMG 3013/3015 15005KT 5000 HZ=
202206292300 TAF WIHH 292300Z 3000/0100 18004KT 4000 BR FEW022
                      BECMG 3001/3003 01010KT 6000 SCT020
                      BECMG 3013/3015 15005KT 5000 HZ=
202206291700 TAF WIHH 291700Z 2918/3018 18004KT 5000 HZ SCT022
                      BECMG 3002/3004 12010KT 7000 NSW
                      TEMPO 3009/3012 33010KT 4000 -RA FEW018CB=
202206291100 TAF WIHH 291100Z 2912/3012 34007KT 6000 SCT018
                      BECMG 2914/2916 15003KT 4000 HZ=
202206290500 TAF WIHH 290500Z 2906/3006 21008KT 7000 SCT020
                      BECMG 2913/2915 06004KT 5000 HZ=
202206282300 TAF WIHH 282300Z 2900/3000 24003KT 6000 SCT018
                      BECMG 2903/2905 15010KT
                      TEMPO 2908/2912 30012KT 3000 -TSRA FEW016CB
                       BECMG 2913/2915 00000KT 4000 HZ=
202206281700 TAF WIHH 281700Z 2818/2918 24005KT 3000 RA BKN016
                      BECMG 2822/2900 15008KT 5000 HZ SCT018
                      TEMPO 2908/2911 27010KT 3000 -TSRA FEW016CB
                       BECMG 2914/2916 00000KT 4000 BR=
202206281100 TAF WIHH 281100Z 2812/2912 06008KT 5000 HZ SCT018
                      TEMPO 2812/2815 21010KT 3000 -TSRA FEW015CB
                       BKN016
                      BECMG 2816/2818 15003KT 4000 BR=
202206280500 TAF WIHH 280500Z 2806/2906 15008KT 6000 SCT018
                      TEMPO 2807/2811 28012KT 3000 TSRA FEW015CB
                       BKN016
                      BECMG 2812/2814 00000KT 5000 HZ
                      TEMPO 2815/2818 24005KT 3000 -TSRA FEW016CB=
202206272300 TAF WIHH 272300Z 2800/2900 21003KT 4000 BR SCT018
                      BECMG 2801/2803 12010KT 5000 HZ
                      TEMPO 2807/2811 33012KT 3000 TSRA FEW015CB
                       BKN016
                      BECMG 2813/2815 00000KT 4000 BR=
202206271700 TAF WIHH 271700Z 2718/2818 16008KT 5000 HZ FEW022
                      BECMG 2722/2800 00000KT 4000 BR
                      BECMG 2802/2804 01008KT 6000=
202206271100 TAF WIHH 271100Z 2712/2812 11005KT 6000 SCT020
                      BECMG 2714/2716 20003KT 5000 HZ FEW022=
202206270500 TAF WIHH 270500Z 2706/2806 30008KT 6000 SCT020
                      TEMPO 2707/2711 16012KT 3000 -TSRA FEW017CB
                       BECMG 2713/2715 20005KT 5000 HZ=
202206262300 TAF WIHH 262300Z 2700/2800 24005KT 4000 BR FEW022
                      BECMG 2702/2704 30008KT 6000 SCT020
                      TEMPO 2707/2710 36012KT 3000 -TSRA FEW017CB
                       BECMG 2712/2714 16004KT 5000 HZ=
202206261700 TAF WIHH 261700Z 2618/2718 15003KT 4000 BR FEW022
                      BECMG 2701/2703 30008KT 7000 SCT020=
202206261100 TAF WIHH 261100Z 2612/2712 20005KT 5000 HZ SCT020
                      BECMG 2617/2619 00000KT 4000 BR FEW022=
202206260500 TAF WIHH 260500Z 2606/2706 04006KT 6000 SCT018
                      TEMPO 2607/2610 18010KT 3000 -TSRA FEW017CB
                       BECMG 2612/2614 00000KT 5000 HZ=
202206252300 TAF WIHH 252300Z 2600/2700 12005KT 4000 BR FEW020
                      BECMG 2602/2604 08008KT 6000 SCT018
                      TEMPO 2608/2611 18010KT 3000 -TSRA FEW017CB
                       BECMG 2613/2615 00000KT 5000 HZ=
202206251700 TAF WIHH 251700Z 2518/2618 24003KT 4000 BR FEW022
                      BECMG 2602/2604 12008KT 6000 SCT020=
202206251100 TAF WIHH 251100Z 2512/2612 27005KT 5000 HZ SCT020
                      BECMG 2520/2522 00000KT 4000 BR FEW022
                      BECMG 2601/2603 09008KT 6000=
202206250500 TAF WIHH 250500Z 2506/2606 01010KT 6000 SCT020
                      TEMPO 2508/2512 4000 -TSRA FEW018CB
                      BECMG 2513/2515 00000KT 5000 HZ FEW022=
202206242300 TAF WIHH 242300Z 2500/2600 23005KT 4000 BR FEW022
                      BECMG 2502/2504 01008KT 6000 SCT020
                      TEMPO 2508/2512 32010KT 4000 -TSRA FEW018CB
                       BECMG 2513/2515 00000KT 5000 HZ=
202206241700 TAF WIHH 241700Z 2418/2518 09006KT 5000 HZ SCT020
                      BECMG 2502/2504 7000 NSW
                      TEMPO 2508/2511 24008KT 4000 -RA FEW018CB
                       BECMG 2514/2516 00000KT 5000 HZ=
202206241100 TAF WIHH 241100Z 2412/2512 09010KT 5000 HZ SCT018
                      TEMPO 2413/2416 03008KT -RA
                      BECMG 2417/2419 00000KT 4000 BR=
202206240500 TAF WIHH 240500Z 2406/2506 09010KT 6000 SCT020
                      TEMPO 2408/2411 24012KT 3000 -TSRA FEW018CB
                       BECMG 2412/2414 15004KT 5000 HZ=
202206232300 TAF WIHH 232300Z 2400/2500 15003KT 5000 HZ SCT020
                      BECMG 2402/2404 09012KT 7000 NSW
                      TEMPO 2408/2411 03010KT 4000 -RA FEW018CB
                       BECMG 2414/2416 00000KT 5000 HZ=
202206231700 TAF WIHH 231700Z 2318/2418 15004KT 5000 HZ FEW022
                      BECMG 2402/2404 09012KT 7000 NSW SCT020
                      BECMG 2414/2416 00000KT 4000 HZ=
202206231100 TAF WIHH 231100Z 2312/2412 04007KT 6000 SCT022
                      BECMG 2315/2317 15003KT 5000 HZ=
202206230500 TAF WIHH 230500Z 2306/2406 09010KT 6000 SCT020
                      BECMG 2314/2316 15004KT 5000 HZ
                      TEMPO 2319/2322 3000 BR=
202206222300 TAF WIHH 222300Z 2300/2400 15003KT 4000 BR SCT020
                      BECMG 2301/2303 09012KT 7000 NSW
                      TEMPO 2307/2309 4000 -RA FEW018CB
                      BECMG 2314/2316 00000KT 5000 HZ=
202206221700 TAF WIHH 221700Z 2218/2318 15004KT 5000 HZ SCT022
                      BECMG 2301/2303 09010KT 7000 NSW
                      BECMG 2314/2316 00000KT 5000 HZ=
202206221100 TAF WIHH 221100Z 2212/2312 09010KT 6000 SCT018
                      BECMG 2214/2216 15004KT 5000 HZ=
202206220500 TAF WIHH 220500Z 2206/2306 09008KT 6000 SCT018
                      TEMPO 2206/2209 03008KT 3000 -TSRA FEW017CB
                       BECMG 2213/2215 15003KT 5000 HZ=
202206212300 TAF WIHH 212300Z 2200/2300 15004KT 4000 BR SCT020
                      BECMG 2201/2203 08010KT 7000 NSW
                      TEMPO 2208/2211 18008KT 4000 -RA FEW018CB
                       BECMG 2214/2216 00000KT 5000 HZ=
202206211700 TAF WIHH 211700Z 2118/2218 15004KT 5000 HZ FEW022
                      BECMG 2201/2203 09008KT 6000 SCT020=
202206211100 TAF WIHH 211100Z 2112/2212 10006KT 6000 FEW022
                      BECMG 2113/2115 21004KT 5000 HZ
                      BECMG 2122/2200 00000KT 4000 BR=
202206210500 TAF WIHH 210500Z 2106/2206 06012KT 6000 SCT020
                      BECMG 2113/2115 17005KT 5000 HZ
                      TEMPO 2117/2120 20010KT 4000 -RA FEW018CB=
202206202300 TAF WIHH 202300Z 2100/2200 15005KT 5000 HZ FEW022
                      BECMG 2102/2104 08008KT 7000 SCT020
                      TEMPO 2112/2115 18008KT 4000 -RA FEW018CB=
202206201700 TAF WIHH 201700Z 2018/2118 15003KT 5000 HZ FEW022
                      BECMG 2101/2103 09008KT 6000 SCT020=
202206201100 TAF WIHH 201100Z 2012/2112 20006KT 6000 SCT020
                      BECMG 2014/2016 5000 HZ FEW022=
202206200500 TAF WIHH 200500Z 2006/2106 36005KT 6000 SCT020
                      TEMPO 2007/2010 15010KT 4000 -RA FEW018CB
                       BECMG 2012/2014 5000 HZ FEW022
                      BECMG 2022/2100 00000KT 4000 BR=
202206192300 TAF WIHH 192300Z 2000/2100 22005KT 4000 BR FEW022
                      BECMG 2002/2004 32008KT 6000 SCT020
                      TEMPO 2007/2010 15010KT 4000 -RA FEW018CB
                       BECMG 2012/2014 20004KT 5000 HZ=
202206191700 TAF WIHH 191700Z 1918/2018 22003KT 5000 HZ FEW022
                      BECMG 1922/2000 00000KT 4000 BR
                      BECMG 2002/2004 30008KT 6000 SCT020=
202206191100 TAF WIHH 191100Z 1912/2012 15006KT 6000 FEW022
                      BECMG 1914/1916 5000 HZ
                      BECMG 1922/2000 00000KT 4000 BR=
202206190500 TAF WIHH 190500Z 1906/2006 03008KT 7000 SCT020
                      TEMPO 1908/1912 08010KT 4000 -RA FEW017CB
                       BECMG 1913/1915 15006KT 5000 HZ=
202206182300 TAF WIHH 182300Z 1900/2000 12005KT 4000 BR FEW022
                      BECMG 1902/1904 06008KT 7000 SCT020
                      TEMPO 1908/1912 36010KT 4000 -RA FEW017CB
                       BECMG 1913/1915 15004KT 5000 HZ=
202206181700 TAF WIHH 181700Z 1818/1918 15004KT 5000 HZ SCT022
                      BECMG 1901/1903 09010KT 7000 NSW
                      TEMPO 1908/1911 15010KT 4000 -RA FEW018CB
                       BECMG 1914/1916 00000KT 5000 HZ=
202206181100 TAF WIHH 181100Z 1812/1912 09007KT 6000 SCT020
                      BECMG 1814/1816 15004KT 5000 HZ=
202206180500 TAF WIHH 180500Z 1806/1906 15007KT 6000 SCT020
                      TEMPO 1808/1811 22010KT 3000 -TSRA FEW018CB
                       BECMG 1812/1814 09004KT 5000 HZ=
202206172300 TAF WIHH 172300Z 1800/1900 09004KT 4000 BR SCT020
                      BECMG 1801/1803 15008KT 6000 NSW
                      TEMPO 1807/1810 22012KT 3000 -RA FEW017CB
                       BECMG 1812/1814 00000KT 5000 HZ=
202206171700 TAF WIHH 171700Z 1718/1818 09003KT 5000 HZ SCT018
                      TEMPO 1723/1801 4000 -RA
                      BECMG 1803/1805 15010KT 6000 NSW
                      TEMPO 1807/1810 22010KT 3000 -TSRA FEW017CB
                       BECMG 1813/1815 00000KT 5000 HZ=
202206171100 TAF WIHH 171100Z 1712/1812 15006KT 6000 SCT020
                      BECMG 1714/1716 00000KT 4000 HZ
                      TEMPO 1720/1723 -RA=
202206170500 TAF WIHH 170500Z 1706/1806 09008KT 5000 HZ SCT018
                      TEMPO 1706/1709 03007KT 3000 -TSRA FEW016CB
                       BKN017
                      BECMG 1714/1716 15003KT 4000 BR=
202206162300 TAF WIHH 162300Z 1700/1800 15004KT 3000 BR SCT020
                      BECMG 1702/1704 09010KT 6000 NSW
                      TEMPO 1707/1710 02012KT 3000 -RA FEW017CB
                       BECMG 1713/1715 00000KT 5000 HZ=
202206161700 TAF WIHH 161700Z 1618/1718 09005KT 5000 HZ SCT018
                      TEMPO 1703/1706 02010KT 3000 -RA FEW017CB
                       TEMPO 1709/1711 3000 -TSRA FEW016CB BKN017
                       BECMG 1713/1715 00000KT=
202206161100 TAF WIHH 161100Z 1612/1712 07007KT 6000 SCT020
                      BECMG 1615/1617 15003KT 5000 HZ=
202206160500 TAF WIHH 160500Z 1606/1706 09008KT 5000 HZ SCT018
                      TEMPO 1606/1609 02012KT 3000 -TSRA FEW016CB
                       BKN017
                      BECMG 1613/1615 15003KT=
202206152300 TAF WIHH 152300Z 1600/1700 15004KT 4000 BR SCT020
                      BECMG 1602/1604 09010KT 7000 NSW
                      TEMPO 1607/1610 26012KT 3000 -TSRA FEW016CB
                       BKN017
                      BECMG 1613/1615 00000KT 5000 HZ=
202206151700 TAF WIHH 151700Z 1518/1618 24005KT 4000 BR FEW022
                      BECMG 1601/1603 12008KT 7000 SCT018=
202206151100 TAF WIHH 151100Z 1512/1612 15005KT 5000 HZ SCT020
                      BECMG 1522/1600 00000KT 3000 BR FEW022=
202206150500 TAF WIHH 150500Z 1506/1606 06008KT 5000 HZ SCT018
                      TEMPO 1507/1510 3000 -RA FEW018CB
                      BECMG 1513/1515 24005KT FEW022=
202206142300 TAF WIHH 142300Z 1500/1600 15005KT 4000 BR SCT020
                      BECMG 1501/1503 06008KT 6000
                      TEMPO 1507/1510 4000 -RA FEW018CB
                      BECMG 1513/1515 24006KT 5000 HZ=
202206141700 TAF WIHH 141700Z 1418/1518 22003KT 5000 HZ FEW022
                      BECMG 1422/1500 00000KT 4000 BR=
202206141100 TAF WIHH 141100Z 1412/1512 33005KT 6000 SCT020
                      BECMG 1414/1416 20003KT 5000 HZ FEW022=
202206140500 TAF WIHH 140500Z 1406/1506 03006KT 6000 SCT018
                      TEMPO 1407/1410 28010KT 4000 -TSRA FEW017CB
                       BECMG 1413/1415 14004KT 5000 HZ=
202206132300 TAF WIHH 132300Z 1400/1500 11005KT 4000 BR FEW022
                      BECMG 1402/1404 03008KT 6000 SCT020
                      TEMPO 1407/1410 25010KT 4000 -TSRA FEW018CB
                       BECMG 1412/1414 16004KT 5000 HZ=
202206131700 TAF WIHH 131700Z 1318/1418 22003KT 5000 HZ FEW022
                      BECMG 1401/1403 03008KT 6000 SCT020=
202206131200 TAF WIHH 131200Z 1312/1412 16005KT 6000 SCT020
                      BECMG 1314/1316 22003KT 5000 HZ FEW022=
202206130500 TAF WIHH 130500Z 1306/1406 33008KT 6000 SCT018
                      TEMPO 1307/1311 4000 -TSRA FEW017CB
                      BECMG 1313/1315 16005KT 5000 HZ FEW022=
202206122300 TAF COR WIHH 122300Z 1300/1400 24008KT 6000 FEW022
                      TEMPO 1307/1311 33010KT 4000 -TSRA FEW017CB
                       SCT018
                      BECMG 1313/1315 16005KT 5000 HZ=
202206121700 TAF WIHH 121700Z 1218/1318 09004KT 5000 HZ SCT018
                      BECMG 1302/1304 17010KT 6000 NSW
                      TEMPO 1308/1312 27010KT 3000 -TSRA FEW016CB
                       BKN017
                      BECMG 1313/1315 00000KT 4000 HZ=
202206121100 TAF WIHH 121100Z 1212/1312 09007KT 5000 HZ SCT018
                      TEMPO 1214/1216 15005KT 4000 -RA
                      BECMG 1219/1221 18004KT=
202206120500 TAF WIHH 120500Z 1206/1306 24008KT 7000 SCT020
                      TEMPO 1209/1212 33010KT 4000 -RA FEW018CB
                       BECMG 1213/1215 12003KT 5000 HZ=
202206112300 TAF WIHH 112300Z 1200/1300 12004KT 5000 HZ SCT020
                      BECMG 1202/1204 18010KT 6000 NSW
                      TEMPO 1207/1210 33010KT 3000 -RA FEW017CB
                       BECMG 1212/1214 00000KT 5000 HZ=
202206111700 TAF WIHH 111700Z 1118/1218 18005KT 5000 HZ SCT018
                      TEMPO 1120/1123 4000 -RA FEW017CB
                      BECMG 1203/1205 12010KT 6000 NSW
                      TEMPO 1207/1211 20010KT 3000 -TSRA FEW016CB
                       BKN017
                      BECMG 1213/1215 00000KT 5000 HZ=
202206111100 TAF WIHH 111100Z 1112/1212 09006KT 6000 SCT018
                      TEMPO 1112/1114 15004KT 4000 -RA FEW017CB
                       BECMG 1115/1117 00000KT 5000 HZ
                      TEMPO 1119/1122 23005KT 3000 -RA FEW017CB=
202206110500 TAF WIHH 110500Z 1106/1206 12010KT 5000 HZ SCT018
                      TEMPO 1106/1109 28012KT 3000 -TSRA FEW016CB
                       BKN017
                      BECMG 1113/1115 06003KT
                      TEMPO 1119/1122 22006KT 3000 -RA FEW017CB=
202206102300 TAF WIHH 102300Z 1100/1200 15004KT 4000 HZ SCT020
                      BECMG 1102/1104 09010KT 7000 NSW
                      TEMPO 1107/1111 33012KT 3000 -TSRA FEW018CB
                       BECMG 1112/1114 00000KT 5000 HZ=
202206101700 TAF WIHH 101700Z 1018/1118 09004KT 5000 HZ SCT018
                      BECMG 1102/1104 03010KT 7000 NSW
                      TEMPO 1108/1112 27010KT 3000 -TSRA FEW016CB
                       BKN017
                      BECMG 1113/1115 00000KT 5000 HZ=
202206101100 TAF WIHH 101100Z 1012/1112 03008KT 6000 SCT018
                      TEMPO 1012/1014 21007KT 4000 -RA FEW017CB
                       BECMG 1015/1017 15004KT 5000 HZ=
202206100500 TAF WIHH 100500Z 1006/1106 09010KT 6000 SCT020
                      TEMPO 1008/1012 32010G25KT 2000 TSRA FEW016CB
                       BKN017
                      BECMG 1013/1015 15004KT 5000 HZ=
202206092300 TAF WIHH 092300Z 1000/1100 09003KT 3000 BR SCT020
                      BECMG 1001/1003 15008KT 6000 NSW
                      TEMPO 1008/1011 03010G25KT 2000 TSRA FEW015CB
                       BKN016
                      BECMG 1012/1014 00000KT 5000 HZ=
202206091700 TAF WIHH 091700Z 0918/1018 24003KT 5000 HZ FEW022
                      BECMG 0922/1000 00000KT 3000 BR
                      TEMPO 1008/1012 04010KT 4000 -TSRA FEW017CB
                       SCT018=
202206091100 TAF COR WIHH 091100Z 0912/1012 23005KT 5000 HZ SCT020
                      BECMG 0922/1000 00000KT 4000 BR FEW022=
202206090500 TAF WIHH 090500Z 0906/1006 02010KT 6000 SCT020
                      TEMPO 0907/0910 4000 -TSRA FEW017CB BKN018
                       BECMG 0913/0915 15004KT 5000 HZ FEW022=
202206082300 TAF WIHH 082300Z 0900/1000 21005KT 6000 FEW022
                      TEMPO 0906/0909 36008KT 4000 -RA FEW018CB
                       SCT020
                      BECMG 0913/0915 15004KT 5000 HZ=
202206081700 TAF WIHH 081700Z 0818/0918 21004KT 5000 HZ FEW022
                      BECMG 0901/0903 04008KT 6000 SCT020
                      TEMPO 0905/0909 36010KT 4000 -RA FEW018CB=
202206081100 TAF WIHH 081100Z 0812/0912 21004KT 6000 SCT020
                      BECMG 0814/0816 5000 HZ FEW022=
202206080500 TAF WIHH 080500Z 0806/0906 04008KT 6000 SCT018
                      TEMPO 0807/0810 4000 -TSRA FEW017CB
                      BECMG 0812/0814 18005KT 5000 HZ FEW022=
202206072300 TAF WIHH 072300Z 0800/0900 15004KT 6000 FEW022
                      BECMG 0802/0804 06008KT SCT020
                      TEMPO 0807/0810 12010KT 4000 -RA FEW017CB
                       BECMG 0812/0814 18005KT 5000 HZ=
202206071700 TAF WIHH 071700Z 0718/0818 18003KT 4000 HZ FEW022
                      BECMG 0802/0804 06008KT 6000 SCT020=
202206071100 TAF WIHH 071100Z 0712/0812 08008KT 6000 SCT020
                      TEMPO 0714/0717 3000 -TSRA FEW017CB BKN018
                       BECMG 0718/0720 15004KT 4000 HZ=
202206070500 TAF WIHH 070500Z 0706/0806 06010KT 7000 SCT020
                      TEMPO 0713/0716 03008KT 3000 -TSRA FEW017CB
                       BKN018
                      BECMG 0717/0719 00000KT 5000 HZ=
202206062300 TAF WIHH 062300Z 0700/0800 23005KT 4000 BR FEW022
                      BECMG 0702/0704 09008KT 6000 SCT020
                      TEMPO 0711/0714 03010KT 3000 -TSRA FEW017CB
                       BKN018
                      BECMG 0716/0718 00000KT 5000 HZ=
202206061700 TAF WIHH 061700Z 0618/0718 00000KT 5000 HZ SCT018
                      BECMG 0702/0704 09010KT 6000 NSW
                      TEMPO 0708/0712 27010KT 3000 -TSRA FEW016CB
                       BKN017
                      BECMG 0713/0715 00000KT 4000 HZ=
202206061100 TAF WIHH 061100Z 0612/0712 15008KT 3000 -TSRA FEW016CB SCT017
                      BECMG 0614/0616 00000KT 4000 HZ SCT018
                      BECMG 0620/0622 3000 BR
                      BECMG 0702/0704 09008KT 6000 NSW=
202206060500 TAF WIHH 060500Z 0606/0706 15004KT 5000 HZ SCT018
                      TEMPO 0608/0612 25010KT 2500 TSRA FEW016CB
                       BKN017
                      BECMG 0613/0615 09003KT=
202206052300 TAF WIHH 052300Z 0600/0700 09003KT 3000 BR SCT018
                      TEMPO 0600/0602 03004KT -RA
                      BECMG 0603/0605 15010KT 5000 HZ
                      TEMPO 0608/0611 25012KT 2500 TSRA FEW015CB
                       BKN016
                      BECMG 0612/0614 00000KT=
202206051700 TAF WIHH 051700Z 0518/0618 09004KT 5000 HZ SCT018
                      TEMPO 0520/0523 03006KT 3000 -RA FEW017CB
                       BECMG 0602/0604 15010KT 6000 NSW
                      TEMPO 0608/0611 27010KT 3000 -TSRA FEW017CB=
202206051100 TAF WIHH 051100Z 0512/0612 15005KT 5000 HZ SCT018
                      TEMPO 0515/0518 30006KT 3000 -RA FEW017CB
                       BECMG 0519/0521 00000KT 4000 BR
                      BECMG 0601/0603 15010KT 7000 NSW=
202206050500 TAF WIHH 050500Z 0506/0606 15007KT 7000 SCT020
                      TEMPO 0509/0511 03010KT 4000 -RA FEW018CB
                       BECMG 0514/0516 00000KT 5000 HZ=
202206042300 TAF WIHH 042300Z 0500/0600 15008KT 6000 SCT020
                      TEMPO 0509/0511 24005KT 4000 -RA FEW018CB
                       BECMG 0514/0516 00000KT 5000 HZ=
202206041700 TAF WIHH 041700Z 0418/0518 18003KT 5000 HZ FEW022
                      BECMG 0502/0504 05008KT 6000 SCT020
                      TEMPO 0508/0511 02010KT 4000 -RA FEW018CB=
202206041100 TAF WIHH 041100Z 0412/0512 15005KT 5000 HZ SCT020
                      BECMG 0422/0500 4000 BR FEW022
                      BECMG 0502/0504 09008KT 6000=
202206040500 TAF WIHH 040500Z 0406/0506 09010KT 6000 SCT020
                      TEMPO 0407/0410 01008KT 3000 -TSRA FEW018CB
                       BECMG 0412/0414 12004KT 5000 HZ
                      BECMG 0422/0500 00000KT 4000 BR=
202206032300 TAF WIHH 032300Z 0400/0500 16005KT 4000 BR FEW022
                      BECMG 0401/0403 09008KT 6000 SCT020
                      TEMPO 0406/0409 01010KT 3000 -TSRA FEW018CB
                       BECMG 0412/0414 12004KT 5000 HZ=
202206031700 TAF WIHH 031700Z 0318/0418 15005KT 5000 HZ SCT020
                      BECMG 0402/0404 09010KT 7000 NSW
                      BECMG 0412/0414 00000KT 5000 HZ=
202206031100 TAF WIHH 031100Z 0312/0412 03007KT 6000 SCT020
                      BECMG 0315/0317 15003KT 5000 HZ=
202206030500 TAF WIHH 030500Z 0306/0406 15008KT 7000 SCT020
                      TEMPO 0308/0311 24010KT 4000 -TSRA FEW018CB
                       BECMG 0312/0314 00000KT 5000 HZ=
202206022300 TAF WIHH 022300Z 0300/0400 12008KT 6000 SCT020
                      TEMPO 0308/0311 24012KT 3000 -TSRA FEW017CB
                       BECMG 0312/0314 00000KT 4000 HZ=
202206021700 TAF WIHH 021700Z 0218/0318 12005KT 4000 HZ SCT018
                      BECMG 0302/0304 18010KT 6000 NSW
                      TEMPO 0308/0311 24012KT 3000 -TSRA FEW016CB
                       BKN017
                      BECMG 0312/0314 00000KT 5000 HZ=
202206021100 TAF WIHH 021100Z 0212/0312 12005KT 4000 -RA FEW016CB BKN017
                      BECMG 0214/0216 00000KT 5000 HZ SCT018
                      BECMG 0301/0303 18010KT 7000 NSW=
202206020500 TAF WIHH 020500Z 0206/0306 15008KT 6000 SCT018
                      TEMPO 0206/0210 03010KT 3000 -TSRA FEW017CB
                       BECMG 0213/0215 00000KT 5000 HZ=
202206012300 TAF WIHH 012300Z 0200/0300 18008KT 6000 SCT020
                      TEMPO 0208/0211 26012KT 3000 -TSRA FEW017CB
                       BECMG 0212/0214 00000KT 5000 HZ=
202206011700 TAF WIHH 011700Z 0118/0218 22004KT 5000 HZ FEW022
                      BECMG 0201/0203 06008KT 7000 SCT020=
202206011100 TAF WIHH 011100Z 0112/0212 22006KT 6000 SCT020
                      BECMG 0114/0116 5000 HZ FEW022
                      BECMG 0122/0200 00000KT 4000 BR=
202206010500 TAF WIHH 010500Z 0106/0206 23008KT 6000 SCT018
                      TEMPO 0107/0111 4000 -TSRA FEW018CB
                      BECMG 0112/0114 15004KT 5000 HZ
                      BECMG 0120/0122 00000KT 4000 BR=
