##########################################################
# Query made at 05/05/2026 03:29:15 UTC
# Time interval: from 09/01/2025 00:00  to 09/30/2025 23:59  UTC
##########################################################

##########################################################
# WIHH, Jakarta Halim Perdanakusuma (Indonesia)
# WMO index: 96747. WIGOS ID: Unknown
# Latitude 06-15S. Longitude 106-54E. Altitude 30 m.
##########################################################

###################################
#  METAR/SPECI from WIHH
###################################
202509302330 METAR WIHH NIL=
202509302300 METAR WIHH 302300Z 00000KT 4000 BR SCT020 24/24 Q1010 NOSIG=
202509302230 METAR WIHH 302230Z 00000KT 3000 SCT020 23/23 Q1010 NOSIG=
202509302200 METAR WIHH 302200Z 23003KT 3000 SCT020 24/23 Q1009 NOSIG=
202509302130 METAR WIHH 302130Z 23003KT 4000 BR SCT020 24/23 Q1009 NOSIG=
202509302100 METAR WIHH 302100Z 20003KT 4000 BR SCT020 24/23 Q1009 NOSIG=
202509302030 METAR WIHH 302030Z 20003KT 8000 SCT020 24/24 Q1011 NOSIG=
202509302000 METAR WIHH NIL=
202509301930 METAR WIHH NIL=
202509301900 METAR WIHH NIL=
202509301830 METAR WIHH NIL=
202509301800 METAR WIHH NIL=
202509301730 METAR WIHH NIL=
202509301700 METAR WIHH 301700Z 20003KT 8000 SCT020 24/24 Q1011 NOSIG=
202509301630 METAR WIHH 301630Z 19003KT 8000 SCT020 24/24 Q1011 NOSIG=
202509301600 METAR WIHH 301600Z 25003KT 8000 SCT020 24/24 Q1011 NOSIG=
202509301530 METAR WIHH 301530Z 18003KT 8000 SCT020 24/23 Q1011 NOSIG=
202509301500 METAR WIHH NIL=
202509301430 METAR WIHH 301430Z 22004KT 8000 SCT020 23/23 Q1010 RMK RA TO NE-SE=
202509301400 METAR WIHH 301400Z 21005KT 8000 SCT020 23/23 Q1011 RMK RA TO NE-SE=
202509301330 METAR WIHH 301330Z 21006KT 7000 SCT018 23/23 Q1011 RMK RA TO E=
202509301300 METAR WIHH 301300Z 11005KT 6000 -RA BKN018 23/22 Q1011 NOSIG=
202509301230 METAR WIHH 301230Z 25007KT 3000 -TSRA BKN017 FEW018CB 22/22 Q1011 TEMPO TL1240 3000 -TSRA RMK CB TO NE=
202509301200 METAR WIHH 301200Z 21013KT 2000 TSRA BKN015 FEW017CB 23/22 Q1011 TEMPO TL1240 2000 TSRA RMK CB OVER THE FIELD DUPE=
202509301130 METAR WIHH 301130Z 18013KT 2000 TSRA BKN013 FEW015CB 24/23 Q1011 TEMPO TL1240 2000 TSRA RMK CB OVER THE FIELD=
202509301100 METAR WIHH 301100Z 19018KT 1500 TSRA BKN012 FEW014CB 24/23 Q1010 TEMPO TL1240 2000 TSRA RMK CB OVER THE FIELD=
202509301030 METAR WIHH 301030Z 21013KT 5000 TS BKN013 FEW015CB 26/22 Q1009 TEMPO FM1140 22015G28KT 2000 TSRA FEW014CB BKN014 RMK CB AND RA TO S-W=
202509301000 METAR WIHH 301000Z 05009KT 7000 TS SCT017 FEW018CB 30/24 Q1008 TEMPO FM1100 20015G28KT 2000 TSRA FEW015CB BKN017 RMK CB AND RA TO S-W=
202509300930 METAR WIHH 300930Z 05008KT 7000 SCT019 FEW020CB 30/24 Q1008 RMK CB TO SW=
202509300900 METAR WIHH 300900Z 04008KT 7000 SCT019 FEW020CB 29/24 Q1007 RMK CB AND RA TO SW=
202509300830 METAR WIHH 300830Z 04010KT 5000 -RA SCT018 FEW020CB 28/24 Q1007 RMK CB TO NW=
202509300800 METAR WIHH 300800Z 30006KT 5000 -RA SCT018 FEW020CB 31/25 Q1007 TEMPO TL0830 2000 TSRA BKN016 FEW018CB RMK CB TO N=
202509300730 METAR WIHH 300730Z 03008KT 6000 SCT018 FEW020CB 33/23 Q1007 RMK CB AND RA TO NW=
202509300700 METAR WIHH 300700Z 04007KT 6000 SCT018 FEW020CB 33/22 Q1007 TEMPO FM0730 3000 -TSRA SCT017 FEW018CB RMK CB AND RA TO NW AND SE=
202509300630 METAR WIHH NIL=
202509300600 METAR WIHH 300600Z 11006KT 7000 SCT018 32/22 Q1008 TEMPO FM0630 3000 -TSRA SCT017 FEW020CB RMK RA TO N=
202509300530 METAR WIHH 300530Z 12010KT 7000 SCT018 33/23 Q1009 TEMPO FM0630 3000 -TSRA SCT017 FEW020CB RMK RA TO NE=
202509300500 METAR WIHH 300500Z 09007KT 7000 SCT018 32/22 Q1010 RMK RA TO W=
202509300430 METAR WIHH 300430Z 10006KT 7000 SCT018 31/23 Q1010 RMK RA TO SW=
202509300400 METAR WIHH 300400Z 10008KT 7000 SCT018 32/22 Q1010 RMK RA TO SE=
202509300330 METAR WIHH 300330Z 06009KT 7000 SCT018 31/22 Q1011 NOSIG=
202509300300 METAR WIHH NIL=
202509300230 METAR WIHH 300230Z 13006KT 7000 SCT020 31/23 Q1012 NOSIG=
202509300200 METAR WIHH 300200Z 16004KT 7000 SCT020 30/23 Q1012 NOSIG=
202509300130 METAR WIHH 300130Z 19005KT 7000 SCT020 29/22 Q1011 NOSIG=
202509300100 METAR WIHH 300100Z 22003KT 6000 SCT020 27/24 Q1011 NOSIG=
202509300030 METAR WIHH 300030Z 22003KT 5000 HZ SCT020 26/24 Q1011 NOSIG=
202509300000 METAR WIHH 300000Z 21003KT 5000 HZ SCT020 25/24 Q1011 NOSIG=
202509292330 METAR WIHH NIL=
202509292300 METAR WIHH 292300Z 27003KT 4000 BR SCT018 24/24 Q1010 NOSIG=
202509292230 METAR WIHH 292230Z 26003KT 4000 BR SCT018 24/24 Q1009 NOSIG=
202509292200 METAR WIHH 292200Z 22003KT 4000 BR SCT018 24/24 Q1009 NOSIG=
202509292130 METAR WIHH 292130Z 18003KT 4000 BR SCT018 24/24 Q1011 NOSIG=
202509292100 METAR WIHH NIL=
202509292030 METAR WIHH NIL=
202509292000 METAR WIHH NIL=
202509291930 METAR WIHH NIL=
202509291900 METAR WIHH NIL=
202509291830 METAR WIHH NIL=
202509291800 METAR WIHH NIL=
202509291730 METAR WIHH NIL=
202509291700 METAR WIHH 291700Z 16003KT 4000 BR SCT018 24/24 Q1011 NOSIG=
202509291630 METAR WIHH NIL=
202509291600 METAR WIHH 291600Z 16003KT 4000 BR SCT018 24/24 Q1011 NOSIG=
202509291530 METAR WIHH 291530Z 15003KT 4000 HZ SCT018 24/23 Q1012 NOSIG=
202509291500 METAR WIHH 291500Z 24003KT 4000 HZ SCT018 25/24 Q1012 NOSIG=
202509291430 METAR WIHH 291430Z 13003KT 5000 HZ SCT018 25/24 Q1012 NOSIG=
202509291400 METAR WIHH 291400Z 12003KT 5000 HZ SCT018 25/24 Q1012 NOSIG=
202509291330 METAR WIHH 291330Z 15003KT 5000 HZ SCT017 25/24 Q1012 NOSIG=
202509291300 METAR WIHH 291300Z 16004KT 5000 HZ SCT017 25/24 Q1011 NOSIG=
202509291230 METAR WIHH 291230Z 17003KT 5000 HZ SCT017 24/24 Q1011 NOSIG=
202509291200 METAR WIHH 291200Z 18003KT 5000 HZ SCT017 24/23 Q1011 RMK RA TO SW=
202509291130 METAR WIHH 291130Z 12003KT 5000 -RA SCT016 24/23 Q1010 NOSIG=
202509291100 METAR WIHH 291100Z 23005KT 5000 -RA SCT016 24/24 Q1010 NOSIG=
202509291030 METAR WIHH 291030Z 23004KT 4000 -RA BKN016 FEW017CB 24/24 Q1011 RMK CB TO S=
202509291000 METAR WIHH 291000Z 10004KT 3000 -TSRA BKN015 FEW017CB 24/24 Q1011 RMK CB TO S-SW=
202509290930 METAR WIHH 290930Z 23010KT 2000 -TSRA BKN014 FEW017CB 23/23 Q1011 TEMPO TL0945 3000 -TSRA RMK CB TO SW-S=
202509290900 METAR WIHH 290900Z 21015KT 0800 -TSRA BKN014 24/23 Q1010 TEMPO FM0930 3000 -TSRA RMK CB OTF=
202509290830 METAR WIHH 290830Z 27010KT 2000 +TSRA BKN014 FEW017CB 26/24 Q1009 RMK CB TO SE-SW=
202509290800 METAR WIHH NIL=
202509290730 METAR WIHH 290730Z 28004KT 5000 TS SCT016 FEW017CB 29/25 Q1008 RMK CB AND RA TO SE-SW=
202509290700 METAR WIHH 290700Z 32005KT 5000 -TSRA SCT016 26/25 Q1008 RMK CB TO E-S=
202509290630 METAR WIHH NIL=
202509290600 METAR WIHH 290600Z 36007KT 6000 TS SCT016 FEW017CB 31/24 Q1009 TEMPO FM0615 3000 -TSRA RMK CB AND RA TO N-E=
202509290530 METAR WIHH 290530Z 22008KT 7000 FEW017CB SCT018 33/23 Q1009 TEMPO FM0600 3000 -TSRA RMK CB AND RA TO N=
202509290500 METAR WIHH 290500Z 21005KT 7000 SCT018 33/23 Q1010 NOSIG=
202509290430 METAR WIHH 290430Z 22006KT 6000 SCT018 32/23 Q1010 RMK RA TO SE=
202509290400 METAR WIHH 290400Z 23008KT 6000 SCT018 32/23 Q1011 NOSIG=
202509290330 METAR WIHH 290330Z 22010KT 7000 SCT020 33/23 Q1011 NOSIG=
202509290300 METAR WIHH NIL=
202509290230 METAR WIHH 290230Z 24004KT 7000 SCT020 31/22 Q1012 NOSIG=
202509290200 METAR WIHH 290200Z 22005KT 7000 SCT020 31/23 Q1012 NOSIG=
202509290130 METAR WIHH 290130Z 24005KT 6000 SCT020 31/23 Q1012 NOSIG=
202509290100 METAR WIHH 290100Z 21008KT 6000 SCT018 29/24 Q1012 NOSIG=
202509290030 METAR WIHH 290030Z 22008KT 6000 SCT018 28/23 Q1012 NOSIG=
202509290000 METAR WIHH 290000Z 23009KT 6000 SCT018 27/23 Q1011 NOSIG=
202509282330 METAR WIHH NIL=
202509282300 METAR WIHH 282300Z 23005KT 6000 FEW020 25/23 Q1011 NOSIG=
202509282230 METAR WIHH 282230Z 24004KT 6000 FEW020 25/23 Q1010 NOSIG=
202509282200 METAR WIHH 282200Z 24004KT 6000 FEW020 25/23 Q1010 NOSIG=
202509282130 METAR WIHH NIL=
202509282100 METAR WIHH NIL=
202509282030 METAR WIHH NIL=
202509282000 METAR WIHH NIL=
202509281930 METAR WIHH NIL=
202509281900 METAR WIHH NIL=
202509281830 METAR WIHH NIL=
202509281800 METAR WIHH NIL=
202509281730 METAR WIHH NIL=
202509281700 METAR WIHH 281700Z 15003KT 8000 FEW020 26/23 Q1012 NOSIG=
202509281630 METAR WIHH NIL=
202509281600 METAR WIHH 281600Z 17004KT 8000 FEW020 26/23 Q1012 NOSIG=
202509281530 METAR WIHH NIL=
202509281500 METAR WIHH 281500Z 15004KT 8000 FEW020 27/24 Q1012 NOSIG=
202509281430 METAR WIHH 281430Z 05004KT 8000 FEW020 29/23 Q1012 NOSIG=
202509281400 METAR WIHH 281400Z 05006KT 8000 FEW020 29/23 Q1011 NOSIG=
202509281330 METAR WIHH 281330Z 09006KT 8000 FEW020 29/22 Q1011 NOSIG=
202509281300 METAR WIHH 281300Z 05007KT 8000 FEW020 29/22 Q1010 NOSIG=
202509281230 METAR WIHH 281230Z 06009KT 8000 FEW020 30/22 Q1010 NOSIG=
202509281200 METAR WIHH NIL=
202509281130 METAR WIHH NIL=
202509281100 METAR WIHH NIL=
202509281030 METAR WIHH 281030Z 05016KT 8000 SCT020 31/21 Q1008 NOSIG=
202509281000 METAR WIHH NIL=
202509280930 METAR WIHH NIL=
202509280900 METAR WIHH NIL=
202509280830 METAR WIHH 280830Z 04013KT 8000 SCT018 33/24 Q1007 NOSIG=
202509280800 METAR WIHH 280800Z 06013KT 8000 SCT018 34/22 Q1007 NOSIG=
202509280730 METAR WIHH 280730Z 06015KT 8000 SCT018 34/23 Q1007 NOSIG=
202509280700 METAR WIHH 280700Z 08015KT 8000 SCT018 34/22 Q1008 NOSIG=
202509280630 METAR WIHH 280630Z 04020KT 7000 SCT018 34/22 Q1008 NOSIG=
202509280600 METAR WIHH NIL=
202509280530 METAR WIHH NIL=
202509280500 METAR WIHH NIL=
202509280430 METAR WIHH 280430Z 09015KT 6000 SCT020 32/23 Q1010 NOSIG RMK RA TO S=
202509280400 METAR WIHH 280400Z 14010KT 6000 SCT018 34/23 Q1012 NOSIG=
202509280330 METAR WIHH 280330Z 09016KT 7000 SCT020 32/24 Q1011 NOSIG=
202509280300 METAR WIHH 280300Z 10016KT 7000 SCT020 32/23 Q1012 NOSIG=
202509280230 METAR WIHH 280230Z 10017KT 7000 SCT020 30/24 Q1012 NOSIG=
202509280200 METAR WIHH 280200Z 08016KT 7000 SCT020 30/24 Q1012 NOSIG=
202509280130 METAR WIHH NIL=
202509280100 METAR WIHH 280100Z 09010KT 7000 FEW020 30/23 Q1012 NOSIG=
202509280030 METAR WIHH 280030Z 10010KT 7000 FEW020 29/23 Q1011 NOSIG=
202509280000 METAR WIHH 280000Z 10005KT 6000 FEW020 28/23 Q1011 NOSIG=
202509272330 METAR WIHH 272330Z 12003KT 6000 FEW020 27/23 Q1011 NOSIG=
202509272300 METAR WIHH 272300Z 11004KT 5000 HZ FEW020 26/23 Q1010 NOSIG=
202509272230 METAR WIHH NIL=
202509272200 METAR WIHH 272200Z 14003KT 6000 FEW020 26/24 Q1010 NOSIG=
202509272130 METAR WIHH NIL=
202509272100 METAR WIHH NIL=
202509272030 METAR WIHH NIL=
202509272000 METAR WIHH NIL=
202509271930 METAR WIHH NIL=
202509271900 METAR WIHH NIL=
202509271830 METAR WIHH NIL=
202509271800 METAR WIHH NIL=
202509271730 METAR WIHH NIL=
202509271700 METAR WIHH 271700Z 14004KT 6000 FEW020 28/24 Q1011 NOSIG=
202509271630 METAR WIHH NIL=
202509271600 METAR WIHH 271600Z 12004KT 6000 SCT018 28/24 Q1011 NOSIG=
202509271530 METAR WIHH NIL=
202509271500 METAR WIHH 271500Z 09004KT 6000 SCT018 29/24 Q1011 NOSIG=
202509271430 METAR WIHH 271430Z 10004KT 6000 SCT018 29/24 Q1011 NOSIG=
202509271400 METAR WIHH 271400Z 05006KT 6000 SCT018 29/24 Q1011 NOSIG=
202509271330 METAR WIHH 271330Z 07007KT 6000 SCT018 29/24 Q1011 NOSIG=
202509271300 METAR WIHH 271300Z 09007KT 6000 SCT018 29/24 Q1010 NOSIG=
202509271230 METAR WIHH 271230Z 04007KT 6000 SCT018 29/24 Q1009 NOSIG=
202509271200 METAR WIHH NIL=
202509271130 METAR WIHH NIL=
202509271100 METAR WIHH NIL=
202509271030 METAR WIHH 271030Z 02015KT 6000 SCT018 30/22 Q1008 RMK RA TO S=
202509271000 METAR WIHH 271000Z 04015KT 6000 SCT018 31/22 Q1007 RMK RA TO S=
202509270930 METAR WIHH NIL=
202509270900 METAR WIHH 270900Z 05015KT 6000 TS SCT015 FEW017CB 32/23 Q1007 TEMPO FM0920 3000 -TSRA BKN016 RMK CB AND RA TO SW=
202509270830 METAR WIHH 270830Z 04018KT 6000 SCT015 FEW017CB 32/24 Q1007 TEMPO FM0920 3000 -TSRA BKN016 RMK CB AND RA TO SW=
202509270800 METAR WIHH NIL=
202509270730 METAR WIHH 270730Z 01015KT 6000 SCT015 34/23 Q1007 NOSIG=
202509270700 METAR WIHH 270700Z 03015KT 6000 SCT015 34/23 Q1007 NOSIG=
202509270630 METAR WIHH 270630Z 09015KT 6000 SCT015 34/22 Q1008 NOSIG=
202509270600 METAR WIHH NIL=
202509270530 METAR WIHH 270530Z 11015KT 6000 SCT015 34/22 Q1009 NOSIG=
202509270500 METAR WIHH 270500Z 09015KT 6000 SCT015 33/22 Q1009 NOSIG=
202509270430 METAR WIHH 270430Z 12015KT 6000 SCT015 33/22 Q1010 NOSIG=
202509270400 METAR WIHH 270400Z 05015KT 6000 SCT015 32/22 Q1010 NOSIG=
202509270330 METAR WIHH NIL=
202509270300 METAR WIHH 270300Z 11010KT 6000 SCT018 31/22 Q1011 NOSIG=
202509270230 METAR WIHH NIL=
202509270200 METAR WIHH NIL=
202509270130 METAR WIHH NIL=
202509270100 METAR WIHH 270100Z 06007KT 6000 FEW020 30/24 Q1011 NOSIG=
202509270030 METAR WIHH NIL=
202509270000 METAR WIHH NIL=
202509262330 METAR WIHH 262330Z 18003KT 5000 HZ SCT017 26/24 Q1011 NOSIG=
202509262300 METAR WIHH 262300Z 22003KT 5000 HZ SCT018 26/24 Q1011 NOSIG=
202509262230 METAR WIHH NIL=
202509262200 METAR WIHH 262200Z 23003KT 6000 SCT018 26/25 Q1010 NOSIG=
202509262130 METAR WIHH NIL=
202509262100 METAR WIHH 262100Z 18002KT 5000 HZ SCT018 26/24 Q1010 NOSIG DUPE=
202509262030 METAR WIHH NIL=
202509262000 METAR WIHH NIL=
202509261930 METAR WIHH NIL=
202509261900 METAR WIHH NIL=
202509261830 METAR WIHH NIL=
202509261800 METAR WIHH NIL=
202509261730 METAR WIHH NIL=
202509261700 METAR WIHH 261700Z 19003KT 7000 SCT018 27/23 Q1011 NOSIG=
202509261630 METAR WIHH 261630Z 19003KT 7000 SCT018 27/23 Q1011 NOSIG=
202509261600 METAR WIHH 261600Z 17004KT 7000 SCT018 27/23 Q1011 NOSIG RMK RA TO E=
202509261530 METAR WIHH 261530Z 18003KT 7000 SCT018 27/22 Q1011 NOSIG=
202509261500 METAR WIHH NIL=
202509261430 METAR WIHH 261430Z 21003KT 7000 SCT018 27/23 Q1011 NOSIG=
202509261400 METAR WIHH 261400Z 19006KT 7000 SCT018 28/24 Q1011 NOSIG=
202509261330 METAR WIHH 261330Z 18005KT 7000 SCT017 29/24 Q1010 RMK RA TO E=
202509261300 METAR WIHH NIL=
202509261230 METAR WIHH 261230Z 06005KT 6000 SCT017 29/24 Q1010 RMK RA TO S=
202509261200 METAR WIHH 261200Z 05005KT 6000 TS SCT016 FEW017CB 30/24 Q1009 RMK CB AND RA TO S=
202509261130 METAR WIHH NIL=
202509261100 METAR WIHH 261100Z 02010KT 6000 TS SCT016 FEW017CB 30/24 Q1008 RMK CB AND RA TO S-SW=
202509261030 METAR WIHH 261030Z 03010KT 6000 FEW017CB SCT018 31/23 Q1008 RMK CB AND RA TO SW=
202509261000 METAR WIHH 261000Z 04010KT 6000 FEW017CB SCT018 31/23 Q1008 RMK CB AND RA TO S=
202509260930 METAR WIHH NIL=
202509260900 METAR WIHH 260900Z 04010KT 7000 FEW017CB SCT018 32/23 Q1007 RMK CB AND RA TO W=
202509260830 METAR WIHH NIL=
202509260800 METAR WIHH 260800Z 05010KT 7000 SCT018 34/23 Q1007 RMK RA TO SE=
202509260730 METAR WIHH 260730Z 12006KT 7000 SCT018 35/21 Q1007 NOSIG=
202509260700 METAR WIHH 260700Z 12006KT 7000 SCT018 35/21 Q1007 NOSIG=
202509260630 METAR WIHH 260630Z 23005KT 7000 SCT018 36/20 Q1007 NOSIG=
202509260600 METAR WIHH 260600Z 05007KT 7000 SCT018 35/20 Q1008 NOSIG=
202509260530 METAR WIHH 260530Z 11006KT 7000 SCT018 34/21 Q1008 NOSIG=
202509260500 METAR WIHH 260500Z 16007KT 7000 SCT020 34/21 Q1009 NOSIG=
202509260430 METAR WIHH 260430Z 10007KT 7000 SCT020 34/21 Q1010 NOSIG=
202509260400 METAR WIHH 260400Z 11008KT 7000 FEW020 34/20 Q1011 NOSIG=
202509260330 METAR WIHH 260330Z 02008KT 7000 FEW020 33/20 Q1011 NOSIG=
202509260300 METAR WIHH 260300Z 06009KT 7000 FEW020 32/21 Q1012 NOSIG=
202509260230 METAR WIHH NIL=
202509260200 METAR WIHH 260200Z 08004KT 6000 FEW020 30/21 Q1013 NOSIG=
202509260130 METAR WIHH 260130Z 08004KT 6000 FEW020 30/20 Q1013 NOSIG=
202509260100 METAR WIHH 260100Z 09003KT 6000 FEW020 29/23 Q1013 NOSIG=
202509260030 METAR WIHH 260030Z 18003KT 5000 HZ FEW020 27/24 Q1012 NOSIG=
202509260000 METAR WIHH 260000Z 18005KT 5000 HZ FEW020 26/25 Q1012 NOSIG=
202509252330 METAR WIHH NIL=
202509252300 METAR WIHH 252300Z 09004KT 5000 BR SCT020 24/24 Q1012 NOSIG=
202509252230 METAR WIHH NIL=
202509252200 METAR WIHH 252200Z 00000KT 6000 SCT020 25/24 Q1011 NOSIG=
202509252130 METAR WIHH 252130Z 00000KT 6000 SCT018 25/24 Q1011 NOSIG=
202509252100 METAR WIHH 252100Z 00000KT 6000 SCT018 25/24 Q1011 NOSIG=
202509252030 METAR WIHH NIL=
202509252000 METAR WIHH NIL=
202509251930 METAR WIHH NIL=
202509251900 METAR WIHH NIL=
202509251830 METAR WIHH NIL=
202509251800 METAR WIHH NIL=
202509251730 METAR WIHH NIL=
202509251700 METAR WIHH NIL=
202509251630 METAR WIHH 251630Z 22006KT 6000 FEW017 SCT018 26/24 Q1012 RMK CB AND RA TO W=
202509251600 METAR WIHH NIL=
202509251530 METAR WIHH NIL=
202509251500 METAR WIHH 251500Z 20006KT 6000 TS FEW017CB SCT018 27/25 Q1012 TEMPO FM1520 3000 -TSRA RMK CB AND RA TO S=
202509251430 METAR WIHH NIL=
202509251400 METAR WIHH 251400Z 00000KT 6000 SCT018 27/25 Q1011 RMK RA TO SW=
202509251330 METAR WIHH 251330Z 18004KT 6000 SCT018 27/25 Q1011 RMK RA TO S=
202509251300 METAR WIHH NIL=
202509251230 METAR WIHH 251230Z 09004KT 6000 SCT018 29/25 Q1010 RMK RA TO S=
202509251200 METAR WIHH NIL=
202509251130 METAR WIHH 251130Z 31004KT 5000 HZ SCT018 28/24 Q1009 RMK RA TO SE=
202509251100 METAR WIHH NIL=
202509251030 METAR WIHH NIL=
202509251000 METAR WIHH 251000Z 23004KT 5000 HZ SCT018 28/26 Q1008 RMK RA TO S=
202509250930 METAR WIHH 250930Z 24004KT 5000 HZ SCT018 27/26 Q1007 RMK RA TO S=
202509250900 METAR WIHH 250900Z 27005KT 6000 SCT018 26/24 Q1007 RMK RA TO S=
202509250830 METAR WIHH 250830Z 25011KT 4000 -TSRA BKN016 FEW017CB 25/24 Q1007 TEMPO TL0900 2000 TSRA RMK CB TO W=
202509250800 METAR WIHH NIL=
202509250730 METAR WIHH 250730Z 27005KT 5000 HZ FEW017CB SCT018 30/24 Q1007 RMK CB AND RA TO SW=
202509250700 METAR WIHH 250700Z 02008KT 5000 HZ FEW017CB SCT018 32/22 Q1007 TEMPO FM0720 3000 -TSRA BKN015 FEW017CB RMK CB AND RA TO S AND W=
202509250630 METAR WIHH 250630Z 08008KT 6000 SCT018 33/22 Q1008 RMK CB TO SE AND WEST AREA=
202509250600 METAR WIHH 250600Z 09008KT 6000 SCT018 33/23 Q1008 RMK RA TO SE-S=
202509250530 METAR WIHH 250530Z 07006KT 6000 SCT018 33/22 Q1008 RMK RA TO SE=
202509250500 METAR WIHH 250500Z 05005KT 6000 SCT018 33/22 Q1009 NOSIG=
202509250430 METAR WIHH 250430Z 05005KT 6000 SCT018 33/22 Q1009 NOSIG=
202509250400 METAR WIHH 250400Z 07004KT 6000 SCT018 33/23 Q1010 NOSIG=
202509250330 METAR WIHH NIL=
202509250300 METAR WIHH 250300Z 06004KT 5000 HZ FEW020 31/23 Q1011 NOSIG=
202509250230 METAR WIHH 250230Z 13006KT 5000 HZ FEW020 31/23 Q1011 NOSIG=
202509250200 METAR WIHH 250200Z 06006KT 6000 SCT018 30/23 Q1011 NOSIG=
202509250130 METAR WIHH NIL=
202509250100 METAR WIHH 250100Z 12005KT 4000 HZ FEW020 28/23 Q1011 NOSIG=
202509250030 METAR WIHH 250030Z 15003KT 4000 HZ FEW020 27/23 Q1011 NOSIG=
202509250000 METAR WIHH 250000Z 00000KT 3000 BR FEW020 26/25 Q1011 NOSIG=
202509242330 METAR WIHH 242330Z 00000KT 3000 BR FEW020 25/25 Q1010 NOSIG=
202509242300 METAR WIHH NIL=
202509242230 METAR WIHH 242230Z 00000KT 3000 BR FEW020 24/24 Q1010 NOSIG=
202509242200 METAR WIHH 242200Z 00000KT 5000 HZ FEW020 25/24 Q1010 NOSIG=
202509242130 METAR WIHH 242130Z 242130Z 00000KT 6000 FEW020 25/23 Q1010 NOSIG=
202509242100 METAR WIHH 242100Z 00000KT 6000 FEW020 25/23 Q1009 NOSIG=
202509242030 METAR WIHH NIL=
202509242000 METAR WIHH NIL=
202509241930 METAR WIHH NIL=
202509241900 METAR WIHH NIL=
202509241830 METAR WIHH NIL=
202509241800 METAR WIHH NIL=
202509241730 METAR WIHH NIL=
202509241700 METAR WIHH NIL=
202509241630 METAR WIHH NIL=
202509241600 METAR WIHH NIL=
202509241530 METAR WIHH NIL=
202509241500 METAR WIHH 241500Z 00000KT 6000 FEW020 28/22 Q1010 NOSIG=
202509241430 METAR WIHH 241430Z 00000KT 6000 FEW020 27/22 Q1010 NOSIG=
202509241400 METAR WIHH NIL=
202509241330 METAR WIHH NIL=
202509241300 METAR WIHH 241300Z 00000KT 6000 FEW020 29/21 Q1009 NOSIG=
202509241230 METAR WIHH 241230Z 20004KT 6000 FEW020 29/21 Q1009 NOSIG=
202509241200 METAR WIHH 241200Z 22006KT 6000 FEW020 29/21 Q1009 NOSIG=
202509241130 METAR WIHH 241130Z 16004KT 6000 SCT020 29/21 Q1008 NOSIG=
202509241100 METAR WIHH 241100Z 18005KT 6000 SCT020 30/21 Q1008 NOSIG=
202509241030 METAR WIHH 241030Z 26005KT 6000 SCT020 31/21 Q1007 NOSIG=
202509241000 METAR WIHH 241000Z 32006KT 6000 SCT020 32/19 Q1006 NOSIG=
202509240930 METAR WIHH NIL=
202509240900 METAR WIHH NIL=
202509240830 METAR WIHH 240830Z 33010KT 6000 SCT020 33/18 Q1006 NOSIG=
202509240800 METAR WIHH 240800Z 03010KT 6000 SCT020 34/20 Q1006 NOSIG=
202509240730 METAR WIHH 240730Z 36010KT 6000 SCT020 34/21 Q1006 NOSIG=
202509240700 METAR WIHH NIL=
202509240630 METAR WIHH NIL=
202509240600 METAR WIHH 240600Z 03005KT 6000 SCT020 36/20 Q1007 NOSIG=
202509240530 METAR WIHH 240530Z 03004KT 6000 FEW022 35/19 Q1008=
202509240500 METAR WIHH 240500Z 36004KT 6000 FEW022 35/19 Q1008 NOSIG=
202509240430 METAR WIHH 240430Z 07004KT 6000 FEW022 33/21 Q1009 NOSIG=
202509240400 METAR WIHH NIL=
202509240330 METAR WIHH 240330Z 18003KT 6000 FEW022 33/22 Q1010 NOSIG=
202509240300 METAR WIHH 240300Z 12003KT 6000 FEW022 32/23 Q1010 NOSIG=
202509240230 METAR WIHH NIL=
202509240200 METAR WIHH NIL=
202509240130 METAR WIHH NIL=
202509240100 METAR WIHH 240100Z 00000KT 6000 FEW022 29/23 Q1011 NOSIG=
202509240030 METAR WIHH 240030Z 00000KT 6000 FEW020 28/23 Q1011 NOSIG=
202509240000 METAR WIHH 240000Z 00000KT 6000 FEW020 27/23 Q1011 NOSIG=
202509232330 METAR WIHH NIL=
202509232300 METAR WIHH 232300Z 17003KT 6000 FEW020 24/23 Q1010 NOSIG=
202509232230 METAR WIHH 232230Z 03003KT 6000 NSC 24/23 Q1010 NOSIG=
202509232200 METAR WIHH NIL=
202509232130 METAR WIHH 232130Z 00000KT 6000 NSC 24/23 Q1009 NOSIG=
202509232100 METAR WIHH 232100Z 00000KT 7000 NSC 24/23 Q1009 NOSIG=
202509232030 METAR WIHH NIL=
202509232000 METAR WIHH NIL=
202509231930 METAR WIHH NIL=
202509231900 METAR WIHH NIL=
202509231830 METAR WIHH NIL=
202509231800 METAR WIHH NIL=
202509231730 METAR WIHH NIL=
202509231700 METAR WIHH NIL=
202509231630 METAR WIHH NIL=
202509231600 METAR WIHH NIL=
202509231530 METAR WIHH 231530Z 23003KT 7000 SCT018 26/22 Q1011 NOSIG=
202509231500 METAR WIHH NIL=
202509231430 METAR WIHH NIL=
202509231400 METAR WIHH 231400Z 19006KT 7000 SCT018 27/24 Q1011 NOSIG=
202509231330 METAR WIHH 231330Z 21005KT 7000 SCT018 28/24 Q1011 NOSIG=
202509231300 METAR WIHH NIL=
202509231230 METAR WIHH 231230Z 27003KT 7000 SCT018 28/25 Q1010 NOSIG=
202509231200 METAR WIHH 231200Z 02003KT 7000 SCT020 25/25 Q1009 NOSIG RMK RA TO S=
202509231130 METAR WIHH 231130Z 35005KT 7000 SCT020 29/24 Q1008 NOSIG=
202509231100 METAR WIHH 231100Z 01005KT 7000 SCT020 30/23 Q1008 NOSIG=
202509231030 METAR WIHH NIL=
202509231000 METAR WIHH 231000Z 02008KT 7000 FEW019CB SCT020 32/24 Q1007 RMK CB AND RA TO SW=
202509230930 METAR WIHH 230930Z 31007KT 7000 SCT020 32/24 Q1007 NOSIG=
202509230900 METAR WIHH 230900Z 35008KT 7000 SCT020 33/24 Q1007 NOSIG=
202509230830 METAR WIHH 230830Z 01009KT 7000 SCT018 33/24 Q1007 RMK RA TO SW=
202509230800 METAR WIHH NIL=
202509230730 METAR WIHH 230730Z 06008KT 7000 SCT018 33/23 Q1007 NOSIG=
202509230700 METAR WIHH 230700Z 02008KT 6000 SCT018 34/24 Q1008 NOSIG=
202509230630 METAR WIHH 230630Z 04003KT 6000 SCT018 35/22 Q1008 NOSIG=
202509230600 METAR WIHH 230600Z 01003KT 6000 SCT018 35/22 Q1008 NOSIG=
202509230530 METAR WIHH 230530Z 03003KT 6000 SCT018 34/22 Q1009 NOSIG=
202509230500 METAR WIHH 230500Z 25003KT 6000 SCT018 33/23 Q1010 NOSIG=
202509230430 METAR WIHH 230430Z 27003KT 6000 SCT018 33/24 Q1010 NOSIG=
202509230400 METAR WIHH 230400Z 02003KT 6000 SCT018 32/24 Q1011 NOSIG=
202509230330 METAR WIHH 230330Z 10004KT 6000 SCT018 31/24 Q1011 NOSIG=
202509230300 METAR WIHH 230300Z 03003KT 6000 SCT018 31/24 Q1012 NOSIG=
202509230230 METAR WIHH NIL=
202509230200 METAR WIHH 230200Z 09003KT 5000 HZ SCT020 30/25 Q1012 NOSIG=
202509230130 METAR WIHH 230130Z 07004KT 4000 HZ SCT018 29/23 Q1012 NOSIG=
202509230100 METAR WIHH 230100Z 00000KT 4000 HZ SCT018 28/25 Q1012 NOSIG=
202509230030 METAR WIHH 230030Z 23003KT 4000 SCT018 26/26 Q1012 NOSIG=
202509230000 METAR WIHH 230000Z 00000KT 4000 BR FEW020 25/25 Q1012 NOSIG=
202509222330 METAR WIHH NIL=
202509222300 METAR WIHH 222300Z 00000KT 4000 BR FEW020 24/24 Q1011 NOSIG=
202509222230 METAR WIHH 222230Z 05003KT 4000 BR FEW020 24/24 Q1011 NOSIG=
202509222200 METAR WIHH 222200Z 00000KT 6000 NSC 24/23 Q1011 NOSIG=
202509222130 METAR WIHH 222130Z 00000KT 6000 NSC 24/23 Q1010 NOSIG=
202509222100 METAR WIHH 222100Z 00000KT 6000 FEW020 24/23 Q1010 NOSIG=
202509222030 METAR WIHH NIL=
202509222000 METAR WIHH NIL=
202509221930 METAR WIHH NIL=
202509221900 METAR WIHH NIL=
202509221830 METAR WIHH NIL=
202509221800 METAR WIHH NIL=
202509221730 METAR WIHH NIL=
202509221700 METAR WIHH NIL=
202509221630 METAR WIHH NIL=
202509221600 METAR WIHH 221600Z 00000KT 7000 SCT020 23/22 Q1012 NOSIG=
202509221530 METAR WIHH 221530Z 11004KT 6000 TS FEW018CB SCT020 23/22 Q1011 RMK CB AND RA TO W=
202509221500 METAR WIHH 221500Z 35010KT 6000 FEW017CB BKN018 22/21 Q1010 RMK CB OTF=
202509221430 METAR WIHH 221430Z 15018KT 0700 FEW017CB BKN018 24/23 Q1011 RMK CB OTF=
202509221400 METAR WIHH 221400Z 17008KT 5000 -RA FEW018CB SCT020 29/23 Q1011 RMK CB TO S=
202509221330 METAR WIHH 221330Z 02005KT 6000 FEW018CB SCT020 29/25 Q1010 RMK CB AND RA TO S=
202509221300 METAR WIHH 221300Z 02005KT 6000 SCT020 29/25 Q1010 NOSIG RMK RA TO S=
202509221230 METAR WIHH NIL=
202509221200 METAR WIHH NIL=
202509221130 METAR WIHH NIL=
202509221100 METAR WIHH NIL=
202509221030 METAR WIHH 221030Z 02009KT 7000 SCT020 31/25 Q1007 NOSIG=
202509221000 METAR WIHH 221000Z 02010KT 8000 SCT020 31/25 Q1007 NOSIG=
202509220930 METAR WIHH 220930Z 05013KT 8000 SCT020 32/25 Q1006 NOSIG=
202509220900 METAR WIHH NIL=
202509220830 METAR WIHH 220830Z 02008KT 6000 SCT020 34/24 Q1006 NOSIG=
202509220800 METAR WIHH 220800Z 05008KT 6000 SCT020 34/24 Q1006 NOSIG=
202509220730 METAR WIHH 220730Z 07008KT 6000 SCT020 34/24 Q1007 NOSIG=
202509220700 METAR WIHH 220700Z 06007KT 6000 SCT020 34/24 Q1007 NOSIG=
202509220630 METAR WIHH NIL=
202509220600 METAR WIHH 220600Z 24005KT 6000 SCT020 34/24 Q1008 NOSIG=
202509220530 METAR WIHH 220530Z 08007KT 6000 SCT020 34/23 Q1009 NOSIG=
202509220500 METAR WIHH 220500Z 06008KT 6000 SCT020 33/23 Q1009 NOSIG=
202509220430 METAR WIHH NIL=
202509220400 METAR WIHH 220400Z 02008KT 6000 SCT020 32/24 Q1010 NOSIG=
202509220330 METAR WIHH 220330Z 12006KT 6000 SCT020 32/24 Q1011 NOSIG=
202509220300 METAR WIHH 220300Z 09008KT 6000 SCT020 31/25 Q1011 NOSIG=
202509220230 METAR WIHH 220230Z 08011KT 6000 SCT020 31/25 Q1012 NOSIG=
202509220200 METAR WIHH 220200Z 09010KT 6000 SCT020 30/24 Q1011 NOSIG=
202509220130 METAR WIHH NIL=
202509220100 METAR WIHH NIL=
202509220030 METAR WIHH NIL=
202509220000 METAR WIHH 220000Z 18003KT 2000 BR FEW020 25/25 Q1011 NOSIG=
202509212330 METAR WIHH 212330Z 00000KT 2000 BR FEW020 25/25 Q1011 NOSIG=
202509212300 METAR WIHH 212300Z 00000KT 3000 BR FEW020 24/24 Q1011 NOSIG=
202509212230 METAR WIHH 212230Z 00000KT 3000 BR FEW020 24/24 Q1010 NOSIG=
202509212200 METAR WIHH 212200Z 00000KT 4000 BR FEW020 24/24 Q1010 NOSIG=
202509212130 METAR WIHH 212130Z 00000KT 5000 HZ FEW020 25/24 Q1010 NOSIG=
202509212100 METAR WIHH 212100Z 00000KT 5000 HZ FEW020 25/24 Q1010 NOSIG=
202509212030 METAR WIHH NIL=
202509212000 METAR WIHH NIL=
202509211930 METAR WIHH NIL=
202509211900 METAR WIHH NIL=
202509211830 METAR WIHH NIL=
202509211800 METAR WIHH NIL=
202509211730 METAR WIHH NIL=
202509211700 METAR WIHH NIL=
202509211630 METAR WIHH NIL=
202509211600 METAR WIHH 211600Z 22003KT 8000 SCT018 26/24 Q1012 NOSIG=
202509211530 METAR WIHH 211530Z 27003KT 8000 SCT018 26/24 Q1012 NOSIG=
202509211500 METAR WIHH 211500Z 25003KT 8000 SCT018 26/24 Q1012 NOSIG=
202509211430 METAR WIHH 211430Z 14003KT 8000 SCT018 27/23 Q1012 RMK RA TO NE=
202509211400 METAR WIHH 211400Z 12003KT 8000 -RA SCT018 27/23 Q1012 NOSIG=
202509211330 METAR WIHH 211330Z 03003KT 8000 SCT018 27/23 Q1012 RMK RA TO N=
202509211300 METAR WIHH 211300Z 23003KT 8000 SCT018 27/23 Q1011 RMK RA TO N=
202509211230 METAR WIHH 211230Z 24003KT 8000 SCT018 27/23 Q1010 NOSIG=
202509211200 METAR WIHH 211200Z 28004KT 8000 SCT018 27/23 Q1010 NOSIG=
202509211130 METAR WIHH NIL=
202509211100 METAR WIHH NIL=
202509211030 METAR WIHH 211030Z 16003KT 8000 SCT018 29/24 Q1009 NOSIG=
202509211000 METAR WIHH 211000Z 19003KT 8000 SCT018 29/23 Q1009 NOSIG=
202509210930 METAR WIHH NIL=
202509210900 METAR WIHH NIL=
202509210830 METAR WIHH 210830Z 24007KT 8000 SCT018 30/24 Q1009 RMK RA TO NE=
202509210800 METAR WIHH 210800Z 06007KT 6000 SCT018 31/24 Q1010 RMK RA TO S=
202509210730 METAR WIHH NIL=
202509210700 METAR WIHH 210700Z 33005KT 6000 -RA FEW016CB SCT018 27/23 Q1010 TEMPO TL0730 3000 TSRA BKN018 RMK CB TO NE=
202509210630 METAR WIHH NIL=
202509210600 METAR WIHH NIL=
202509210530 METAR WIHH 210530Z 03010KT 9999 SCT018 33/23 Q1011 RMK RA TO N=
202509210500 METAR WIHH NIL=
202509210430 METAR WIHH 210430Z 07010KT 9999 SCT018 32/23 Q1012 NOSIG=
202509210400 METAR WIHH 210400Z 06010KT 9999 SCT018 32/22 Q1012=
202509210330 METAR WIHH 210330Z 03008KT 9999 SCT018 32/23 Q1013 NOSIG=
202509210300 METAR WIHH 210300Z 06007KT 7000 SCT018 31/23 Q1013 NOSIG=
202509210230 METAR WIHH 210230Z 06005KT 7000 SCT020 30/24 Q1013 NOSIG=
202509210200 METAR WIHH NIL=
202509210130 METAR WIHH NIL=
202509210100 METAR WIHH NIL=
202509210030 METAR WIHH 210030Z 11005KT 6000 NSC 27/24 Q1012 NOSIG=
202509210000 METAR WIHH 210000Z 11003KT 5000 HZ NSC 26/24 Q1012 NOSIG=
202509202330 METAR WIHH 202330Z 13003KT 5000 HZ NSC 25/24 Q1012 NOSIG=
202509202300 METAR WIHH 202300Z 16003KT 5000 HZ FEW020 24/23 Q1011 NOSIG=
202509202230 METAR WIHH NIL=
202509202200 METAR WIHH 202200Z 08003KT 7000 FEW020 25/23 Q1011 NOSIG=
202509202130 METAR WIHH NIL=
202509202100 METAR WIHH 202100Z 10003KT 8000 FEW020 24/23 Q1010 NOSIG=
202509202030 METAR WIHH NIL=
202509202000 METAR WIHH NIL=
202509201930 METAR WIHH NIL=
202509201900 METAR WIHH NIL=
202509201830 METAR WIHH NIL=
202509201800 METAR WIHH NIL=
202509201730 METAR WIHH NIL=
202509201700 METAR WIHH NIL=
202509201630 METAR WIHH NIL=
202509201600 METAR WIHH NIL=
202509201530 METAR WIHH NIL=
202509201500 METAR WIHH NIL=
202509201430 METAR WIHH 201430Z 10003KT 8000 SCT020 26/23 Q1012 NOSIG=
202509201400 METAR WIHH 201400Z 12003KT 8000 SCT020 26/23 Q1011 NOSIG=
202509201330 METAR WIHH 201330Z 11004KT 8000 SCT020 27/23 Q1011 NOSIG=
202509201300 METAR WIHH 201300Z 11003KT 8000 SCT020 27/23 Q1011 NOSIG=
202509201230 METAR WIHH 201230Z 12003KT 8000 SCT020 27/22 Q1010 NOSIG=
202509201200 METAR WIHH 201200Z 11007KT 8000 SCT020 28/22 Q1010 NOSIG=
202509201130 METAR WIHH NIL=
202509201100 METAR WIHH 201100Z 09008KT 8000 SCT020 28/23 Q1010 NOSIG=
202509201030 METAR WIHH 201030Z 11008KT 8000 SCT020 28/23 Q1009 NOSIG=
202509201000 METAR WIHH NIL=
202509200930 METAR WIHH 200930Z 07012KT 7000 SCT018 29/23 Q1009 NOSIG=
202509200900 METAR WIHH 200900Z 08010KT 7000 SCT018 29/23 Q1009 NOSIG=
202509200830 METAR WIHH NIL=
202509200800 METAR WIHH NIL=
202509200730 METAR WIHH 200730Z 04006KT 7000 SCT017 28/23 Q1009 RMK RA TO W-NW=
202509200700 METAR WIHH 200700Z 05010KT 7000 -RA SCT016 26/24 Q1011 NOSIG=
202509200630 METAR WIHH 200630Z 06007KT 7000 -RA SCT016 26/24 Q1010 NOSIG=
202509200600 METAR WIHH NIL=
202509200530 METAR WIHH NIL=
202509200500 METAR WIHH NIL=
202509200430 METAR WIHH 200430Z 08010KT 6000 FEW017CB SCT018 30/23 Q1011 RMK CB AND RA TO S=
202509200400 METAR WIHH NIL=
202509200330 METAR WIHH 200330Z 12008KT 6000 SCT018 30/22 Q1011 RMK RA TO W=
202509200300 METAR WIHH NIL=
202509200200 METAR WIHH NIL=
202509200100 METAR WIHH 200100Z 12006KT 6000 SCT018 29/24 Q1012 NOSIG=
202509200030 METAR WIHH 200030Z 18003KT 6000 SCT018 27/25 Q1012 NOSIG=
202509200000 METAR WIHH NIL=
202509192330 METAR WIHH 192330Z 09003KT 5000 HZ SCT018 26/25 Q1011 RMK RA TO E=
202509192300 METAR WIHH 192300Z 06003KT 5000 HZ SCT018 25/24 Q1011 RMK RA TO SW=
202509192230 METAR WIHH NIL=
202509192200 METAR WIHH 192200Z 09003KT 6000 SCT018 25/24 Q1010 NOSIG=
202509192130 METAR WIHH 192130Z 04005KT 4000 -RA SCT018 25/24 Q1010 NOSIG=
202509192100 METAR WIHH NIL=
202509192030 METAR WIHH NIL=
202509192000 METAR WIHH NIL=
202509191930 METAR WIHH NIL=
202509191900 METAR WIHH NIL=
202509191830 METAR WIHH NIL=
202509191800 METAR WIHH NIL=
202509191730 METAR WIHH NIL=
202509191700 METAR WIHH 191700Z 16003KT 6000 SCT018 26/24 Q1011 NOSIG=
202509191630 METAR WIHH 191630Z 16003KT 6000 SCT020 26/24 Q1011 NOSIG=
202509191600 METAR WIHH NIL=
202509191530 METAR WIHH 191530Z 00000KT 6000 SCT020 26/24 Q1012 NOSIG=
202509191500 METAR WIHH 191500Z 33003KT 7000 SCT020 27/24 Q1012 NOSIG=
202509191430 METAR WIHH 191430Z 11004KT 7000 SCT020 28/23 Q1012 NOSIG=
202509191400 METAR WIHH 191400Z 12004KT 7000 SCT020 27/24 Q1012 NOSIG=
202509191330 METAR WIHH NIL=
202509191300 METAR WIHH NIL=
202509191230 METAR WIHH NIL=
202509191200 METAR WIHH NIL=
202509191130 METAR WIHH NIL=
202509191100 METAR WIHH 191100Z 06005KT 7000 SCT020 29/22 Q1009 NOSIG=
202509191030 METAR WIHH NIL=
202509191000 METAR WIHH 191000Z 06008KT 7000 SCT020 29/21 Q1009 NOSIG=
202509190930 METAR WIHH 190930Z 06010KT 7000 SCT020 30/22 Q1008 NOSIG=
202509190900 METAR WIHH 190900Z 07010KT 6000 SCT020 30/21 Q1009 NOSIG=
202509190830 METAR WIHH NIL=
202509190800 METAR WIHH NIL=
202509190730 METAR WIHH NIL=
202509190700 METAR WIHH 190700Z 06007KT 6000 SCT020 31/23 Q1009 RMK RA TO SE=
202509190630 METAR WIHH 190630Z 08008KT 6000 SCT020 31/22 Q1009 NOSIG=
202509190600 METAR WIHH 190600Z 05009KT 6000 SCT020 31/22 Q1010 RMK RA TO SW=
202509190530 METAR WIHH 190530Z 03003KT 5000 HZ SCT020 30/23 Q1010 RMK RA TO SE=
202509190500 METAR WIHH 190500Z 36003KT 5000 HZ SCT020 30/23 Q1011 NOSIG=
202509190430 METAR WIHH 190430Z 03003KT 5000 HZ SCT020 30/23 Q1011 NOSIG=
202509190400 METAR WIHH 190400Z 18003KT 5000 HZ SCT018 29/23 Q1012 NOSIG=
202509190330 METAR WIHH 190330Z 20003KT 5000 HZ SCT020 29/23 Q1012 NOSIG=
202509190300 METAR WIHH 190300Z 20003KT 4000 HZ SCT020 29/24 Q1012 NOSIG=
202509190230 METAR WIHH NIL=
202509190200 METAR WIHH 190200Z 18003KT 3000 HZ SCT020 27/24 Q1013 NOSIG=
202509190130 METAR WIHH 190130Z 14003KT 3000 HZ SCT020 27/24 Q1013 NOSIG=
202509190100 METAR WIHH 190100Z 16005KT 3000 FEW020 26/25 Q1012 NOSIG=
202509190030 METAR WIHH 190030Z 20003KT 3000 BR FEW020 25/24 Q1011 NOSIG=
202509190000 METAR WIHH 190000Z 22003KT 3000 BR FEW020 25/24 Q1011 NOSIG=
202509182330 METAR WIHH 182330Z 25003KT 3000 BR FEW020 25/24 Q1011 NOSIG=
202509182300 METAR WIHH 182300Z 18003KT 3000 BR FEW020 25/24 Q1011 NOSIG=
202509182230 METAR WIHH 182230Z 19004KT 3000 BR FEW020 24/24 Q1010 NOSIG=
202509182200 METAR WIHH 182200Z 23003KT 3000 BR FEW020 24/24 Q1010 NOSIG=
202509182130 METAR WIHH 182130Z 00000KT 4000 BR FEW020 24/24 Q1010 NOSIG=
202509182100 METAR WIHH 182100Z 00000KT 6000 FEW020 24/24 Q1010 NOSIG=
202509182030 METAR WIHH NIL=
202509182000 METAR WIHH NIL=
202509181930 METAR WIHH NIL=
202509181900 METAR WIHH NIL=
202509181830 METAR WIHH NIL=
202509181800 METAR WIHH NIL=
202509181730 METAR WIHH NIL=
202509181700 METAR WIHH NIL=
202509181630 METAR WIHH NIL=
202509181600 METAR WIHH NIL=
202509181530 METAR WIHH 181530Z 00000KT 7000 SCT017 26/25 Q1011 NOSIG=
202509181500 METAR WIHH 181500Z 00000KT 7000 SCT017 26/25 Q1011 NOSIG=
202509181430 METAR WIHH 181430Z 00000KT 7000 SCT017 26/25 Q1011 NOSIG=
202509181400 METAR WIHH 181400Z 00000KT 7000 SCT017 26/25 Q1011 NOSIG=
202509181330 METAR WIHH NIL=
202509181300 METAR WIHH NIL=
202509181230 METAR WIHH NIL=
202509181200 METAR WIHH NIL=
202509181130 METAR WIHH 181130Z 14005KT 6000 SCT016 27/23 Q1009 NOSIG=
202509181100 METAR WIHH NIL=
202509181030 METAR WIHH NIL=
202509181000 METAR WIHH 181000Z 09007KT 5000 HZ SCT016 28/24 Q1008 NOSIG=
202509180930 METAR WIHH 180930Z 10006KT 5000 HZ SCT016 28/24 Q1008 NOSIG=
202509180900 METAR WIHH 180900Z 12008KT 5000 HZ SCT016 28/24 Q1008 NOSIG=
202509180830 METAR WIHH 180830Z 11005KT 5000 HZ SCT016 28/24 Q1008 NOSIG=
202509180800 METAR WIHH 180800Z 09010KT 5000 HZ SCT016 28/24 Q1008 NOSIG=
202509180730 METAR WIHH 180730Z 11007KT 5000 -RA SCT016 28/24 Q1009 NOSIG=
202509180700 METAR WIHH 180700Z 09008KT 5000 -RA SCT016 28/24 Q1009 NOSIG=
202509180630 METAR WIHH 180630Z 09007KT 4000 -RA SCT016 27/24 Q1009 NOSIG=
202509180600 METAR WIHH 180600Z 09007KT 4000 -RA SCT016 28/23 Q1010 NOSIG=
202509180530 METAR WIHH 180530Z 07005KT 4000 -RA SCT016 28/24 Q1011 NOSIG=
202509180500 METAR WIHH 180500Z 05005KT 4000 HZ SCT016 28/23 Q1012 TEMPO FM0530 3000 -RA BKN016 RMK RA TO N=
202509180430 METAR WIHH 180430Z 05005KT 4000 HZ SCT018 28/24 Q1012 TEMPO FM0500 3000 -RA BKN016 RMK RA TO N=
202509180400 METAR WIHH 180400Z 06003KT 4000 HZ SCT018 28/24 Q1013 RMK RA TO N=
202509180330 METAR WIHH 180330Z 04005KT 4000 HZ SCT018 28/24 Q1013 NOSIG RMK RA TO N=
202509180300 METAR WIHH NIL=
202509180230 METAR WIHH NIL=
202509180200 METAR WIHH NIL=
202509180130 METAR WIHH 180130Z 032003KT 5000 HZ SCT018 27/25 Q1013 TEMPO FM0215 3000 -RA BKN016 RMK RA TO NE=
202509180100 METAR WIHH 180100Z 00000KT 5000 HZ SCT020 26/25 Q1013 NOSIG=
202509180030 METAR WIHH NIL=
202509180000 METAR WIHH 180000Z 00000KT 4000 BR SCT040 24/24 Q1012 NOSIG=
202509172330 METAR WIHH 172330Z 03003KT 4000 HZ SCT020 24/24 Q1012 NOSIG=
202509172300 METAR WIHH 172300Z 00000KT 3000 BR SCT020 24/24 Q1011 NOSIG=
202509172230 METAR WIHH NIL=
202509172200 METAR WIHH 172200Z 16003KT 4000 BR SCT020 24/24 Q1011 NOSIG=
202509172130 METAR WIHH NIL=
202509172100 METAR WIHH 172100Z 00000KT 6000 SCT018 24/24 Q1010 NOSIG=
202509172030 METAR WIHH NIL=
202509172000 METAR WIHH NIL=
202509171930 METAR WIHH NIL=
202509171900 METAR WIHH NIL=
202509171830 METAR WIHH NIL=
202509171800 METAR WIHH NIL=
202509171730 METAR WIHH NIL=
202509171700 METAR WIHH NIL=
202509171630 METAR WIHH NIL=
202509171600 METAR WIHH 171600Z 00000KT 6000 SCT018 24/24 Q1013 NOSIG=
202509171530 METAR WIHH NIL=
202509171500 METAR WIHH 171500Z 14003KT 6000 SCT017 24/24 Q1013 RMK RA TO S=
202509171430 METAR WIHH 171430Z 10003KT 6000 SCT017 24/24 Q1013 RMK RA TO S=
202509171400 METAR WIHH NIL=
202509171330 METAR WIHH 171330Z 12003KT 6000 SCT017 24/23 Q1012 RMK RA TO S=
202509171300 METAR WIHH 171300Z 18003KT 5000 HZ SCT017 24/23 Q1012 RMK RA TO S=
202509171230 METAR WIHH NIL=
202509171200 METAR WIHH NIL=
202509171130 METAR WIHH 171130Z 22003KT 4000 -TSRA BKN016 FEW017CB 23/23 Q1012 RMK CB TO N=
202509171100 METAR WIHH 171100Z 21003KT 4000 -TSRA BKN016 FEW017CB 23/23 Q1011 RMK CB TO N=
202509171030 METAR WIHH 171030Z 15005KT 2500 -TSRA BKN015 FEW016CB 23/23 Q1011 RMK CB TO S=
202509171000 METAR WIHH 171000Z 17015KT 1000 TSRA BKN014 FEW016CB 24/23 Q1010 RMK CB OVER THE FIELD=
202509170930 METAR WIHH 170930Z 15015KT 3000 -TSRA BKN013 27/23 Q1009 RMK CB TO S=
202509170900 METAR WIHH 170900Z 03010KT 7000 FEW017CB SCT018 31/23 Q1008 RMK CB AND RA TO S=
202509170830 METAR WIHH NIL=
202509170800 METAR WIHH 170800Z 02010KT 6000 SCT018 31/22 Q1008 RMK RA TO SW=
202509170730 METAR WIHH 170730Z 02008KT 6000 SCT018 32/22 Q1008 RMK RA TO SW=
202509170700 METAR WIHH NIL=
202509170630 METAR WIHH 170630Z 02010KT 6000 FEW017CB SCT018 32/23 Q1008 RMK CB AND RA TO W-NW=
202509170600 METAR WIHH 170600Z 05007KT 5000 HZ FEW017CB SCT018 32/23 Q1009 RMK CB AND RA TO W-NW=
202509170530 METAR WIHH 170530Z 09008KT 5000 HZ FEW017CB SCT018 32/23 Q1009 RMK CB AND RA TO NW=
202509170500 METAR WIHH 170500Z 07005KT 5000 HZ SCT018 32/22 Q1010 NOSIG=
202509170430 METAR WIHH 170430Z 11006KT 5000 HZ SCT020 30/23 Q1010 NOSIG=
202509170400 METAR WIHH 170400Z 02006KT 5000 HZ SCT020 31/23 Q1011 NOSIG=
202509170330 METAR WIHH 170330Z 11003KT 5000 HZ SCT020 31/23 Q1011 NOSIG=
202509170300 METAR WIHH 170300Z 10004KT 5000 HZ SCT020 30/23 Q1012 NOSIG=
202509170230 METAR WIHH 170230Z 02003KT 5000 HZ SCT020 30/24 Q1012 NOSIG=
202509170200 METAR WIHH 170200Z 18003KT 4000 HZ SCT020 30/24 Q1012 NOSIG=
202509170130 METAR WIHH 170130Z 12003KT 4000 HZ SCT020 29/24 Q1012 NOSIG=
202509170100 METAR WIHH NIL=
202509170030 METAR WIHH NIL=
202509170000 METAR WIHH 170000Z 00000KT 3000 HZ SCT020 25/24 Q1011 NOSIG=
202509162330 METAR WIHH 162330Z 12003KT 3000 BR SCT020 24/24 Q1011 NOSIG=
202509162300 METAR WIHH 162300Z 00000KT 4000 BR SCT018 24/24 Q1010 NOSIG=
202509162230 METAR WIHH 162230Z 00000KT 4000 BR SCT018 24/24 Q1010 NOSIG=
202509162200 METAR WIHH NIL=
202509162130 METAR WIHH NIL=
202509162100 METAR WIHH NIL=
202509162030 METAR WIHH NIL=
202509162000 METAR WIHH NIL=
202509161930 METAR WIHH NIL=
202509161900 METAR WIHH NIL=
202509161830 METAR WIHH NIL=
202509161800 METAR WIHH NIL=
202509161730 METAR WIHH NIL=
202509161700 METAR WIHH 161700Z 00000KT 5000 HZ FEW020 24/23 Q1011 NOSIG=
202509161630 METAR WIHH NIL=
202509161600 METAR WIHH NIL=
202509161530 METAR WIHH NIL=
202509161500 METAR WIHH NIL=
202509161430 METAR WIHH 161430Z 22003KT 7000 FEW020 24/24 Q1012 NOSIG=
202509161400 METAR WIHH 161400Z 00000KT 7000 FEW020 25/24 Q1011 NOSIG=
202509161330 METAR WIHH NIL=
202509161300 METAR WIHH 161300Z 16004KT 7000 FEW020 25/24 Q1011 NOSIG=
202509161230 METAR WIHH NIL=
202509161200 METAR WIHH 161200Z 22006KT 6000 SCT020 26/23 Q1010 NOSIG=
202509161130 METAR WIHH 161130Z 24006KT 7000 SCT020 26/23 Q1010 NOSIG=
202509161100 METAR WIHH 161100Z 22007KT 7000 SCT020 26/23 Q1009 NOSIG=
202509161030 METAR WIHH NIL=
202509161000 METAR WIHH NIL=
202509160930 METAR WIHH 160930Z 16006KT 7000 SCT018 27/25 Q1009 RMK RA TO NE=
202509160900 METAR WIHH 160900Z 18005KT 6000 SCT018 27/25 Q1008 RMK RA TO E=
202509160830 METAR WIHH 160830Z 23003KT 6000 -RA SCT017 29/24 Q1008 RMK RA TO S=
202509160800 METAR WIHH 160800Z 09004KT 6000 -RA SCT017 26/25 Q1008 NOSIG=
202509160730 METAR WIHH NIL=
202509160700 METAR WIHH 160700Z 14010KT 4000 -TSRA BKN017 FEW018CB 25/24 Q1009 RMK CB TO NE-SE=
202509160630 METAR WIHH 160630Z 27015KT 1500 TSRA FEW015CB BKN016 24/23 Q1009 RMK CB TO SW-NW=
202509160600 METAR WIHH NIL=
202509160530 METAR WIHH NIL=
202509160500 METAR WIHH 160500Z 36005KT 5000 -RA SCT017 FEW018CB 29/25 Q1010 RMK CB TO W=
202509160430 METAR WIHH 160430Z 36004KT 6000 SCT018 32/23 Q1011 RMK RA TO E-SE=
202509160400 METAR WIHH NIL=
202509160330 METAR WIHH NIL=
202509160300 METAR WIHH NIL=
202509160230 METAR WIHH 160230Z 06003KT 7000 FEW020 31/22 Q1012 NOSIG=
202509160200 METAR WIHH NIL=
202509160130 METAR WIHH 160130Z 18004KT 7000 FEW020 30/22 Q1012 NOSIG=
202509160100 METAR WIHH 160100Z 18004KT 7000 FEW020 29/23 Q1012 NOSIG=
202509160030 METAR WIHH NIL=
202509160000 METAR WIHH NIL=
202509152330 METAR WIHH 152330Z 28003KT 7000 FEW020 26/23 Q1011 NOSIG=
202509152300 METAR WIHH NIL=
202509152230 METAR WIHH 152230Z 24003KT 7000 FEW020 25/23 Q1010 NOSIG=
202509152200 METAR WIHH NIL=
202509152130 METAR WIHH 152130Z 00000KT 8000 FEW020 25/23 Q1010 NOSIG=
202509152100 METAR WIHH 152100Z 00000KT 8000 FEW020 25/23 Q1010 NOSIG=
202509152030 METAR WIHH NIL=
202509152000 METAR WIHH NIL=
202509151930 METAR WIHH NIL=
202509151900 METAR WIHH NIL=
202509151830 METAR WIHH NIL=
202509151800 METAR WIHH NIL=
202509151730 METAR WIHH NIL=
202509151700 METAR WIHH NIL=
202509151630 METAR WIHH NIL=
202509151600 METAR WIHH 151600Z 00000KT 9999 FEW020 27/22 Q1012 NOSIG=
202509151530 METAR WIHH 151530Z 00000KT 9999 FEW020 27/22 Q1012 NOSIG=
202509151500 METAR WIHH 151500Z 04003KT 9999 FEW020 29/22 Q1011 NOSIG=
202509151430 METAR WIHH 151430Z 04003KT 9999 FEW020 29/22 Q1011 NOSIG=
202509151400 METAR WIHH 151400Z 06003KT 9999 FEW020 29/22 Q1011 NOSIG=
202509151330 METAR WIHH 151330Z 06004KT 9999 FEW020 29/22 Q1011 NOSIG=
202509151300 METAR WIHH 151300Z 01004KT 9999 FEW020 29/22 Q1011 NOSIG=
202509151230 METAR WIHH 151230Z 05004KT 9999 FEW020 29/22 Q1010 NOSIG=
202509151200 METAR WIHH 151200Z 04005KT 7000 FEW020 29/22 Q1010 NOSIG=
202509151130 METAR WIHH 151130Z 04007KT 7000 FEW020 30/21 Q1009 NOSIG=
202509151100 METAR WIHH 151100Z 05007KT 7000 FEW020 30/22 Q1009 NOSIG=
202509151030 METAR WIHH NIL=
202509151000 METAR WIHH 151000Z 03008KT 7000 SCT020 31/21 Q1008 NOSIG=
202509150930 METAR WIHH NIL=
202509150900 METAR WIHH 150900Z 01009KT 6000 SCT018 32/23 Q1008 NOSIG=
202509150830 METAR WIHH 150830Z 35010KT 6000 SCT018 32/23 Q1008 NOSIG=
202509150800 METAR WIHH NIL=
202509150730 METAR WIHH 150730Z 03010KT 6000 SCT018 33/22 Q1008=
202509150700 METAR WIHH 150700Z 02009KT 6000 SCT018 33/22 Q1009 NOSIG=
202509150630 METAR WIHH NIL=
202509150600 METAR WIHH 150600Z 34008KT 8000 SCT018 34/21 Q1009 NOSIG=
202509150530 METAR WIHH 150530Z 11004KT 8000 SCT020 34/18 Q1009 NOSIG=
202509150500 METAR WIHH 150500Z 21003KT 8000 SCT020 34/19 Q1010 NOSIG=
202509150430 METAR WIHH 150430Z 24004KT 8000 FEW020 33/21 Q1010 NOSIG=
202509150400 METAR WIHH 150400Z 12004KT 8000 FEW020 33/19 Q1011 NOSIG=
202509150330 METAR WIHH 150330Z 13004KT 8000 FEW020 32/20 Q1012 NOSIG=
202509150300 METAR WIHH 150300Z 2004KT 8000 FEW020 32/20 Q1012 NOSIG=
202509150230 METAR WIHH 150230Z 115005KT 8000 NSC 31/20 Q1013 NOSIG=
202509150200 METAR WIHH 150200Z 12003KT 8000 NSC 31/20 Q1013 NOSIG=
202509150130 METAR WIHH 150130Z 10003KT 8000 NSC 31/21 Q1012 NOSIG=
202509150100 METAR WIHH 150100Z 15003KT 8000 NSC 29/21 Q1012 NOSIG=
202509150030 METAR WIHH 150030Z 22003KT 8000 FEW020 28/21 Q1012 NOSIG=
202509150000 METAR WIHH 150000Z 21003KT 8000 SCT020 26/21 Q1012 NOSIG=
202509142330 METAR WIHH 142330Z 20003KT 7000 SCT020 26/20 Q1012 NOSIG=
202509142300 METAR WIHH 142300Z 18003KT 7000 SCT020 26/20 Q1011 NOSIG=
202509142230 METAR WIHH 142230Z 18008KT 7000 SCT020 26/21 Q1011 NOSIG=
202509142200 METAR WIHH 142200Z 19005KT 7000 FEW020 26/20 Q1011 NOSIG=
202509142130 METAR WIHH 142130Z 18006KT 7000 FEW020 26/21 Q1011 NOSIG=
202509142100 METAR WIHH NIL=
202509142030 METAR WIHH NIL=
202509142000 METAR WIHH NIL=
202509141930 METAR WIHH NIL=
202509141900 METAR WIHH NIL=
202509141830 METAR WIHH NIL=
202509141800 METAR WIHH NIL=
202509141730 METAR WIHH NIL=
202509141700 METAR WIHH NIL=
202509141630 METAR WIHH NIL=
202509141600 METAR WIHH NIL=
202509141530 METAR WIHH 141530Z 22007KT 7000 FEW017CB SCT018 27/24 Q1012 RMK CB AND RA TO SW=
202509141500 METAR WIHH 141500Z 19007KT 7000 FEW017CB SCT018 27/24 Q1012 RMK CB AND RA TO SW=
202509141430 METAR WIHH 141430Z 10003KT 7000 SCT018 29/22 Q1012 RMK RA TO SW=
202509141400 METAR WIHH NIL=
202509141330 METAR WIHH 141330Z 34004KT 7000 SCT018 29/22 Q1011 RMK RA TO SW=
202509141300 METAR WIHH 141300Z 04003KT 7000 SCT018 29/23 Q1011 RMK RA TO S=
202509141230 METAR WIHH NIL=
202509141200 METAR WIHH NIL=
202509141130 METAR WIHH 141130Z 01006KT 7000 SCT018 30/22 Q1010 NOSIG RMK RA TO SW=
202509141100 METAR WIHH NIL=
202509141030 METAR WIHH NIL=
202509141000 METAR WIHH NIL=
202509140930 METAR WIHH 140930Z 01007KT 6000 SCT018 31/22 Q1008 NOSIG=
202509140900 METAR WIHH 140900Z 03007KT 6000 SCT018 32/23 Q1008 NOSIG=
202509140830 METAR WIHH 140830Z 36006KT 6000 FEW018 32/23 Q1008 NOSIG=
202509140800 METAR WIHH 140800Z 01005KT 6000 SCT018 33/23 Q1008 NOSIG=
202509140730 METAR WIHH 140730Z 05007KT 6000 SCT018 33/22 Q1008 NOSIG=
202509140700 METAR WIHH NIL=
202509140630 METAR WIHH NIL=
202509140600 METAR WIHH 140600Z 15006KT 6000 SCT020 34/19 Q1009 NOSIG=
202509140530 METAR WIHH NIL=
202509140500 METAR WIHH 140500Z 12003KT 6000 SCT020 33/21 Q1010 NOSIG=
202509140430 METAR WIHH 140430Z 07004KT 7000 SCT020 33/22 Q1010 NOSIG=
202509140400 METAR WIHH 140400Z 09004KT 7000 SCT020 32/22 Q1011 NOSIG=
202509140330 METAR WIHH NIL=
202509140300 METAR WIHH NIL=
202509140230 METAR WIHH 140230Z 02003KT 7000 FEW020 31/23 Q1012 NOSIG=
202509140200 METAR WIHH 140200Z 17004KT 7000 FEW020 30/23 Q1012 NOSIG=
202509140130 METAR WIHH 140130Z 23003KT 7000 FEW020 29/23 Q1012 NOSIG=
202509140100 METAR WIHH 140100Z 20003KT 7000 FEW020 27/24 Q1012 NOSIG=
202509140030 METAR WIHH 140030Z 18003KT 6000 FEW020 26/24 Q1012 NOSIG=
202509140000 METAR WIHH NIL=
202509132330 METAR WIHH NIL=
202509132300 METAR WIHH 132300Z 00000KT 6000 SCT018 24/24 Q1012 NOSIG=
202509132230 METAR WIHH NIL=
202509132200 METAR WIHH 132200Z 00000KT 6000 SCT020 24/24 Q1011 NOSIG=
202509132130 METAR WIHH 132130Z 00000KT 6000 SCT020 24/24 Q1011 NOSIG=
202509132100 METAR WIHH 132100Z 00000KT 5000 HZ SCT020 25/24 Q1011 NOSIG=
202509132030 METAR WIHH NIL=
202509132000 METAR WIHH NIL=
202509131930 METAR WIHH NIL=
202509131900 METAR WIHH NIL=
202509131830 METAR WIHH NIL=
202509131800 METAR WIHH NIL=
202509131730 METAR WIHH NIL=
202509131700 METAR WIHH NIL=
202509131630 METAR WIHH NIL=
202509131600 METAR WIHH NIL=
202509131530 METAR WIHH NIL=
202509131500 METAR WIHH 131500Z 00000KT 7000 SCT018 27/23 Q1012 NOSIG=
202509131430 METAR WIHH NIL=
202509131400 METAR WIHH NIL=
202509131330 METAR WIHH 131330Z 24007KT 8000 SCT020 28/23 Q1012 NOSIG=
202509131300 METAR WIHH 131300Z 27008KT 8000 SCT020 29/23 Q1011 NOSIG=
202509131230 METAR WIHH 131230Z 33004KT 7000 SCT020 29/23 Q1011 NOSIG=
202509131200 METAR WIHH NIL=
202509131130 METAR WIHH NIL=
202509131100 METAR WIHH NIL=
202509131030 METAR WIHH 131030Z 01007KT 8000 FEW020 30/23 Q1009 NOSIG=
202509131000 METAR WIHH NIL=
202509130930 METAR WIHH 130930Z 33009KT 8000 FEW020 32/22 Q1009 NOSIG=
202509130900 METAR WIHH 130900Z 02009KT 8000 FEW020 33/22 Q1009 NOSIG=
202509130830 METAR WIHH 130830Z 01009KT 8000 FEW020 33/22 Q1009 NOSIG=
202509130800 METAR WIHH NIL=
202509130730 METAR WIHH 130730Z 35008KT 7000 FEW020 34/22 Q1009 NOSIG=
202509130700 METAR WIHH 130700Z 35008KT 7000 SCT018 35/22 Q1009 NOSIG=
202509130630 METAR WIHH 130630Z 03008KT 7000 SCT018 34/22 Q1009 NOSIG=
202509130600 METAR WIHH 130600Z 05010KT 8000 SCT018 33/22 Q1009 NOSIG=
202509130530 METAR WIHH NIL=
202509130500 METAR WIHH 130500Z 09003KT 8000 FEW020 34/20 Q1011 NOSIG=
202509130430 METAR WIHH 130430Z 03004KT 8000 FEW020 33/20 Q1011 NOSIG=
202509130400 METAR WIHH 130400Z 09004KT 8000 FEW020 32/21 Q1011 NOSIG=
202509130330 METAR WIHH 130330Z 09003KT 8000 FEW020 33/21 Q1012 NOSIG=
202509130300 METAR WIHH NIL=
202509130230 METAR WIHH 130230Z 10003KT 6000 FEW020 30/22 Q1012 NOSIG=
202509130200 METAR WIHH NIL=
202509130130 METAR WIHH NIL=
202509130100 METAR WIHH 130100Z 22003KT 6000 FEW020 28/23 Q1012 NOSIG=
202509130030 METAR WIHH 130030Z 19004KT 6000 FEW020 27/24 Q1012 NOSIG=
202509130000 METAR WIHH 130000Z 22003KT 6000 FEW020 25/24 Q1011 NOSIG=
202509122330 METAR WIHH 122330Z 18003KT 6000 FEW020 24/23 Q1011 NOSIG=
202509122300 METAR WIHH 122300Z 21003KT 6000 FEW020 24/23 Q1011 NOSIG=
202509122230 METAR WIHH 122230Z 00000KT 6000 FEW020 24/23 Q1011 NOSIG=
202509122200 METAR WIHH 122200Z 00000KT 6000 FEW020 24/23 Q1011 NOSIG=
202509122130 METAR WIHH 122130Z 26003KT 6000 FEW020 24/23 Q1011 NOSIG=
202509122100 METAR WIHH 122100Z 24003KT 6000 FEW020 24/23 Q1010 NOSIG=
202509122030 METAR WIHH NIL=
202509122000 METAR WIHH NIL=
202509121930 METAR WIHH NIL=
202509121900 METAR WIHH NIL=
202509121830 METAR WIHH NIL=
202509121800 METAR WIHH NIL=
202509121730 METAR WIHH NIL=
202509121700 METAR WIHH 121700Z 26003KT 8000 SCT020 25/24 Q1012 NOSIG=
202509121630 METAR WIHH 121630Z 28003KT 8000 SCT020 25/24 Q1012 NOSIG=
202509121600 METAR WIHH 121600Z 24004KT 8000 SCT020 25/24 Q1012 NOSIG=
202509121530 METAR WIHH 121530Z 26004KT 8000 SCT020 24/24 Q1012 NOSIG=
202509121500 METAR WIHH 121500Z 23003KT 8000 SCT020 24/24 Q1012 NOSIG=
202509121430 METAR WIHH NIL=
202509121400 METAR WIHH NIL=
202509121330 METAR WIHH NIL=
202509121300 METAR WIHH 121300Z 24003KT 8000 SCT020 24/24 Q1011 NOSIG=
202509121230 METAR WIHH 121230Z 22007KT 8000 SCT020 25/24 Q1011 NOSIG=
202509121200 METAR WIHH NIL=
202509121130 METAR WIHH 121130Z 21007KT 6000 SCT018 25/24 Q1011 NOSIG=
202509121100 METAR WIHH 121100Z 22009KT 6000 BKN018 25/24 Q1010 RMK RA TO SW=
202509121030 METAR WIHH NIL=
202509121000 METAR WIHH 121000Z 25005KT 2000 -RA FEW016CB BKN018 24/24 Q1010 RMK CN TO NW=
202509120930 METAR WIHH 120930Z 19010KT 1500 TSRA BKN015 FEW017CB 24/24 Q1010 RMK CB OVER THE FIELD=
202509120900 METAR WIHH 120900Z 19015KT 2500 TSRA BKN015 24/24 Q1009 RMK CB OVER THE FIELD=
202509120830 METAR WIHH 120830Z 22012KT 0500 TSRA BKN015 FEW017CB 25/24 Q1009 RMK CB OVER THE FIELD=
202509120800 METAR WIHH 120800Z 18010KT 5000 -TSRA BKN015 FEW017CB 26/24 Q1008 RMK CB OVER THE FIELD=
202509120730 METAR WIHH NIL=
202509120700 METAR WIHH 120700Z 31003KT 5000 TS FEW016CB SCT018 32/24 Q1008 RMK CB AND RA TO NW=
202509120630 METAR WIHH 120630Z 03007KT 6000 FEW016 SCT018 31/24 Q1009 RMK CB AND RA TO NW=
202509120600 METAR WIHH NIL=
202509120530 METAR WIHH 120530Z 11004KT 7000 SCT018 32/23 Q1010 NOSIG=
202509120500 METAR WIHH NIL=
202509120430 METAR WIHH 120430Z 18010KT 7000 SCT020 32/24 Q1011 NOSIG=
202509120400 METAR WIHH 120400Z 27010KT 7000 SCT020 31/23 Q1011 NOSIG=
202509120330 METAR WIHH 120330Z 26010KT 7000 SCT020 32/24 Q1012 NOSIG=
202509120300 METAR WIHH 120300Z 24004KT 7000 SCT020 29/23 Q1012 NOSIG=
202509120230 METAR WIHH 120230Z 24004KT 7000 SCT020 29/24 Q1012 NOSIG=
202509120200 METAR WIHH NIL=
202509120130 METAR WIHH NIL=
202509120100 METAR WIHH NIL=
202509120030 METAR WIHH NIL=
202509120000 METAR WIHH NIL=
202509112330 METAR WIHH 112330Z 29003KT 5000 HZ FEW020 25/24 Q1011 NOSIG=
202509112300 METAR WIHH NIL=
202509112230 METAR WIHH NIL=
202509112200 METAR WIHH 112200Z 24003KT 4000 BR FEW020 24/24 Q1010 NOSIG=
202509112130 METAR WIHH 112130Z 22003KT 5000 HZ FEW020 25/24 Q1010 NOSIG=
202509112100 METAR WIHH NIL=
202509112030 METAR WIHH NIL=
202509112000 METAR WIHH NIL=
202509111930 METAR WIHH NIL=
202509111900 METAR WIHH NIL=
202509111830 METAR WIHH NIL=
202509111800 METAR WIHH NIL=
202509111730 METAR WIHH NIL=
202509111700 METAR WIHH NIL=
202509111630 METAR WIHH 111630Z 25004KT 6000 SCT018 26/24 Q1012 RMK RA TO SE AND SW=
202509111600 METAR WIHH 111600Z 25003KT 6000 SCT018 26/24 Q1012 RMK RA TO SE=
202509111530 METAR WIHH 111530Z 22005KT 6000 -RA SCT018 26/24 Q1012 NOSIG=
202509111500 METAR WIHH 111500Z 24004KT 6000 -RA SCT018 27/23 Q1012 NOSIG=
202509111430 METAR WIHH 111430Z 26004KT 6000 SCT018 27/23 Q1012 RMK RA TO E AND S=
202509111400 METAR WIHH 111400Z 30004KT 6000 SCT018 27/23 Q1011 RMK RA TO SE=
202509111330 METAR WIHH 111330Z 26004KT 6000 SCT020 27/24 Q1011 RMK RA TO SE=
202509111300 METAR WIHH 111300Z 29005KT 6000 SCT020 27/24 Q1011 RMK RA TO SE=
202509111230 METAR WIHH 111230Z 25007KT 6000 SCT020 27/24 Q1010 NOSIG=
202509111200 METAR WIHH 111200Z 24007KT 6000 SCT020 27/24 Q1010 NOSIG=
202509111130 METAR WIHH 111130Z 27007KT 6000 SCT020 27/24 Q1009 NOSIG=
202509111100 METAR WIHH 111100Z 23005KT 6000 SCT020 27/24 Q1009 RMK RA TO W=
202509111030 METAR WIHH 111030Z 25005KT 6000 SCT018 27/23 Q1009 RMK RA TO NW=
202509111000 METAR WIHH NIL=
202509110930 METAR WIHH NIL=
202509110900 METAR WIHH NIL=
202509110830 METAR WIHH 110830Z 23008KT 6000 SCT017 FEW018CB 28/24 Q1008 TEMPO FM0850 3000 -TSRA RMK CB AND RA TO NW-NE=
202509110800 METAR WIHH 110800Z 23010KT 6000 FEW018 29/24 Q1008 RMK RA TO NE-SE=
202509110730 METAR WIHH 110730Z 21010KT 6000 FEW018 30/23 Q1008 RMK RA TO SW=
202509110700 METAR WIHH 110700Z 22008KT 6000 FEW017CB SCT018 30/23 Q1008 RMK CB AND RA TO SE-S=
202509110630 METAR WIHH 110630Z 24005KT 6000 FEW017CB SCT018 30/23 Q1009 RMK CB AND RA TO S-SW=
202509110600 METAR WIHH 110600Z 36005KT 6000 TS FEW017CB SCT018 31/23 Q1009 RMK CB AND RA TO S-SW=
202509110530 METAR WIHH 110530Z 02006KT 6000 TS FEW017CB SCT018 30/23 Q1010 RMK CB AND RA TO S-SW=
202509110500 METAR WIHH NIL=
202509110430 METAR WIHH 110430Z 31006KT 5000 TS FEW017CB SCT018 29/24 Q1011 RMK CB AND RA TO SW-W=
202509110400 METAR WIHH 110400Z 35010KT 4000 HZ BKN017 FEW018CB 28/24 Q1011 TEMPO FM0500 3000 -RA RMK CB AND RA TO SW-N=
202509110330 METAR WIHH 110330Z 34005KT 4000 HZ BKN018 28/25 Q1011 RMK RA TO NW=
202509110300 METAR WIHH NIL=
202509110230 METAR WIHH 110230Z 01003KT 5000 HZ SCT018 29/24 Q1012 NOSIG=
202509110200 METAR WIHH 110200Z 05003KT 6000 SCT020 28/24 Q1012 NOSIG=
202509110130 METAR WIHH 110130Z 00000KT 6000 SCT020 28/25 Q1012 NOSIG=
202509110100 METAR WIHH NIL=
202509110030 METAR WIHH NIL=
202509110000 METAR WIHH 110000Z 22003KT 6000 SCT020 26/25 Q1011 NOSIG=
202509102330 METAR WIHH NIL=
202509102300 METAR WIHH 102300Z 00000KT 5000 HZ SCT018 26/25 Q1010 NOSIG=
202509102230 METAR WIHH NIL=
202509102200 METAR WIHH NIL=
202509102130 METAR WIHH NIL=
202509102100 METAR WIHH 102100Z 00000KT 6000 SCT018 26/24 Q1009 NOSIG=
202509102030 METAR WIHH NIL=
202509102000 METAR WIHH NIL=
202509101930 METAR WIHH NIL=
202509101900 METAR WIHH NIL=
202509101830 METAR WIHH NIL=
202509101800 METAR WIHH NIL=
202509101730 METAR WIHH NIL=
202509101700 METAR WIHH 101700Z 00000KT 7000 SCT020 26/24 Q1011 NOSIG=
202509101630 METAR WIHH NIL=
202509101600 METAR WIHH NIL=
202509101530 METAR WIHH NIL=
202509101500 METAR WIHH NIL=
202509101430 METAR WIHH 101430Z 21006KT 8000 SCT020 26/23 Q1011 NOSIG=
202509101400 METAR WIHH 101400Z 22006KT 8000 SCT020 27/24 Q1011 NOSIG=
202509101330 METAR WIHH 101330Z 06005KT 8000 FEW020 29/24 Q1011 NOSIG=
202509101300 METAR WIHH NIL=
202509101230 METAR WIHH NIL=
202509101200 METAR WIHH NIL=
202509101130 METAR WIHH 101130Z 03007KT 7000 SCT020 30/23 Q1009 NOSIG=
202509101100 METAR WIHH 101100Z 03007KT 7000 SCT020 30/23 Q1008 NOSIG=
202509101030 METAR WIHH NIL=
202509101000 METAR WIHH 101000Z 04011KT 7000 SCT018 31/23 Q1008 NOSIG=
202509100930 METAR WIHH 100930Z 03010KT 7000 SCT018 32/22 Q1007 NOSIG=
202509100900 METAR WIHH NIL=
202509100830 METAR WIHH 100830Z 05009KT 7000 SCT018 33/23 Q1007 NOSIG=
202509100800 METAR WIHH 100800Z 03013KT 6000 SCT018 32/23 Q1007 NOSIG=
202509100730 METAR WIHH NIL=
202509100700 METAR WIHH 100700Z 03010KT 6000 SCT018 33/23 Q1008 RMK RA TO SW=
202509100630 METAR WIHH 100630Z 03013KT 6000 SCT018 33/23 Q1008 RMK RA TO SW=
202509100600 METAR WIHH 100600Z 06013KT 6000 SCT018 33/23 Q1009 RMK RA TO SW AND N=
202509100530 METAR WIHH 100530Z 06007KT 6000 SCT018 33/23 Q1009 NOSIG=
202509100500 METAR WIHH 100500Z 06010KT 6000 SCT018 32/22 Q1010 NOSIG=
202509100430 METAR WIHH NIL=
202509100400 METAR WIHH 100400Z 06010KT 6000 SCT020 32/23 Q1011 NOSIG=
202509100330 METAR WIHH 100330Z 06010KT 6000 SCT020 32/23 Q1011 NOSIG=
202509100300 METAR WIHH 100300Z 03005KT 6000 SCT020 31/22 Q1011 NOSIG=
202509100230 METAR WIHH 100230Z 06004KT 6000 SCT020 30/23 Q1011 NOSIG=
202509100200 METAR WIHH NIL=
202509100130 METAR WIHH 100130Z 09006KT 5000 HZ FEW020 29/23 Q1012 NOSIG=
202509100100 METAR WIHH NIL=
202509100030 METAR WIHH NIL=
202509100000 METAR WIHH 100000Z 13004KT 3000 BR FEW020 25/24 Q1010 NOSIG=
202509092330 METAR WIHH 092330Z 10003KT 3000 BR FEW020 24/24 Q1010 NOSIG=
202509092300 METAR WIHH 092300Z 00000KT 3000 BR FEW020 23/23 Q1010 NOSIG=
202509092230 METAR WIHH 092230Z 00000KT 4000 BR FEW020 23/23 Q1010 NOSIG=
202509092200 METAR WIHH 092200Z 00000KT 4000 BR FEW020 23/23 Q1009 NOSIG=
202509092130 METAR WIHH 092130Z 00000KT 4000 BR FEW020 24/23 Q1009 NOSIG=
202509092100 METAR WIHH 092100Z 00000KT 4000 BR FEW020 23/23 Q1009 NOSIG=
202509092030 METAR WIHH NIL=
202509092000 METAR WIHH NIL=
202509091930 METAR WIHH NIL=
202509091900 METAR WIHH NIL=
202509091830 METAR WIHH NIL=
202509091800 METAR WIHH NIL=
202509091730 METAR WIHH NIL=
202509091700 METAR WIHH NIL=
202509091630 METAR WIHH NIL=
202509091600 METAR WIHH 091600Z 00000KT 8000 FEW020 24/23 Q1012 NOSIG=
202509091530 METAR WIHH 091530Z 00000KT 8000 FEW020 24/23 Q1012 NOSIG=
202509091500 METAR WIHH 091500Z 00000KT 8000 FEW020 24/23 Q1012 NOSIG=
202509091430 METAR WIHH 091430Z 22003KT 8000 FEW020 24/23 Q1012 NOSIG=
202509091400 METAR WIHH NIL=
202509091330 METAR WIHH 091330Z 24003KT 8000 FEW020 24/23 Q1012 NOSIG=
202509091300 METAR WIHH 091300Z 26003KT 5000 HZ SCT018 25/23 Q1012 NOSIG=
202509091230 METAR WIHH 091230Z 24004KT 5000 HZ SCT018 25/24 Q1011 NOSIG=
202509091200 METAR WIHH 091200Z 22004KT 5000 HZ SCT018 25/24 Q1011 NOSIG=
202509091130 METAR WIHH 091130Z 24004KT 4000 SCT018 25/23 Q1011 RMK RA TO S=
202509091100 METAR WIHH 091100Z 17004KT 4000 SCT018 26/23 Q1010 RMK RA TO S=
202509091030 METAR WIHH 091030Z 14006KT 4000 HZ SCT018 26/24 Q1010 TEMPO FM1100 3000 -TSRA FEW016CB BKN018 RMK RA TO S=
202509091000 METAR WIHH NIL=
202509090930 METAR WIHH 090930Z 15004KT 4000 TS FEW016CB SCT018 27/25 Q1009 RMK CB AND RA TO N AND S=
202509090900 METAR WIHH 090900Z 35004KT 5000 -TSRA FEW016CB SCT018 26/25 Q1009 TEMPO FM0930 3000 TSRA BKN018 RMK CB TO N=
202509090830 METAR WIHH NIL=
202509090800 METAR WIHH 090800Z 33004KT 5000 TS FEW016CB SCT018 28/23 Q1009 TEMPO FM0820 1500 TSRA BKN018 RMK CB AND RA TO NE=
202509090730 METAR WIHH 090730Z 28005KT 5000 FEW016CB SCT018 29/24 Q1009 TEMPO FM0750 1500 TSRA BKN018 RMK CB AND RA TO NE=
202509090700 METAR WIHH 090700Z 26003KT 5000 HZ FEW016CB FEW018 27/24 Q1009 TEMPO FM0715 2000 TSRA BKN018 RMK CB AND RA TO W AND NE=
202509090630 METAR WIHH 090630Z 29003KT 5000 TS FEW016CB SCT018 26/24 Q1010 TEMPO FM0700 3000 -TSRA BKN018 RMK CB AND RA TO NW=
202509090600 METAR WIHH 090600Z 27003KT 5000 TS FEW016CB SCT018 26/25 Q1010 TEMPO FM0700 3000 -TSRA BKN018 RMK CB AND RA TO NW=
202509090530 METAR WIHH 090530Z 24005KT 5000 -TSRA FEW016CB SCT018 24/23 Q1010 RMK CB TO SE=
202509090500 METAR WIHH 090500Z 09018KT 1000 TSRA FEW016CB SCT018 30/22 Q1011 TEMPO TL0530 3000 -TSRA SCT015 RMK CB TO E=
202509090430 METAR WIHH NIL=
202509090400 METAR WIHH 090400Z 20003KT 6000 SCT018 32/23 Q1012 RMK RA TO E=
202509090330 METAR WIHH 090330Z 06003KT 6000 SCT018 31/22 Q1012 RMK RA TO E=
202509090300 METAR WIHH 090300Z 21003KT 8000 SCT020 31/22 Q1012 NOSIG=
202509090230 METAR WIHH NIL=
202509090200 METAR WIHH 090200Z 24003KT 8000 SCT020 30/24 Q1012 NOSIG=
202509090130 METAR WIHH 090130Z 24004KT 8000 SCT020 29/24 Q1012 NOSIG=
202509090100 METAR WIHH 090100Z 19005KT 7000 FEW020 28/23 Q1012 NOSIG=
202509090030 METAR WIHH 090030Z 23003KT 7000 FEW020 27/24 Q1012 NOSIG=
202509090000 METAR WIHH NIL=
202509082330 METAR WIHH 082330Z 22003KT 7000 FEW020 25/24 Q1011 NOSIG=
202509082300 METAR WIHH 082300Z 00000KT 7000 FEW020 25/24 Q1011 NOSIG=
202509082230 METAR WIHH 082230Z 23004KT 7000 FEW020 25/24 Q1010 NOSIG=
202509082200 METAR WIHH 082200Z 24003KT 7000 FEW020 25/24 Q1010 NOSIG=
202509082130 METAR WIHH 082130Z 00000KT 7000 FEW020 25/24 Q1010 NOSIG=
202509082100 METAR WIHH 082100Z 0000KT 7000 FEW020 25/24 Q1010 NOSIG=
202509082030 METAR WIHH NIL=
202509082000 METAR WIHH NIL=
202509081930 METAR WIHH NIL=
202509081900 METAR WIHH NIL=
202509081830 METAR WIHH NIL=
202509081800 METAR WIHH NIL=
202509081730 METAR WIHH NIL=
202509081700 METAR WIHH NIL=
202509081630 METAR WIHH NIL=
202509081600 METAR WIHH 081600Z 00000KT 7000 SCT020 26/25 Q1012 NOSIG RMK RA TO S=
202509081530 METAR WIHH 081530Z 31003KT 8000 SCT020 26/25 Q1012 NOSIG=
202509081500 METAR WIHH 081500Z 27003KT 8000 SCT020 26/24 Q1012 RMK RA TO SW AND NW=
202509081430 METAR WIHH 081430Z 23003KT 7000 SCT020 28/23 Q1012 NOSIG=
202509081400 METAR WIHH 081400Z 27003KT 8000 FEW020 28/24 Q1011 NOSIG=
202509081330 METAR WIHH 081330Z 00000KT 8000 FEW020 29/24 Q1011 NOSIG=
202509081300 METAR WIHH 081300Z 04003KT 8000 FEW020 29/24 Q1011 NOSIG=
202509081230 METAR WIHH NIL=
202509081200 METAR WIHH NIL=
202509081130 METAR WIHH NIL=
202509081100 METAR WIHH NIL=
202509081030 METAR WIHH NIL=
202509081000 METAR WIHH NIL=
202509080930 METAR WIHH NIL=
202509080900 METAR WIHH NIL=
202509080830 METAR WIHH NIL=
202509080800 METAR WIHH NIL=
202509080730 METAR WIHH NIL=
202509080700 METAR WIHH NIL=
202509080630 METAR WIHH NIL=
202509080600 METAR WIHH NIL=
202509080500 METAR WIHH NIL=
202509080430 METAR WIHH NIL=
202509080400 METAR WIHH 080400Z 07005KT 7000 SCT020 31/22 Q1011 NOSIG=
202509080330 METAR WIHH 080330Z 15003KT 7000 SCT020 31/22 Q1012 NOSIG=
202509080300 METAR WIHH 080300Z 23004KT 8000 FEW020 30/21 Q1012 NOSIG=
202509080230 METAR WIHH NIL=
202509080200 METAR WIHH 080200Z 26003KT 8000 FEW020 30/22 Q1012 NOSIG=
202509080130 METAR WIHH 080130Z 18005KT 7000 FEW020 29/23 Q1012 NOSIG=
202509080100 METAR WIHH 080100Z 16003KT 7000 FEW020 28/22 Q1012 NOSIG=
202509080030 METAR WIHH NIL=
202509080000 METAR WIHH 080000Z 00000KT 7000 FEW020 26/23 Q1011 NOSIG=
202509072330 METAR WIHH 072330Z 00000KT 7000 FEW020 25/23 Q1011 NOSIG=
202509072300 METAR WIHH 072300Z 00000KT 7000 FEW020 24/23 Q1011 NOSIG=
202509072230 METAR WIHH NIL=
202509072200 METAR WIHH 072200Z 00000KT 7000 FEW020 24/23 Q1010 NOSIG=
202509072130 METAR WIHH 072130Z 00000KT 7000 FEW018 24/23 Q1010 NOSIG=
202509072100 METAR WIHH 072100Z 00000KT 8000 NSC 24/23 Q1010 NOSIG=
202509072030 METAR WIHH NIL=
202509072000 METAR WIHH NIL=
202509071930 METAR WIHH NIL=
202509071900 METAR WIHH NIL=
202509071830 METAR WIHH NIL=
202509071800 METAR WIHH NIL=
202509071730 METAR WIHH NIL=
202509071700 METAR WIHH NIL=
202509071630 METAR WIHH NIL=
202509071600 METAR WIHH 071600Z 00000KT 7000 NSC 25/22 Q1011 NOSIG=
202509071530 METAR WIHH NIL=
202509071500 METAR WIHH 071500Z 00000KT 8000 NSC 25/21 Q1012 NOSIG=
202509071430 METAR WIHH 071430Z 00000KT 8000 NSC 25/20 Q1012 NOSIG=
202509071400 METAR WIHH 071400Z 00000KT 7000 NSC 26/20 Q1011 NOSIG=
202509071330 METAR WIHH 071330Z 00000KT 7000 NSC 26/23 Q1011 NOSIG=
202509071300 METAR WIHH 071300Z 00000KT 8000 NSC 26/20 Q1010 NOSIG=
202509071230 METAR WIHH 071230Z 06004KT 8000 NSC 29/19 Q1010 NOSIG=
202509071200 METAR WIHH 071200Z 06005KT 8000 NSC 29/18 Q1010 NOSIG=
202509071130 METAR WIHH NIL=
202509071100 METAR WIHH NIL=
202509071030 METAR WIHH NIL=
202509071000 METAR WIHH 071000Z 03010KT 8000 FEW020 31/19 Q1008 NOSIG=
202509070930 METAR WIHH 070930Z 04010KT 7000 FEW020 32/19 Q1008 NOSIG=
202509070900 METAR WIHH 070900Z 03008KT 7000 SCT018 32/20 Q1008 NOSIG=
202509070830 METAR WIHH NIL=
202509070800 METAR WIHH NIL=
202509070730 METAR WIHH 070730Z 03004KT 7000 SCT018 33/21 Q1008 NOSIG=
202509070700 METAR WIHH 070700Z 09004KT 7000 SCT018 33/19 Q1009 NOSIG=
202509070630 METAR WIHH 070630Z 15005KT 7000 SCT020 33/19 Q1009 NOSIG=
202509070600 METAR WIHH NIL=
202509070530 METAR WIHH 070530Z 06004KT 7000 SCT018 33/20 Q1010 NOSIG=
202509070500 METAR WIHH 070500Z 18004KT 7000 SCT018 31/19 Q1011 NOSIG=
202509070430 METAR WIHH NIL=
202509070400 METAR WIHH 070400Z 27003KT 7000 SCT018 32/21 Q1011 NOSIG=
202509070330 METAR WIHH 070330Z 12003KT 8000 FEW020 32/21 Q1012 NOSIG=
202509070300 METAR WIHH 070300Z 15003KT 8000 FEW020 31/21 Q1012 NOSIG=
202509070230 METAR WIHH 070230Z 18003KT 8000 FEW020 30/21 Q1012 NOSIG=
202509070200 METAR WIHH 070200Z 18003KT 8000 FEW020 29/21 Q1012 NOSIG=
202509070130 METAR WIHH 070130Z 25003KT 8000 FEW020 28/21 Q1012 NOSIG=
202509070100 METAR WIHH NIL=
202509070030 METAR WIHH 070030Z 24003KT 9999 FEW020 27/22 Q1011 NOSIG=
202509070000 METAR WIHH NIL=
202509062330 METAR WIHH NIL=
202509062300 METAR WIHH NIL=
202509062230 METAR WIHH 062230Z 20004KT 8000 FEW020 24/22 Q1010 NOSIG=
202509062200 METAR WIHH 062200Z 21003KT 8000 FEW020 24/22 Q1010 NOSIG=
202509062130 METAR WIHH NIL=
202509062100 METAR WIHH NIL=
202509062030 METAR WIHH NIL=
202509062000 METAR WIHH NIL=
202509061930 METAR WIHH NIL=
202509061900 METAR WIHH NIL=
202509061830 METAR WIHH NIL=
202509061800 METAR WIHH NIL=
202509061730 METAR WIHH NIL=
202509061700 METAR WIHH NIL=
202509061630 METAR WIHH NIL=
202509061600 METAR WIHH NIL=
202509061530 METAR WIHH 061530Z 25004KT 5000 HZ BKN018 25/24 Q1012 RMK RA TO NW=
202509061500 METAR WIHH 061500Z 23005KT 5000 HZ BKN018 25/24 Q1012 RMK RA TO W=
202509061430 METAR WIHH 061430Z 22005KT 5000 HZ BKN018 26/24 Q1012 RMK RA TO W=
202509061400 METAR WIHH 061400Z 30004KT 3000 -RA FEW016CB BKN018 26/24 Q1012 TEMPO TL1410 3000 -RA RMK CB TO NW=
202509061330 METAR WIHH NIL=
202509061300 METAR WIHH 061300Z 22005KT 6000 FEW016CB SCT018 28/23 Q1011 RMK CB AND RA TO S=
202509061230 METAR WIHH 061230Z 00000KT 7000 SCT020 28/23 Q1010 RMK RA TO S=
202509061200 METAR WIHH NIL=
202509061130 METAR WIHH 061130Z 29004KT 6000 SCT018 28/23 Q1010 NOSIG=
202509061100 METAR WIHH NIL=
202509061030 METAR WIHH 061030Z 33006KT 5000 HZ SCT018 30/22 Q1009 NOSIG=
202509061000 METAR WIHH 061000Z 35006KT 5000 SCT018 30/22 Q1009 NOSIG=
202509060930 METAR WIHH 060930Z 30004KT 5000 HZ SCT018 31/22 Q1009 NOSIG=
202509060900 METAR WIHH 060900Z 33004KT 5000 HZ SCT018 31/22 Q1009 RMK RA TO W=
202509060830 METAR WIHH NIL=
202509060800 METAR WIHH NIL=
202509060730 METAR WIHH 060730Z 05010KT 5000 -TSRA FEW016CB SCT018 30/22 Q1008 TEMPO TL0800 3000 -TSRA SCT016 FEW017CB RMK CB AND RA TO SW=
202509060700 METAR WIHH 060700Z 04012KT 5000 TS FEW016CB SCT018 31/22 Q1009 TEMPO FM0730 3000 -RA BKN016 RMK CB AND RA TO S=
202509060630 METAR WIHH 060630Z 05012KT 5000 -RA FEW016CB SCT018 30/22 Q1010 TEMPO FM0700 3000 -RA BKN016 RMK CB TO E=
202509060600 METAR WIHH 060600Z 03005KT 5000 HZ FEW016CB SCT018 33/21 Q1011 TEMPO FM0630 3000 -RA SCT016 RMK CB AND RA TO E=
202509060530 METAR WIHH 060530Z 04003KT 6000 SCT018 33/21 Q1011 TEMPO FM0700 3000 -RA BKN016 RMK RA TO SE=
202509060500 METAR WIHH NIL=
202509060430 METAR WIHH NIL=
202509060400 METAR WIHH 060400Z 21003KT 8000 SCT018 32/22 Q1012 NOSIG=
202509060330 METAR WIHH 060330Z 30003KT 8000 SCT018 31/22 Q1012 NOSIG=
202509060300 METAR WIHH 060300Z 24003KT 8000 SCT018 31/22 Q1013 NOSIG=
202509060230 METAR WIHH 060230Z 03003KT 8000 SCT018 31/21 Q1013 NOSIG=
202509060200 METAR WIHH NIL=
202509060130 METAR WIHH 060130Z 31003KT 8000 NSC 30/22 Q1012 NOSIG=
202509060100 METAR WIHH 060100Z 00000KT 8000 NSC 29/22 Q1012 NOSIG=
202509060030 METAR WIHH NIL=
202509060000 METAR WIHH NIL=
202509052330 METAR WIHH 052330Z 00000KT 7000 NSC 24/23 Q1010 NOSIG=
202509052300 METAR WIHH NIL=
202509052230 METAR WIHH 052230Z 00000KT 7000 FEW020 25/23 Q1010 NOSIG=
202509052200 METAR WIHH NIL=
202509052130 METAR WIHH 052130Z 00000KT 6000 FEW020 25/24 Q1009 NOSIG=
202509052100 METAR WIHH NIL=
202509052030 METAR WIHH NIL=
202509052000 METAR WIHH NIL=
202509051930 METAR WIHH NIL=
202509051900 METAR WIHH NIL=
202509051830 METAR WIHH NIL=
202509051800 METAR WIHH NIL=
202509051730 METAR WIHH NIL=
202509051700 METAR WIHH NIL=
202509051630 METAR WIHH NIL=
202509051600 METAR WIHH NIL=
202509051530 METAR WIHH 051530Z 21003KT 8000 FEW020 25/23 Q1012 NOSIG=
202509051500 METAR WIHH NIL=
202509051430 METAR WIHH NIL=
202509051400 METAR WIHH 051400Z 21005KT 8000 SCT020 26/23 Q1012 NOSIG=
202509051330 METAR WIHH NIL=
202509051300 METAR WIHH 051300Z 23005KT 8000 SCT020 27/24 Q1011 NOSIG=
202509051230 METAR WIHH 051230Z 23006KT 7000 SCT018 27/24 Q1010 NOSIG=
202509051200 METAR WIHH NIL=
202509051130 METAR WIHH 051130Z 04006KT 7000 FEW017CB SCT018 30/21 Q1009 RMK CB AND RA TO SW=
202509051100 METAR WIHH 051100Z 04008KT 7000 SCT018 30/20 Q1009 NOSIG=
202509051030 METAR WIHH 051030Z 03008KT 7000 SCT018 31/21 Q1008 NOSIG=
202509051000 METAR WIHH NIL=
202509050930 METAR WIHH 050930Z 04010KT 7000 SCT018 32/22 Q1008 RMK RA TO S=
202509050900 METAR WIHH NIL=
202509050830 METAR WIHH 050830Z 02010KT 7000 SCT018 32/22 Q1007 RMK RA TO W=
202509050800 METAR WIHH NIL=
202509050730 METAR WIHH 050730Z 30005KT 6000 SCT017 31/23 Q1007 RMK RA TO W=
202509050700 METAR WIHH 050700Z 04004KT 6000 FEW016CB SCT017 33/23 Q1008 RMK CB AND RA TO SW-W=
202509050630 METAR WIHH 050630Z 02007KT 6000 SCT017 33/22 Q1008 RMK RA TO SW-NW=
202509050600 METAR WIHH NIL=
202509050530 METAR WIHH NIL=
202509050500 METAR WIHH 050500Z 15004KT 7000 SCT018 33/21 Q1010 NOSIG=
202509050430 METAR WIHH 050430Z 06004KT 7000 SCT018 34/22 Q1010 NOSIG=
202509050400 METAR WIHH 050400Z 22005KT 7000 SCT020 33/21 Q1011 NOSIG=
202509050330 METAR WIHH NIL=
202509050300 METAR WIHH 050300Z 13005KT 7000 SCT020 32/21 Q1012 NOSIG=
202509050230 METAR WIHH 050230Z 05005KT 7000 SCT020 31/22 Q1012 NOSIG=
202509050200 METAR WIHH NIL=
202509050130 METAR WIHH NIL=
202509050100 METAR WIHH 050100Z 19003KT 5000 HZ FEW022 28/24 Q1012 NOSIG=
202509050030 METAR WIHH NIL=
202509050000 METAR WIHH NIL=
202509042330 METAR WIHH 042330Z 24003KT 5000 HZ NSC 25/24 Q1011 NOSIG=
202509042300 METAR WIHH 042300Z 24003KT 5000 HZ NSC 24/24 Q1010 NOSIG=
202509042230 METAR WIHH 042230Z 24002KT 6000 NSC 24/24 Q1010 NOSIG=
202509042200 METAR WIHH 042200Z 00000KT 6000 NSC 24/24 Q1009 NOSIG=
202509042130 METAR WIHH NIL=
202509042100 METAR WIHH NIL=
202509042030 METAR WIHH NIL=
202509042000 METAR WIHH NIL=
202509041930 METAR WIHH NIL=
202509041900 METAR WIHH NIL=
202509041830 METAR WIHH NIL=
202509041800 METAR WIHH NIL=
202509041730 METAR WIHH NIL=
202509041700 METAR WIHH NIL=
202509041630 METAR WIHH 041630Z 00000KT 6000 NSC 26/24 Q1011 NOSIG=
202509041600 METAR WIHH NIL=
202509041530 METAR WIHH NIL=
202509041500 METAR WIHH 041500Z 13003KT 8000 NSC 28/24 Q1011 NOSIG=
202509041430 METAR WIHH 041430Z 09005KT 8000 NSC 28/24 Q1011 NOSIG=
202509041400 METAR WIHH NIL=
202509041330 METAR WIHH NIL=
202509041300 METAR WIHH 041300Z 06006KT 8000 NSC 28/24 Q1010 NOSIG=
202509041230 METAR WIHH NIL=
202509041200 METAR WIHH 041200Z 06007KT 8000 NSC 29/24 Q1009 NOSIG=
202509041130 METAR WIHH NIL=
202509041100 METAR WIHH NIL=
202509041030 METAR WIHH 041030Z 06010KT 8000 NSC 31/23 Q1008 NOSIG=
202509041000 METAR WIHH 041000Z 06013KT 8000 NSC 31/22 Q1008 NOSIG=
202509040930 METAR WIHH 040930Z 03012KT 8000 FEW020 32/22 Q1008 NOSIG=
202509040900 METAR WIHH 040900Z 03012KT 8000 FEW020 32/22 Q1008 NOSIG=
202509040830 METAR WIHH 040830Z 03013KT 8000 FEW020 32/22 Q1007 NOSIG=
202509040800 METAR WIHH NIL=
202509040730 METAR WIHH 040730Z 07011KT 7000 SCT020 32/22 Q1008 RMK RA TO E=
202509040700 METAR WIHH 040700Z 06012KT 7000 SCT020 33/22 Q1008 NOSIG=
202509040630 METAR WIHH 040630Z 06012KT 7000 SCT020 33/22 Q1008 NOSIG=
202509040600 METAR WIHH NIL=
202509040530 METAR WIHH 040530Z 06012KT 7000 SCT020 33/22 Q1009 NOSIG=
202509040500 METAR WIHH 040500Z 05011KT 7000 SCT020 33/22 Q1010 NOSIG=
202509040430 METAR WIHH NIL=
202509040400 METAR WIHH 040400Z 09008KT 7000 SCT020 32/23 Q1011 NOSIG=
202509040330 METAR WIHH 040330Z 03010KT 7000 SCT020 32/22 Q1011 NOSIG=
202509040300 METAR WIHH 040300Z 06010KT 7000 SCT020 32/22 Q1011 NOSIG=
202509040230 METAR WIHH 040230Z 06013KT 7000 SCT020 31/23 Q1012 NOSIG=
202509040200 METAR WIHH 040200Z 06008KT 6000 SCT020 30/23 Q1012 NOSIG=
202509040130 METAR WIHH 040130Z 07009KT 6000 SCT020 30/24 Q1012 NOSIG=
202509040100 METAR WIHH 040100Z 08007KT 6000 NSC 29/24 Q1011 NOSIG=
202509040030 METAR WIHH 040030Z 08007KT 6000 NSC 28/24 Q1011 NOSIG=
202509040000 METAR WIHH 040000Z 11004KT 6000 NSC 27/23 Q1011 NOSIG=
202509032330 METAR WIHH NIL=
202509032300 METAR WIHH NIL=
202509032230 METAR WIHH NIL=
202509032200 METAR WIHH 032200Z 11004KT 9999 NSC 25/23 Q1010 NOSIG=
202509032130 METAR WIHH NIL=
202509032100 METAR WIHH NIL=
202509032030 METAR WIHH NIL=
202509032000 METAR WIHH NIL=
202509031930 METAR WIHH NIL=
202509031900 METAR WIHH NIL=
202509031830 METAR WIHH NIL=
202509031800 METAR WIHH NIL=
202509031730 METAR WIHH NIL=
202509031700 METAR WIHH 031700Z 10007KT 9999 NSC 27/23 Q1011 NOSIG=
202509031630 METAR WIHH 031630Z 11007KT 9999 NSC 27/23 Q1011 NOSIG=
202509031600 METAR WIHH 031600Z 09007KT 9999 NSC 28/23 Q1012 NOSIG=
202509031530 METAR WIHH 031530Z 09007KT 9999 NSC 28/23 Q1012 NOSIG=
202509031500 METAR WIHH 031500Z 11010KT 9999 NSC 28/23 Q1011 NOSIG=
202509031430 METAR WIHH 031430Z 13005KT 9999 NSC 28/23 Q1011 NOSIG=
202509031400 METAR WIHH NIL=
202509031330 METAR WIHH NIL=
202509031300 METAR WIHH NIL=
202509031230 METAR WIHH 031230Z 09015KT 9999 NSC 29/22 Q1010 NOSIG=
202509031200 METAR WIHH 031200Z 07015KT 9999 FEW022 29/22 Q1010 NOSIG=
202509031130 METAR WIHH NIL=
202509031100 METAR WIHH 031100Z 06016KT 9999 FEW022 29/22 Q1009 NOSIG=
202509031030 METAR WIHH 031030Z 16015KT 9999 FEW022 30/22 Q1009 NOSIG=
202509031000 METAR WIHH 031000Z 07020KT 9999 FEW022 31/21 Q1009 NOSIG=
202509030930 METAR WIHH 030930Z 05020KT 9999 FEW022 31/21 Q1008 NOSIG=
202509030900 METAR WIHH 030900Z 08020KT 9999 FEW020 33/22 Q1008 NOSIG=
202509030830 METAR WIHH 030830Z 07020KT 9999 FEW020 33/22 Q1008 NOSIG=
202509030800 METAR WIHH 030800Z 05020KT 9999 FEW020 33/23 Q1008 NOSIG=
202509030730 METAR WIHH 030730Z 09020KT 9999 FEW020 33/22 Q1008 NOSIG=
202509030700 METAR WIHH 030700Z 07020KT 9999 FEW020 33/23 Q1009 NOSIG=
202509030630 METAR WIHH NIL=
202509030600 METAR WIHH NIL=
202509030530 METAR WIHH NIL=
202509030500 METAR WIHH NIL=
202509030430 METAR WIHH 030430Z 08018KT 9999 FEW020 33/19 Q1011 NOSIG=
202509030400 METAR WIHH 030400Z 09015KT 9999 FEW020 33/19 Q1011 NOSIG=
202509030330 METAR WIHH 030330Z 06015KT 9999 FEW020 32/20 Q1011 NOSIG=
202509030300 METAR WIHH 030300Z 09015KT 9999 FEW022 32/21 Q1012 NOSIG=
202509030230 METAR WIHH NIL=
202509030200 METAR WIHH 030200Z 08010KT 8000 FEW022 30/22 Q1012 NOSIG=
202509030130 METAR WIHH 030130Z 06008KT 8000 NSC 30/22 Q1012 NOSIG=
202509030100 METAR WIHH NIL=
202509030030 METAR WIHH 030030Z 10003KT 7000 NSC 28/21 Q1011 NOSIG=
202509030000 METAR WIHH 030000Z 09003KT 7000 NSC 27/21 Q1011 NOSIG=
202509022330 METAR WIHH 022330Z 02003KT 7000 NSC 25/22 Q1010 NOSIG=
202509022300 METAR WIHH NIL=
202509022230 METAR WIHH 022230Z 12003KT 7000 NSC 24/21 Q1010 NOSIG=
202509022200 METAR WIHH NIL=
202509022130 METAR WIHH 022130Z 00000KT 6000 NSC 24/22 Q1010 NOSIG=
202509022100 METAR WIHH NIL=
202509022030 METAR WIHH NIL=
202509022000 METAR WIHH NIL=
202509021930 METAR WIHH NIL=
202509021900 METAR WIHH NIL=
202509021830 METAR WIHH NIL=
202509021800 METAR WIHH NIL=
202509021730 METAR WIHH NIL=
202509021700 METAR WIHH NIL=
202509021630 METAR WIHH NIL=
202509021600 METAR WIHH 021600Z 16003KT 8000 NSC 27/22 Q1012 NOSIG=
202509021530 METAR WIHH 021530Z 11003KT 8000 NSC 27/22 Q1012 NOSIG=
202509021500 METAR WIHH NIL=
202509021400 METAR WIHH NIL=
202509021300 METAR WIHH NIL=
202509021230 METAR WIHH 021230Z 08008KT 8000 NSC 29/22 Q1010 NOSIG=
202509021200 METAR WIHH NIL=
202509021130 METAR WIHH NIL=
202509021100 METAR WIHH 021100Z 16012KT 8000 NSC 30/20 Q1009 NOSIG=
202509021030 METAR WIHH 021030Z 10015KT 8000 NSC 31/20 Q1008 NOSIG=
202509021000 METAR WIHH 021000Z 07020KT 8000 NSC 32/20 Q1008 NOSIG=
202509020930 METAR WIHH 020930Z 10015KT 8000 NSC 32/19 Q1008 NOSIG=
202509020900 METAR WIHH 020900Z 07020KT 8000 FEW020 33/17 Q1007 NOSIG=
202509020830 METAR WIHH 020830Z 09020KT 8000 FEW020 33/17 Q1007 NOSIG=
202509020800 METAR WIHH NIL=
202509020730 METAR WIHH 020730Z 06020KT 8000 FEW020 33/18 Q1008 NOSIG=
202509020700 METAR WIHH NIL=
202509020630 METAR WIHH NIL=
202509020600 METAR WIHH 020600Z 09020KT 8000 SCT020 34/19 Q1009 NOSIG=
202509020530 METAR WIHH 020530Z 11020KT 8000 SCT020 33/19 Q1009 NOSIG=
202509020500 METAR WIHH 020500Z 09020KT 8000 SCT020 33/20 Q1010 NOSIG=
202509020430 METAR WIHH 020430Z 08015KT 8000 SCT020 32/22 Q1010 NOSIG=
202509020400 METAR WIHH 020400Z 07015KT 8000 SCT020 31/21 Q1011 NOSIG=
202509020330 METAR WIHH NIL=
202509020300 METAR WIHH 020300Z 09015KT 8000 FEW020 32/20 Q1011 NOSIG=
202509020230 METAR WIHH 020230Z 11015KT 7000 FEW020 31/21 Q1011 NOSIG=
202509020200 METAR WIHH NIL=
202509020130 METAR WIHH 020130Z 08008KT 6000 NSC 30/23 Q1011 NOSIG=
202509020100 METAR WIHH 020100Z 13007KT 6000 FEW020 29/23 Q1011 NOSIG=
202509020030 METAR WIHH 020030Z 09002KT 5000 HZ SCT018 28/23 Q1011=
202509020000 METAR WIHH NIL=
202509012330 METAR WIHH 012330Z 00000KT 5000 HZ FEW020 25/24 Q1010 NOSIG=
202509012300 METAR WIHH 012300Z 00000KT 5000 HZ FEW020 25/23 Q1010 NOSIG=
202509012230 METAR WIHH 012230Z 16003KT 6000 FEW020 25/23 Q1009 NOSIG=
202509012200 METAR WIHH 012200Z 00000KT 6000 FEW020 25/23 Q1009 NOSIG=
202509012130 METAR WIHH 012130Z 00000KT 6000 FEW020 25/24 Q1009 NOSIG=
202509012100 METAR WIHH NIL=
202509012030 METAR WIHH NIL=
202509012000 METAR WIHH NIL=
202509011930 METAR WIHH NIL=
202509011900 METAR WIHH NIL=
202509011830 METAR WIHH NIL=
202509011800 METAR WIHH NIL=
202509011730 METAR WIHH NIL=
202509011700 METAR WIHH 011700Z 09003KT 7000 FEW020 27/23 Q1010 NOSIG=
202509011630 METAR WIHH 011630Z 09005KT 7000 SCT020 27/23 Q1010 NOSIG=
202509011600 METAR WIHH 011600Z 09005KT 7000 SCT020 27/23 Q1010 NOSIG=
202509011530 METAR WIHH 011530Z 09005KT 8000 NSC 27/23 Q1010 NOSIG=
202509011500 METAR WIHH 011500Z 09006KT 8000 NSC 28/23 Q1010 NOSIG=
202509011430 METAR WIHH 011430Z 09006KT 8000 NSC 28/23 Q1010 NOSIG=
202509011400 METAR WIHH 011400Z 03010KT 8000 NSC 28/23 Q1010 NOSIG=
202509011330 METAR WIHH 011330Z 03010KT 8000 NSC 28/22 Q1010 NOSIG=
202509011300 METAR WIHH 011300Z 03012KT 8000 NSC 28/22 Q1009 NOSIG=
202509011230 METAR WIHH 011230Z 06011KT 8000 NSC 29/22 Q1009 NOSIG=
202509011200 METAR WIHH 011200Z 06013KT 8000 NSC 29/22 Q1009 NOSIG=
202509011130 METAR WIHH NIL=
202509011100 METAR WIHH 011100Z 06013KT 8000 FEW020 30/21 Q1007 NOSIG=
202509011030 METAR WIHH 011030Z 06013KT 8000 FEW020 30/22 Q1007 NOSIG=
202509011000 METAR WIHH 011000Z 03007KT 8000 FEW020 31/21 Q1007 NOSIG=
202509010930 METAR WIHH 010930Z 08015KT 8000 FEW020 31/22 Q1006 NOSIG=
202509010900 METAR WIHH 010900Z 05015KT 7000 SCT020 32/23 Q1006 NOSIG=
202509010830 METAR WIHH 010830Z 04015KT 7000 SCT020 32/21 Q1006 NOSIG=
202509010800 METAR WIHH 010800Z 04013KT 7000 SCT020 32/22 Q1006 NOSIG=
202509010730 METAR WIHH 010730Z 03012KT 7000 SCT020 33/22 Q1007 NOSIG=
202509010700 METAR WIHH 010700Z 06008KT 7000 SCT020 33/22 Q1007 NOSIG=
202509010630 METAR WIHH NIL=
202509010600 METAR WIHH 010600Z 06010KT 7000 SCT020 33/22 Q1007 NOSIG=
202509010530 METAR WIHH 010530Z 05013KT 7000 SCT020 32/22 Q1008 NOSIG=
202509010500 METAR WIHH NIL=
202509010430 METAR WIHH 010430Z 07012KT 7000 SCT020 32/22 Q1009 NOSIG=
202509010400 METAR WIHH 010400Z 09010KT 7000 SCT020 32/22 Q1009 NOSIG=
202509010330 METAR WIHH 010330Z 09015KT 7000 SCT020 31/22 Q1009 NOSIG=
202509010300 METAR WIHH 010300Z 09014KT 7000 FEW020 31/22 Q1010 NOSIG=
202509010230 METAR WIHH 010230Z 08014KT 7000 FEW020 31/23 Q1010 NOSIG=
202509010200 METAR WIHH 010200Z 09010KT 6000 NSC 30/23 Q1010 NOSIG=
202509010130 METAR WIHH 010130Z 10008KT 6000 NSC 29/22 Q1011 NOSIG=
202509010100 METAR WIHH 010100Z 10008KT 6000 NSC 29/22 Q1011 NOSIG=
202509010030 METAR WIHH 010030Z 00000KT 5000 HZ NSC 27/23 Q1011 NOSIG=
202509010000 METAR WIHH 010000Z 01003KT 5000 HZ NSC 26/23 Q1011 NOSIG=

# No short TAF reports from WIHH in databse.

###################################
#  large TAF from WIHH
###################################
202509302300 TAF WIHH 302300Z 0100/0200 04006KT 6000 SCT018
                      TEMPO 0106/0110 12010G22KT 2000 TSRA BKN015
                       FEW017CB
                      TEMPO 0120/0123 34005KT 3000 -TSRA BKN016
                       FEW018CB=
202509301700 TAF WIHH 301700Z 3018/0118 16003KT 6000 SCT020CB
                      BECMG 3021/3023 22003KT 3000 BR FEW020=
202509301100 TAF WIHH 301100Z 3012/0112 29010KT 4000 HZ BKN017
                      TEMPO 3012/3015 22012G28KT 2000 TSRA BKN015
                       FEW017CB
                      BECMG 3017/3020 24004KT 3000 BR=
202509300500 TAF WIHH 300500Z 3006/0106 01008KT 6000 SCT018
                      TEMPO 3007/3010 08010G28KT 2000 TSRA BKN015
                       FEW017CB
                      BECMG 3013/3015 22005KT 7000 NSW FEW018=
202509292300 TAF WIHH 292300Z 3000/0100 12006KT 4000 HZ FEW020
                      BECMG 3003/3005 03010KT 6000 SCT020
                      TEMPO 3006/3010 06014KT 4000 -TSRA BKN016
                       FEW017CB
                      BECMG 3013/3015 12005KT 5000 HZ=
202509291700 TAF WIHH 291700Z 2918/3018 14003KT 4000 HZ SCT018
                      BECMG 2921/2923 18004KT 3000 BR FEW020=
202509291100 TAF WIHH 291100Z 2912/3012 23006KT 4000 -RA SCT018
                      BECMG 2914/2916 18004KT 5000 HZ FEW020
                      BECMG 2920/2923 12004KT 3000 BR=
202509290555 TAF AMD WIHH 290555Z 2906/3006 33010KT 6000 SCT018
                      TEMPO 2906/2910 17012KT 3000 -TSRA BKN015
                       FEW017CB
                      BECMG 2912/2914 09006KT 5000 HZ=
202509290500 TAF COR WIHH 290500Z 2906/3006 33010KT 7000 SCT018
                      TEMPO 2908/2911 17012KT 3000 -TSRA BKN015
                       FEW017CB
                      BECMG 2914/2916 09006KT 5000 HZ FEW020=
202509282300 TAF WIHH 282300Z 2900/3000 10008KT 6000 SCT020
                      TEMPO 2907/2911 040015KT 3000 -TSRA FEW016CB
                       BKN017
                      BECMG 2914/2916 15006KT 5000 HZ SCT018=
202509281700 TAF WIHH 281700Z NIL=
202509281100 TAF WIHH 281100Z 2812/2912 06008KT 8000 FEW020
                      BECMG 2821/2823 10005KT 5000 HZ SCT018=
202509280500 TAF WIHH 280500Z 2806/2906 10010KT 7000 SCT020
                      TEMPO 2807/2812 04015KT 3000 -TSRA FEW016CB
                       BKN017
                      BECMG 2814/2816 14005KT 5000 HZ SCT018=
202509272300 TAF WIHH 272300Z 2800/2900 04010KT 6000 SCT018
                      TEMPO 2807/2811 08012G25KT 3000 -TSRA BKN015
                       FEW017CB
                      BECMG 2812/2814 12005KT 7000 SCT018
                      TEMPO 2818/2821 09005KT 3000 -TSRA BKN016
                       FEW018CB=
202509271700 TAF WIHH 271700Z 2718/2818 09005KT 6000 SCT020
                      TEMPO 2720/2723 16005KT 3000 BR SCT018
                      BECMG 2801/2804 03007KT 6000=
202509271100 TAF WIHH 271100Z 2712/2812 05010KT 6000 SCT018
                      TEMPO 2713/2715 34008KT 3000 -RA BKN018
                      TEMPO 2718/2721 27005KT 3000 BR=
202509270500 TAF WIHH 270500Z 2706/2806 05008KT 6000 SCT018
                      TEMPO 2708/2711 12010KT 3000 -TSRA BKN015
                       FEW017CB
                      TEMPO 2712/2715 30005KT 3000 -RA BKN018
                      TEMPO 2717/2720 21005KT 3000 BR=
202509262300 TAF WIHH 262300Z 2700/2800 11008KT 7000 SCT020
                      BECMG 2700/2702 5000 HZ FEW022
                      TEMPO 2708/2711 04012KT 3000 -TSRA FEW016
                       BKN017=
202509261700 TAF WIHH 261700Z 2618/2718 18006KT 7000 SCT020
                      BECMG 2623/2701 11005KT 5000 HZ FEW022
                      TEMPO 2708/2711 04012KT 3000 FEW016 BKN017=
202509261100 TAF WIHH 261100Z 2612/2712 04008KT 6000 SCT020
                      BECMG 2620/2622 18008KT 5000 HZ SCT018=
202509260500 TAF WIHH 260500Z 2606/2706 09008KT 7000 SCT020
                      TEMPO 2608/2611 25013KT 3000 -TSRA FEW016CB
                       BKN017
                      BECMG 2613/2615 18008KT 5000 HZ SCT018=
202509252300 TAF WIHH 252300Z 2600/2700 18005KT 5000 HZ FEW020
                      BECMG 2602/2604 09008KT 7000 SCT018
                      TEMPO 2607/2610 06012KT 3000 -TSRA BKN016
                       FEW017CB
                      TEMPO 2613/2616 18008KT 4000 -RA BKN015=
202509251701 TAF WIHH 251701Z 2518/2618 24003KT 6000 SCT018
                      TEMPO 2518/2520 4000 -RA
                      BECMG 2521/2523 12004KT 5000 HZ FEW020=
202509251100 TAF WIHH 251100Z 2512/2612 15006KT 6000 SCT018
                      TEMPO 2612/2615 4000 -RA FEW017CB
                      BECMG 2617/2619 23003KT 5000 HZ FEW020=
202509250501 TAF WIHH 250501Z 2506/2606 36010KT 7000 SCT018
                      TEMPO 2510/2514 17012KT 4000 -TSRA FEW017CB
                       BKN018
                      BECMG 2516/2518 12004KT 5000 HZ FEW020=
202509242300 TAF WIHH 242300Z 2500/2600 32004KT 7000 FEW020
                      TEMPO 2508/2511 08012KT 3000 -TSRA BKN017
                       FEW018
                      BECMG 2513/2516 19005KT 6000 SCT020=
202509241700 TAF WIHH 241700Z 2418/2518 00000KT 6000 SCT018
                      BECMG 2421/2423 26003KT 5000 HZ
                      BECMG 2501/2504 15006KT 7000 FEW020=
202509241100 TAF WIHH 241100Z 2412/2512 34006KT 6000 SCT180
                      TEMPO 2412/2415 15010KT 3000 -TSRA BKN016
                       FEW018CB
                      BECMG 2418/2421 26005KT 5000 HZ FEW020=
202509240500 TAF WIHH 240500Z 2406/2506 04006KT 7000 SCT020
                      TEMPO 2412/2415 12008KT 3000 -TSRA BKN016
                       FEW018CB
                      BECMG 2418/2421 24005KT 6000 FEW020=
202509232300 TAF WIHH 232300Z 2400/2500 10006KT 7000 SCT018
                      BECMG 2400/2402 23005KT 5000 HZ FEW020
                      TEMPO 2409/2412 35012KT 3000 -TSRA FEW016CB
                       BKN017=
202509231700 TAF WIHH 231700Z 2318/2418 23005KT 6000 FEW020
                      BECMG 2321/2323 VRB03KT 5000 HZ
                      BECMG 2403/2405 01010KT 7000 SCT018=
202509231100 TAF WIHH 231100Z 2312/2412 02008KT 7000 SCT020
                      TEMPO 2315/2318 15015KT 3000 -RA FEW016CB
                       BKN018
                      BECMG 2320/2322 VRB02KT 5000 HZ FEW022=
202509230500 TAF WIHH 230500Z 2306/2406 06008KT 6000 SCT020
                      TEMPO 2315/2318 15015KT 3000 -RA FEW016CB
                       BKN018
                      BECMG 2320/2322 VRB02KT 5000 HZ FEW022=
202509222300 TAF WIHH 222300Z 2300/2400 11005KT 4000 HZ FEW020
                      BECMG 2304/2306 04012KT 7000 SCT018
                      BECMG 2317/2319 27005KT 5000 HZ=
202509221700 TAF WIHH 221700Z 2218/2318 23004KT 6000 SCT020
                      BECMG 2221/2223 00000KT 4000 HZ FEW022=
202509221355 TAF AMD WIHH 221355Z 2214/2312 20007KT 7000 SCT018
                      TEMPO 2214/2217 17010KT 4000 -RA FEW017CB
                       BECMG 2218/2220 24004KT 5000 HZ FEW020=
202509221100 TAF WIHH 221100Z 2212/2312 20007KT 7000 SCT018
                      BECMG 2218/2220 24004KT 5000 HZ FEW020=
202509220500 TAF WIHH 220500Z 2206/2306 05010KT 7000 SCT018
                      TEMPO 2209/2212 35014KT 4000 -TSRA BKN016
                       FEW017CB
                      BECMG 2214/2216 23005KT 5000 HZ SCT020=
202509212300 TAF WIHH 212300Z 2200/2300 09004KT 6000 FEW020
                      TEMPO 2209/2212 17012KT 3000 -TSRA FEW016CB
                       BKN018
                      BECMG 2213/2216 25005KT 5000 HZ=
202509211700 TAF WIHH 211700Z 2118/2218 00000KT 7000 SCT018
                      BECMG 2121/2203 05003KT 4000 HZ FEW020
                      BECMG 2201/2204 14005KT=
202509211100 TAF WIHH 211100Z 2112/2212 14005KT 8000 SCT018
                      BECMG 2121/2123 07003KT 5000 HZ FEW020=
202509210500 TAF WIHH 210500Z 2106/2206 02008KT 8000 SCT018
                      TEMPO 2106/2109 09015KT 3000 -TSRA BKN015
                       FEW017CB
                      BECMG 2113/2115 14006KT 5000 HZ SCT020=
202509202300 TAF WIHH 202300Z 2100/2200 13008KT 8000 SCT018
                      BECMG 2100/2102 5000 HZ FEW020
                      TEMPO 2106/2109 05015KT 3000 -TSRA FEW015CB
                       BKN017=
202509201700 TAF WIHH 201700Z 2018/2118 10006KT 8000 SCT020
                      TEMPO 2106/2109 05015KT 3000 -TSRA FEW017CB
                       BKN018=
202509201100 TAF WIHH 201100Z 2012/2112 11006KT 8000 SCT018
                      BECMG 2021/2023 18005KT 5000 HZ FEW020=
202509200500 TAF WIHH 200500Z 2006/2106 13008KT 6000 SCT018
                      TEMPO 2007/2010 02015KT 3000 -TSRA FEW016CB
                       BKN018
                      BECMG 2014/2016 18005KT 5000 HZ SCT020=
202509192300 TAF WIHH 192300Z 2000/2100 11006KT 6000 SCT018
                      TEMPO 2002/2005 08010KT 4000 -RA BKN016
                      TEMPO 2008/2012 05014KT 3000 -TSRA BKN015
                       FEW017CB
                      BECMG 2014/2016 15005KT 5000 HZ SCT020=
202509191700 TAF WIHH 191700Z 1918/2018 24003KT 5000 HZ FEW020
                      TEMPO 2001/2004 18005KT 4000 -RA SCT018=
202509191100 TAF WIHH 191100Z 1912/2012 14007KT 7000 FEW020
                      BECMG 1918/1920 23004KT 5000 HZ=
202509182300 TAF WIHH 182300Z 1900/2000 04005KT 6000 SCT020
                      TEMPO 1907/1911 12010G25KT 2000 TSRA BKN015
                       FEW017CB
                      BECMG 1914/1916 24003KT 6000 SCT018=
202509181700 TAF WIHH 181700Z 1818/1918 00000KT 6000 SCT017
                      TEMPO 1821/1823 12003KT 3000 BR=
202509181100 TAF WIHH 181100Z 1812/1912 12006KT 6000 SCT018
                      TEMPO 1818/1821 22005KT 3000 -RA BKN015 FEW017CB=
202509180500 TAF WIHH 180500Z 1806/1906 02005KT 5000 HZ SCT018
                      TEMPO 1806/1810 12012G20KT 3000 -TSRA BKN015
                       FEW017CB
                      BECMG 1813/1815 25006KT 5000 HZ
                      TEMPO 1818/1821 22005KT 3000 -RA BKN015 FEW017CB=
202509172300 TAF WIHH 172300Z 1800/1900 11006KT 6000 SCT020
                      TEMPO 1803/1806 03008KT 4000 -RA
                      TEMPO 1807/1811 17015KT 3000 -TSRA FEW016CB
                       BKN018
                      BECMG 1813/1815 22005KT 5000 HZ=
202509171700 TAF WIHH 171700Z 1718/1818 11006KT 6000 SCT020
                      TEMPO 1810/1813 17015KT 3000 -TSRA FEW016CB
                       BKN018=
202509171100 TAF WIHH 171100Z 1712/1812 15006KT 6000 SCT020
                      BECMG 1716/1718 22005KT 5000 HZ=
202509170500 TAF WIHH 170500Z 1706/1806 12006KT 6000 SCT020
                      TEMPO 1708/1711 27015KT 3000 -TSRA FEW016CB
                       BKN018
                      BECMG 1713/1715 22005KT 5000 HZ=
202509162300 TAF WIHH 162300Z 1700/1800 14005KT 5000 HZ SCT018
                      TEMPO 1701/1705 02010KT 4000 -RA BKN016
                      TEMPO 1707/1711 24012KT 3000 -TSRA BKN015
                       FEW016CB
                      BECMG 1714/1716 18004KT 4000 HZ SCT020=
202509161700 TAF WIHH 161700Z 1618/1718 00000KT 5000 HZ FEW020
                      TEMPO 1702/1705 24008KT 3000 -TSRA SCT015
                       FEW017CB=
202509161100 TAF WIHH 161100Z 1612/1712 24005KT 5000 HZ SCT018
                      BECMG 1620/1622 00000KT 4000 BR FEW020=
202509160500 TAF WIHH 160500Z 1606/1706 03010KT 7000 SCT018
                      TEMPO 1606/1610 30012KT 3000 -TSRA BKN016
                       FEW017CB
                      BECMG 1613/1615 18004KT 5000 HZ FEW020=
202509152300 TAF WIHH 152300Z 1600/1700 14004KT 7000 SCT020
                      TEMPO 1607/1611 03012G20KT 2000 TSRA BKN015
                       FEW017CB
                      BECMG 1614/1617 11003KT 7000 SCT018
                      TEMPO 1620/1623 22005KT 3000 -TSRA BKN015
                       FEW018CB=
202509151700 TAF WIHH 151700Z 1518/1618 00000KT 8000 FEW020
                      BECMG 1521/1523 24004KT 6000 HZ SCT020=
202509151100 TAF WIHH 151100Z 1512/1612 04008KT 7000 FEW020
                      TEMPO 1513/1516 15010KT 3000 -RA SCT017 FEW018CB
                       BECMG 1517/1520 24004KT 5000 HZ SCT018=
202509150500 TAF WIHH 150500Z 1506/1606 12006KT 8000 SCT020
                      TEMPO 1508/1511 26010G18KT 3000 -TSRA BKN015
                       FEW017CB
                      TEMPO 1513/1516 19005KT 3000 -RA SCT016 FEW018CB=
202509142300 TAF WIHH 142300Z 1500/1600 12006KT 7000 SCT020
                      TEMPO 1513/1516 01010KT 4000 -RA FEW016CB
                       BKN017
                      BECMG 1518/1520 22005KT 5000 HZ=
202509141700 TAF WIHH 141700Z 1418/1518 22006KT 6000 SCT018
                      TEMPO 1510/1513 01010KT 3000 -TSRA FEW016CB
                       BKN017=
202509141100 TAF WIHH 141100Z 1412/1512 27006KT 8000 SCT020
                      TEMPO 1415/1418 01010KT 3000 -TSRA FEW017CB
                       BKN018=
202509140500 TAF WIHH 140500Z 1406/1506 09008KT 8000 SCT020
                      TEMPO 1415/1418 01010KT 3000 -TSRA FEW017CB
                       BKN018=
202509132300 TAF WIHH 132300Z 1400/1500 09005KT 7000 FEW020
                      BECMG 1405/1407 03010KT SCT018
                      TEMPO 1413/1416 16012KT 4000 -RA BKN016 FEW017CB=
202509131700 TAF WIHH 131700Z 1318/1418 24005KT 5000 HZ FEW020
                      BECMG 1400/1402 07008KT 7000 SCT018=
202509131100 TAF WIHH 131100Z 1312/1412 36007KT 8000 FEW020
                      BECMG 1318/1320 16003KT 5000 HZ=
202509130500 TAF WIHH 130500Z 1306/1406 35010KT 8000 FEW020
                      TEMPO 1310/1313 16004KT 4000 -RA SCT018 FEW019CB
                       BECMG 1314/1316 21003KT=
202509122300 TAF WIHH 122300Z 1300/1400 24008KT 6000 SCT020
                      TEMPO 1306/1310 19015KT 3000 -TSRA FEW017CB
                       BKN018
                      BECMG 1312/1314 29005KT 5000 HZ=
202509121700 TAF WIHH 121700Z 1218/1318 24006KT 6000 SCT020
                      TEMPO 1307/1310 19015KT 3000 -TSRA FEW017CB
                       BKN018=
202509121100 TAF WIHH 121100Z 1212/1312 18006KT 6000 SCT020
                      TEMPO 1212/1215 25010KT 4000 -RA FEW016CB
                       BKN018
                      BECMG 1217/1219 VRB02KT 5000 HZ=
202509120500 TAF WIHH 120500Z 1206/1306 23008KT 8000 SCT020
                      TEMPO 1207/1210 36012KT 3000 -TSRA FEW016CB
                       BKN018
                      BECMG 1212/1214 29005KT 5000 HZ=
202509112300 TAF WIHH 112300Z 1200/1300 03008KT 6000 SCT020
                      TEMPO 1206/1210 22012KT 3000 -TSRA BKN015
                       FEW017CB
                      BECMG 1213/1215 2806KT 5000 HZ SCT018=
202509111700 TAF WIHH 111700Z 1118/1218 24004KT 6000 SCT020
                      TEMPO 1118/1121 16005KT 3000 -RA BKN018=
202509111100 TAF WIHH 111100Z 1112/1212 27006KT 6000 SCT018
                      TEMPO 1114/1117 15004KT 4000 -RA SCT016 FEW017CB
                       BECMG 1121/1123 00000KT 3000 BR=
202509110500 TAF WIHH 110500Z 1106/1206 33006KT 6000 SCT018
                      TEMPO 1108/1111 06010KT 3000 -TSRA BKN017
                       FEW018C
                      BECMG 1113/1115 24006KT 5000 HZ=
202509102300 TAF WIHH 102300Z 1100/1200 09006KT 6000 SCT018
                      TEMPO 1103/1105 03010KT 4000 -RA
                      TEMPO 1107/1110 27014KT 3000 BKN016 FEW017CB=
202509101700 TAF WIHH 101700Z 1018/1118 00000KT 5000 HZ SCT020
                      TEMPO 1021/1023 13006KT 4000 -RA BKN017=
202509101100 TAF WIHH 101100Z 1012/1112 12008KT 7000 SCT020
                      BECMG 1016/1018 00000KT 5000 HZ=
202509100500 TAF WIHH 100500Z 1006/1106 06010KT 7000 SCT018
                      TEMPO 1008/1012 02012G25KT 2000 -TSRA BKN016
                       FEW017CB
                      BECMG 1013/1015 14006KT=
202509092300 TAF WIHH 092300Z 1000/1100 21004KT 6000 SCT020
                      TEMPO 1006/1010 04012G25KT 2000 TSRA BKN015
                       FEW017CB
                      TEMPO 1012/1015 14005KT 4000 -RA BKN018
                      TEMPO 1020/1023 02006KT 3000 -TSRA BKN016
                       FEW017CB=
202509091700 TAF WIHH 091700Z 0918/1018 00000KT 8000 FEW020
                      BECMG 0921/0923 24003KT 5000 HZ SCT020=
202509091100 TAF WIHH 091100Z 0912/1012 12007KT 5000 HZ SCT018
                      TEMPO 0912/0915 20010KT 3000 -TSRA BKN015
                       FEW017CB
                      BECMG 0918/0921 21004KT 3000 BR=
202509090500 TAF WIHH 090500Z 0906/1006 28005KT 6000 SCT018
                      TEMPO 0906/0910 03008G20KT 2000 TSRA BKN015
                       FEW017CB
                      TEMPO 0912/0915 21005KT 4000 -RA BKN016=
202509082300 TAF WIHH 082300Z 0900/1000 06008KT 7000 SCT020
                      TEMPO 0908/0911 03014KT 3000 -TSRA FEW016CB
                       BKN018
                      TEMPO 0913/0916 27005KT 5000 -RA SCT017
                      BECMG 0918/0920 18005KT 5000 HZ=
202509081700 TAF WIHH 081700Z 0818/0918 06006KT 7000 SCT020
                      BECMG 0821/0823 23005KT 5000 HZ=
202509081100 TAF WIHH 081100Z 0812/0912 06008KT 8000 SCT020
                      BECMG 0815/0817 15005KT 5000 HZ=
202509080500 TAF WIHH 080500Z 0806/0906 03008KT 8000 SCT020
                      TEMPO 0808/0811 33012KT 3000 -RA FEW017CB
                       BECMG 0813/0815 15008KT 5000 HZ=
202509072300 TAF WIHH 072300Z 0800/0900 25004KT 6000 FEW020
                      TEMPO 0809/0811 05012G20KT 3000 -RA BKN016
                       FEW017CB
                      BECMG 0814/0817 18012KT 5000 HZ=
202509071700 TAF WIHH 071700Z 0718/0818 00000KT 7000 FEW020
                      BECMG 0721/0723 22003KT 5000 HZ=
202509071100 TAF WIHH 071100Z 0712/0812 02007KT 8000 FEW020
                      BECMG 0717/0719 18003KT 6000 SCT018=
202509070500 TAF WIHH 070500Z 0706/0806 22008KT 6000 SCT018
                      TEMPO 0707/0711 04012KT 3000 -TSRA BKN017
                       FEW016CB
                      TEMPO 0713/0716 16005KT 4000 -RA=
202509062300 TAF WIHH 062300Z 0700/0800 34004KT 6000 FEW020
                      TEMPO 0707/0711 05010KT 3000 -TSRA BKN017
                       FEW016CB
                      TEMPO 0713/0716 23005KT 4000 -RA SCT018=
202509061700 TAF WIHH 061700Z 0618/0718 22004KT 5000 HZ SCT020
                      BECMG 0621/0623 12003KT 3000 BR SCT018=
202509061100 TAF WIHH 061100Z 0612/0712 12006KT 5000 HZ SCT018
                      BECMG 0613/0615 22004KT 6000 FEW020
                      BECMG 0621/0623 00000KT 3000 BR=
202509060500 TAF WIHH 060500Z 0606/0706 15008KT 8000 SCT180
                      TEMPO 0608/0611 03012KT 3000 -RA BKN016 FEW017CB
                       BECMG 0614/0616 22005KT 6000=
202509052300 TAF WIHH 052300Z 0600/0700 15006KT 7000 SCT020
                      TEMPO 0608/0611 04013KT 3000 -RA FEW016CB
                       BKN018
                      BECMG 0613/0615 24005KT 5000 HZ=
202509051700 TAF WIHH 051700Z 0518/0618 23005KT 7000 SCT020
                      BECMG 0521/0523 VRB02KT 5000 HZ
                      TEMPO 0607/0610 02013KT 3000 -TSRA FEW017CB=
202509051100 TAF WIHH 051100Z 0512/0612 04010KT 8000 SCT020
                      BECMG 0515/0517 13005KT 5000 HZ=
202509050500 TAF WIHH 050500Z 0506/0606 06010KT 8000 SCT020
                      BECMG 0515/0517 13005KT 5000 HZ=
202509042300 TAF WIHH 042300Z 0500/0600 23005KT 7000 FEW020
                      BECMG 0504/0506 33010KT SCT020
                      TEMPO 0509/0512 18012KT 4000 -RA BKN016 FEW017CB=
202509041700 TAF WIHH 041700Z 0418/0518 00000KT 6000 FEW020
                      BECMG 0421/0423 25003KT 4000 HZ=
202509041100 TAF WIHH 041100Z 0412/0512 05010KT 8000 FEW020
                      BECMG 0414/0416 12006KT=
202509040500 TAF WIHH 040500Z 0406/0506 06014KT 7000 SCT018
                      BECMG 0413/0415 12006KT FEW020=
202509032300 TAF WIHH 032300Z 0400/0500 05010G20KT 8000 SCT020
                      TEMPO 0412/0415 14007KT 4000 -RA BKN016 FEW017CB
                       BECMG 0420/0423 12005KT 3000 BR SCT018=
202509031700 TAF WIHH 031700Z 0318/0418 07008KT 8000 FEW020
                      BECMG 0321/0323 14006KT 6000 SCT020=
202509031100 TAF WIHH 031100Z 0312/0412 08014G25KT 8000 FEW020
                      BECMG 0321/0323 15010KT 7000 SCT020=
202509030500 TAF WIHH 030500Z 0306/0406 05012G25KT 8000 SCT020
                      BECMG 0313/0315 12015KT 7000 FEW020=
202509022300 TAF WIHH 022300Z 0300/0400 09010KT 7000 FEW020
                      BECMG 0305/0307 06012G24KT SCT018=
202509021700 TAF WIHH 021700Z 0218/0318 23004KT 7000 FEW022
                      BECMG 0221/0223 12005KT 5000 HZ=
202509021100 TAF WIHH 021100Z 0212/0312 07010KT 7000 FEW020
                      BECMG 0214/0216 12005KT=
202509020500 TAF WIHH 020500Z 0206/0306 06014KT 8000 SCT018
                      BECMG 0214/0216 12005KT FEW020=
202509012300 TAF WIHH 012300Z 0200/0300 09008KT 7000 SCT020
                      BECMG 0207/0209 03013KT=
202509011700 TAF WIHH 011700Z 0118/0218 09006KT 7000 FEW020
                      TEMPO 0205/0208 03013KT 4000 -RA FEW017CB
                       SCT018=
202509011100 TAF WIHH 011100Z 0112/0212 06008KT 8000 SCT020
                      BECMG 0115/0117 15005KT=
202509010500 TAF WIHH 010500Z 0106/0206 09010KT 8000 SCT020
                      TEMPO 0108/0120 18015KT 3000 -TSRA BKN016
                       FEW017CB BKN018
                      BECMG 0114/0116 05006KT=
