##########################################################
# Query made at 05/05/2026 03:26:01 UTC
# Time interval: from 08/01/2024 00:00  to 08/31/2024 23:59  UTC
##########################################################

##########################################################
# WIHH, Jakarta Halim Perdanakusuma (Indonesia)
# WMO index: 96747. WIGOS ID: Unknown
# Latitude 06-15S. Longitude 106-54E. Altitude 30 m.
##########################################################

###################################
#  METAR/SPECI from WIHH
###################################
202408312330 METAR WIHH 312330Z 21004KT 6000 NSC 25/22 Q1011 NOSIG=
202408312300 METAR WIHH 312300Z 00000KT 6000 NSC 25/22 Q1010 NOSIG=
202408312230 METAR WIHH 312230Z 26003KT 8000 NSC 25/22 Q1010 NOSIG=
202408312200 METAR WIHH 312200Z 24004KT 8000 NSC 24/22 Q1010 NOSIG=
202408312130 METAR WIHH 312130Z 24004KT 7000 NSC 25/23 Q1010 NOSIG=
202408312100 METAR WIHH NIL=
202408312030 METAR WIHH NIL=
202408312000 METAR WIHH NIL=
202408311930 METAR WIHH NIL=
202408311900 METAR WIHH NIL=
202408311830 METAR WIHH NIL=
202408311800 METAR WIHH NIL=
202408311730 METAR WIHH NIL=
202408311700 METAR WIHH 311700Z 12003KT 8000 SCT020 27/24 Q1012 NOSIG=
202408311630 METAR WIHH 311630Z 13003KT 8000 SCT020 27/23 Q1011 NOSIG=
202408311600 METAR WIHH 311600Z 13003KT 8000 SCT020 27/23 Q1011 NOSIG=
202408311530 METAR WIHH 311530Z 13003KT 8000 SCT020 28/23 Q1011 NOSIG=
202408311500 METAR WIHH 311500Z 06003KT 8000 SCT020 28/23 Q1011 NOSIG=
202408311400 METAR WIHH NIL=
202408311300 METAR WIHH NIL=
202408311230 METAR WIHH 311230Z 03007KT 8000 SCT020 29/22 Q1010 NOSIG=
202408311200 METAR WIHH 311200Z 36006KT 8000 SCT020 29/22 Q1009 NOSIG=
202408311130 METAR WIHH 311130Z 01006KT 8000 SCT020 30/22 Q1009 NOSIG=
202408311100 METAR WIHH 311100Z 36006KT 8000 FEW020 30/22 Q1008 NOSIG=
202408311030 METAR WIHH 311030Z 01007KT 8000 FEW020 31/21 Q1007 NOSIG=
202408311000 METAR WIHH 311000Z 03010KT 8000 FEW020 32/21 Q1007 NOSIG=
202408310930 METAR WIHH 310930Z 01010KT 8000 FEW020 33/21 Q1007 NOSIG=
202408310900 METAR WIHH 310900Z 35010KT 8000 FEW020 33/21 Q1006 NOSIG=
202408310830 METAR WIHH 310830Z 02010KT 8000 FEW020 34/21 Q1006 NOSIG=
202408310800 METAR WIHH 310800Z 02010KT 7000 SCT020 34/21 Q1006 NOSIG=
202408310730 METAR WIHH 310730Z 05010KT 7000 SCT020 34/21 Q1007 NOSIG=
202408310700 METAR WIHH 310700Z 03010KT 7000 SCT020 34/21 Q1007 NOSIG=
202408310630 METAR WIHH 310630Z 01007KT 7000 SCT020 34/20 Q1007 NOSIG=
202408310600 METAR WIHH 310600Z 03007KT 7000 SCT020 34/20 Q1008 NOSIG=
202408310530 METAR WIHH 310530Z 02010KT 7000 FEW020 34/20 Q1008 NOSIG=
202408310500 METAR WIHH 310500Z 08005KT 7000 FEW020 34/19 Q1009 NOSIG=
202408310430 METAR WIHH 310430Z 15006KT 6000 FEW020 33/19 Q1009 NOSIG=
202408310400 METAR WIHH 310400Z 12007KT 6000 FEW020 33/19 Q1010 NOSIG=
202408310330 METAR WIHH 310330Z 03007KT 6000 NSC 33/19 Q1010 NOSIG=
202408310300 METAR WIHH 310300Z 23004KT 6000 NSC 32/20 Q1011 NOSIG=
202408310230 METAR WIHH 310230Z 13006KT 6000 NSC 32/20 Q1011 NOSIG=
202408310200 METAR WIHH 310200Z 20005KT 5000 HZ NSC 30/21 Q1011 NOSIG=
202408310130 METAR WIHH 310130Z 18005KT 5000 HZ NSC 29/21 Q1011 NOSIG=
202408310100 METAR WIHH 310100Z 18005KT 5000 HZ NSC 28/21 Q1011 NOSIG=
202408310030 METAR WIHH 310030Z 21005KT 5000 HZ NSC 26/21 Q1011 NOSIG=
202408310000 METAR WIHH 310000Z 23003KT 5000 HZ NSC 26/21 Q1011 NOSIG=
202408302330 METAR WIHH 302330Z 23003KT 5000 HZ NSC 25/21 Q1011 NOSIG=
202408302300 METAR WIHH 302300Z 24003KT 5000 HZ FEW020 24/21 Q1010 NOSIG=
202408302230 METAR WIHH 302230Z 22003KT 5000 HZ FEW020 25/21 Q1010 NOSIG=
202408302200 METAR WIHH 302200Z 23003KT 5000 HZ FEW020 25/21 Q1010 NOSIG=
202408302130 METAR WIHH 302130Z 28003KT 3000 HZ SCT020 25/21 Q1010 NOSIG=
202408302100 METAR WIHH 302100Z 21004KT 3000 HZ SCT020 25/21 Q1010 NOSIG=
202408302030 METAR WIHH NIL=
202408302000 METAR WIHH NIL=
202408301930 METAR WIHH NIL=
202408301900 METAR WIHH NIL=
202408301830 METAR WIHH NIL=
202408301800 METAR WIHH NIL=
202408301730 METAR WIHH NIL=
202408301700 METAR WIHH 301700Z 21003KT 5000 HZ SCT020 27/22 Q1012 NOSIG=
202408301630 METAR WIHH 301630Z 20003KT 5000 HZ SCT020 28/21 Q1012 NOSIG=
202408301600 METAR WIHH 301600Z 18003KT 5000 HZ SCT020 28/21 Q1012 NOSIG=
202408301530 METAR WIHH 301530Z 18005KT 5000 HZ SCT020 28/21 Q1012 NOSIG=
202408301500 METAR WIHH 301500Z 04005KT 5000 HZ SCT020 29/22 Q1012 NOSIG=
202408301430 METAR WIHH 301430Z 07005KT 5000 HZ SCT020 29/21 Q1012 NOSIG=
202408301400 METAR WIHH 301400Z 05005KT 5000 HZ SCT020 29/21 Q1012 NOSIG=
202408301330 METAR WIHH 301330Z 03005KT 5000 HZ SCT020 30/21 Q1011 NOSIG=
202408301300 METAR WIHH 301300Z 05005KT 5000 HZ FEW020 30/21 Q1011 NOSIG=
202408301230 METAR WIHH 301230Z 03005KT 5000 HZ FEW020 30/21 Q1010 NOSIG=
202408301200 METAR WIHH 301200Z 01005KT 5000 HZ FEW020 30/21 Q1010 NOSIG=
202408301130 METAR WIHH 301130Z 01010KT 5000 HZ FEW020 30/21 Q1010 NOSIG=
202408301100 METAR WIHH 301100Z 01010KT 5000 HZ FEW020 31/21 Q1009 NOSIG=
202408301030 METAR WIHH 301030Z 33008KT 5000 HZ FEW020 31/20 Q1008 NOSIG=
202408301000 METAR WIHH 301000Z 34008KT 5000 HZ FEW020 31/20 Q1008 NOSIG=
202408300930 METAR WIHH 300930Z 03008KT 5000 HZ SCT020 33/21 Q1008 NOSIG=
202408300900 METAR WIHH 300900Z 01008KT 5000 HZ SCT020 33/21 Q1008 NOSIG=
202408300830 METAR WIHH 300830Z 03010KT 5000 HZ SCT020 35/21 Q1008 NOSIG=
202408300800 METAR WIHH 300800Z 02010KT 5000 HZ SCT020 35/21 Q1008 NOSIG=
202408300730 METAR WIHH 300730Z 33010KT 5000 HZ SCT020 34/21 Q1008 NOSIG=
202408300700 METAR WIHH 300700Z 03010KT 5000 HZ SCT020 35/17 Q1009 NOSIG=
202408300630 METAR WIHH 300630Z 04010KT 5000 HZ SCT020 34/17 Q1009 NOSIG=
202408300600 METAR WIHH 300600Z 04010KT 5000 HZ SCT020 34/18 Q1010 NOSIG=
202408300530 METAR WIHH 300530Z 06008KT 5000 HZ SCT020 34/19 Q1010 NOSIG=
202408300500 METAR WIHH 300500Z 08008KT 5000 HZ SCT020 33/19 Q1010 NOSIG=
202408300430 METAR WIHH 300430Z 33005KT 5000 HZ SCT020 33/20 Q1011 NOSIG=
202408300400 METAR WIHH 300400Z 08008KT 5000 HZ SCT020 32/20 Q1011 NOSIG=
202408300330 METAR WIHH 300330Z 08008KT 5000 HZ FEW020 32/20 Q1012 NOSIG=
202408300300 METAR WIHH 300300Z 09005KT 5000 HZ NSC 31/20 Q1012 NOSIG=
202408300230 METAR WIHH 300230Z 15005KT 5000 HZ NSC 31/20 Q1012 NOSIG=
202408300200 METAR WIHH 300200Z 19006KT 5000 HZ NSC 30/21 Q1012 NOSIG=
202408300130 METAR WIHH 300130Z 20006KT 6000 NSC 28/21 Q1012 NOSIG=
202408300100 METAR WIHH 300100Z 21003KT 6000 NSC 27/21 Q1012 NOSIG=
202408300030 METAR WIHH 300030Z 22004KT 6000 NSC 26/21 Q1012 NOSIG=
202408300000 METAR WIHH 300000Z 25003KT 6000 NSC 25/21 Q1011 NOSIG=
202408292330 METAR WIHH 292330Z 24003KT 6000 NSC 25/21 Q1011 NOSIG=
202408292300 METAR WIHH 292300Z 24003KT 6000 NSC 24/21 Q1010 NOSIG=
202408292230 METAR WIHH 292230Z 00000KT 6000 NSC 24/21 Q1010 NOSIG=
202408292200 METAR WIHH 292200Z 00000KT 6000 NSC 24/22 Q1010 NOSIG=
202408292130 METAR WIHH 292130Z 00000KT 6000 NSC 25/22 Q1010 NOSIG=
202408292100 METAR WIHH 292100Z 00000KT 6000 NSC 25/22 Q1010 NOSIG=
202408292030 METAR WIHH NIL=
202408292000 METAR WIHH NIL=
202408291930 METAR WIHH NIL=
202408291900 METAR WIHH NIL=
202408291830 METAR WIHH NIL=
202408291800 METAR WIHH NIL=
202408291730 METAR WIHH NIL=
202408291700 METAR WIHH NIL=
202408291630 METAR WIHH NIL=
202408291600 METAR WIHH 291600Z 27003KT 6000 SCT018 28/22 Q1011 NOSIG=
202408291530 METAR WIHH 291530Z 27003KT 6000 SCT018 28/22 Q1011 NOSIG=
202408291500 METAR WIHH 291500Z 20003KT 6000 SCT018 28/22 Q1012 NOSIG=
202408291430 METAR WIHH 291430Z 17003KT 6000 SCT018 28/22 Q1012 NOSIG=
202408291400 METAR WIHH 291400Z 21003KT 6000 SCT018 27/22 Q1012 NOSIG=
202408291330 METAR WIHH 291330Z 22004KT 6000 SCT018 27/22 Q1011 NOSIG=
202408291300 METAR WIHH 291300Z 22005KT 6000 SCT018 27/22 Q1011 NOSIG=
202408291230 METAR WIHH 291230Z 21007KT 5000 HZ SCT018 27/22 Q1011 NOSIG=
202408291200 METAR WIHH 291200Z 21005KT 5000 HZ SCT018 28/22 Q1010 NOSIG=
202408291130 METAR WIHH 291130Z 20005KT 5000 HZ SCT018 28/22 Q1010 NOSIG=
202408291100 METAR WIHH 291100Z 21005KT 5000 HZ SCT018 29/22 Q1010 NOSIG=
202408291030 METAR WIHH 291030Z 17007KT 5000 HZ SCT018 29/22 Q1010 RA TO SW=
202408291000 METAR WIHH 291000Z 27010KT 5000 HZ SCT018 28/21 Q1009 RA TO SW=
202408290930 METAR WIHH 290930Z 23010KT 5000 HZ SCT018 31/22 Q1009 RA TO S=
202408290900 METAR WIHH 290900Z 34008KT 5000 HZ SCT018 32/22 Q1008 RA TO S=
202408290830 METAR WIHH 290830Z 36008KT 5000 HZ SCT018 33/22 Q1008 RA TO S=
202408290800 METAR WIHH 290800Z 35008KT 5000 HZ SCT018 33/22 Q1009 NOSIG=
202408290730 METAR WIHH 290730Z 36005KT 5000 HZ SCT018 33/22 Q1009 NOSIG=
202408290700 METAR WIHH 290700Z 33005KT 5000 HZ SCT018 33/22 Q1009 RA TO NW=
202408290630 METAR WIHH 290630Z 32007KT 5000 HZ SCT018 33/22 Q1009 RA TO NW=
202408290600 METAR WIHH 290600Z 03005KT 5000 HZ SCT018 34/21 Q1009 RA TO NW=
202408290530 METAR WIHH 290530Z 22008KT 5000 HZ SCT018 33/21 Q1010 NOSIG=
202408290500 METAR WIHH 290500Z 21008KT 5000 HZ SCT018 34/21 Q1010 NOSIG=
202408290430 METAR WIHH 290430Z 24005KT 5000 HZ SCT018 34/22 Q1011 NOSIG=
202408290400 METAR WIHH 290400Z 23005KT 5000 HZ SCT018 33/22 Q1011 NOSIG=
202408290330 METAR WIHH 290330Z 21003KT 5000 HZ FEW020 33/21 Q1012 NOSIG=
202408290300 METAR WIHH 290300Z 26003KT 4000 HZ FEW020 32/22 Q1012 NOSIG=
202408290230 METAR WIHH 290230Z 21004KT 4000 HZ FEW020 32/22 Q1012 NOSIG=
202408290200 METAR WIHH 290200Z 26004KT 4000 HZ FEW020 31/23 Q1012 NOSIG=
202408290130 METAR WIHH 290130Z 15003KT 4000 HZ FEW020 30/22 Q1012 NOSIG=
202408290100 METAR WIHH 290100Z 19003KT 4000 HZ FEW020 29/22 Q1012 NOSIG=
202408290030 METAR WIHH 290030Z 00000KT 5000 HZ SCT020 28/22 Q1012 NOSIG=
202408290000 METAR WIHH 290000Z 17003KT 5000 HZ SCT020 27/22 Q1012 NOSIG=
202408282330 METAR WIHH 282330Z 00000KT 5000 HZ FEW020 26/21 Q1011 NOSIG=
202408282300 METAR WIHH 282300Z 21003KT 5000 HZ FEW020 26/21 Q1011 NOSIG=
202408282230 METAR WIHH 282230Z 21003KT 5000 HZ FEW020 26/22 Q1011 NOSIG=
202408282200 METAR WIHH 282200Z 20003KT 5000 HZ FEW020 26/22 Q1010 NOSIG=
202408282130 METAR WIHH 282130Z 23003KT 4000 HZ FEW020 26/23 Q1010 NOSIG=
202408282100 METAR WIHH 282100Z 00000KT 5000 HZ FEW020 26/22 Q1010 NOSIG=
202408282030 METAR WIHH NIL=
202408282000 METAR WIHH NIL=
202408281930 METAR WIHH NIL=
202408281900 METAR WIHH NIL=
202408281830 METAR WIHH NIL=
202408281800 METAR WIHH NIL=
202408281730 METAR WIHH NIL=
202408281700 METAR WIHH 281700Z 18004KT 6000 SCT018 27/23 Q1011 NOSIG=
202408281630 METAR WIHH 281630Z 18004KT 6000 SCT018 27/23 Q1011 NOSIG=
202408281600 METAR WIHH 281600Z 00000KT 6000 SCT018 28/23 Q1011 NOSIG=
202408281530 METAR WIHH 281530Z 00000KT 6000 SCT018 28/23 Q1011 NOSIG=
202408281500 METAR WIHH 281500Z 00000KT 6000 SCT018 28/24 Q1011 NOSIG=
202408281430 METAR WIHH 281430Z 32003KT 6000 SCT020 28/23 Q1011 NOSIG=
202408281400 METAR WIHH 281400Z 00000KT 6000 SCT020 28/23 Q1011 NOSIG=
202408281330 METAR WIHH NIL=
202408281300 METAR WIHH 281300Z 00000KT 6000 SCT020 29/23 Q1011 NOSIG=
202408281230 METAR WIHH 281230Z 30003KT 6000 SCT020 29/23 Q1011 NOSIG=
202408281200 METAR WIHH 281200Z 01005KT 6000 SCT020 30/22 Q1010 NOSIG=
202408281130 METAR WIHH 281130Z 01004KT 5000 HZ SCT020 30/22 Q1010 NOSIG=
202408281100 METAR WIHH 281100Z 05004KT 5000 HZ SCT020 30/22 Q1010 NOSIG=
202408281030 METAR WIHH 281030Z 36004KT 5000 HZ SCT020 31/22 Q1009 NOSIG=
202408281000 METAR WIHH 281000Z 36007KT 5000 HZ SCT020 32/22 Q1009 NOSIG=
202408280930 METAR WIHH 280930Z 36005KT 6000 SCT020 33/22 Q1008 NOSIG=
202408280900 METAR WIHH 280900Z 01008KT 6000 SCT020 33/22 Q1008 NOSIG=
202408280830 METAR WIHH 280830Z 31004KT 6000 SCT020 34/22 Q1008 NOSIG=
202408280800 METAR WIHH 280800Z 02010KT 6000 SCT020 34/22 Q1008 NOSIG=
202408280730 METAR WIHH 280730Z 03013KT 5000 HZ SCT020 34/21 Q1008 NOSIG=
202408280700 METAR WIHH 280700Z 06008KT 5000 HZ SCT020 35/21 Q1009 NOSIG=
202408280630 METAR WIHH 280630Z 06008KT 5000 HZ SCT020 35/20 Q1009 NOSIG=
202408280600 METAR WIHH 280600Z 05008KT 5000 HZ FEW020 35/19 Q1010 NOSIG=
202408280530 METAR WIHH 280530Z 07005KT 5000 HZ FEW020 34/19 Q1010 NOSIG=
202408280500 METAR WIHH 280500Z 26003KT 5000 HZ FEW020 34/19 Q1010 NOSIG=
202408280430 METAR WIHH 280430Z 04008KT 5000 HZ FEW020 34/20 Q1011 NOSIG=
202408280400 METAR WIHH 280400Z 35005KT 5000 HZ SCT020 33/22 Q1011 NOSIG=
202408280330 METAR WIHH 280330Z 12006KT 5000 HZ SCT020 32/21 Q1012 NOSIG=
202408280300 METAR WIHH 280300Z 05005KT 5000 HZ SCT020 31/21 Q1012 NOSIG=
202408280230 METAR WIHH 280230Z 08003KT 5000 HZ SCT020 30/21 Q1013 NOSIG=
202408280200 METAR WIHH 280200Z 17003KT 4000 HZ SCT020 30/19 Q1013 NOSIG=
202408280130 METAR WIHH 280130Z 14003KT 5000 HZ SCT020 29/18 Q1013 NOSIG=
202408280100 METAR WIHH 280100Z 14003KT 4000 HZ SCT020 28/18 Q1012 NOSIG=
202408280030 METAR WIHH 280030Z 13003KT 4000 HZ SCT020 27/18 Q1012 NOSIG=
202408280000 METAR WIHH 280000Z 19003KT 4000 HZ SCT020 26/19 Q1012 NOSIG=
202408272330 METAR WIHH 272330Z 14003KT 3000 HZ SCT020 26/19 Q1012 NOSIG=
202408272300 METAR WIHH 272300Z 09003KT 3000 HZ SCT020 25/19 Q1011 NOSIG=
202408272230 METAR WIHH 272230Z 04003KT 3000 HZ SCT020 24/19 Q1011 NOSIG=
202408272200 METAR WIHH 272200Z 00000KT 3000 HZ SCT020 25/20 Q1011 NOSIG=
202408272130 METAR WIHH 272130Z 00000KT 3000 HZ SCT020 24/20 Q1011 NOSIG=
202408272100 METAR WIHH 272100Z 00000KT 3000 HZ SCT020 25/21 Q1011 NOSIG=
202408272030 METAR WIHH NIL=
202408272000 METAR WIHH NIL=
202408271930 METAR WIHH NIL=
202408271900 METAR WIHH NIL=
202408271830 METAR WIHH NIL=
202408271800 METAR WIHH NIL=
202408271730 METAR WIHH NIL=
202408271700 METAR WIHH 271700Z 22006KT 5000 HZ SCT020 28/22 Q1012 NOSIG=
202408271630 METAR WIHH 271630Z 21008KT 5000 HZ SCT020 28/21 Q1012 NOSIG=
202408271600 METAR WIHH 271600Z 24010KT 5000 HZ SCT020 28/21 Q1012 NOSIG=
202408271530 METAR WIHH 271530Z 21010KT 5000 HZ SCT020 28/21 Q1012 NOSIG=
202408271500 METAR WIHH 271500Z 121010KT 5000 HZ SCT020 28/21 Q1012 NOSIG=
202408271430 METAR WIHH 271430Z 19008KT 5000 HZ SCT020 28/21 Q1012 NOSIG=
202408271400 METAR WIHH 271400Z 18008KT 5000 HZ SCT020 29/24 Q1010 NOSIG=
202408271330 METAR WIHH 271330Z 33003KT 5000 HZ SCT020 29/24 Q1010 NOSIG=
202408271300 METAR WIHH 271300Z 31003KT 5000 HZ SCT020 29/24 Q1010 NOSIG=
202408271230 METAR WIHH 271230Z 33003KT 5000 HZ SCT020 29/24 Q1010 NOSIG=
202408271200 METAR WIHH 271200Z 35003KT 5000 HZ SCT020 29/24 Q1010 NOSIG=
202408271130 METAR WIHH 271130Z 33003KT 4000 HZ SCT020 30/24 Q1009 NOSIG=
202408271100 METAR WIHH 271100Z 34008KT 4000 HZ SCT020 30/24 Q1009 NOSIGDUPE=
202408271030 METAR WIHH 271030Z 36006KT 4000 HZ SCT020 31/24 Q1009 NOSIG=
202408271000 METAR WIHH 271000Z 01006KT 4000 HZ SCT020 31/24 Q1009 NOSIG=
202408270930 METAR WIHH 270930Z 03008KT 4000 HZ SCT020 32/23 Q1008 NOSIG=
202408270900 METAR WIHH 270900Z 35010KT 4000 HZ SCT020 32/23 Q1008 NOSIG=
202408270830 METAR WIHH 270830Z 03010KT 4000 HZ SCT020 33/23 Q1008 NOSIG=
202408270800 METAR WIHH 270800Z 33010KT 4000 HZ SCT020 33/23 Q1008 NOSIG=
202408270730 METAR WIHH 270730Z 02010KT 4000 HZ SCT020 33/23 Q1008 NOSIG=
202408270700 METAR WIHH 270700Z 02010KT 5000 HZ SCT020 34/22 Q1008 NOSIG=
202408270630 METAR WIHH 270630Z 03010KT 5000 HZ SCT020 34/21 Q1008 NOSIG=
202408270600 METAR WIHH 270600Z 34010KT 5000 HZ SCT020 36/21 Q1009 NOSIG=
202408270530 METAR WIHH 270530Z 35005KT 5000 HZ FEW020 35/19 Q1009 NOSIG=
202408270500 METAR WIHH 270500Z 12003KT 5000 HZ FEW020 35/19 Q1010 NOSIG=
202408270430 METAR WIHH 270430Z 15003KT 5000 HZ FEW020 34/20 Q1011 NOSIG=
202408270400 METAR WIHH 270400Z 17003KT 5000 HZ FEW020 33/20 Q1011 NOSIG=
202408270330 METAR WIHH 270330Z 24003KT 5000 HZ FEW020 33/21 Q1011 NOSIG=
202408270300 METAR WIHH 270300Z 09006KT 5000 HZ FEW020 32/21 Q1012 NOSIG=
202408270230 METAR WIHH 270230Z 09006KT 5000 HZ FEW020 31/21 Q1012 NOSIG=
202408270200 METAR WIHH 270200Z 12004KT 5000 HZ FEW020 31/22 Q1013 NOSIG=
202408270130 METAR WIHH 270130Z 18003KT 5000 HZ FEW020 29/22 Q1013 NOSIG=
202408270100 METAR WIHH 270100Z 19004KT 5000 HZ FEW020 28/22 Q1012 NOSIG=
202408270030 METAR WIHH 270030Z 22003KT 5000 HZ FEW020 27/22 Q1012 NOSIG=
202408270000 METAR WIHH 270000Z 19003KT 5000 HZ NSC 26/23 Q1012 NOSIG=
202408262330 METAR WIHH 262330Z 22003KT 5000 NSC 25/23 Q1012 NOSIG=
202408262300 METAR WIHH 262300Z 19003KT 6000 NSC 25/22 Q1012 NOSIG=
202408262230 METAR WIHH 262230Z 00000KT 6000 NSC 25/22 Q1011 NOSIG=
202408262200 METAR WIHH 262200Z 00000KT 6000 NSC 25/22 Q1011 NOSIG=
202408262130 METAR WIHH 262130Z 00000KT 6000 NSC 25/23 Q1011 NOSIG=
202408262100 METAR WIHH 262100Z 00000KT 6000 NSC 25/23 Q1011 NOSIG=
202408262030 METAR WIHH NIL=
202408262000 METAR WIHH NIL=
202408261930 METAR WIHH NIL=
202408261900 METAR WIHH NIL=
202408261830 METAR WIHH NIL=
202408261800 METAR WIHH NIL=
202408261730 METAR WIHH NIL=
202408261700 METAR WIHH NIL=
202408261630 METAR WIHH NIL=
202408261600 METAR WIHH 261600Z 00000KT 8000 NSC 27/23 Q1012 NOSIG=
202408261530 METAR WIHH 261530Z 00000KT 8000 NSC 27/23 Q1012 NOSIG=
202408261500 METAR WIHH 261500Z 00000KT 8000 NSC 27/23 Q1012 NOSIG=
202408261430 METAR WIHH 261430Z 00000KT 8000 NSC 27/23 Q1011 NOSIG=
202408261400 METAR WIHH 261400Z 00000KT 6000 NSC 27/23 Q1011 NOSIG=
202408261330 METAR WIHH 261330Z 00000KT 6000 NSC 28/23 Q1011 NOSIG=
202408261300 METAR WIHH 261300Z 00000KT 6000 FEW020 28/23 Q1011 NOSIG=
202408261230 METAR WIHH 261230Z 26003KT 6000 FEW020 29/23 Q1010 NOSIG=
202408261200 METAR WIHH 261200Z 28003KT 6000 FEW020 29/23 Q1010 NOSIG=
202408261130 METAR WIHH 261130Z 03005KT 6000 SCT020 30/22 Q1009 NOSIG=
202408261100 METAR WIHH 261100Z 01005KT 6000 SCT020 31/22 Q1009 NOSIG=
202408261030 METAR WIHH 261030Z 03005KT 6000 SCT018 31/22 Q1009 NOSIG=
202408261000 METAR WIHH 261000Z 27005KT 6000 SCT018 32/22 Q1008 NOSIG=
202408260930 METAR WIHH 260930Z 34008KT 6000 SCT018 32/22 Q1008 NOSIG=
202408260900 METAR WIHH 260900Z 01007KT 6000 SCT018 33/22 Q1008 NOSIG=
202408260830 METAR WIHH 260830Z 01008KT 6000 SCT018 33/22 Q1008 NOSIG=
202408260800 METAR WIHH 260800Z 34008KT 6000 SCT018 34/22 Q1008 NOSIG=
202408260730 METAR WIHH 260730Z 36008KT 6000 SCT018 33/21 Q1008 NOSIG=
202408260700 METAR WIHH 260700Z 34008KT 6000 SCT018 33/21 Q1008 NOSIG=
202408260630 METAR WIHH 260630Z 04005KT 6000 SCT018 33/20 Q1009 NOSIG=
202408260600 METAR WIHH 260600Z 33005KT 6000 SCT018 33/20 Q1009 NOSIG=
202408260530 METAR WIHH 260530Z 27004KT 6000 SCT020 33/19 Q1010 NOSIG=
202408260500 METAR WIHH 260500Z 33004KT 6000 SCT020 33/19 Q1010 NOSIG=
202408260430 METAR WIHH 260430Z 24005KT 6000 FEW020 34/19 Q1011 NOSIG=
202408260400 METAR WIHH 260400Z 27005KT 6000 FEW020 33/19 Q1011 NOSIG=
202408260330 METAR WIHH 260330Z 24007KT 6000 FEW020 32/20 Q1011 NOSIG=
202408260300 METAR WIHH 260300Z 18007KT 6000 NSC 32/20 Q1012 NOSIG=
202408260230 METAR WIHH 260230Z 22004KT 6000 NSC 31/21 Q1012 NOSIG=
202408260200 METAR WIHH 260200Z 14005KT 6000 NSC 30/21 Q1012 NOSIG=
202408260130 METAR WIHH 260130Z 24005KT 5000 HZ NSC 30/22 Q1012 NOSIG=
202408260100 METAR WIHH 260100Z 22004KT 5000 HZ NSC 28/22 Q1012 NOSIG=
202408260030 METAR WIHH 260030Z 23003KT 4000 HZ NSC 27/22 Q1012 NOSIG=
202408260000 METAR WIHH 260000Z 21004KT 4000 HZ NSC 26/22 Q1011 NOSIG=
202408252330 METAR WIHH 252330Z 21003KT 4000 HZ NSC 25/22 Q1011 NOSIG=
202408252300 METAR WIHH 252300Z 20003KT 4000 HZ NSC 24/22 Q1011 NOSIG=
202408252230 METAR WIHH 252230Z 23003KT 5000 HZ NSC 24/23 Q1010 NOSIG=
202408252200 METAR WIHH 252200Z 24003KT 6000 NSC 24/23 Q1010 NOSIG=
202408252130 METAR WIHH 252130Z 22003KT 6000 NSC 25/23 Q1010 NOSIG=
202408252100 METAR WIHH 252100Z 17003KT 6000 NSC 25/22 Q1010 NOSIG=
202408252030 METAR WIHH 252030Z 16003KT 6000 FEW020 25/22 Q1010 NOSIG=
202408252000 METAR WIHH 252000Z 14003KT 6000 FEW020 25/22 Q1010 NOSIG=
202408251930 METAR WIHH NIL=
202408251900 METAR WIHH NIL=
202408251830 METAR WIHH NIL=
202408251800 METAR WIHH NIL=
202408251730 METAR WIHH NIL=
202408251700 METAR WIHH 251700Z 00000KT 6000 FEW020 26/24 Q1013 NOSIG=
202408251630 METAR WIHH 251630Z 00000KT 6000 FEW020 26/23 Q1013 NOSIG=
202408251600 METAR WIHH 251600Z 00000KT 7000 FEW020 26/23 Q1012 NOSIG=
202408251530 METAR WIHH 251530Z 00000KT 7000 FEW020 26/22 Q1012 NOSIG=
202408251500 METAR WIHH 251500Z 00000KT 7000 FEW020 27/22 Q1012 NOSIG=
202408251430 METAR WIHH 251430Z 00000KT 6000 FEW020 26/22 Q1012 NOSIG=
202408251400 METAR WIHH 251400Z 00000KT 6000 FEW020 27/23 Q1011 NOSIG=
202408251330 METAR WIHH 251330Z 06003KT 6000 FEW020 28/22 Q1011 NOSIG=
202408251300 METAR WIHH 251300Z 05005KT 6000 FEW020 28/21 Q1011 NOSIG=
202408251230 METAR WIHH 251230Z 05003KT 6000 FEW020 29/21 Q1011 NOSIG=
202408251200 METAR WIHH 251200Z 05005KT 6000 FEW020 29/21 Q1010 NOSIG=
202408251130 METAR WIHH NIL=
202408251100 METAR WIHH 251100Z 04004KT 6000 FEW020 30/21 Q1009 NOSIG=
202408251030 METAR WIHH 251030Z 35007KT 6000 FEW020 30/21 Q1009 NOSIG=
202408251000 METAR WIHH 251000Z 36010KT 6000 FEW020 31/20 Q1008 NOSIG=
202408250930 METAR WIHH 250930Z 36010KT 6000 FEW020 32/20 Q1008 NOSIG=
202408250900 METAR WIHH 250900Z 01012KT 6000 FEW020 33/20 Q1008 NOSIG=
202408250830 METAR WIHH 250830Z 34010KT 6000 FEW020 33/20 Q1008 NOSIG=
202408250800 METAR WIHH 250800Z 36010KT 6000 SCT020 34/21 Q1008 NOSIG=
202408250730 METAR WIHH 250730Z 36007KT 6000 SCT020 33/21 Q1008 NOSIG=
202408250700 METAR WIHH 250700Z 09006KT 6000 SCT020 34/19 Q1008 NOSIG=
202408250630 METAR WIHH 250630Z 06006KT 6000 SCT020 33/19 Q1009 NOSIG=
202408250600 METAR WIHH 250600Z 07007KT 6000 SCT020 34/19 Q1009 NOSIG=
202408250530 METAR WIHH 250530Z 04010KT 5000 HZ SCT020 33/18 Q1010 NOSIG=
202408250500 METAR WIHH 250500Z 12007KT 5000 HZ SCT020 33/18 Q1010 NOSIG=
202408250430 METAR WIHH NIL=
202408250400 METAR WIHH 250400Z 06007KT 5000 HZ FEW020 33/18 Q1011 NOSIG=
202408250300 METAR WIHH NIL=
202408250200 METAR WIHH NIL=
202408250100 METAR WIHH NIL=
202408250000 METAR WIHH NIL=
202408242300 METAR WIHH NIL=
202408242200 METAR WIHH NIL=
202408242100 METAR WIHH NIL=
202408242000 METAR WIHH NIL=
202408241900 METAR WIHH NIL=
202408241800 METAR WIHH NIL=
202408241700 METAR WIHH NIL=
202408241600 METAR WIHH NIL=
202408241500 METAR WIHH NIL=
202408241400 METAR WIHH NIL=
202408241300 METAR WIHH NIL=
202408241200 METAR WIHH NIL=
202408241100 METAR WIHH NIL=
202408241000 METAR WIHH NIL=
202408240900 METAR WIHH NIL=
202408240830 METAR WIHH 240830Z 02013KT 4000 HZ SCT020 32/24 Q1008 NOSIG=
202408240800 METAR WIHH 240800Z 02012KT 5000 HZ SCT020 33/24 Q1008 NOSIG=
202408240730 METAR WIHH 240730Z 01012KT 5000 HZ SCT020 33/24 Q1009 NOSIG=
202408240700 METAR WIHH 240700Z 01012KT 4000 HZ SCT020 33/23 Q1009 NOSIG=
202408240630 METAR WIHH 240630Z 35008KT 4000 HZ SCT020 34/23 Q1009 NOSIG=
202408240600 METAR WIHH 240600Z 03008KT 4000 HZ SCT020 34/21 Q1009 NOSIG=
202408240530 METAR WIHH 240530Z 02004KT 4000 HZ SCT020 35/22 Q1010 NOSIG=
202408240500 METAR WIHH 240500Z 18005KT 4000 HZ SCT020 33/22 Q1010 NOSIG=
202408240430 METAR WIHH 240430Z 27004KT 4000 HZ SCT020 32/22 Q1011 NOSIG=
202408240400 METAR WIHH 240400Z 18004KT 4000 HZ FEW020 33/22 Q1012 NOSIG=
202408240330 METAR WIHH 240330Z 18005KT 4000 HZ NSC 32/22 Q1012 NOSIG=
202408240300 METAR WIHH 240300Z 06005KT 4000 HZ NSC 31/22 Q1013 NOSIG=
202408240230 METAR WIHH 240230Z 12005KT 3000 HZ NSC 30/23 Q1013 NOSIG=
202408240200 METAR WIHH 240200Z 10003KT 3000 HZ NSC 30/22 Q1013 NOSIG=
202408240130 METAR WIHH 240130Z 10003KT 3000 HZ FEW020 29/22 Q1013 NOSIG=
202408240100 METAR WIHH 240100Z 16003KT 3000 HZ FEW020 28/22 Q1013 NOSIG=
202408240030 METAR WIHH 240030Z 12003KT 3000 HZ FEW020 25/22 Q1012 NOSIG=
202408240000 METAR WIHH 240000Z 23003KT 3000 HZ FEW020 25/22 Q1012 NOSIG=
202408232330 METAR WIHH 232330Z 00000KT 3000 HZ FEW020 24/21 Q1012 NOSIG=
202408232300 METAR WIHH 232300Z 00000KT 3000 HZ SCT020 24/21 Q1012 NOSIG=
202408232230 METAR WIHH 232230Z 24003KT 3000 HZ SCT020 24/21 Q1012 NOSIG=
202408232200 METAR WIHH 232200Z 24003KT 3000 HZ SCT020 25/22 Q1012 NOSIG=
202408232130 METAR WIHH 232130Z 22003KT 3000 HZ SCT020 24/22 Q1012 NOSIG=
202408232100 METAR WIHH 232100Z 23003KT 3000 HZ SCT020 25/22 Q1012 NOSIG=
202408232030 METAR WIHH NIL=
202408232000 METAR WIHH 232000Z 20003KT 3000 HZ SCT020 25/21 Q1012 NOSIG=
202408231930 METAR WIHH NIL=
202408231900 METAR WIHH NIL=
202408231830 METAR WIHH NIL=
202408231800 METAR WIHH NIL=
202408231730 METAR WIHH NIL=
202408231700 METAR WIHH NIL=
202408231630 METAR WIHH NIL=
202408231600 METAR WIHH 231600Z 20005KT 3000 HZ SCT020 27/23 Q1013 NOSIG=
202408231530 METAR WIHH 231530Z 18003KT 4000 HZ SCT020 28/23 Q1013 NOSIG=
202408231500 METAR WIHH 231500Z 21003KT 4000 HZ SCT020 28/23 Q1013 NOSIG=
202408231430 METAR WIHH 231430Z 18003KT 5000 HZ SCT018 28/24 Q1013 NOSIG=
202408231400 METAR WIHH 231400Z 16003KT 5000 HZ SCT020 29/23 Q1012 NOSIG=
202408231330 METAR WIHH 231330Z 33003KT 5000 HZ SCT020 29/22 Q1012 NOSIG=
202408231300 METAR WIHH 231300Z 33003KT 5000 HZ SCT020 29/22 Q1011 NOSIG=
202408231230 METAR WIHH 231230Z 33003KT 5000 HZ SCT020 29/22 Q1011 NOSIG=
202408231200 METAR WIHH 231200Z 29003KT 5000 HZ SCT020 29/22 Q1011 NOSIG=
202408231130 METAR WIHH 231130Z 33003KT 5000 HZ SCT020 29/22 Q1010 NOSIG=
202408231100 METAR WIHH 231100Z 33008KT 5000 HZ SCT020 29/22 Q1010 NOSIG=
202408231030 METAR WIHH 231030Z 36008KT 5000 HZ SCT020 30/23 Q1010 NOSIG=
202408231000 METAR WIHH 231000Z 36008KT 5000 HZ SCT020 31/23 Q1010 NOSIG=
202408230930 METAR WIHH 230930Z 03008KT 5000 HZ SCT020 32/23 Q1010 NOSIG=
202408230900 METAR WIHH 230900Z 03008KT 5000 HZ SCT020 32/23 Q1009 NOSIG=
202408230830 METAR WIHH 230830Z 33008KT 5000 HZ SCT018 33/23 Q1009 NOSIG=
202408230800 METAR WIHH 230800Z 03008KT 5000 HZ SCT018 33/23 Q1009 NOSIG=
202408230730 METAR WIHH 230730Z 33008KT 5000 HZ SCT018 34/23 Q1009 NOSIG=
202408230700 METAR WIHH 230700Z 03008KT 5000 HZ SCT018 34/22 Q1010 NOSIG=
202408230630 METAR WIHH 230630Z 33008KT 5000 HZ SCT018 34/22 Q1010 NOSIG=
202408230600 METAR WIHH 230600Z 33008KT 5000 HZ SCT018 34/22 Q1010 NOSIG=
202408230530 METAR WIHH 230530Z 01008KT 5000 HZ SCT018 34/21 Q1011 NOSIG=
202408230500 METAR WIHH 230500Z 02008KT 4000 HZ SCT018 32/21 Q1012 NOSIG=
202408230430 METAR WIHH 230430Z 02004KT 4000 HZ SCT018 32/21 Q1012 NOSIG=
202408230400 METAR WIHH 230400Z 02004KT 4000 HZ SCT018 31/22 Q1012 NOSIG=
202408230330 METAR WIHH 230330Z 03008KT 4000 HZ SCT018 31/22 Q1013 NOSIG=
202408230300 METAR WIHH 230300Z 09008KT 4000 HZ SCT018 30/22 Q1013 NOSIG=
202408230230 METAR WIHH 230230Z 08008KT 4000 HZ SCT018 31/22 Q1013 NOSIG=
202408230200 METAR WIHH 230200Z 04005KT 3000 HZ SCT018 30/23 Q1013 NOSIG=
202408230130 METAR WIHH 230130Z 09003KT 3000 HZ SCT018 28/25 Q1013 RA TO N=
202408230100 METAR WIHH 230100Z 00000KT 3000 HZ SCT018 28/25 Q1013 RMK RA TO N=
202408230030 METAR WIHH 230030Z 15004KT 3000 HZ SCT018 27/25 Q1013 RMK RA TO S=
202408230000 METAR WIHH 230000Z 00000KT 3000 HZ SCT018 26/25 Q1013 NOSIG=
202408222330 METAR WIHH 222330Z 00000KT 3000 HZ SCT018 26/24 Q1013 NOSIG=
202408222300 METAR WIHH 222300Z 00000KT 3000 HZ FEW020 26/24 Q1013 NOSIG=
202408222230 METAR WIHH 222230Z 00000KT 5000 HZ FEW020 26/24 Q1012 NOSIG=
202408222200 METAR WIHH 222200Z 00000KT 5000 HZ FEW020 26/24 Q1012 NOSIG=
202408222130 METAR WIHH 222130Z 00000KT 5000 HZ FEW020 27/24 Q1012 NOSIG=
202408222100 METAR WIHH 222100Z 00000KT 6000 FEW020 27/24 Q1012 NOSIG=
202408222030 METAR WIHH NIL=
202408222000 METAR WIHH NIL=
202408221930 METAR WIHH NIL=
202408221900 METAR WIHH NIL=
202408221830 METAR WIHH NIL=
202408221800 METAR WIHH NIL=
202408221730 METAR WIHH NIL=
202408221700 METAR WIHH 221700Z 06005KT 6000 SCT020 28/24 Q1013 NOSIG=
202408221630 METAR WIHH 221630Z 03005KT 6000 SCT020 28/24 Q1013 NOSIG=
202408221600 METAR WIHH 221600Z 06004KT 6000 SCT020 28/24 Q1013 NOSIG=
202408221530 METAR WIHH 221530Z 07005KT 6000 SCT020 28/24 Q1013 NOSIG=
202408221500 METAR WIHH 221500Z 05005KT 6000 SCT020 29/24 Q1013 NOSIG=
202408221430 METAR WIHH 221430Z 05004KT 6000 FEW020 28/24 Q1012 NOSIG=
202408221400 METAR WIHH 221400Z 06004KT 6000 FEW020 28/24 Q1012 NOSIG=
202408221330 METAR WIHH 221330Z 08006KT 6000 FEW020 29/23 Q1012 NOSIG=
202408221300 METAR WIHH 221300Z 07007KT 6000 FEW020 29/23 Q1011 NOSIG=
202408221230 METAR WIHH 221230Z 03007KT 6000 FEW020 29/24 Q1011 NOSIG=
202408221200 METAR WIHH 221200Z 03007KT 6000 FEW020 29/24 Q1010 NOSIG=
202408221130 METAR WIHH 221130Z 05007KT 6000 FEW020 30/24 Q1010 NOSIG=
202408221100 METAR WIHH 221100Z 04007KT 6000 FEW020 30/24 Q1010 NOSIG=
202408221030 METAR WIHH 221030Z 05007KT 6000 FEW020 31/24 Q1010 NOSIG=
202408221000 METAR WIHH 221000Z 35010KT 6000 FEW020 31/24 Q1009 NOSIG=
202408220930 METAR WIHH 220930Z 36010KT 6000 FEW020 32/23 Q1009 NOSIG=
202408220900 METAR WIHH 220900Z 34010KT 6000 FEW020 32/23 Q1009 NOSIG=
202408220830 METAR WIHH 220830Z 05012KT 6000 SCT020 33/23 Q1008 NOSIG=
202408220800 METAR WIHH 220800Z 04010KT 6000 SCT020 32/23 Q1009 NOSIG=
202408220730 METAR WIHH 220730Z 05010KT 6000 SCT020 33/21 Q1009 NOSIG=
202408220700 METAR WIHH 220700Z 07007KT 6000 SCT020 34/22 Q1009 NOSIG=
202408220630 METAR WIHH 220630Z 06010KT 6000 SCT020 34/22 Q1009 NOSIG=
202408220600 METAR WIHH 220600Z 04010KT 6000 SCT020 33/22 Q1010 NOSIG=
202408220530 METAR WIHH 220530Z 36007KT 6000 SCT020 33/21 Q1010 NOSIG=
202408220500 METAR WIHH 220500Z 08007KT 6000 SCT020 33/22 Q1010 NOSIG=
202408220430 METAR WIHH 220430Z 09008KT 6000 NSC 33/21 Q1011 NOSIG=
202408220400 METAR WIHH 220400Z 09012KT 6000 NSC 33/21 Q1011 NOSIG=
202408220330 METAR WIHH 220330Z 10012KT 6000 NSC 32/21 Q1012 NOSIG=
202408220300 METAR WIHH 220300Z 12009KT 6000 NSC 31/21 Q1012 NOSIG=
202408220230 METAR WIHH 220230Z 09012KT 5000 HZ NSC 31/25 Q1012 NOSIG=
202408220200 METAR WIHH 220200Z 08010KT 5000 HZ NSC 30/22 Q1013 NOSIG=
202408220130 METAR WIHH 220130Z 12007KT 5000 HZ NSC 29/21 Q1013 NOSIG=
202408220100 METAR WIHH 220100Z 11005KT 5000 HZ NSC 28/21 Q1012 NOSIG=
202408220030 METAR WIHH 220030Z 14004KT 5000 HZ NSC 27/21 Q1012 NOSIG=
202408220000 METAR WIHH 220000Z 17004KT 6000 NSC 25/21 Q1012 NOSIG=
202408212330 METAR WIHH 212330Z 17003KT 6000 NSC 26/21 Q1012 NOSIG=
202408212300 METAR WIHH 212300Z 14003KT 6000 NSC 26/21 Q1011 NOSIG=
202408212230 METAR WIHH 212230Z 11003KT 6000 FEW022 26/21 Q1011 NOSIG=
202408212200 METAR WIHH 212200Z 12003KT 6000 NSC 26/22 Q1011 NOSIG=
202408212130 METAR WIHH 212130Z 14003KT 6000 NSC 26/22 Q1010 NOSIG=
202408212100 METAR WIHH 212100Z 14003KT 6000 NSC 26/22 Q1010 NOSIG=
202408212030 METAR WIHH NIL=
202408212000 METAR WIHH NIL=
202408211930 METAR WIHH NIL=
202408211900 METAR WIHH NIL=
202408211830 METAR WIHH NIL=
202408211800 METAR WIHH NIL=
202408211730 METAR WIHH NIL=
202408211700 METAR WIHH 211700Z 10003KT 5000 HZ NSC 28/24 Q1011 NOSIG=
202408211630 METAR WIHH 211630Z 10003KT 6000 NSC 28/23 Q1011 NOSIG=
202408211600 METAR WIHH 211600Z 08004KT 6000 NSC 28/23 Q1011 NOSIG=
202408211530 METAR WIHH 211530Z 09007KT 6000 NSC 28/23 Q1011 NOSIG=
202408211500 METAR WIHH 211500Z 08008KT 6000 NSC 28/23 Q1011 NOSIG=
202408211430 METAR WIHH 211430Z 07008KT 6000 NSC 29/23 Q1011 NOSIG=
202408211400 METAR WIHH 211400Z 07008KT 6000 NSC 29/23 Q1011 NOSIG=
202408211330 METAR WIHH 211330Z 05008KT 6000 NSC 29/23 Q1011 NOSIG=
202408211300 METAR WIHH 211300Z 03010KT 6000 NSC 29/23 Q1011 NOSIG=
202408211230 METAR WIHH 211230Z 02010KT 6000 NSC 29/23 Q1010 NOSIG=
202408211200 METAR WIHH 211200Z 03010KT 6000 NSC 29/23 Q1010 NOSIG=
202408211130 METAR WIHH 211130Z 06012KT 5000 HZ SCT020 29/23 Q1010 NOSIG=
202408211100 METAR WIHH 211100Z 03012KT 5000 HZ SCT020 30/22 Q1010 NOSIG=
202408211030 METAR WIHH 211030Z 05012KT 5000 HZ SCT020 31/23 Q1009 NOSIG=
202408211000 METAR WIHH 211000Z 03012KT 5000 HZ SCT020 31/23 Q1009 NOSIG=
202408210930 METAR WIHH 210930Z 01012KT 5000 HZ SCT020 32/23 Q1009 NOSIG=
202408210900 METAR WIHH 210900Z 03012KT 5000 HZ SCT020 32/23 Q1008 NOSIG=
202408210830 METAR WIHH 210830Z 09008KT 5000 HZ SCT020 34/22 Q1009 NOSIG=
202408210800 METAR WIHH 210800Z 04013KT 5000 HZ SCT020 34/22 Q1009 NOSIG=
202408210730 METAR WIHH 210730Z 05013KT 5000 HZ SCT020 34/21 Q1009 NOSIG=
202408210700 METAR WIHH 210700Z 03013KT 5000 HZ SCT020 34/21 Q1009 NOSIG=
202408210630 METAR WIHH 210630Z 02012KT 5000 HZ SCT020 35/21 Q1010 NOSIG=
202408210600 METAR WIHH 210600Z 03013KT 5000 HZ SCT020 35/21 Q1010 NOSIG=
202408210530 METAR WIHH 210530Z 08007KT 5000 HZ NSC 34/21 Q1010 NOSIG=
202408210500 METAR WIHH 210500Z 04010KT 5000 HZ NSC 34/21 Q1010 NOSIG=
202408210430 METAR WIHH 210430Z 18004KT 5000 HZ NSC 34/22 Q1011 NOSIG=
202408210400 METAR WIHH 210400Z 11004KT 5000 HZ NSC 33/22 Q1011 NOSIG=
202408210330 METAR WIHH 210330Z 14005KT 5000 HZ NSC 32/22 Q1011 NOSIG=
202408210300 METAR WIHH 210300Z 12005KT 5000 HZ NSC 31/22 Q1012 NOSIG=
202408210230 METAR WIHH 210230Z 10005KT 4000 HZ NSC 31/22 Q1012 NOSIG=
202408210200 METAR WIHH 210200Z 13005KT 4000 HZ NSC 30/23 Q1012 NOSIG=
202408210130 METAR WIHH 210130Z 15005KT 4000 HZ NSC 29/23 Q1012 NOSIG=
202408210100 METAR WIHH 210100Z 17004KT 4000 HZ NSC 28/23 Q1012 NOSIG=
202408210030 METAR WIHH 210030Z 00000KT 4000 HZ NSC 27/23 Q1012 NOSIG=
202408210000 METAR WIHH 210000Z 00000KT 3000 HZ NSC 26/23 Q1012 NOSIG=
202408202330 METAR WIHH 202330Z 202330Z 00000KT 3000 HZ FEW020 25/23 Q1012 NOSIG=
202408202300 METAR WIHH 202300Z 00000KT 4000 HZ FEW020 25/23 Q1011 NOSIG=
202408202230 METAR WIHH 202230Z 00000KT 4000 HZ FEW020 25/23 Q1011 NOSIG=
202408202200 METAR WIHH 202200Z 00000KT 4000 HZ FEW020 25/23 Q1011 NOSIG=
202408202130 METAR WIHH 202130Z 00000KT 4000 HZ FEW020 25/23 Q1011 NOSIG=
202408202100 METAR WIHH 202100Z 00000KT 5000 HZ FEW020 26/24 Q1011 NOSIG=
202408202030 METAR WIHH NIL=
202408202000 METAR WIHH NIL=
202408201930 METAR WIHH NIL=
202408201900 METAR WIHH NIL=
202408201830 METAR WIHH NIL=
202408201800 METAR WIHH NIL=
202408201730 METAR WIHH NIL=
202408201700 METAR WIHH 201700Z 00000KT 7000 NSC 26/22 Q1012 NOSIG=
202408201630 METAR WIHH 201630Z 00000KT 7000 NSC 26/22 Q1012 NOSIG=
202408201600 METAR WIHH 201600Z 00000KT 7000 NSC 27/23 Q1012 NOSIG=
202408201530 METAR WIHH 201530Z 00000KT 7000 NSC 27/23 Q1012 NOSIG=
202408201500 METAR WIHH 201500Z 06003KT 7000 NSC 27/22 Q1012 NOSIG=
202408201430 METAR WIHH 201430Z 05004KT 7000 NSC 28/22 Q1012 NOSIG=
202408201400 METAR WIHH 201400Z 09004KT 7000 NSC 28/22 Q1012 NOSIG=
202408201330 METAR WIHH 201330Z 06005KT 7000 FEW022 29/21 Q1011 NOSIG=
202408201300 METAR WIHH 201300Z 04006KT 7000 FEW022 29/21 Q1011 NOSIG=
202408201230 METAR WIHH 201230Z 05007KT 7000 FEW022 29/21 Q1010 NOSIG=
202408201200 METAR WIHH 201200Z 04006KT 7000 FEW020 29/21 Q1010 NOSIG=
202408201130 METAR WIHH 201130Z 04007KT 6000 FEW020 29/21 Q1009 NOSIG=
202408201100 METAR WIHH 201100Z 36007KT 6000 FEW020 30/23 Q1009 NOSIG=
202408201030 METAR WIHH 201030Z 35006KT 6000 FEW020 31/22 Q1008 NOSIG=
202408201000 METAR WIHH 201000Z 01006KT 6000 FEW020 32/23 Q1008 NOSIG=
202408200930 METAR WIHH 200930Z 02007KT 6000 SCT020 32/23 Q1008 NOSIG=
202408200900 METAR WIHH 200900Z 02007KT 6000 SCT020 32/24 Q1008 NOSIG=
202408200830 METAR WIHH 200830Z 01008KT 6000 SCT020 33/24 Q1008 NOSIG=
202408200800 METAR WIHH 200800Z 02008KT 5000 HZ SCT020 34/24 Q1008 NOSIG=
202408200730 METAR WIHH 200730Z 02007KT 5000 HZ SCT020 34/23 Q1008 NOSIG=
202408200700 METAR WIHH 200700Z 02007KT 5000 HZ SCT020 35/23 Q1008 NOSIG=
202408200630 METAR WIHH 200630Z 02006KT 5000 HZ SCT020 35/20 Q1008 NOSIG=
202408200600 METAR WIHH 200600Z 01006KT 5000 HZ SCT020 34/21 Q1008 NOSIG=
202408200530 METAR WIHH 200530Z 25006KT 5000 HZ SCT020 34/21 Q1009 NOSIG=
202408200500 METAR WIHH 200500Z TAF WIHH 200500Z 2006/2106 03008KT 6000 FEW020 BECMG 2014/2016 12010KT=
202408200430 METAR WIHH 200430Z 23005KT 5000 HZ SCT020 33/22 Q1010 NOSIG=
202408200400 METAR WIHH 200400Z 16005KT 4000 HZ SCT020 32/23 Q1011 NOSIG=
202408200330 METAR WIHH 200330Z 21005KT 4000 HZ SCT018 31/23 Q1011 NOSIG=
202408200300 METAR WIHH 200300Z 15005KT 4000 HZ SCT018 30/23 Q1011 NOSIG=
202408200230 METAR WIHH 200230Z 11005KT 3000 HZ SCT018 30/22 Q1012 NOSIG=
202408200200 METAR WIHH 200200Z 12005KT 3000 HZ SCT018 28/22 Q1012 NOSIG=
202408200130 METAR WIHH 200130Z 13005KT 3000 HZ SCT020 28/23 Q1012 NOSIG=
202408200100 METAR WIHH 200100Z 13003KT 3000 HZ SCT020 27/24 Q1011 NOSIG=
202408200030 METAR WIHH 200030Z 12003KT 3000 HZ SCT020 27/24 Q1011 NOSIG=
202408200000 METAR WIHH 200000Z 12003KT 2000 HZ SCT020 26/23 Q1011 NOSIG=
202408192330 METAR WIHH 192330Z 11003KT 2000 HZ SCT020 25/23 Q1011 NOSIG=
202408192300 METAR WIHH 192300Z 13003KT 2000 HZ SCT020 25/23 Q1010 NOSIG=
202408192230 METAR WIHH 192230Z 14003KT 3000 HZ SCT020 24/23 Q1010 NOSIG=
202408192200 METAR WIHH 192200Z 16003KT 3000 HZ SCT020 24/23 Q1010 NOSIG=
202408192130 METAR WIHH 192130Z 00000KT 3000 HZ SCT020 24/23 Q1010 NOSIG=
202408192100 METAR WIHH 192100Z 00000KT 3000 HZ SCT020 25/23 Q1010 NOSIG=
202408192030 METAR WIHH NIL=
202408192000 METAR WIHH NIL=
202408191930 METAR WIHH NIL=
202408191900 METAR WIHH NIL=
202408191830 METAR WIHH NIL=
202408191800 METAR WIHH NIL=
202408191730 METAR WIHH NIL=
202408191700 METAR WIHH 191700Z 09003KT 8000 NSC 27/23 Q1011 NOSIG=
202408191630 METAR WIHH 191630Z 10003KT 8000 NSC 27/23 Q1011 NOSIG=
202408191600 METAR WIHH 191600Z 10003KT 8000 NSC 27/23 Q1011 NOSIG=
202408191530 METAR WIHH 191530Z 13003KT 8000 NSC 27/23 Q1011 NOSIG=
202408191500 METAR WIHH 191500Z 09005KT 7000 NSC 28/23 Q1011 NOSIG=
202408191430 METAR WIHH 191430Z 11005KT 8000 NSC 28/23 Q1011 NOSIG=
202408191400 METAR WIHH 191400Z 06005KT 8000 NSC 28/23 Q1011 NOSIG=
202408191330 METAR WIHH 191330Z 09008KT 6000 FEW020 29/23 Q1010 NOSIG=
202408191300 METAR WIHH 191300Z 07008KT 6000 FEW020 29/23 Q1010 NOSIG=
202408191230 METAR WIHH 191230Z 01010KT 6000 FEW020 29/22 Q1009 NOSIG=
202408191200 METAR WIHH 191200Z 03010KT 6000 FEW020 29/22 Q1009 NOSIG=
202408191130 METAR WIHH 191130Z 03010KT 7000 FEW020 30/22 Q1008 NOSIG=
202408191100 METAR WIHH 191100Z 04010KT 7000 FEW020 30/22 Q1008 NOSIG=
202408191030 METAR WIHH 191030Z 03012KT 7000 FEW020 31/22 Q1007 NOSIG=
202408191000 METAR WIHH 191000Z 04010KT 7000 FEW020 31/22 Q1007 NOSIG=
202408190930 METAR WIHH 190930Z 03010KT 7000 FEW020 32/22 Q1007 NOSIG=
202408190900 METAR WIHH 190900Z 01010KT 7000 FEW020 32/22 Q1007 NOSIG=
202408190830 METAR WIHH 190830Z 03010KT 6000 SCT020 34/23 Q1007 NOSIG=
202408190800 METAR WIHH 190800Z 02010KT 6000 SCT020 34/23 Q1007 NOSIG=
202408190730 METAR WIHH 190730Z 03008KT 5000 HZ SCT020 34/23 Q1007 NOSIG=
202408190700 METAR WIHH 190700Z 03008KT 5000 HZ SCT020 34/23 Q1007 NOSIG=
202408190630 METAR WIHH 190630Z 03008KT 5000 HZ SCT020 34/22 Q1008 NOSIG=
202408190600 METAR WIHH 190600Z 02008KT 5000 HZ SCT020 34/22 Q1008 NOSIG=
202408190530 METAR WIHH 190530Z 09008KT 5000 HZ SCT020 34/21 Q1008 NOSIG=
202408190500 METAR WIHH 190500Z 01008KT 5000 HZ SCT020 34/21 Q1008 NOSIG=
202408190430 METAR WIHH 190430Z 03006KT 5000 HZ NSC 34/22 Q1010 NOSIG=
202408190400 METAR WIHH 190400Z 32006KT 5000 HZ NSC 34/22 Q1010 NOSIG=
202408190330 METAR WIHH 190330Z 12003KT 5000 HZ NSC 32/22 Q1010 NOSIG=
202408190300 METAR WIHH 190300Z 17003KT 4000 HZ NSC 32/22 Q1010 NOSIG=
202408190230 METAR WIHH 190230Z 24004KT 5000 HZ NSC 31/22 Q1011 NOSIG=
202408190200 METAR WIHH 190200Z 19004KT 4000 HZ NSC 30/22 Q1011 NOSIG=
202408190130 METAR WIHH 190130Z 21005KT 4000 HZ NSC 28/23 Q1010 NOSIG=
202408190100 METAR WIHH 190100Z 18005KT 4000 HZ NSC 28/23 Q1010 NOSIG=
202408190030 METAR WIHH 190030Z 21005KT 4000 HZ NSC 27/23 Q1010 NOSIG=
202408190000 METAR WIHH 190000Z 23003KT 4000 HZ NSC 26/22 Q1010 NOSIG=
202408182330 METAR WIHH 182330Z 19005KT 4000 HZ NSC 25/22 Q1009 NOSIG=
202408182300 METAR WIHH 182300Z 20004KT 4000 HZ FEW020 25/22 Q1009 NOSIG=
202408182230 METAR WIHH 182230Z 19004KT 5000 HZ FEW020 25/22 Q1009 NOSIG=
202408182200 METAR WIHH 182200Z 21005KT 5000 HZ FEW020 25/24 Q1009 NOSIG=
202408182130 METAR WIHH 182130Z 00000KT 4000 HZ FEW020 25/24 Q1009 NOSIG=
202408182100 METAR WIHH 182100Z 00000KT 4000 HZ FEW020 25/24 Q1009 NOSIG=
202408182030 METAR WIHH NIL=
202408182000 METAR WIHH NIL=
202408181930 METAR WIHH NIL=
202408181900 METAR WIHH NIL=
202408181830 METAR WIHH NIL=
202408181800 METAR WIHH NIL=
202408181730 METAR WIHH NIL=
202408181700 METAR WIHH NIL=
202408181630 METAR WIHH 181630Z 13003KT 6000 FEW020 27/24 Q1011 NOSIG=
202408181600 METAR WIHH 181600Z 13003KT 6000 FEW020 27/24 Q1011 NOSIG=
202408181530 METAR WIHH 181530Z 11006KT 6000 FEW020 28/24 Q1011 NOSIG=
202408181500 METAR WIHH 181500Z 10006KT 6000 FEW020 28/23 Q1011 NOSIG=
202408181430 METAR WIHH 181430Z 09004KT 6000 FEW020 28/23 Q1011 NOSIG=
202408181400 METAR WIHH 181400Z 06006KT 6000 FEW020 29/23 Q1011 NOSIG=
202408181330 METAR WIHH 181330Z 06008KT 6000 FEW020 29/23 Q1011 NOSIG=
202408181300 METAR WIHH 181300Z 05004KT 6000 FEW020 28/23 Q1010 NOSIG=
202408181230 METAR WIHH 181230Z 05004KT 6000 FEW020 29/23 Q1010 NOSIG=
202408181200 METAR WIHH 181200Z 05006KT 6000 NSC 29/23 Q1009 NOSIG=
202408181130 METAR WIHH 181130Z 02008KT 6000 FEW020 29/23 Q1009 NOSIG=
202408181100 METAR WIHH 181100Z 03007KT 6000 FEW020 30/22 Q1008 NOSIG=
202408181030 METAR WIHH 181030Z 01007KT 6000 FEW020 30/22 Q1008 NOSIG=
202408181000 METAR WIHH 181000Z 03008KT 6000 FEW020 31/22 Q1007 NOSIG=
202408180930 METAR WIHH 180930Z 01008KT 6000 FEW020 32/23 Q1007 NOSIG=
202408180900 METAR WIHH 180900Z 05008KT 6000 FEW020 34/22 Q1007 NOSIG=
202408180830 METAR WIHH 180830Z 02007KT 6000 FEW020 35/30 Q1007 NOSIG=
202408180800 METAR WIHH 180800Z 04007KT 6000 FEW020 35/19 Q1007 NOSIG=
202408180730 METAR WIHH 180730Z 04007KT 6000 FEW020 35/19 Q1007 NOSIG=
202408180700 METAR WIHH 180700Z 10007KT 6000 FEW020 35/20 Q1007 NOSIG=
202408180630 METAR WIHH 180630Z 10007KT 6000 FEW020 35/19 Q1008 NOSIG=
202408180600 METAR WIHH 180600Z 05007KT 6000 FEW020 35/19 Q1008 NOSIG=
202408180530 METAR WIHH 180530Z 04004KT 6000 FEW020 34/19 Q1009 NOSIG=
202408180500 METAR WIHH 180500Z 03007KT 5000 HZ FEW020 33/21 Q1009 NOSIG=
202408180430 METAR WIHH 180430Z 07003KT 5000 HZ FEW020 33/22 Q1010 NOSIG=
202408180400 METAR WIHH 180400Z 06005KT 4000 HZ FEW020 32/22 Q1010 NOSIG=
202408180330 METAR WIHH 180330Z 04005KT 4000 HZ FEW022 32/22 Q1011 NOSIG=
202408180300 METAR WIHH 180300Z 00000KT 4000 HZ NSC 32/23 Q1011 NOSIG=
202408180230 METAR WIHH 180230Z 02003KT 4000 HZ NSC 31/23 Q1012 NOSIG=
202408180200 METAR WIHH 180200Z 07006KT 5000 HZ NSC 30/23 Q1012 NOSIG=
202408180130 METAR WIHH 180130Z 08003KT 4000 HZ NSC 29/23 Q1011 NOSIG=
202408180100 METAR WIHH 180100Z 00000KT 4000 HZ NSC 28/23 Q1011 NOSIG=
202408180030 METAR WIHH 180030Z 00000KT 4000 HZ NSC 27/24 Q1011 NOSIG=
202408180000 METAR WIHH 180000Z 00000KT 4000 HZ NSC 26/24 Q1011 NOSIG=
202408172330 METAR WIHH 172330Z 00000KT 5000 HZ FEW020 25/23 Q1010 NOSIG=
202408172300 METAR WIHH 172300Z 00000KT 5000 HZ FEW020 25/23 Q1010 NOSIG=
202408172230 METAR WIHH 172230Z 00000KT 5000 HZ SCT020 24/23 Q1010 NOSIG=
202408172200 METAR WIHH 172200Z 00000KT 5000 HZ SCT020 25/24 Q1010 NOSIG=
202408172130 METAR WIHH 172130Z 00000KT 6000 SCT020 25/24 Q1010 NOSIG=
202408172100 METAR WIHH 172100Z 00000KT 6000 SCT020 25/24 Q1010 NOSIG=
202408172030 METAR WIHH NIL=
202408172000 METAR WIHH NIL=
202408171930 METAR WIHH NIL=
202408171900 METAR WIHH NIL=
202408171830 METAR WIHH NIL=
202408171800 METAR WIHH NIL=
202408171730 METAR WIHH NIL=
202408171700 METAR WIHH 171700Z 12003KT 7000 FEW020 26/23 Q1011 NOSIG=
202408171630 METAR WIHH 171630Z 15003KT 7000 FEW020 26/23 Q1011 NOSIG=
202408171600 METAR WIHH 171600Z 18003KT 7000 FEW020 26/23 Q1011 NOSIG=
202408171530 METAR WIHH 171530Z 19003KT 7000 FEW020 27/23 Q1011 NOSIG=
202408171500 METAR WIHH 171500Z 13003KT 7000 FEW020 27/23 Q1011 NOSIG=
202408171430 METAR WIHH 171430Z 06004KT 7000 SCT020 28/23 Q1011 NOSIG=
202408171400 METAR WIHH 171400Z 05006KT 7000 SCT020 28/23 Q1011 NOSIG=
202408171330 METAR WIHH 171330Z 06008KT 7000 SCT020 28/23 Q1010 NOSIG=
202408171300 METAR WIHH 171300Z 07010KT 7000 SCT020 28/23 Q1010 NOSIG=
202408171230 METAR WIHH 171230Z 04010KT 7000 SCT020 28/23 Q1010 NOSIG=
202408171200 METAR WIHH 171200Z 06010KT 7000 SCT020 29/22 Q1009 NOSIG=
202408171130 METAR WIHH 171130Z 05012KT 7000 FEW020 29/22 Q1009 NOSIG=
202408171100 METAR WIHH 171100Z 05014KT 7000 FEW020 30/22 Q1008 NOSIG=
202408171030 METAR WIHH 171030Z 05014KT 7000 FEW020 30/22 Q1008 NOSIG=
202408171000 METAR WIHH 171000Z 04012KT 7000 SCT020 32/22 Q1007 NOSIG=
202408170930 METAR WIHH 170930Z 05012KT 6000 SCT020 32/21 Q1007 NOSIG=
202408170900 METAR WIHH 170900Z 06013KT 6000 SCT020 33/21 Q1007 NOSIG=
202408170830 METAR WIHH 170830Z 07012KT 6000 SCT020 33/21 Q1007 NOSIG=
202408170800 METAR WIHH 170800Z 06012KT 5000 HZ SCT020 32/21 Q1007 NOSIG=
202408170730 METAR WIHH 170730Z 05012KT 5000 HZ SCT020 33/21 Q1007 NOSIG=
202408170700 METAR WIHH 170700Z 04012KT 5000 HZ SCT020 33/20 Q1007 NOSIG=
202408170630 METAR WIHH 170630Z 06013KT 5000 HZ SCT020 34/21 Q1007 NOSIG=
202408170600 METAR WIHH 170600Z 06013KT 5000 HZ SCT020 34/21 Q1008 NOSIG=
202408170530 METAR WIHH 170530Z 07010KT 6000 SCT020 33/21 Q1008 NOSIG=
202408170500 METAR WIHH 170500Z 08008KT 6000 SCT020 34/21 Q1008 NOSIG=
202408170430 METAR WIHH 170430Z 31004KT 7000 SCT020 33/21 Q1009 NOSIG=
202408170400 METAR WIHH 170400Z 13006KT 7000 FEW020 33/22 Q1010 NOSIG=
202408170330 METAR WIHH 170330Z 03005KT 7000 FEW020 32/22 Q1010 NOSIG=
202408170300 METAR WIHH 170300Z 02005KT 7000 FEW020 32/22 Q1011 NOSIG=
202408170230 METAR WIHH 170230Z 09006KT 6000 FEW020 31/22 Q1011 NOSIG=
202408170200 METAR WIHH 170200Z 03004KT 5000 HZ FEW020 31/22 Q1011 NOSIG=
202408170130 METAR WIHH 170130Z 07003KT 5000 HZ FEW020 30/22 Q1011 NOSIG=
202408170100 METAR WIHH 170100Z 05004KT 4000 HZ FEW020 29/22 Q1011 NOSIG=
202408170030 METAR WIHH 170030Z 00000KT 4000 HZ FEW020 28/21 Q1011 NOSIG=
202408170000 METAR WIHH 170000Z 00000KT 4000 HZ SCT020 26/22 Q1010 NOSIG=
202408162330 METAR WIHH 162330Z 00000KT 4000 HZ SCT020 25/22 Q1010 NOSIG=
202408162300 METAR WIHH 162300Z 00000KT 4000 HZ SCT020 26/21 Q1010 NOSIG=
202408162230 METAR WIHH 162230Z 00000KT 4000 HZ SCT020 25/22 Q1009 NOSIG=
202408162200 METAR WIHH 162200Z 00000KT 4000 HZ SCT020 26/22 Q1010 NOSIG=
202408162130 METAR WIHH NIL=
202408162100 METAR WIHH NIL=
202408162030 METAR WIHH NIL=
202408162000 METAR WIHH NIL=
202408161930 METAR WIHH NIL=
202408161900 METAR WIHH NIL=
202408161830 METAR WIHH NIL=
202408161800 METAR WIHH NIL=
202408161730 METAR WIHH NIL=
202408161700 METAR WIHH 161700Z 00000KT 6000 FEW020 28/20 Q1010 NOSIG=
202408161630 METAR WIHH 161630Z 00000KT 7000 FEW020 28/20 Q1010 NOSIG=
202408161600 METAR WIHH 161600Z 05003KT 8000 FEW020 29/20 Q1010 NOSIG=
202408161530 METAR WIHH 161530Z 03003KT 8000 FEW020 29/20 Q1010 NOSIG=
202408161500 METAR WIHH 161500Z 05003KT 8000 FEW020 29/20 Q1010 NOSIG=
202408161430 METAR WIHH 161430Z 07005KT 7000 FEW020 29/20 Q1010 NOSIG=
202408161400 METAR WIHH 161400Z 03008KT 7000 FEW020 29/20 Q1010 NOSIG=
202408161330 METAR WIHH 161330Z 03005KT 7000 FEW020 29/20 Q1010 NOSIG=
202408161300 METAR WIHH 161300Z 04007KT 7000 FEW020 29/22 Q1010 NOSIG=
202408161230 METAR WIHH 161230Z 05006KT 7000 FEW020 29/22 Q1009 NOSIG=
202408161200 METAR WIHH 161200Z 03008KT 7000 FEW018 29/22 Q1009 NOSIG=
202408161130 METAR WIHH 161130Z 35006KT 6000 FEW018 29/22 Q1008 NOSIG=
202408161100 METAR WIHH 161100Z 35007KT 5000 HZ FEW018 29/22 Q1009 NOSIG=
202408161030 METAR WIHH 161030Z 35010KT 5000 HZ SCT018 29/23 Q1007 NOSIG=
202408161000 METAR WIHH 161000Z 36012KT 5000 HZ SCT018 30/23 Q1007 NOSIG=
202408160930 METAR WIHH 160930Z 01012KT 5000 HZ SCT018 31/23 Q1007 NOSIG=
202408160900 METAR WIHH 160900Z 03014KT 5000 HZ SCT018 32/22 Q1006 NOSIG=
202408160830 METAR WIHH 160830Z 02013KT 5000 HZ SCT018 33/22 Q1006 NOSIG=
202408160800 METAR WIHH 160800Z 03014KT 5000 HZ SCT018 34/22 Q1006 NOSIG=
202408160730 METAR WIHH 160730Z 07004KT 5000 HZ SCT020 34/19 Q1007 NOSIG=
202408160700 METAR WIHH 160700Z 26005KT 5000 HZ SCT020 35/19 Q1007 NOSIG=
202408160630 METAR WIHH 160630Z 03005KT 5000 HZ SCT020 35/19 Q1007 NOSIG=
202408160600 METAR WIHH 160600Z 04005KT 5000 HZ SCT020 34/19 Q1007 NOSIG=
202408160530 METAR WIHH 160530Z 21005KT 5000 HZ SCT020 34/19 Q1008 NOSIG=
202408160500 METAR WIHH 160500Z 03004KT 5000 HZ SCT020 33/20 Q1008 NOSIG=
202408160430 METAR WIHH 160430Z 16004KT 5000 HZ SCT020 32/21 Q1009 NOSIG=
202408160400 METAR WIHH 160400Z 20004KT 5000 HZ SCT020 32/22 Q1010 NOSIG=
202408160330 METAR WIHH 160330Z 18004KT 5000 HZ SCT020 31/22 Q1010 NOSIG=
202408160300 METAR WIHH 160300Z 24004KT 5000 HZ SCT020 29/22 Q1011 NOSIG=
202408160230 METAR WIHH 160230Z 19004KT 4000 HZ SCT020 29/22 Q1011 NOSIG=
202408160200 METAR WIHH 160200Z 20004KT 4000 HZ SCT020 29/22 Q1011 NOSIG=
202408160130 METAR WIHH 160130Z 15004KT 4000 HZ SCT020 28/22 Q1011 NOSIG=
202408160100 METAR WIHH 160100Z 19004KT 4000 HZ SCT020 27/22 Q1010 NOSIG=
202408160030 METAR WIHH 160030Z 22004KT 4000 HZ SCT020 26/21 Q1009 NOSIG=
202408160000 METAR WIHH 160000Z 19004KT 4000 HZ SCT020 26/21 Q1009 NOSIG=
202408152330 METAR WIHH 152330Z 22004KT 4000 HZ SCT020 25/22 Q1009 NOSIG=
202408152300 METAR WIHH 152300Z 00000KT 4000 HZ SCT020 25/21 Q1009 NOSIG=
202408152230 METAR WIHH 152230Z 21003KT 4000 HZ SCT020 25/22 Q1008 NOSIG=
202408152200 METAR WIHH 152200Z 21004KT 4000 HZ SCT020 25/22 Q1008 NOSIG=
202408152130 METAR WIHH 152130Z 22003KT 4000 HZ SCT020 24/22 Q1008 NOSIG=
202408152100 METAR WIHH 152100Z 22003KT 4000 BR SCT020 24/22 Q1008 NOSIG=
202408152030 METAR WIHH NIL=
202408152000 METAR WIHH NIL=
202408151930 METAR WIHH NIL=
202408151900 METAR WIHH NIL=
202408151830 METAR WIHH NIL=
202408151800 METAR WIHH NIL=
202408151730 METAR WIHH NIL=
202408151700 METAR WIHH 151700Z 00000KT 5000 HZ SCT020 25/22 Q1010 NOSIG=
202408151630 METAR WIHH 151630Z 16003KT 5000 HZ SCT020 26/22 Q1010 NOSIG=
202408151600 METAR WIHH 151600Z 18003KT 5000 HZ SCT020 26/22 Q1010 NOSIG=
202408151530 METAR WIHH 151530Z 16003KT 5000 HZ SCT020 27/21 Q1010 NOSIG=
202408151500 METAR WIHH 151500Z 17003KT 5000 HZ SCT020 28/21 Q1010 NOSIG=
202408151430 METAR WIHH 151430Z 12005KT 5000 HZ SCT020 28/21 Q1010 NOSIG=
202408151400 METAR WIHH 151400Z 09005KT 5000 HZ SCT020 28/21 Q1010 NOSIG=
202408151330 METAR WIHH 151330Z 09008KT 5000 HZ SCT020 28/21 Q1010 NOSIG=
202408151300 METAR WIHH 151300Z 08008KT 5000 HZ SCT020 28/22 Q1009 NOSIG=
202408151230 METAR WIHH 151230Z 06010KT 5000 HZ SCT020 29/21 Q1009 NOSIG=
202408151200 METAR WIHH 151200Z 03008KT 5000 HZ SCT020 29/19 Q1007 NOSIG=
202408151130 METAR WIHH 151130Z 03008KT 5000 HZ SCT020 29/19 Q1007 NOSIG=
202408151100 METAR WIHH 151100Z 06010KT 5000 HZ SCT020 30/19 Q1007 NOSIG=
202408151030 METAR WIHH 151030Z 01010KT 5000 HZ FEW020 31/19 Q1007 NOSIG=
202408151000 METAR WIHH 151000Z 03010KT 5000 HZ FEW020 31/19 Q1007 NOSIG=
202408150930 METAR WIHH 150930Z 36010KT 5000 HZ SCT020 32/22 Q1006 NOSIG=
202408150900 METAR WIHH 150900Z 03010KT 5000 HZ SCT020 32/22 Q1006 NOSIG=
202408150830 METAR WIHH 150830Z 35010KT 5000 HZ SCT020 33/22 Q1006 NOSIG=
202408150800 METAR WIHH 150800Z 33010KT 5000 HZ SCT020 33/22 Q1006 NOSIG=
202408150730 METAR WIHH 150730Z 36010KT 5000 HZ SCT020 34/23 Q1006 NOSIG=
202408150700 METAR WIHH 150700Z 36010KT 5000 HZ SCT020 34/23 Q1006 NOSIG=
202408150630 METAR WIHH 150630Z 03008KT 5000 HZ SCT020 35/20 Q1006 NOSIG=
202408150600 METAR WIHH 150600Z 03005KT 5000 HZ SCT020 35/20 Q1006 NOSIG=
202408150530 METAR WIHH 150530Z 06003KT 5000 HZ SCT020 34/20 Q1007 NOSIG=
202408150500 METAR WIHH 150500Z 24003KT 5000 HZ FEW020 33/20 Q1008 NOSIG=
202408150430 METAR WIHH 150430Z 18006KT 5000 HZ FEW020 34/20 Q1008 NOSIG=
202408150400 METAR WIHH 150400Z 06005KT 5000 HZ FEW020 33/19 Q1009 NOSIG=
202408150330 METAR WIHH 150330Z 12003KT 5000 HZ NSC 32/21 Q1010 NOSIG=
202408150300 METAR WIHH 150300Z 20003KT 5000 HZ NSC 32/21 Q1010 NOSIG=
202408150230 METAR WIHH 150230Z 22006KT 5000 HZ NSC 30/21 Q1010 NOSIG=
202408150200 METAR WIHH 150200Z 25006KT 4000 HZ NSC 30/22 Q1010 NOSIG=
202408150130 METAR WIHH 150130Z 23005KT 4000 HZ NSC 29/22 Q1010 NOSIG=
202408150100 METAR WIHH 150100Z 24004KT 4000 HZ NSC 28/22 Q1010 NOSIG=
202408150030 METAR WIHH 150030Z 21003KT 4000 HZ NSC 27/22 Q1010 NOSIG=
202408150000 METAR WIHH 150000Z 21004KT 4000 HZ NSC 25/21 Q1009 NOSIG=
202408142330 METAR WIHH 142330Z 26003KT 4000 HZ NSC 25/21 Q1009 NOSIG=
202408142300 METAR WIHH 142300Z 19003KT 4000 HZ FEW020 25/21 Q1009 NOSIG=
202408142230 METAR WIHH 142230Z 20005KT 5000 HZ FEW020 25/21 Q1009 NOSIG=
202408142200 METAR WIHH 142200Z 22003KT 5000 HZ FEW020 25/22 Q1009 NOSIG=
202408142130 METAR WIHH 142130Z 24003KT 5000 HZ FEW020 25/23 Q1009 NOSIG=
202408142100 METAR WIHH 142100Z 21003KT 5000 HZ FEW020 25/23 Q1009 NOSIG=
202408142030 METAR WIHH NIL=
202408142000 METAR WIHH NIL=
202408141930 METAR WIHH NIL=
202408141900 METAR WIHH NIL=
202408141830 METAR WIHH NIL=
202408141800 METAR WIHH NIL=
202408141730 METAR WIHH NIL=
202408141700 METAR WIHH NIL=
202408141630 METAR WIHH NIL=
202408141600 METAR WIHH 141600Z 10003KT 5000 HZ NSC 28/23 Q1011 NOSIG=
202408141530 METAR WIHH 141530Z 07003KT 6000 NSC 28/23 Q1011 NOSIG=
202408141500 METAR WIHH 141500Z 11003KT 6000 NSC 28/23 Q1010 NOSIG=
202408141430 METAR WIHH 141430Z 13003KT 6000 NSC 28/23 Q1010 NOSIG=
202408141400 METAR WIHH 141400Z 08003KT 6000 NSC 28/22 Q1010 NOSIG=
202408141330 METAR WIHH 141330Z 05004KT 6000 NSC 29/22 Q1010 NOSIG=
202408141300 METAR WIHH 141300Z 04006KT 6000 NSC 29/22 Q1009 NOSIG=
202408141230 METAR WIHH 141230Z 06006KT 6000 NSC 29/22 Q1009 NOSIG=
202408141200 METAR WIHH 141200Z 08006KT 6000 NSC 30/21 Q1008 NOSIG=
202408141130 METAR WIHH 141130Z 05007KT 6000 FEW020 30/21 Q1008 NOSIG=
202408141100 METAR WIHH 141100Z 02007KT 6000 FEW020 32/22 Q1008 NOSIG=
202408141030 METAR WIHH 141030Z 03007KT 6000 FEW020 32/22 Q1007 NOSIG=
202408141000 METAR WIHH 141000Z 04007KT 6000 FEW020 33/21 Q1007 NOSIG=
202408140930 METAR WIHH 140930Z 03008KT 6000 FEW020 33/21 Q1007 NOSIG=
202408140900 METAR WIHH 140900Z 05007KT 6000 FEW020 33/21 Q1007 NOSIG=
202408140830 METAR WIHH 140830Z 06007KT 6000 FEW020 34/20 Q1007 NOSIG=
202408140800 METAR WIHH 140800Z 03007KT 6000 FEW020 34/20 Q1007 NOSIG=
202408140730 METAR WIHH 140730Z 03008KT 5000 HZ FEW020 34/20 Q1007 NOSIG=
202408140700 METAR WIHH 140700Z 05007KT 5000 HZ FEW020 34/20 Q1007 NOSIG=
202408140630 METAR WIHH 140630Z 10007KT 5000 HZ FEW020 34/20 Q1008 NOSIG=
202408140600 METAR WIHH 140600Z 06007KT 5000 HZ FEW020 33/20 Q1008 NOSIG=
202408140530 METAR WIHH 140530Z 08007KT 5000 HZ FEW020 34/20 Q1008 NOSIG=
202408140500 METAR WIHH 140500Z 10006KT 5000 HZ FEW020 34/20 Q1009 NOSIG=
202408140430 METAR WIHH 140430Z 12006KT 5000 HZ FEW020 33/21 Q1009 NOSIG=
202408140400 METAR WIHH 140400Z 10007KT 5000 HZ FEW020 32/21 Q1010 NOSIG=
202408140330 METAR WIHH 140330Z 12003KT 5000 HZ NSC 32/21 Q1010 NOSIG=
202408140300 METAR WIHH 140300Z 18003KT 4000 HZ NSC 31/21 Q1011 NOSIG=
202408140230 METAR WIHH 140230Z 14003KT 4000 HZ NSC 30/22 Q1011 NOSIG=
202408140200 METAR WIHH 140200Z 12003KT 4000 HZ NSC 29/21 Q1011 NOSIG=
202408140130 METAR WIHH 140130Z 18003KT 4000 HZ NSC 28/22 Q1011 NOSIG=
202408140100 METAR WIHH 140100Z 00000KT 4000 HZ NSC 27/22 Q1011 NOSIG=
202408140030 METAR WIHH 140030Z 00000KT 4000 HZ NSC 26/22 Q1011 NOSIG=
202408140000 METAR WIHH 140000Z 00000KT 4000 HZ NSC 25/21 Q1011 NOSIG=
202408132330 METAR WIHH 132330Z 24003KT 4000 HZ NSC 24/22 Q1011 NOSIG=
202408132300 METAR WIHH 132300Z 00000KT 5000 HZ NSC 24/22 Q1010 NOSIG=
202408132230 METAR WIHH 132230Z 00000KT 7000 NSC 24/22 Q1010 NOSIG=
202408132200 METAR WIHH 132200Z 00000KT 7000 NSC 24/22 Q1010 NOSIG=
202408132130 METAR WIHH 132130Z 00000KT 6000 NSC 24/21 Q1010 NOSIG=
202408132100 METAR WIHH 132100Z 00000KT 5000 HZ FEW022 24/22 Q1009 NOSIG=
202408132030 METAR WIHH NIL=
202408132000 METAR WIHH NIL=
202408131930 METAR WIHH NIL=
202408131900 METAR WIHH NIL=
202408131830 METAR WIHH NIL=
202408131800 METAR WIHH NIL=
202408131730 METAR WIHH 131730Z 15003KT 6000 FEW020 26/22 Q1011 NOSIG=
202408131700 METAR WIHH 131700Z 14003KT 6000 NSC 26/22 Q1011 NOSIG=
202408131630 METAR WIHH 131630Z 14003KT 7000 NSC 26/22 Q1011 NOSIG=
202408131600 METAR WIHH 131600Z 19003KT 7000 NSC 26/22 Q1011 NOSIG=
202408131530 METAR WIHH NIL=
202408131500 METAR WIHH NIL=
202408131400 METAR WIHH 131400Z 09007KT 8000 NSC 28/22 Q1011 NOSIG=
202408131330 METAR WIHH 131330Z 07007KT 8000 NSC 28/22 Q1011 NOSIG=
202408131300 METAR WIHH 131300Z 06007KT 8000 NSC 29/21 Q1010 NOSIG=
202408131230 METAR WIHH 131230Z 05008KT 8000 NSC 29/21 Q1010 NOSIG=
202408131200 METAR WIHH 131200Z 08006KT 8000 NSC 29/20 Q1010 NOSIG=
202408131130 METAR WIHH 131130Z 02013KT 8000 NSC 30/20 Q1009 NOSIG=
202408131100 METAR WIHH NIL=
202408131030 METAR WIHH 131030Z 06013KT CAVOK 31/20 Q1008 NOSIG=
202408131000 METAR WIHH 131000Z 07013KT CAVOK 32/20 Q1008 NOSIG=
202408130930 METAR WIHH 130930Z 06014KT CAVOK 32/20 Q1008 NOSIG=
202408130900 METAR WIHH 130900Z 06014KT CAVOK 33/19 Q1008 NOSIG=
202408130830 METAR WIHH 130830Z 04015KT CAVOK 33/19 Q1008 NOSIG=
202408130800 METAR WIHH 130800Z 05015KT CAVOK 34/19 Q1008 NOSIG=
202408130730 METAR WIHH 130730Z 06013KT CAVOK 34/17 Q1008 NOSIG=
202408130700 METAR WIHH 130700Z 05013KT CAVOK 34/17 Q1008 NOSIG=
202408130630 METAR WIHH 130630Z 04012KT CAVOK 34/17 Q1008 NOSIG=
202408130600 METAR WIHH 130600Z 07012KT 7000 FEW022 34/17 Q1009 NOSIG=
202408130530 METAR WIHH 130530Z 05012KT 7000 FEW022 34/18 Q1009 NOSIG=
202408130500 METAR WIHH 130500Z 09012KT 6000 FEW022 33/18 Q1010 NOSIG=
202408130430 METAR WIHH 130430Z 10006KT 6000 NSC 33/18 Q1010 NOSIG=
202408130400 METAR WIHH 130400Z 12012KT 6000 NSC 32/19 Q1011 NOSIG=
202408130330 METAR WIHH 130330Z 09012KT 6000 NSC 32/19 Q1011 NOSIG=
202408130300 METAR WIHH 130300Z 09008KT 5000 HZ NSC 31/19 Q1011 NOSIG=
202408130230 METAR WIHH 130230Z 11007KT 4000 HZ NSC 30/19 Q1011 NOSIG=
202408130200 METAR WIHH 130200Z 14007KT 4000 HZ NSC 29/19 Q1011 NOSIG=
202408130130 METAR WIHH 130130Z 11006KT 4000 HZ NSC 27/21 Q1011 NOSIG=
202408130100 METAR WIHH 130100Z 12005KT 5000 HZ NSC 26/20 Q1011 NOSIG=
202408130030 METAR WIHH 130030Z 19004KT 5000 HZ NSC 26/20 Q1011 NOSIG=
202408130000 METAR WIHH 130000Z 21004KT 5000 HZ NSC 24/20 Q1011 NOSIG=
202408122330 METAR WIHH 122330Z 25003KT 5000 HZ FEW020 23/21 Q1011 NOSIG=
202408122300 METAR WIHH 122300Z 21003KT 5000 HZ FEW020 23/21 Q1011 NOSIG=
202408122230 METAR WIHH 122230Z 24003KT 6000 FEW020 23/21 Q1010 NOSIG=
202408122200 METAR WIHH 122200Z 22003KT 6000 FEW020 23/21 Q1010 NOSIG=
202408122130 METAR WIHH 122130Z 00000KT 6000 FEW020 23/21 Q1010 NOSIG=
202408122100 METAR WIHH NIL=
202408122030 METAR WIHH NIL=
202408122000 METAR WIHH NIL=
202408121930 METAR WIHH NIL=
202408121900 METAR WIHH NIL=
202408121830 METAR WIHH NIL=
202408121800 METAR WIHH NIL=
202408121730 METAR WIHH NIL=
202408121700 METAR WIHH 121700Z 21002KT 6000 SCT020 25/20 Q1010 NOSIG=
202408121630 METAR WIHH 121630Z 16003KT 7000 SCT020 26/19 Q1010 NOSIG=
202408121600 METAR WIHH 121600Z 15003KT 7000 SCT018 27/20 Q1011 NOSIG=
202408121530 METAR WIHH 121530Z 15003KT 7000 SCT018 27/20 Q1011 NOSIG=
202408121500 METAR WIHH 121500Z 16005KT 7000 SCT018 27/20 Q1011 NOSIG=
202408121430 METAR WIHH 121430Z 12006KT 7000 SCT020 28/20 Q1011 NOSIG=
202408121400 METAR WIHH 121400Z 11008KT 7000 SCT018 28/20 Q1011 NOSIG=
202408121330 METAR WIHH 121330Z 12010KT 7000 SCT018 28/20 Q1010 NOSIG=
202408121300 METAR WIHH 121300Z 09010KT 7000 SCT018 28/19 Q1009 NOSIG=
202408121230 METAR WIHH 121230Z 07010KT 7000 SCT017 28/19 Q1009 NOSIG=
202408121200 METAR WIHH 121200Z 06010KT 7000 SCT020 29/19 Q1009 NOSIG=
202408121130 METAR WIHH 121130Z 08010KT 7000 SCT020 29/19 Q1008 NOSIG=
202408121100 METAR WIHH 121100Z 04010KT 7000 SCT020 30/19 Q1008 NOSIG=
202408121030 METAR WIHH 121030Z 04010KT 7000 SCT020 30/19 Q1008 NOSIG=
202408121000 METAR WIHH 121000Z 04010KT 7000 SCT020 31/19 Q1008 NOSIG=
202408120930 METAR WIHH 120930Z 04010KT 7000 SCT020 31/19 Q1007 NOSIG=
202408120900 METAR WIHH 120900Z 07010KT 7000 SCT020 32/19 Q1007 NOSIG=
202408120830 METAR WIHH 120830Z 08012KT 6000 SCT020 33/19 Q1007 NOSIG=
202408120800 METAR WIHH 120800Z 06012KT 6000 SCT020 33/19 Q1007 NOSIG=
202408120730 METAR WIHH 120730Z 08012KT 6000 SCT020 33/19 Q1007 NOSIG=
202408120700 METAR WIHH 120700Z 03012KT 6000 SCT020 33/19 Q1007 NOSIG=
202408120630 METAR WIHH 120630Z 05012KT 6000 SCT020 33/20 Q1007 NOSIG=
202408120600 METAR WIHH 120600Z 04011KT 5000 HZ SCT020 31/21 Q1008 NOSIG=
202408120530 METAR WIHH 120530Z 09008KT 5000 HZ SCT020 30/21 Q1009 NOSIG=
202408120500 METAR WIHH 120500Z 13005KT 5000 HZ SCT020 30/21 Q1009 NOSIG=
202408120430 METAR WIHH 120430Z 06008KT 5000 HZ SCT020 30/21 Q1009 NOSIG=
202408120400 METAR WIHH 120400Z 10008KT 5000 HZ SCT020 28/20 Q1009 NOSIG=
202408120330 METAR WIHH 120330Z 21006KT 5000 HZ FEW020 28/20 Q1010 NOSIG=
202408120300 METAR WIHH 120300Z 14003KT 5000 HZ FEW020 28/20 Q1010 NOSIG=
202408120230 METAR WIHH 120230Z 21005KT 5000 HZ FEW020 28/20 Q1010 NOSIG=
202408120200 METAR WIHH 120200Z 19005KT 5000 HZ FEW020 28/20 Q1010 NOSIG=
202408120130 METAR WIHH 120130Z 22007KT 5000 HZ FEW020 27/20 Q1010 NOSIG=
202408120100 METAR WIHH 120100Z 18005KT 5000 HZ SCT020 27/20 Q1010 NOSIG=
202408120030 METAR WIHH 120030Z 22004KT 5000 HZ SCT020 26/20 Q1010 NOSIG=
202408120000 METAR WIHH 120000Z 22004KT 5000 HZ SCT020 26/20 Q1009 NOSIG=
202408112330 METAR WIHH 112330Z 22004KT 5000 HZ SCT020 25/20 Q1009 NOSIG=
202408112300 METAR WIHH 112300Z 21004KT 5000 HZ SCT020 25/21 Q1009 NOSIG=
202408112230 METAR WIHH 112230Z 23006KT 5000 HZ SCT020 25/21 Q1009 NOSIG=
202408112200 METAR WIHH 112200Z 23003KT 5000 HZ SCT020 25/21 Q1009 NOSIG=
202408112130 METAR WIHH 112130Z 24003KT 5000 HZ SCT020 26/21 Q1008 NOSIG=
202408112100 METAR WIHH 112100Z 23004KT 5000 HZ SCT020 26/21 Q1008 NOSIG=
202408112030 METAR WIHH NIL=
202408112000 METAR WIHH NIL=
202408111930 METAR WIHH NIL=
202408111900 METAR WIHH NIL=
202408111830 METAR WIHH NIL=
202408111800 METAR WIHH NIL=
202408111730 METAR WIHH NIL=
202408111700 METAR WIHH NIL=
202408111630 METAR WIHH NIL=
202408111600 METAR WIHH 111600Z 06005KT 5000 HZ SCT020 29/23 Q1010 NOSIG=
202408111530 METAR WIHH 111530Z 09005KT 5000 HZ SCT020 29/23 Q1010 NOSIG=
202408111500 METAR WIHH 111500Z 08005KT 5000 HZ SCT020 29/23 Q1010 NOSIG=
202408111430 METAR WIHH 111430Z 06008KT 5000 HZ SCT020 29/23 Q1010 NOSIG=
202408111400 METAR WIHH 111400Z 08008KT 5000 HZ SCT020 29/23 Q1010 NOSIG=
202408111330 METAR WIHH 111330Z 06008KT 5000 HZ SCT020 29/23 Q1009 NOSIG=
202408111300 METAR WIHH 111300Z 06008KT 5000 HZ SCT020 28/22 Q1009 NOSIG=
202408111230 METAR WIHH 111230Z 03008KT 5000 HZ SCT020 28/22 Q1008 NOSIG=
202408111200 METAR WIHH 111200Z 04008KT 5000 HZ SCT020 29/22 Q1008 NOSIG=
202408111130 METAR WIHH NIL=
202408111100 METAR WIHH 111100Z 07008KT 5000 HZ SCT020 30/23 Q1007 RA TO SE=
202408111030 METAR WIHH 111030Z 33008KT 5000 HZ FEW020 30/23 Q1007 NOSIG=
202408111000 METAR WIHH 111000Z 02008KT 5000 HZ FEW020 30/23 Q1007 NOSIG=
202408110930 METAR WIHH 110930Z 36008KT 5000 HZ FEW020 31/22 Q1007 NOSIG=
202408110900 METAR WIHH 110900Z 03008KT 5000 HZ SCT020 32/23 Q1007 NOSIG=
202408110830 METAR WIHH 110830Z 31008KT 5000 HZ SCT020 32/22 Q1006 NOSIG=
202408110800 METAR WIHH 110800Z 01008KT 5000 HZ SCT020 33/23 Q1006 NOSIG=
202408110730 METAR WIHH 110730Z 05007KT 5000 HZ SCT020 33/22 Q1006 NOSIG=
202408110700 METAR WIHH 110700Z 36008KT 5000 HZ SCT020 33/22 Q1007 NOSIG=
202408110630 METAR WIHH 110630Z 36008KT 5000 HZ SCT020 33/23 Q1007 NOSIG=
202408110600 METAR WIHH 110600Z 36008KT 5000 HZ SCT020 33/23 Q1007 NOSIG=
202408110530 METAR WIHH 110530Z 33008KT 5000 HZ SCT020 32/23 Q1008 NOSIG=
202408110500 METAR WIHH 110500Z 22005KT 5000 HZ SCT020 33/23 Q1008 NOSIG=
202408110430 METAR WIHH 110430Z 24005KT 5000 HZ SCT020 33/23 Q1008 NOSIG=
202408110400 METAR WIHH 110400Z 24005KT 5000 HZ SCT020 32/22 Q1009 NOSIG=
202408110330 METAR WIHH 110330Z 13004KT 5000 HZ SCT020 30/23 Q1009 NOSIG=
202408110300 METAR WIHH 110300Z 27003KT 5000 HZ SCT020 30/23 Q1010 NOSIG=
202408110230 METAR WIHH 110230Z 36003KT 5000 HZ SCT020 30/23 Q1010 NOSIG=
202408110200 METAR WIHH 110200Z 33003KT 5000 HZ FEW020 29/23 Q1011 NOSIG=
202408110130 METAR WIHH 110130Z 24004KT 5000 HZ NSC 29/24 Q1010 NOSIG=
202408110100 METAR WIHH 110100Z 27004KT 5000 HZ FEW020 29/23 Q1010 NOSIG=
202408110030 METAR WIHH 110030Z 22003KT 5000 HZ FEW020 28/23 Q1010 NOSIG=
202408110000 METAR WIHH 110000Z 27003KT 5000 HZ SCT018 27/23 Q1010 NOSIG=
202408102330 METAR WIHH 102330Z 20003KT 5000 HZ SCT018 26/23 Q1010 NOSIG=
202408102300 METAR WIHH 102300Z 19003KT 6000 SCT018 26/23 Q1010 NOSIG=
202408102230 METAR WIHH 102230Z 26003KT 6000 SCT018 26/23 Q1009 RMK RA TO NE=
202408102200 METAR WIHH NIL=
202408102130 METAR WIHH 102130Z 22004KT 6000 SCT018 26/23 Q1009 RMK RA TO W=
202408102100 METAR WIHH NIL=
202408102030 METAR WIHH NIL=
202408102000 METAR WIHH NIL=
202408101930 METAR WIHH NIL=
202408101900 METAR WIHH NIL=
202408101830 METAR WIHH NIL=
202408101800 METAR WIHH NIL=
202408101730 METAR WIHH NIL=
202408101700 METAR WIHH 101700Z 00000KT 6000 FEW018 27/24 Q1010 NOSIG=
202408101630 METAR WIHH 101630Z 07004KT 6000 FEW018 28/23 Q1010 NOSIG=
202408101600 METAR WIHH 101600Z 07004KT 6000 FEW018 28/23 Q1010 NOSIG=
202408101530 METAR WIHH 101530Z 08003KT 6000 SCT018 28/24 Q1010 NOSIG=
202408101500 METAR WIHH 101500Z 07004KT 6000 SCT018 28/24 Q1010 NOSIG=
202408101430 METAR WIHH 101430Z 05006KT 6000 SCT018 28/24 Q1010 NOSIG=
202408101400 METAR WIHH 101400Z 09007KT 6000 SCT020 29/24 Q1010 NOSIG=
202408101330 METAR WIHH 101330Z 36004KT 6000 SCT020 29/24 Q1010 NOSIG=
202408101300 METAR WIHH NIL=
202408101230 METAR WIHH 101230Z 04010KT 6000 SCT020 29/24 Q1009 NOSIG=
202408101200 METAR WIHH 101200Z 03010KT 6000 SCT020 29/24 Q1009 NOSIG=
202408101130 METAR WIHH 101130Z 07012KT 5000 HZ SCT020 30/23 Q1008 RMK RA TO S=
202408101100 METAR WIHH NIL=
202408101030 METAR WIHH 101030Z 04010KT 5000 HZ SCT020 30/23 Q1008 NOSIG=
202408101000 METAR WIHH 101000Z 05014KT 5000 HZ SCT020 31/23 Q1007 RMK RA TO S=
202408100930 METAR WIHH 100930Z 02012KT 5000 HZ SCT020 32/22 Q1007 NOSIG=
202408100900 METAR WIHH 100900Z 03011KT 5000 HZ SCT020 33/22 Q1007 NOSIG=
202408100830 METAR WIHH 100830Z 02014KT 5000 HZ SCT020 33/22 Q1007 NOSIG=
202408100800 METAR WIHH 100800Z 02011KT 5000 HZ SCT020 34/22 Q1007 NOSIG=
202408100730 METAR WIHH 100730Z 04012KT 5000 HZ FEW020 34/22 Q1007 NOSIG=
202408100700 METAR WIHH 100700Z 09012KT 5000 HZ FEW020 34/21 Q1007 NOSIG=
202408100630 METAR WIHH 100630Z 05010KT 5000 HZ SCT020 33/21 Q1007 NOSIG=
202408100600 METAR WIHH 100600Z 06006KT 6000 FEW020 33/21 Q1008 NOSIG=
202408100530 METAR WIHH 100530Z 07012KT 5000 HZ SCT020 33/21 Q1008 NOSIG=
202408100500 METAR WIHH 100500Z 03012KT 5000 HZ FEW020 33/21 Q1009 NOSIG=
202408100430 METAR WIHH 100430Z 04012KT 5000 HZ FEW020 33/21 Q1009 NOSIG=
202408100400 METAR WIHH 100400Z 11006KT 4000 HZ FEW020 33/22 Q1010 NOSIG=
202408100330 METAR WIHH 100330Z 03005KT 4000 HZ FEW020 32/22 Q1010 NOSIG=
202408100300 METAR WIHH 100300Z 06004KT 4000 HZ FEW020 31/23 Q1011 NOSIG=
202408100230 METAR WIHH 100230Z 15005KT 4000 HZ FEW020 30/23 Q1011 NOSIG=
202408100200 METAR WIHH 100200Z 05003KT 4000 HZ NSC 30/23 Q1011 NOSIG=
202408100130 METAR WIHH 100130Z 16003KT 4000 HZ NSC 30/23 Q1011 NOSIG=
202408100100 METAR WIHH 100100Z 22003KT 4000 HZ NSC 29/24 Q1011 NOSIG=
202408100030 METAR WIHH 100030Z 00000KT 4000 HZ NSC 28/24 Q1011 NOSIG=
202408100000 METAR WIHH 100000Z 00000KT 4000 HZ NSC 26/24 Q1011 NOSIG=
202408092330 METAR WIHH 092330Z 00000KT 4000 HZ FEW020 25/23 Q1010 NOSIG=
202408092300 METAR WIHH 092300Z 00000KT 5000 HZ FEW020 25/23 Q1010 NOSIG=
202408092230 METAR WIHH 092230Z 00000KT 6000 FEW020 25/23 Q1010 NOSIG=
202408092200 METAR WIHH 092200Z 00000KT 6000 FEW020 25/23 Q1010 NOSIG=
202408092130 METAR WIHH 092130Z 00000KT 6000 FEW020 25/23 Q1010 NOSIG=
202408092100 METAR WIHH NIL=
202408092030 METAR WIHH NIL=
202408092000 METAR WIHH NIL=
202408091930 METAR WIHH NIL=
202408091900 METAR WIHH NIL=
202408091830 METAR WIHH NIL=
202408091800 METAR WIHH NIL=
202408091730 METAR WIHH NIL=
202408091700 METAR WIHH 091700Z 10005KT 7000 NSC 28/23 Q1011 NOSIG=
202408091630 METAR WIHH 091630Z 09005KT 7000 FEW020 28/23 Q1011 NOSIG=
202408091600 METAR WIHH 091600Z 10005KT 7000 FEW020 28/23 Q1011 NOSIG=
202408091530 METAR WIHH 091530Z 09006KT 7000 FEW020 28/23 Q1011 NOSIG=
202408091500 METAR WIHH 091500Z 06006KT 7000 FEW020 28/23 Q1011 NOSIG=
202408091430 METAR WIHH 091430Z 06008KT 7000 NSC 28/23 Q1011 NOSIG=
202408091400 METAR WIHH 091400Z 10007KT 7000 NSC 29/22 Q1010 NOSIG=
202408091330 METAR WIHH 091330Z 08005KT 7000 NSC 29/22 Q1010 NOSIG=
202408091300 METAR WIHH 091300Z 05008KT 7000 NSC 29/22 Q1010 NOSIG=
202408091230 METAR WIHH 091230Z 08008KT 7000 NSC 29/23 Q1010 NOSIG=
202408091200 METAR WIHH 091200Z 05008KT 7000 NSC 29/23 Q1009 NOSIG=
202408091130 METAR WIHH 091130Z 07008KT 7000 NSC 30/22 Q1008 NOSIG=
202408091100 METAR WIHH 091100Z 05010KT 7000 NSC 32/21 Q1008 NOSIG=
202408091030 METAR WIHH 091030Z 07010KT 7000 NSC 31/21 Q1008 NOSIG=
202408091000 METAR WIHH 091000Z 05010KT 7000 NSC 32/21 Q1008 NOSIG=
202408090930 METAR WIHH 090930Z 07010KT 8000 NSC 32/22 Q1008 NOSIG=
202408090900 METAR WIHH 090900Z 07010KT 8000 FEW022 33/21 Q1008 NOSIG=
202408090830 METAR WIHH 090830Z 06010KT 8000 SCT020 33/23 Q1008 NOSIG=
202408090800 METAR WIHH 090800Z 07010KT 8000 SCT020 33/23 Q1007 NOSIG=
202408090730 METAR WIHH 090730Z 06010KT 8000 SCT020 34/23 Q1007 NOSIG=
202408090700 METAR WIHH 090700Z 04010KT 8000 SCT020 34/22 Q1008 NOSIG=
202408090630 METAR WIHH 090630Z 03010KT 8000 SCT020 34/22 Q1008 NOSIG=
202408090600 METAR WIHH 090600Z 07010KT 8000 FEW020 34/22 Q1008 NOSIG=
202408090530 METAR WIHH 090530Z 06010KT 8000 FEW020 34/21 Q1009 NOSIG=
202408090500 METAR WIHH 090500Z 07010KT 8000 FEW020 34/21 Q1009 NOSIG=
202408090430 METAR WIHH 090430Z 08010KT 7000 FEW020 33/22 Q1010 NOSIG=
202408090400 METAR WIHH 090400Z 09010KT 7000 FEW020 33/21 Q1011 NOSIG=
202408090330 METAR WIHH 090330Z 06010KT 6000 FEW020 33/21 Q1011 NOSIG=
202408090300 METAR WIHH 090300Z 05008KT 5000 HZ FEW020 32/21 Q1011 NOSIG=
202408090230 METAR WIHH 090230Z 10005KT 5000 HZ NSC 31/21 Q1012 NOSIG=
202408090200 METAR WIHH 090200Z 12004KT 4000 HZ NSC 30/22 Q1012 NOSIG=
202408090130 METAR WIHH 090130Z 00000KT 4000 HZ NSC 30/22 Q1012 NOSIG=
202408090100 METAR WIHH 090100Z 23003KT 4000 HZ NSC 28/23 Q1012 NOSIG=
202408090030 METAR WIHH 090030Z 18003KT 3000 HZ NSC 27/23 Q1012 NOSIG=
202408090000 METAR WIHH 090000Z 00000KT 3000 HZ NSC 26/24 Q1011 NOSIG=
202408082330 METAR WIHH 082330Z 21003KT 3000 HZ FEW020 25/23 Q1011 NOSIG=
202408082300 METAR WIHH 082300Z 00000KT 3000 HZ FEW020 25/23 Q1011 NOSIG=
202408082230 METAR WIHH 082230Z 00000KT 3000 HZ SCT020 25/23 Q1011 NOSIG=
202408082200 METAR WIHH 082200Z 18003KT 3000 HZ SCT020 25/23 Q1010 NOSIG=
202408082130 METAR WIHH 082130Z 18003KT 4000 HZ SCT020 25/23 Q1010 NOSIG=
202408082100 METAR WIHH 082100Z 13003KT 4000 HZ SCT020 25/23 Q1010 NOSIG=
202408082030 METAR WIHH NIL=
202408082000 METAR WIHH NIL=
202408081930 METAR WIHH NIL=
202408081900 METAR WIHH NIL=
202408081830 METAR WIHH NIL=
202408081800 METAR WIHH NIL=
202408081730 METAR WIHH NIL=
202408081700 METAR WIHH 081700Z 03003KT 5000 HZ SCT020 27/23 Q1013 NOSIG=
202408081630 METAR WIHH 081630Z 06004KT 5000 HZ SCT020 28/23 Q1013 NOSIG=
202408081600 METAR WIHH 081600Z 07008KT 5000 HZ SCT020 28/23 Q1013 NOSIG=
202408081530 METAR WIHH 081530Z 09003KT 5000 HZ SCT020 29/23 Q1013 NOSIG=
202408081500 METAR WIHH 081500Z 09003KT 5000 HZ SCT020 29/23 Q1013 NOSIG=
202408081430 METAR WIHH 081430Z 10006KT 5000 HZ SCT020 29/23 Q1012 NOSIG=
202408081400 METAR WIHH 081400Z 08005KT 5000 HZ SCT020 29/22 Q1012 NOSIG=
202408081330 METAR WIHH 081330Z 07008KT 5000 HZ SCT020 29/22 Q1012 NOSIG=
202408081300 METAR WIHH 081300Z 06008KT 5000 HZ SCT020 29/22 Q1012 NOSIG=
202408081230 METAR WIHH 081230Z 06010KT 5000 HZ SCT020 29/22 Q1011 NOSIG=
202408081200 METAR WIHH 081200Z 03012KT 5000 HZ SCT020 30/22 Q1011 NOSIG=
202408081130 METAR WIHH 081130Z 04010KT 5000 HZ SCT020 30/23 Q1011 NOSIG=
202408081100 METAR WIHH 081100Z 06010KT 5000 HZ SCT020 31/23 Q1010 NOSIG=
202408081030 METAR WIHH 081030Z 06010KT 5000 HZ SCT020 31/23 Q1010 NOSIG=
202408081000 METAR WIHH 081000Z 03010KT 5000 HZ SCT020 32/22 Q1009 NOSIG=
202408080930 METAR WIHH 080930Z 06010KT 5000 HZ SCT020 33/21 Q1009 NOSIG=
202408080900 METAR WIHH 080900Z 09010KT 5000 HZ SCT020 33/20 Q1009 NOSIG=
202408080830 METAR WIHH 080830Z 09010KT 5000 HZ SCT018 33/20 Q1009 NOSIG=
202408080800 METAR WIHH 080800Z 06010KT 4000 HZ SCT018 34/21 Q1009 NOSIG=
202408080730 METAR WIHH 080730Z 09010KT 4000 HZ SCT018 33/21 Q1010 RMK RA TO NW=
202408080700 METAR WIHH 080700Z 12010KT 4000 HZ SCT018 32/21 Q1010 RMK RA TO NE=
202408080630 METAR WIHH 080630Z 05008KT 4000 HZ SCT018 33/21 Q1010 RMK RA TO E=
202408080600 METAR WIHH 080600Z 08006KT 5000 HZ SCT018 31/21 Q1011 RMK RA TO NE=
202408080530 METAR WIHH 080530Z 11003KT 4000 HZ SCT018 32/20 Q1011 RMK RA TO E=
202408080500 METAR WIHH 080500Z 18003KT 4000 HZ SCT018 32/22 Q1011 NOSIG=
202408080430 METAR WIHH 080430Z 17008KT 4000 HZ SCT018 31/22 Q1012 NOSIG=
202408080400 METAR WIHH 080400Z 21008KT 4000 HZ SCT018 31/21 Q1012 NOSIG=
202408080330 METAR WIHH 080330Z 17010KT 5000 HZ SCT018 31/21 Q1013 NOSIG=
202408080300 METAR WIHH 080300Z 22010KT 5000 HZ SCT018 30/22 Q1013 NOSIG=
202408080230 METAR WIHH 080230Z 18008KT 5000 HZ SCT018 30/22 Q1013 NOSIG=
202408080200 METAR WIHH 080200Z 24008KT 5000 HZ SCT018 29/22 Q1013 NOSIG=
202408080130 METAR WIHH 080130Z 23003KT 5000 HZ SCT018 28/22 Q1013 NOSIG=
202408080100 METAR WIHH 080100Z 24005KT 5000 HZ SCT018 27/22 Q1013 NOSIG=
202408080030 METAR WIHH 080030Z 23004KT 5000 HZ SCT018 26/22 Q1013 NOSIG=
202408080000 METAR WIHH 080000Z 25004KT 5000 HZ SCT018 26/22 Q1012 NOSIG=
202408072330 METAR WIHH 072330Z 24003KT 5000 HZ FEW020 25/23 Q1012 NOSIG=
202408072300 METAR WIHH 072300Z 25003KT 5000 HZ NSC 24/23 Q1012 NOSIG=
202408072230 METAR WIHH 072230Z 25003KT 6000 NSC 24/23 Q1011 NOSIG=
202408072200 METAR WIHH 072200Z 24003KT 6000 NSC 25/23 Q1011 NOSIG=
202408072130 METAR WIHH 072130Z 25002KT 6000 NSC 25/23 Q1011 NOSIG=
202408072100 METAR WIHH 072100Z 00000KT 6000 NSC 26/22 Q1011 NOSIG=
202408072030 METAR WIHH NIL=
202408072000 METAR WIHH NIL=
202408071930 METAR WIHH NIL=
202408071900 METAR WIHH NIL=
202408071830 METAR WIHH NIL=
202408071800 METAR WIHH NIL=
202408071730 METAR WIHH NIL=
202408071700 METAR WIHH 071700Z 00000KT 5000 HZ FEW020 26/23 Q1012 NOSIG=
202408071630 METAR WIHH 071630Z 00000KT 6000 FEW020 27/23 Q1012 NOSIG=
202408071600 METAR WIHH 071600Z 18003KT 6000 FEW020 27/23 Q1012 NOSIG=
202408071530 METAR WIHH 071530Z 17003KT 8000 FEW020 27/23 Q1012 NOSIG=
202408071500 METAR WIHH 071500Z 05003KT 8000 FEW020 28/22 Q1012 NOSIG=
202408071430 METAR WIHH 071430Z 07007KT 8000 FEW020 28/22 Q1012 NOSIG=
202408071400 METAR WIHH 071400Z 06008KT 8000 FEW020 28/22 Q1012 NOSIG=
202408071330 METAR WIHH 071330Z 04006KT 5000 HZ FEW020 28/22 Q1012 NOSIG=
202408071300 METAR WIHH 071300Z 06008KT 5000 HZ FEW020 29/21 Q1011 NOSIG=
202408071230 METAR WIHH 071230Z 09008KT 5000 HZ FEW020 29/20 Q1011 NOSIG=
202408071200 METAR WIHH 071200Z 03010KT 5000 HZ FEW020 29/20 Q1011 NOSIG=
202408071130 METAR WIHH 071130Z 09012KT 5000 HZ FEW020 30/19 Q1010 NOSIG=
202408071100 METAR WIHH 071100Z 06012KT 5000 HZ SCT020 30/19 Q1010 NOSIG=
202408071030 METAR WIHH 071030Z 08012KT 5000 HZ SCT020 31/19 Q1010 NOSIG=
202408071000 METAR WIHH 071000Z 08012KT 5000 HZ SCT020 31/19 Q1009 NOSIG=
202408070930 METAR WIHH 070930Z 06015KT 5000 HZ SCT020 31/19 Q1009 NOSIG=
202408070900 METAR WIHH 070900Z 04015KT 5000 HZ SCT020 31/21 Q1009 NOSIG=
202408070830 METAR WIHH 070830Z 05010KT 5000 HZ SCT020 32/20 Q1009 NOSIG=
202408070800 METAR WIHH 070800Z 07015KT 5000 HZ SCT020 33/21 Q1009 NOSIG=
202408070730 METAR WIHH 070730Z VRB15KT 5000 HZ SCT020 33/21 Q1009 NOSIG=
202408070700 METAR WIHH 070700Z 07008KT 5000 HZ SCT020 33/19 Q1009 NOSIG=
202408070630 METAR WIHH 070630Z 07008KT 5000 HZ SCT020 33/19 Q1009 NOSIG=
202408070600 METAR WIHH 070600Z 11008KT 5000 HZ SCT020 33/20 Q1010 NOSIG=
202408070530 METAR WIHH 070530Z 10008KT 5000 HZ SCT020 32/20 Q1010 NOSIG=
202408070500 METAR WIHH 070500Z 11008KT 5000 HZ SCT020 33/21 Q1011 NOSIG=
202408070430 METAR WIHH 070430Z 09006KT 5000 HZ FEW020 32/21 Q1011 NOSIG=
202408070400 METAR WIHH 070400Z 12006KT 5000 HZ FEW020 32/21 Q1011 NOSIG=
202408070330 METAR WIHH 070330Z 09006KT 4000 HZ FEW020 30/23 Q1012 NOSIG=
202408070300 METAR WIHH 070300Z 15006KT 4000 HZ FEW020 30/23 Q1012 NOSIG=
202408070230 METAR WIHH 070230Z 13004KT 4000 HZ FEW020 30/24 Q1012 NOSIG=
202408070200 METAR WIHH 070200Z 18004KT 4000 HZ FEW020 29/24 Q1012 NOSIG=
202408070130 METAR WIHH 070130Z 22003KT 4000 HZ FEW020 28/23 Q1012 NOSIG=
202408070100 METAR WIHH 070100Z 20003KT 4000 HZ FEW020 27/23 Q1012 NOSIG=
202408070030 METAR WIHH 070030Z 21003KT 4000 HZ FEW020 27/23 Q1012 NOSIG=
202408070000 METAR WIHH 070000Z 24003KT 4000 HZ SCT020 26/23 Q1011 NOSIG=
202408062330 METAR WIHH 062330Z 00000KT 4000 HZ SCT020 25/22 Q1011 NOSIG=
202408062300 METAR WIHH 062300Z 00000KT 4000 HZ FEW020 25/22 Q1011 NOSIG=
202408062230 METAR WIHH 062230Z 18003KT 5000 HZ FEW020 25/22 Q1011 NOSIG=
202408062200 METAR WIHH 062200Z 00000KT 5000 HZ SCT020 25/23 Q1010 NOSIG=
202408062130 METAR WIHH 062130Z 00000KT 5000 HZ SCT020 26/23 Q1010 NOSIG=
202408062100 METAR WIHH 062100Z 00000KT 5000 HZ SCT018 26/23 Q1010 NOSIG=
202408062030 METAR WIHH NIL=
202408062000 METAR WIHH NIL=
202408061930 METAR WIHH NIL=
202408061900 METAR WIHH NIL=
202408061830 METAR WIHH NIL=
202408061800 METAR WIHH NIL=
202408061730 METAR WIHH NIL=
202408061700 METAR WIHH 061700Z 12004KT 6000 SCT020 27/24 Q1011 NOSIG=
202408061630 METAR WIHH 061630Z 17003KT 6000 SCT020 27/24 Q1011 NOSIG=
202408061600 METAR WIHH 061600Z 10004KT 6000 SCT020 28/24 Q1011 NOSIG=
202408061530 METAR WIHH 061530Z 10004KT 6000 SCT020 28/24 Q1011 NOSIG=
202408061500 METAR WIHH 061500Z 12004KT 6000 SCT020 28/24 Q1011 NOSIG=
202408061430 METAR WIHH 061430Z 09004KT 7000 SCT020 28/24 Q1011 NOSIG=
202408061400 METAR WIHH 061400Z 05004KT 7000 SCT020 28/23 Q1011 NOSIG=
202408061330 METAR WIHH 061330Z 04005KT 6000 SCT020 28/24 Q1011 NOSIG=
202408061300 METAR WIHH 061300Z 07005KT 6000 SCT020 29/24 Q1010 NOSIG=
202408061230 METAR WIHH 061230Z 05006KT 6000 FEW020 28/23 Q1010 NOSIG=
202408061200 METAR WIHH 061200Z 06007KT 6000 FEW020 29/23 Q1009 NOS20=
202408061130 METAR WIHH 061130Z 06010KT 6000 FEW020 29/23 Q1009 NOSIG=
202408061100 METAR WIHH 061100Z 05011KT 6000 FEW020 30/22 Q1009 NOSIG=
202408061030 METAR WIHH 061030Z 05011KT 6000 FEW020 31/22 Q1008 NOSIG=
202408061000 METAR WIHH 061000Z 04012KT 6000 FEW020 32/22 Q1008 NOSIG=
202408060930 METAR WIHH 060930Z 06010KT 7000 SCT020 32/22 Q1008 NOSIG=
202408060900 METAR WIHH 060900Z 04010KT 7000 SCT020 33/21 Q1008 NOSIG=
202408060830 METAR WIHH 060830Z 06006KT 7000 SCT020 33/20 Q1008 NOSIG=
202408060800 METAR WIHH 060800Z 09010KT 7000 SCT020 34/20 Q1008 NOSIG=
202408060730 METAR WIHH 060730Z 10010KT 8000 SCT022 34/20 Q1008 NOSIG=
202408060700 METAR WIHH 060700Z 03010KT 8000 SCT022 33/20 Q1008 NOSIG=
202408060630 METAR WIHH 060630Z 07012KT 8000 SCT022 34/20 Q1009 NOSIG=
202408060600 METAR WIHH 060600Z 06010KT 8000 NIL FEW022 34/20 Q1009 NOSIG=
202408060530 METAR WIHH 060530Z 12010KT 6000 FEW022 33/20 Q1009 NOSIG=
202408060500 METAR WIHH 060500Z 07010KT 6000 FEW022 33/20 Q1010 NOSIG=
202408060430 METAR WIHH 060430Z 08010KT 6000 FEW022 33/19 Q1010 NOSIG=
202408060400 METAR WIHH 060400Z 13006KT 6000 FEW022 32/21 Q1011 NOSIG=
202408060330 METAR WIHH 060330Z 11010KT 6000 NSC 32/20 Q1011 NOSIG=
202408060300 METAR WIHH 060300Z 10010KT 5000 HZ NSC 31/20 Q1011 NOSIG=
202408060230 METAR WIHH 060230Z 09008KT 5000 HZ NSC 30/20 Q1012 NOSIG=
202408060200 METAR WIHH 060200Z 15005KT 4000 HZ NSC 29/22 Q1012 NOSIG=
202408060130 METAR WIHH 060130Z 16003KT 4000 HZ NSC 28/22 Q1011 NOSIG=
202408060100 METAR WIHH 060100Z 15003KT 4000 HZ NSC 27/22 Q1011 NOSIG=
202408060030 METAR WIHH 060030Z 19003KT 4000 HZ NSC 26/22 Q1011 NOSIG=
202408060000 METAR WIHH 060000Z 23003KT 4000 HZ NSC 25/23 Q1011 NOSIG=
202408052330 METAR WIHH 052330Z 17003KT 4000 HZ NSC 24/23 Q1011 NOSIG=
202408052300 METAR WIHH 052300Z 18003KT 4000 HZ FEW020 25/23 Q1010 NOSIG=
202408052230 METAR WIHH 052230Z 15003KT 6000 FEW020 25/23 Q1010 NOSIG=
202408052200 METAR WIHH 052200Z 13003KT 6000 FEW020 25/23 Q1010 NOSIG=
202408052130 METAR WIHH 052130Z 14003KT 6000 FEW020 25/23 Q1010 NOSIG=
202408052100 METAR WIHH 052100Z 00000KT 6000 FEW020 25/23 Q1010 NOSIG=
202408052030 METAR WIHH NIL=
202408052000 METAR WIHH NIL=
202408051930 METAR WIHH NIL=
202408051900 METAR WIHH NIL=
202408051830 METAR WIHH NIL=
202408051800 METAR WIHH NIL=
202408051730 METAR WIHH NIL=
202408051700 METAR WIHH 051700Z 15003KT 6000 SCT018 27/23 Q1012 NOSIG=
202408051630 METAR WIHH 051630Z 15003KT 6000 SCT018 27/23 Q1012 NOSIG=
202408051600 METAR WIHH 051600Z 10006KT 6000 SCT020 28/23 Q1012 NOSIG=
202408051530 METAR WIHH 051530Z 10006KT 6000 SCT020 28/23 Q1012 NOSIG=
202408051500 METAR WIHH 051500Z 05006KT 6000 SCT020 28/23 Q1011 NOSIG=
202408051430 METAR WIHH 051430Z 06006KT 6000 SCT020 28/23 Q1011 NOSIG=
202408051400 METAR WIHH 051400Z 06006KT 6000 SCT020 28/22 Q1011 NOSIG=
202408051330 METAR WIHH 051330Z 05004KT 6000 SCT020 28/22 Q1011 NOSIG=
202408051300 METAR WIHH 051300Z 06005KT 6000 SCT020 29/21 Q1011 NOSIG=
202408051230 METAR WIHH 051230Z 04004KT 6000 SCT020 29/21 Q1010 NOSIG=
202408051200 METAR WIHH 051200Z 02005KT 6000 SCT020 29/20 Q1010 NOSIG=
202408051130 METAR WIHH NIL=
202408051100 METAR WIHH 051100Z 01005KT 6000 SCT018 30/19 Q1009 NOSIG=
202408051030 METAR WIHH 051030Z 36005KT 6000 SCT018 30/20 Q1009 NOSIG=
202408051000 METAR WIHH 051000Z 34004KT 6000 SCT018 31/21 Q1009 NOSIG=
202408050930 METAR WIHH 050930Z 01006KT 5000 HZ SCT018 31/22 Q1009 NOSIG=
202408050900 METAR WIHH 050900Z 36006KT 5000 HZ SCT018 31/22 Q1009 NOSIG=
202408050830 METAR WIHH 050830Z 36006KT 5000 HZ SCT018 32/22 Q1009 NOSIG=
202408050800 METAR WIHH 050800Z 35007KT 5000 HZ SCT018 32/23 Q1009 NOSIG=
202408050730 METAR WIHH 050730Z 36006KT 5000 HZ SCT018 32/23 Q1009 NOSIG=
202408050700 METAR WIHH 050700Z 33006KT 5000 HZ SCT018 32/22 Q1009 NOSIG=
202408050630 METAR WIHH 050630Z 35003KT 5000 HZ SCT018 33/20 Q1009 NOSIG=
202408050600 METAR WIHH 050600Z 34004KT 5000 HZ SCT018 33/22 Q1009 NOSIG=
202408050530 METAR WIHH 050530Z 31003KT 5000 HZ SCT018 32/21 Q1010 NOSIG=
202408050500 METAR WIHH 050500Z 10003KT 5000 HZ SCT018 31/21 Q1011 NOSIG=
202408050430 METAR WIHH 050430Z 21003KT 5000 HZ SCT018 31/21 Q1011 NOSIG=
202408050400 METAR WIHH 050400Z 25003KT 5000 HZ SCT018 30/22 Q1011 NOSIG=
202408050330 METAR WIHH 050330Z 27003KT 4000 HZ SCT018 29/23 Q1012 NOSIG=
202408050300 METAR WIHH 050300Z 25003KT 4000 HZ SCT018 29/23 Q1012 NOSIG=
202408050230 METAR WIHH 050230Z 21005KT 4000 HZ SCT018 29/24 Q1012 NOSIG=
202408050200 METAR WIHH 050200Z 19005KT 4000 HZ SCT018 29/24 Q1012 NOSIG=
202408050130 METAR WIHH 050130Z 27005KT 5000 HZ BKN016 27/24 Q1012 NOSIG=
202408050100 METAR WIHH 050100Z 22005KT 5000 HZ BKN016 26/24 Q1012 NOSIG=
202408050030 METAR WIHH 050030Z 20005KT 6000 BKN016 26/22 Q1012 NOSIG=
202408050000 METAR WIHH 050000Z 24005KT 6000 BKN016 26/22 Q1011 NOSIG=
202408042330 METAR WIHH 042330Z 23005KT 6000 BKN016 26/22 Q1011 NOSIG=
202408042300 METAR WIHH 042300Z 24006KT 6000 BKN016 26/22 Q1010 NOSIG=
202408042230 METAR WIHH 042230Z 22006KT 8000 SCT018 25/22 Q1010 NOSIG=
202408042200 METAR WIHH 042200Z 21006KT 8000 SCT018 26/22 Q1010 NOSIG=
202408042130 METAR WIHH 042130Z 22007KT 8000 SCT018 26/23 Q1010 NOSIG=
202408042100 METAR WIHH NIL=
202408042030 METAR WIHH NIL=
202408042000 METAR WIHH NIL=
202408041930 METAR WIHH NIL=
202408041900 METAR WIHH NIL=
202408041830 METAR WIHH NIL=
202408041800 METAR WIHH NIL=
202408041730 METAR WIHH NIL=
202408041700 METAR WIHH 041700Z 24003KT 5000 HZ SCT018 26/25 Q1011 RMK RA TO E=
202408041630 METAR WIHH 041630Z 21003KT 5000 HZ SCT018 26/25 Q1011 RMK RA TO SE=
202408041600 METAR WIHH 041600Z 21003KT 5000 HZ SCT018 26/25 Q1012 RMK RA TO SE=
202408041530 METAR WIHH 041530Z 15003KT 5000 HZ SCT018 26/24 Q1012 NOSIG=
202408041500 METAR WIHH 041500Z 01004KT 5000 HZ SCT018 26/23 Q1011 NOSIG=
202408041430 METAR WIHH 041430Z 17004KT 5000 HZ SCT018 26/23 Q1011 NOSIG=
202408041400 METAR WIHH 041400Z 19005KT 5000 HZ SCT018 26/23 Q1011 NOSIG=
202408041330 METAR WIHH 041330Z 18004KT 5000 HZ SCT018 27/23 Q1010 RMK RA TO S=
202408041300 METAR WIHH 041300Z 19006KT 5000 HZ SCT018 27/23 Q1011 RMK RA TO S=
202408041230 METAR WIHH 041230Z 25006KT 5000 HZ SCT018 27/23 Q1010 TEMPO TL1300 4000 -RA RMK RA TO S=
202408041200 METAR WIHH 041200Z 19006KT 5000 HZ SCT018 27/23 Q1010 RMK RA TO S=
202408041130 METAR WIHH 041130Z 26007KT 6000 SCT018 29/23 Q1010 RMK RA TO S=
202408041100 METAR WIHH 041100Z 36007KT 6000 FEW017CB SCT018 29/23 Q1009 RMK CB AND RA TO SW=
202408041030 METAR WIHH 041030Z 02007KT 6000 FEW017CB SCT018 30/23 Q1009 RMK CB AND RA TO S=
202408041000 METAR WIHH 041000Z 03010KT 6000 FEW017CB SCT018 31/23 Q1009 RMK CB AND RA TO S=
202408040930 METAR WIHH 040930Z 01010KT 6000 SCT018 31/23 Q1009 RMK RA TO SE=
202408040900 METAR WIHH 040900Z 03010KT 6000 SCT018 32/23 Q1009 NOSIG=
202408040830 METAR WIHH 040830Z 02006KT 6000 SCT018 34/23 Q1009 NOSIG=
202408040800 METAR WIHH 040800Z 01008KT 6000 SCT018 34/23 Q1009 NOSIG=
202408040730 METAR WIHH 040730Z 03008KT 6000 SCT018 34/23 Q1009 NOSIG=
202408040700 METAR WIHH 040700Z 01008KT 6000 SCT018 34/23 Q1009 NOSIG=
202408040630 METAR WIHH 040630Z 01007KT 6000 SCT018 34/23 Q1010 NOSIG=
202408040600 METAR WIHH 040600Z 28005KT 6000 SCT018 34/20 Q1010 NOSIG=
202408040530 METAR WIHH 040530Z 15008KT 6000 SCT020 33/20 Q1011 NOSIG=
202408040500 METAR WIHH 040500Z 18007KT 6000 SCT020 33/21 Q1011 NOSIG=
202408040430 METAR WIHH 040430Z 12008KT 6000 SCT020 33/21 Q1011 NOSIG=
202408040400 METAR WIHH 040400Z 18005KT 6000 FEW022 33/22 Q1012 NOSIG=
202408040330 METAR WIHH 040330Z 21003KT 6000 FEW022 32/24 Q1012 NOSIG=
202408040300 METAR WIHH 040300Z 03003KT 5000 HZ NSC 31/23 Q1012 NOSIG=
202408040230 METAR WIHH 040230Z 22003KT 6000 NSC 31/24 Q1013 NOSIG=
202408040200 METAR WIHH 040200Z 15003KT 6000 HZ NSC 30/24 Q1013 NOSIG=
202408040130 METAR WIHH 040130Z 12003KT 4000 HZ NSC 29/24 Q1013 NOSIG=
202408040100 METAR WIHH 040100Z 21003KT 4000 HZ NSC 28/24 Q1013 NOSIG=
202408040030 METAR WIHH 040030Z 00000KT 3000 HZ NSC 26/24 Q1013 NOSIG=
202408040000 METAR WIHH 040000Z 00000KT 3000 HZ SCT020 25/24 Q1012 NOSIG=
202408032330 METAR WIHH 032330Z 00000KT 3000 HZ SCT020 25/24 Q1012 NOSIG=
202408032300 METAR WIHH 032300Z 25003KT 3000 HZ SCT020 25/24 Q1012 NOSIG=
202408032230 METAR WIHH 032230Z 00000KT 3000 HZ SCT020 25/24 Q1012 NOSIG=
202408032200 METAR WIHH 032200Z 00000KT 3000 HZ SCT020 25/24 Q1012 NOSIG=
202408032130 METAR WIHH 032130Z 00000KT 3000 HZ SCT020 25/24 Q1011 NOSIG=
202408032100 METAR WIHH 032100Z 00000KT 3000 HZ SCT020 25/24 Q1011 NOSIG=
202408032030 METAR WIHH NIL=
202408032000 METAR WIHH NIL=
202408031930 METAR WIHH NIL=
202408031900 METAR WIHH NIL=
202408031830 METAR WIHH NIL=
202408031800 METAR WIHH NIL=
202408031730 METAR WIHH NIL=
202408031700 METAR WIHH 031700Z 00000KT 4000 HZ FEW020 26/24 Q1013 NOSIG=
202408031630 METAR WIHH 031630Z 16002KT 5000 HZ SCT020 26/24 Q1013 NOSIG=
202408031600 METAR WIHH 031600Z 15003KT 5000 HZ SCT020 26/24 Q1013 NOSIG=
202408031530 METAR WIHH 031530Z 07003KT 4000 HZ SCT020 26/24 Q1013 NOSIG=
202408031500 METAR WIHH 031500Z 00000KT 5000 HZ SCT020 25/24 Q1013 NOSIG=
202408031430 METAR WIHH 031430Z 21003KT 5000 HZ SCT020 25/24 Q1012 NOSIG=
202408031400 METAR WIHH 031400Z 22003KT 5000 HZ SCT020 25/24 Q1012 NOSIG=
202408031330 METAR WIHH 031330Z 21003KT 5000 HZ SCT020 25/24 Q1012 RMK RA TO E-SE=
202408031300 METAR WIHH 031300Z 24003KT 5000 HZ SCT020 25/24 Q1012 RMK RA TO E-SE=
202408031230 METAR WIHH 031230Z 12008KT 5000 HZ SCT020 25/24 Q1011 RMK RA TO SE=
202408031200 METAR WIHH 031200Z 10004KT 5000 HZ SCT020 25/24 Q1011 RMK RA TO SE AND SW=
202408031130 METAR WIHH 031130Z 18012KT 4000 -RA FEW018CB SCT019 25/24 Q1011 RMK CB TO SW=
202408031100 METAR WIHH 031100Z 18012KT 4000 -RA FEW018CB SCT019 26/23 Q1011 RMK CB TO S=
202408031030 METAR WIHH 031030Z 21008KT 5000 HZ FEW018CB SCT020 26/24 Q1010 RMK CB AND RA TO SE-SW=
202408031000 METAR WIHH 031000Z 26010KT 5000 HZ SCT020 26/24 Q1009 RMK RA TO SE-SW=
202408030930 METAR WIHH 030930Z 27010KT 5000 HZ FEW018CB SCT020 28/25 Q1009 RMK CB AND RA TO S-SW=
202408030900 METAR WIHH 030900Z 27010KT 5000 HZ FEW018CB SCT020 28/25 Q1009 RMK CB AND RA TO SW-W=
202408030830 METAR WIHH 030830Z 06008KT 5000 HZ FEW018CB SCT020 32/23 Q1008 RMK CB AND RA TO SW-W=
202408030800 METAR WIHH 030800Z 06013KT 5000 HZ SCT020 32/23 Q1008 RMK RA TO SW-W=
202408030730 METAR WIHH 030730Z 09008KT 6000 SCT020 33/22 Q1009 RMK RA TO SW=
202408030700 METAR WIHH 030700Z 11010KT 5000 HZ SCT020 33/22 Q1009 RMK RA TO W=
202408030630 METAR WIHH 030630Z 06010KT 5000 HZ SCT020 33/22 Q1009 RMK RA TO NW=
202408030600 METAR WIHH 030600Z 05010KT 5000 HZ SCT020 33/23 Q1010 RMK RA TO NW=
202408030530 METAR WIHH 030530Z 06006KT 6000 SCT020 33/24 Q1010 NOSIG=
202408030500 METAR WIHH 030500Z 03006KT 6000 SCT020 33/23 Q1011 NOSIG=
202408030430 METAR WIHH 030430Z 09004KT 6000 SCT020 33/23 Q1012 NOSIG=
202408030400 METAR WIHH 030400Z 03004KT 6000 SCT020 32/23 Q1012 NOSIG=
202408030330 METAR WIHH 030330Z 09008KT 6000 FEW020 31/23 Q1013 NOSIG=
202408030300 METAR WIHH 030300Z 04008KT 6000 FEW020 31/23 Q1013 NOSIG=
202408030230 METAR WIHH 030230Z 09006KT 5000 HZ NSC 31/23 Q1013 NOSIG=
202408030200 METAR WIHH 030200Z 09005KT 5000 HZ NSC 30/23 Q1013 NOSIG=
202408030130 METAR WIHH 030130Z 12005KT 4000 HZ NSC 29/24 Q1013 NOSIG=
202408030100 METAR WIHH 030100Z 00000KT 4000 HZ NSC 28/25 Q1013 NOSIG=
202408030030 METAR WIHH 030030Z 00000KT 4000 HZ NSC 26/24 Q1012 NOSIG=
202408030000 METAR WIHH 030000Z 00000KT 4000 HZ NSC 25/24 Q1012 NOSIG=
202408022330 METAR WIHH 022330Z 00000KT 3000 BR NSC 25/24 Q1012 NOSIG=
202408022300 METAR WIHH 022300Z 00000KT 3000 BR FEW020 24/24 Q1012 NOSIG=
202408022230 METAR WIHH 022230Z 00000KT 4000 HZ FEW020 24/23 Q1012 NOSIG=
202408022200 METAR WIHH 022200Z 20003KT 4000 HZ FEW020 24/23 Q1011 NOSIG=
202408022130 METAR WIHH 022130Z 05003KT 4000 HZ SCT018 24/24 Q1011 NOSIG=
202408022100 METAR WIHH 022100Z 00000KT 4000 HZ SCT018 24/24 Q1011 NOSIG=
202408022030 METAR WIHH NIL=
202408022000 METAR WIHH NIL=
202408021930 METAR WIHH NIL=
202408021900 METAR WIHH NIL=
202408021830 METAR WIHH NIL=
202408021800 METAR WIHH NIL=
202408021730 METAR WIHH NIL=
202408021700 METAR WIHH NIL=
202408021630 METAR WIHH NIL=
202408021600 METAR WIHH 021600Z 14004KT 5000 RA SCT018 24/23 Q1013 NOSIG=
202408021530 METAR WIHH 021530Z 20005KT 5000 RA SCT018 24/23 Q1012 NOSIG=
202408021500 METAR WIHH 021500Z 16005KT 5000 RA SCT018 24/24 Q1013 NOSIG=
202408021430 METAR WIHH 021430Z 16006KT 4000 RA SCT018 24/24 Q1013 CB TO SE=
202408021400 METAR WIHH 021400Z 18005KT 4000 RA FEW017CB SCT018 24/24 Q1013 CB TO SE=
202408021330 METAR WIHH 021330Z 22004KT 5000 RA FEW017CB SCT018 24/23 Q1013 CB TO SW=
202408021300 METAR WIHH 021300Z 20009KT 1500 TSRA FEW017CB SCT018 24/23 Q1012 CB OVER THE FIELD=
202408021230 METAR WIHH NIL=
202408021200 METAR WIHH 021200Z 18009KT 4000 TSRA FEW016CB SCT018 25/24 Q1012 CB TO SW=
202408021130 METAR WIHH 021130Z 25005KT 5000 TS FEW016CB SCT018 28/25 Q1010 CB AND RA TO SW=
202408021100 METAR WIHH 021100Z 02005KT 4000 TS FEW016CB SCT018 28/25 Q1010 CB AND RA TO SE AND SW=
202408021030 METAR WIHH 021030Z 02006KT 4000 TSRA FEW016CB SCT018 29/24 Q1010 CB TO SE AND SW=
202408021000 METAR WIHH 021000Z 33004KT 4000 HZ FEW016CB SCT018 30/24 Q1009 CB AND RA TO S AND SE=
202408020930 METAR WIHH 020930Z 33004KT 5000 HZ SCT018 30/24 Q1009 RA TO S AND SE=
202408020900 METAR WIHH 020900Z 33005KT 5000 HZ SCT018 31/25 Q1009 RA TO S AND SE=
202408020830 METAR WIHH 020830Z 36005KT 5000 HZ SCT018 28/25 Q1009 RA TO SE=
202408020800 METAR WIHH 020800Z 01007KT 6000 RA SCT018 26/23 Q1009 RA TO W=
202408020730 METAR WIHH 020730Z 36005KT 1800 RA FEW016CB SCT018 25/24 Q1009 CB TO NW=
202408020700 METAR WIHH 020700Z 02003KT 1800 RA FEW017CB SCT018 27/23 Q1009 CB TO NE AND E=
202408020630 METAR WIHH 020630Z 29004KT 4000 TS FEW016CB SCT018 26/24 Q1010 CB AND RA TO W SW=
202408020600 METAR WIHH 020600Z 27005KT 4000 RA SCT018 27/25 Q1010 NOSIG=
202408020530 METAR WIHH 020530Z 27005KT 4000 RA SCT018 30/24 Q1010 NOSIG=
202408020500 METAR WIHH 020500Z 10005KT 4000 HZ SCT018 32/23 Q1011 RA TO NW=
202408020430 METAR WIHH 020430Z 05005KT 4000 HZ SCT018 32/23 Q1011 RA TO SE=
202408020400 METAR WIHH 020400Z 06005KT 4000 HZ SCT018 31/23 Q1011 RA TO SE=
202408020330 METAR WIHH 020330Z 07005KT 4000 HZ SCT020 31/23 Q1012 NOSIG=
202408020300 METAR WIHH 020300Z 15005KT 5000 HZ FEW020 31/23 Q1012 NOSIG=
202408020230 METAR WIHH 020230Z 06003KT 5000 HZ FEW020 30/23 Q1012 NOSIG=
202408020200 METAR WIHH 020200Z 14003KT 5000 HZ NSC 30/23 Q1012 NOSIG=
202408020130 METAR WIHH 020130Z 13003KT 5000 HZ NSC 29/23 Q1012 NOSIG=
202408020100 METAR WIHH 020100Z 22003KT 4000 HZ NSC 27/23 Q1012 NOSIG=
202408020030 METAR WIHH 020030Z 19004KT 4000 HZ NSC 26/23 Q1011 NOSIG=
202408020000 METAR WIHH 020000Z 24003KT 5000 HZ NSC 25/23 Q1011 NOSIG=
202408012330 METAR WIHH 012330Z 25002KT 5000 HZ NSC 24/23 Q1011 NOSIG=
202408012300 METAR WIHH 012300Z 24003KT 5000 HZ NSC 24/23 Q1010 NOSIG=
202408012230 METAR WIHH 012230Z 22003KT 6000 NSC 24/23 Q1010 NOSIG=
202408012200 METAR WIHH 012200Z 22003KT 6000 NSC 24/23 Q1010 NOSIG=
202408012130 METAR WIHH 012130Z 00000KT 7000 NSC 25/23 Q1010 NOSIG=
202408012100 METAR WIHH 012100Z 00000KT 7000 NSC 25/23 Q1010 NOSIG=
202408012030 METAR WIHH NIL=
202408012000 METAR WIHH NIL=
202408011930 METAR WIHH NIL=
202408011900 METAR WIHH NIL=
202408011830 METAR WIHH NIL=
202408011800 METAR WIHH NIL=
202408011730 METAR WIHH NIL=
202408011700 METAR WIHH 011700Z 16003KT 6000 FEW020 26/22 Q1013 NOSIG=
202408011630 METAR WIHH 011630Z 14003KT 6000 FEW020 26/22 Q1013 NOSIG=
202408011600 METAR WIHH 011600Z 22003KT 6000 FEW020 26/22 Q1013 NOSIG=
202408011530 METAR WIHH 011530Z 23004KT 5000 HZ FEW020 25/24 Q1013 NOSIG=
202408011500 METAR WIHH 011500Z 24004KT 5000 HZ FEW020 25/24 Q1013 NOSIG=
202408011430 METAR WIHH 011430Z 21003KT 5000 HZ FEW018 25/23 Q1013 NOSIG=
202408011400 METAR WIHH 011400Z 18006KT 5000 HZ SCT018 25/23 Q1012 NOSIG=
202408011330 METAR WIHH NIL=
202408011300 METAR WIHH 011300Z 20011KT 5000 HZ SCT018 25/23 Q1012 RMK RA TO SW=
202408011230 METAR WIHH 011230Z 19012KT 5000 HZ SCT018 26/23 Q1012 RMK RA TO S=
202408011200 METAR WIHH 011200Z 25003KT 5000 HZ SCT018 29/24 Q1011 RMK RA TO S=
202408011130 METAR WIHH 011130Z 36003KT 5000 HZ FEW017CB SCT018 29/24 Q1011 RMK CB AND RA TO S=
202408011100 METAR WIHH 011100Z 35005KT 5000 HZ FEW017CB SCT018 30/23 Q1011 RMK CB AND RA TO S=
202408011030 METAR WIHH 011030Z 05005KT 5000 HZ SCT018 30/23 Q1010 NOSIG=
202408011000 METAR WIHH 011000Z 03005KT 5000 HZ SCT018 30/23 Q1010 NOSIG=
202408010930 METAR WIHH 010930Z 01003KT 5000 HZ SCT018 30/24 Q1009 NOSIG=
202408010900 METAR WIHH 010900Z 33006KT 4000 HZ SCT018 31/24 Q1009 NOSIG=
202408010830 METAR WIHH 010830Z 03005KT 4000 HZ SCT018 30/24 Q1009 RMK RA TO S=
202408010800 METAR WIHH 010800Z 34004KT 4000 HZ SCT018 30/25 Q1010 RMK RA TO NE=
202408010730 METAR WIHH 010730Z 32004KT 4000 HZ SCT018 27/25 Q1010 RMK RA TO N=
202408010700 METAR WIHH 010700Z 05012KT 3000 -RA SCT018 29/24 Q1010 NOSIG=
202408010630 METAR WIHH 010630Z 36004KT 4000 HZ SCT020 32/24 Q1010 RMK RA TO NE AND N=
202408010600 METAR WIHH 010600Z 32006KT 4000 HZ SCT020 33/23 Q1011 RMK RA TO NE AND NW=
202408010530 METAR WIHH 010530Z 04003KT 5000 HZ SCT020 33/21 Q1011 NOSIG=
202408010500 METAR WIHH 010500Z 12003KT 5000 HZ SCT020 33/21 Q1011 NOSIG=
202408010430 METAR WIHH 010430Z 07003KT 5000 HZ SCT020 32/21 Q1012 NOSIG=
202408010400 METAR WIHH 010400Z 19004KT 5000 HZ FEW020 33/22 Q1012 NOSIG=
202408010330 METAR WIHH 010330Z 25003KT 5000 HZ FEW020 32/22 Q1013 NOSIG=
202408010300 METAR WIHH 010300Z 01003KT 5000 HZ FEW020 31/23 Q1013 NOSIG=
202408010230 METAR WIHH 010230Z 20004KT 5000 HZ FEW020 28/23 Q1013 NOSIG=
202408010200 METAR WIHH 010200Z 22004KT 5000 HZ FEW020 28/23 Q1013 NOSIG=
202408010130 METAR WIHH 010130Z 18004KT 5000 HZ FEW020 28/23 Q1013 NOSIG=
202408010100 METAR WIHH 010100Z 23004KT 5000 HZ FEW020 27/23 Q1013 NOSIG=
202408010030 METAR WIHH 010030Z 22004KT 5000 HZ FEW020 27/23 Q1012 NOSIG=
202408010000 METAR WIHH 010000Z 22004KT 5000 HZ FEW020 26/23 Q1012 NOSIG=

# No short TAF reports from WIHH in databse.

###################################
#  large TAF from WIHH
###################################
202408312300 TAF WIHH 312300Z 0100/0200 16006KT 5000 HZ FEW020
                      BECMG 0107/0109 06010KT 6000 SCT018=
202408311700 TAF WIHH 311700Z 3118/0118 15005KT 5000 HZ FEW020
                      BECMG 0107/0109 03012KT 6000 SCT020=
202408311100 TAF WIHH 311100Z 3112/0112 12006KT 6000 FEW020
                      BECMG 3119/3121 00000KT 5000 HZ=
202408310500 TAF WIHH 310500Z 3106/0106 15008KT 6000 SCT020
                      BECMG 3114/3116 03004KT 5000 HZ FEW020=
202408302300 TAF WIHH 302300Z 3100/0100 30006KT 5000 HZ FEW022
                      BECMG 3105/3107 01010KT 6000 SCT020=
202408301700 TAF WIHH 301700Z 3018/3118 20003KT 5000 HZ FEW022
                      BECMG 3106/3108 01010KT 6000 SCT020=
202408301100 TAF WIHH 301100Z 3012/3112 04007KT 6000 FEW020
                      BECMG 3015/3017 20004KT=
202408300500 TAF WIHH 300500Z 3006/3106 33012KT 5000 HZ SCT020
                      TEMPO 3010/3013 04010KT 4000 -RA
                      BECMG 3014/3016 19004KT=
202408292300 TAF WIHH 292300Z 3000/3100 21008KT 5000 HZ FEW020
                      TEMPO 3010/3013 27010KT 3000 -RA SCT018=
202408291700 TAF WIHH 291700Z 2918/3018 21005KT 5000 HZ SCT020
                      BECMG 3006/3008 36008KT=
202408291100 TAF WIHH 291100Z 2912/3012 34005KT 5000 HZ SCT020
                      BECMG 2917/2919 21005KT=
202408290500 TAF WIHH 290500Z 2906/3006 06008KT 5000 HZ FEW020
                      BECMG 2909/2911 36010KT 7000 SCT018
                      BECMG 2917/2919 21005KT=
202408282300 TAF WIHH 282300Z 2900/3000 12006KT 5000 HZ FEW020
                      TEMPO 2909/2912 06010KT 4000 -RA SCT018
                      BECMG 2914/2916 6000=
202408281700 TAF WIHH 281700Z 2818/2918 15005KT 6000 SCT018
                      BECMG 2901/2903 5000 HZ FEW020
                      TEMPO 2907/2909 03010KT 4000 -RA=
202408281100 TAF WIHH 281100Z 2812/2912 12006KT 5000 HZ SCT020
                      TEMPO 2812/2814 03010KT 4000 -RA
                      BECMG 2816/2818 6000 FEW020=
202408280500 TAF WIHH 280500Z 2806/2906 15006KT 5000 HZ SCT020
                      TEMPO 2810/2812 06010KT 4000 -RA
                      BECMG 2814/2816 7000 NSW=
202408272300 TAF WIHH 272300Z 2800/2900 12006KT 5000 HZ FEW020
                      BECMG 2805/2807 34012KT 6000 SCT018
                      TEMPO 2810/2812 04010KT 4000 -RA=
202408271700 TAF WIHH 271700Z 2718/2818 22005KT 5000 HZ SCT020
                      BECMG 2800/2802 12008KT=
202408271100 TAF WIHH 271100Z 2712/2812 04007KT 5000 HZ FEW022
                      BECMG 2714/2716 23004KT=
202408270500 TAF WIHH 270500Z 2706/2806 01012KT 6000 SCT020
                      BECMG 2714/2716 23005KT FEW022=
202408262300 TAF WIHH 262300Z 2700/2800 24006KT 5000 HZ FEW020
                      TEMPO 2710/2713 01010KT 3000 -RA SCT018=
202408261700 TAF WIHH 261700Z 2618/2718 24005KT 5000 HZ FEW020
                      BECMG 2705/2707 34010KT 7000 SCT018=
202408261100 TAF WIHH 261100Z 2612/2712 05008KT 6000 SCT020
                      BECMG 2618/2620 22005KT=
202408260500 TAF WIHH 260500Z 2606/2706 36008KT 6000 SCT020
                      BECMG 2611/2613 06010KT=
202408252300 TAF WIHH 252300Z 2600/2700 15006KT 5000 HZ FEW020
                      BECMG 2607/2609 06012KT 6000 SCT020=
202408251700 TAF WIHH 251700Z 2518/2618 10005KT 5000 HZ FEW020
                      BECMG 2605/2607 03010KT 6000 SCT020=
202408251100 TAF WIHH 251100Z 2512/2612 12006KT 6000 FEW020
                      BECMG 2519/2521 5000 HZ 03003KT=
202408250500 TAF WIHH 250500Z 2506/2606 15008KT 5000 HZ FEW020
                      TEMPO 2510/2512 03012KT 4000 -RA SCT018
                      BECMG 2513/2515 7000 NSW=
202408242300 TAF WIHH 242300Z 2500/2600 12008KT 6000 HZ FEW022
                      TEMPO 2510/2512 34012KT 4000 -RA SCT018
                      BECMG 2515/2517 21004KT=
202408241700 TAF WIHH 241700Z 2418/2518 23004KT 5000 HZ FEW022
                      BECMG 2501/2504 12008KT=
202408241100 TAF WIHH 241100Z 2412/2512 05008KT 6000 SCT020
                      BECMG 2416/2418 22004KT 5000 HZ FEW022=
202408240500 TAF WIHH 240500Z 2406/2506 35012KT 5000 HZ SCT020
                      BECMG 2411/2413 05007KT 6000 FEW022=
202408232300 TAF WIHH 232300Z 2400/2500 03008KT 5000 HZ FEW020
                      BECMG 2406/2408 33010KT 7000 SCT018=
202408231700 TAF WIHH 231700Z 2318/2418 03006KT 5000 HZ FEW020
                      BECMG 2401/2403 09008KT=
202408231100 TAF WIHH 231100Z 2312/2412 03006KT 7000 SCT020
                      BECMG 2318/2320 VRB02KT 5000 HZ FEW022
                      BECMG 2401/2403 09008KT=
202408230500 TAF WIHH 230500Z 2306/2406 05008KT 5000 HZ FEW020
                      BECMG 2310/2312 35010KT 6000 SCT018=
202408222300 TAF WIHH 222300Z 2300/2400 15006KT 5000 HZ FEW020
                      BECMG 2306/2308 34010KT 6000 SCT018=
202408221700 TAF WIHH 221700Z 2218/2318 12005KT 5000 HZ FEW020
                      BECMG 2305/2307 03010KT 6000 SCT020=
202408221100 TAF WIHH 221100Z 2212/2312 06008KT 6000 FEW020
                      TEMPO 2213/2216 4000 -RA SCT018
                      BECMG 2217/2219 15003KT 5000 HZ=
202408220500 TAF WIHH 220500Z 2206/2306 15008KT 6000 FEW020
                      TEMPO 2210/2213 03012KT 4000 -RA SCT018
                      BECMG 2214/2216 5000 HZ=
202408212300 TAF WIHH 212300Z 2200/2300 09008KT 6000 FEW022
                      BECMG 2204/2206 04012KT SCT020
                      TEMPO 2210/2213 16010KT 4000 -RA=
202408211700 TAF WIHH 211700Z 2118/2218 15005KT 5000 HZ FEW022
                      BECMG 2201/2203 09008KT=
202408211100 TAF WIHH 211100Z 2112/2212 05008KT 6000 FEW022
                      BECMG 2115/2117 12003KT 5000 HZ=
202408210500 TAF WIHH 210500Z 2106/2206 02012KT 6000 SCT020
                      BECMG 2113/2115 10005KT FEW022=
202408202300 TAF WIHH 202300Z 2100/2200 12006KT 5000 HZ FEW020
                      BECMG 2106/2108 02010KT 7000 SCT018=
202408201700 TAF WIHH 201700Z 2018/2118 09006KT 6000 FEW020
                      BECMG 2021/2023 16005KT 5000 HZ
                      BECMG 2106/2108 02010KT=
202408201100 TAF WIHH 201100Z 2012/2112 03008KT 6000 FEW020
                      BECMG 2020/2022 16005KT 5000 HZ=
202408200500 TAF WIHH 200500Z 2006/2106 03008KT 6000 FEW020
                      BECMG 2014/2016 12010KT=
202408192300 TAF WIHH 192300Z 2000/2100 12006KT 5000 HZ FEW020
                      BECMG 2006/2008 03010KT 6000 SCT020=
202408191700 TAF WIHH 191700Z 1918/2018 12005KT 7000 FEW020
                      BECMG 1923/2001 06003KT 5000 HZ=
202408191100 TAF WIHH 191100Z 1912/2012 15006KT 7000 FEW020
                      BECMG 1919/1921 03003KT 5000 HZ=
202408190500 TAF WIHH 190500Z 1906/2006 12008KT 5000 HZ FEW020
                      BECMG 1911/1913 7000=
202408182300 TAF WIHH 182300Z 1900/2000 04008KT 5000 HZ FEW022
                      BECMG 1906/1908 10010KT 7000 SCT020=
202408181700 TAF WIHH 181700Z 1818/1918 04006KT 7000 FEW020
                      BECMG 1821/1823 13003KT 5000 HZ=
202408181100 TAF WIHH 181100Z 1812/1912 06008KT 7000 FEW020
                      BECMG 1821/1823 13003KT 5000 HZ=
202408180500 TAF WIHH 180500Z 1806/1906 05008KT 5000 HZ FEW020
                      BECMG 1815/1817 13003KT 7000 SCT018=
202408172300 TAF WIHH 172300Z 1800/1900 15006KT 5000 HZ FEW020
                      BECMG 1807/1809 03010KT 6000 SCT020=
202408171700 TAF WIHH 171700Z 1718/1818 09005KT 6000 FEW020
                      BECMG 1723/1801 5000 HZ=
202408171100 TAF WIHH 171100Z 1712/1812 12006KT 6000 FEW020=
202408170500 TAF WIHH 170500Z 1706/1806 15008KT 6000 SCT020
                      BECMG 1715/1717 03004KT 5000 HZ FEW020=
202408162300 TAF WIHH 162300Z 1700/1800 11008KT 5000 HZ SCT020
                      BECMG 1705/1707 04013KT 6000=
202408161700 TAF WIHH 161700Z 1618/1718 22003KT 5000 HZ FEW022
                      BECMG 1706/1708 04013KT 6000 SCT020=
202408161100 TAF WIHH 161100Z 1612/1712 05008KT 5000 HZ SCT018
                      BECMG 1616/1618 20004KT FEW022=
202408160500 TAF WIHH 160500Z 1606/1706 36012KT 6000 SCT020
                      BECMG 1610/1612 06010KT FEW022=
202408152300 TAF WIHH 152300Z 1600/1700 15006KT 5000 HZ FEW020
                      BECMG 1607/1609 03010KT 6000 SCT020=
202408151700 TAF WIHH 151700Z 1518/1618 12005KT 5000 HZ SCT020
                      BECMG 1601/1603 6000 FEW020=
202408151100 TAF WIHH 151100Z 1512/1612 03006KT 5000 HZ SCT020
                      BECMG 1516/1518 6000 FEW020=
202408150500 TAF WIHH 150500Z 1506/1606 15006KT 5000 HZ FEW020
                      BECMG 1508/1510 03012KT 6000 SCT020=
202408142300 TAF WIHH 142300Z 1500/1600 12006KT 5000 HZ FEW022
                      BECMG 1505/1507 06010KT 7000 SCT020=
202408141700 TAF WIHH 141700Z 1418/1518 12005KT 5000 HZ FEW020
                      BECMG 1505/1507 06010KT=
202408141100 TAF WIHH 141100Z 1412/1512 03010KT 7000 FEW020
                      BECMG 1415/1417 19005KT 5000 HZ
                      BECMG 1419/1421 00000KT=
202408140500 TAF WIHH 140500Z 1406/1506 06010KT 7000 SCT020
                      BECMG 1415/1417 19005KT 5000 HZ=
202408132300 TAF WIHH 132300Z 1400/1500 12008KT 5000 HZ FEW022
                      BECMG 1404/1406 05012KT 7000 SCT020=
202408131700 TAF WIHH 131700Z 1318/1418 21003KT 6000 FEW022
                      BECMG 1323/1401 09008KT 5000 HZ=
202408131100 TAF WIHH 131100Z 1312/1412 10010KT 7000 FEW022
                      BECMG 1315/1317 20005KT=
202408130500 TAF WIHH 130500Z 1306/1406 03013KT 7000 FEW020
                      BECMG 1314/1316 17005KT=
202408122300 TAF WIHH 122300Z 1300/1400 15006KT 5000 HZ FEW020
                      BECMG 1305/1307 03012KT 6000 SCT020=
202408121700 TAF WIHH 121700Z 1218/1318 15006KT 6000 SCT020
                      BECMG 1223/1301 5000 HZ FEW020=
202408121100 TAF WIHH 121100Z 1212/1312 12006KT 6000 SCT020=
202408120500 TAF WIHH 120500Z 1206/1306 15008KT 5000 HZ SCT018
                      TEMPO 1208/1211 34012KT 4000 -RA
                      BECMG 1213/1215 6000 FEW020=
202408112300 TAF WIHH 112300Z 1200/1300 24006KT 5000 HZ FEW022
                      BECMG 1206/1208 36010KT 6000 SCT020
                      BECMG 1211/1213 06005KT=
202408111700 TAF WIHH 111700Z 1118/1218 27005KT 5000 HZ FEW022
                      BECMG 1202/1204 06008KT 6000 SCT020=
202408111100 TAF WIHH 111100Z 1112/1212 33008KT 5000 HZ SCT020
                      BECMG 1117/1119 27005KT 6000 FEW022=
202408110500 TAF WIHH 110500Z 1106/1206 07008KT 5000 HZ SCT020
                      BECMG 1117/1119 27005KT 6000 FEW022=
202408102300 TAF WIHH 102300Z 1100/1200 25007KT 6000 SCT018
                      BECMG 1104/1106 33012KT=
202408101700 TAF WIHH 101700Z 1018/1118 22003KT 5000 HZ FEW022
                      BECMG 1104/1106 03012KT 7000 SCT020=
202408101100 TAF WIHH 101100Z 1012/1112 12008KT 6000 FEW022
                      BECMG 1015/1017 20003KT 5000 HZ=
202408100500 TAF WIHH 100500Z 1006/1106 04012KT 6000 SCT020
                      BECMG 1015/1017 21005KT 5000 HZ FEW022=
202408092300 TAF WIHH 092300Z 1000/1100 07008KT 7000 FEW020
                      TEMPO 1009/1012 01010KT 3000 -RA SCT018
                      BECMG 1014/1016 5000 HZ=
202408091700 TAF WIHH 091700Z 0918/1018 18005KT 7000 FEW020
                      BECMG 0922/1000 07008KT 5000 HZ=
202408091100 TAF WIHH 091100Z 0912/1012 06008KT 7000 FEW020
                      BECMG 0918/0920 18005KT 5000 HZ=
202408090500 TAF WIHH 090500Z 0906/1006 09008KT 7000 FEW020
                      TEMPO 0909/0912 03012KT 3000 -RA SCT018
                      BECMG 0914/0916 18005KT 5000 HZ=
202408082300 TAF WIHH 082300Z 0900/1000 12006KT 5000 HZ FEW020
                      TEMPO 0909/0912 34012KT 4000 -RA SCT018
                      BECMG 0914/0916 6000=
202408081700 TAF WIHH 081700Z NIL=
202408081100 TAF WIHH 081100Z NIL=
202408080500 TAF WIHH 080500Z 0806/0906 15008KT 5000 HZ SCT018
                      TEMPO 0808/0811 3000 -RA
                      BECMG 0813/0815 03005KT 6000 FEW020=
202408072300 TAF WIHH 072300Z 0800/0900 22007KT 5000 HZ FEW020
                      BECMG 0804/0806 03012KT 6000 SCT020
                      TEMPO 0809/0812 33010KT 4000 -RA=
202408071700 TAF WIHH 071700Z 0718/0818 22003KT 4000 HZ FEW020
                      BECMG 0804/0806 06005KT 6000 SCT020=
202408071100 TAF WIHH 071100Z 0712/0812 14008KT 6000 SCT020
                      TEMPO 0718/0721 21010KT 3000 -RA=
202408070500 TAF WIHH 070500Z 0706/0806 04012KT 6000 SCT020
                      BECMG 0714/0716 15007KT 5000 HZ
                      TEMPO 0718/0721 20010KT 3000 -RA=
202408062300 TAF WIHH 062300Z 0700/0800 15006KT 5000 HZ FEW020
                      BECMG 0706/0708 03012KT 6000
                      TEMPO 0718/0721 3000 -RA SCT018=
202408061700 TAF WIHH 061700Z 0618/0718 12005KT 5000 HZ FEW020
                      BECMG 0704/0706 03010KT 6000 SCT020=
202408061100 TAF WIHH 061100Z 0612/0712 06006KT 6000 FEW020
                      BECMG 0617/0619 12003KT 5000 HZ=
202408060500 TAF WIHH 060500Z 0606/0706 12008KT 6000 FEW020
                      BECMG 0614/0616 03004KT=
202408052300 TAF WIHH 052300Z 0600/0700 12008KT 6000 SCT020
                      TEMPO 0609/0612 36010KT 3000 -TSRA FEW017CB
                       BECMG 0614/0616 06005KT 5000 HZ=
202408051700 TAF WIHH 051700Z 0518/0618 21005KT 6000 SCT020
                      BECMG 0603/0605 10008KT=
202408051100 TAF WIHH 051100Z 0512/0612 19006KT 6000 SCT020
                      TEMPO 0513/0516 01010KT 3000 -RA BKN018
                      BECMG 0518/0520 25005KT 5000 HZ=
202408050500 TAF COR WIHH 050500Z 0506/0606 19006KT 5000 HZ SCT020
                      TEMPO 0509/0512 03010KT 3000 -TSRA FEW017CB
                       BECMG 0514/0516 25005KT 8000 BKN018=
202408042300 TAF WIHH 042300Z 0500/0600 12006KT 6000 SCT018
                      TEMPO 0508/0512 03012KT 3000 -TSRA FEW017CB
                       BKN018
                      BECMG 0514/0516 5000 HZ=
202408041700 TAF WIHH 041700Z 0418/0518 12005KT 5000 HZ SCT018
                      TEMPO 0418/0421 3000 -RA
                      BECMG 0423/0501 4000 BR FEW020=
202408041100 TAF WIHH 041100Z 0412/0512 03006KT 6000 SCT018
                      BECMG 0416/0418 12003KT 5000 HZ=
202408040500 TAF WIHH 040500Z 0406/0506 15008KT 6000 SCT018
                      TEMPO 0408/0412 30014KT 3000 -TSRA BKN016
                       FEW017CB
                      BECMG 0414/0416 03004KT 5000 HZ=
202408032300 TAF WIHH 032300Z 0400/0500 12008KT 5000 HZ FEW022
                      TEMPO 0407/0410 35012KT 3000 -TSRA FEW017CB
                       BKN018
                      TEMPO 0414/0417 23010KT 4000 -RA SCT020=
202408031700 TAF WIHH 031700Z 0318/0418 24003KT 4000 HZ FEW020
                      BECMG 0403/0405 04008KT 6000 SCT020=
202408031100 TAF WIHH 031100Z 0312/0412 20014KT 3000 -TSRA FEW017CB BKN018
                      BECMG 0315/0317 26004KT 4000 HZ SCT020=
202408030500 TAF WIHH 030500Z 0306/0406 05010KT 6000 SCT020
                      TEMPO 0308/0311 34012KT 2000 -TSRA FEW017CB
                       BKN018
                      BECMG 0312/0314 22006KT 5000 HZ=
202408022300 TAF WIHH 022300Z 0300/0400 05008KT 6000 SCT020
                      TEMPO 0307/0310 33010KT 2000 TSRA FEW017CB
                       BKN018
                      BECMG 0312/0314 22006KT 4000 HZ FEW022=
202408021700 TAF WIHH 021700Z 0218/0318 14005KT 5000 HZ SCT020
                      BECMG 0303/0305 05010KT=
202408021200 TAF AMD WIHH 021200Z 0212/0312 22005KT 5000 HZ SCT020
                      TEMPO 0212/0215 02010KT 2000 TSRA FEW017CB
                       BECMG 0216/0218 14005KT 6000 FEW022=
202408021100 TAF WIHH 021100Z 0212/0312 22005KT 5000 HZ SCT020
                      BECMG 0216/0218 14005KT 6000 FEW022=
202408020500 TAF WIHH 020500Z 0206/0306 05006KT 5000 HZ SCT020
                      TEMPO 0207/0210 35010KT 3000 -RA FEW017CB
                       BKN018
                      BECMG 0212/0214 19005KT 6000 FEW022=
202408012300 TAF WIHH 012300Z 0200/0300 21006KT 6000 FEW022
                      BECMG 0202/0204 06010KT SCT020
                      TEMPO 0208/0211 35012KT 4000 -RA FEW017CB=
202408011700 TAF WIHH 011700Z 0118/0218 16004KT 5000 HZ FEW022
                      BECMG 0202/0204 08007KT SCT020=
202408011230 TAF AMD WIHH 011230Z 0112/0212 22008KT 5000 HZ SCT018
                      TEMPO 0113/0116 18011KT 3000 -RA BKN016
                      BECMG 0118/0120 00000KT 3000 HZ=
202408011100 TAF WIHH 011100Z 0112/0212 22006KT 5000 HZ SCT018
                      BECMG 0118/0120 00000KT 3000 HZ=
202408010500 TAF WIHH 010500Z 0106/0206 36010KT 6000 SCT018
                      TEMPO 0109/0112 04012G20KT 3000 -TSRA FEW017CB
                       BECMG 0114/0116 22004KT 5000 HZ=
