##########################################################
# Query made at 05/05/2026 03:21:36 UTC
# Time interval: from 07/01/2022 00:00  to 07/31/2022 23:59  UTC
##########################################################

##########################################################
# WIHH, Jakarta Halim Perdanakusuma (Indonesia)
# WMO index: 96747. WIGOS ID: Unknown
# Latitude 06-15S. Longitude 106-54E. Altitude 30 m.
##########################################################

###################################
#  METAR/SPECI from WIHH
###################################
202207312330 METAR WIHH NIL=
202207312300 METAR WIHH NIL=
202207312230 METAR WIHH NIL=
202207312200 METAR WIHH NIL=
202207312130 METAR WIHH NIL=
202207312100 METAR WIHH NIL=
202207312030 METAR WIHH NIL=
202207312000 METAR WIHH NIL=
202207311930 METAR WIHH NIL=
202207311900 METAR WIHH NIL=
202207311830 METAR WIHH NIL=
202207311800 METAR WIHH NIL=
202207311730 METAR WIHH NIL=
202207311700 METAR WIHH NIL=
202207311630 METAR WIHH NIL=
202207311600 METAR WIHH NIL=
202207311530 METAR WIHH NIL=
202207311500 METAR WIHH NIL=
202207311430 METAR WIHH NIL=
202207311400 METAR WIHH NIL=
202207311330 METAR WIHH NIL=
202207311300 METAR WIHH NIL=
202207311230 METAR WIHH NIL=
202207311200 METAR WIHH NIL=
202207311130 METAR WIHH NIL=
202207311100 METAR WIHH NIL=
202207311030 METAR WIHH NIL=
202207311000 METAR WIHH NIL=
202207310930 METAR WIHH NIL=
202207310900 METAR WIHH NIL=
202207310830 METAR WIHH NIL=
202207310800 METAR WIHH NIL=
202207310730 METAR WIHH NIL=
202207310700 METAR WIHH NIL=
202207310630 METAR WIHH NIL=
202207310600 METAR WIHH NIL=
202207310530 METAR WIHH NIL=
202207310500 METAR WIHH NIL=
202207310430 METAR WIHH NIL=
202207310400 METAR WIHH NIL=
202207310330 METAR WIHH NIL=
202207310300 METAR WIHH NIL=
202207310230 METAR WIHH NIL=
202207310200 METAR WIHH NIL=
202207310130 METAR WIHH NIL=
202207310100 METAR WIHH NIL=
202207310030 METAR WIHH NIL=
202207310000 METAR WIHH NIL=
202207302330 METAR WIHH NIL=
202207302300 METAR WIHH NIL=
202207302230 METAR WIHH NIL=
202207302200 METAR WIHH NIL=
202207302130 METAR WIHH NIL=
202207302100 METAR WIHH NIL=
202207302030 METAR WIHH NIL=
202207302000 METAR WIHH NIL=
202207301930 METAR WIHH NIL=
202207301900 METAR WIHH NIL=
202207301830 METAR WIHH NIL=
202207301800 METAR WIHH NIL=
202207301730 METAR WIHH NIL=
202207301700 METAR WIHH NIL=
202207301630 METAR WIHH NIL=
202207301600 METAR WIHH NIL=
202207301530 METAR WIHH NIL=
202207301500 METAR WIHH NIL=
202207301430 METAR WIHH NIL=
202207301400 METAR WIHH NIL=
202207301330 METAR WIHH NIL=
202207301300 METAR WIHH NIL=
202207301230 METAR WIHH NIL=
202207301200 METAR WIHH NIL=
202207301130 METAR WIHH NIL=
202207301100 METAR WIHH NIL=
202207301030 METAR WIHH NIL=
202207301000 METAR WIHH NIL=
202207300930 METAR WIHH NIL=
202207300900 METAR WIHH NIL=
202207300830 METAR WIHH NIL=
202207300800 METAR WIHH NIL=
202207300730 METAR WIHH NIL=
202207300700 METAR WIHH NIL=
202207300630 METAR WIHH NIL=
202207300600 METAR WIHH NIL=
202207300530 METAR WIHH NIL=
202207300500 METAR WIHH NIL=
202207300430 METAR WIHH NIL=
202207300400 METAR WIHH NIL=
202207300330 METAR WIHH NIL=
202207300300 METAR WIHH NIL=
202207300230 METAR WIHH NIL=
202207300200 METAR WIHH NIL=
202207300130 METAR WIHH NIL=
202207300100 METAR WIHH NIL=
202207300030 METAR WIHH NIL=
202207300000 METAR WIHH NIL=
202207292330 METAR WIHH NIL=
202207292300 METAR WIHH NIL=
202207292230 METAR WIHH NIL=
202207292200 METAR WIHH NIL=
202207292130 METAR WIHH NIL=
202207292100 METAR WIHH NIL=
202207292030 METAR WIHH NIL=
202207292000 METAR WIHH NIL=
202207291930 METAR WIHH NIL=
202207291900 METAR WIHH NIL=
202207291830 METAR WIHH NIL=
202207291800 METAR WIHH NIL=
202207291730 METAR WIHH NIL=
202207291700 METAR WIHH NIL=
202207291630 METAR WIHH NIL=
202207291600 METAR WIHH NIL=
202207291530 METAR WIHH NIL=
202207291500 METAR WIHH NIL=
202207291430 METAR WIHH NIL=
202207291400 METAR WIHH NIL=
202207291330 METAR WIHH NIL=
202207291300 METAR WIHH NIL=
202207291230 METAR WIHH NIL=
202207291200 METAR WIHH NIL=
202207291130 METAR WIHH NIL=
202207291100 METAR WIHH NIL=
202207291030 METAR WIHH NIL=
202207291000 METAR WIHH NIL=
202207290930 METAR WIHH NIL=
202207290900 METAR WIHH NIL=
202207290830 METAR WIHH NIL=
202207290800 METAR WIHH NIL=
202207290730 METAR WIHH NIL=
202207290700 METAR WIHH NIL=
202207290630 METAR WIHH NIL=
202207290600 METAR WIHH NIL=
202207290530 METAR WIHH NIL=
202207290500 METAR WIHH NIL=
202207290430 METAR WIHH NIL=
202207290400 METAR WIHH NIL=
202207290330 METAR WIHH NIL=
202207290300 METAR WIHH NIL=
202207290230 METAR WIHH NIL=
202207290200 METAR WIHH NIL=
202207290130 METAR WIHH NIL=
202207290100 METAR WIHH NIL=
202207290030 METAR WIHH NIL=
202207290000 METAR WIHH NIL=
202207282330 METAR WIHH NIL=
202207282300 METAR WIHH NIL=
202207282230 METAR WIHH NIL=
202207282200 METAR WIHH NIL=
202207282130 METAR WIHH NIL=
202207282100 METAR WIHH NIL=
202207282030 METAR WIHH NIL=
202207282000 METAR WIHH NIL=
202207281930 METAR WIHH NIL=
202207281900 METAR WIHH NIL=
202207281830 METAR WIHH NIL=
202207281800 METAR WIHH NIL=
202207281730 METAR WIHH NIL=
202207281700 METAR WIHH NIL=
202207281630 METAR WIHH NIL=
202207281600 METAR WIHH NIL=
202207281530 METAR WIHH NIL=
202207281500 METAR WIHH NIL=
202207281430 METAR WIHH NIL=
202207281400 METAR WIHH NIL=
202207281330 METAR WIHH NIL=
202207281300 METAR WIHH NIL=
202207281230 METAR WIHH NIL=
202207281200 METAR WIHH NIL=
202207281130 METAR WIHH NIL=
202207281100 METAR WIHH NIL=
202207281030 METAR WIHH NIL=
202207281000 METAR WIHH NIL=
202207280930 METAR WIHH NIL=
202207280900 METAR WIHH NIL=
202207280830 METAR WIHH NIL=
202207280800 METAR WIHH NIL=
202207280730 METAR WIHH NIL=
202207280700 METAR WIHH NIL=
202207280630 METAR WIHH NIL=
202207280600 METAR WIHH NIL=
202207280530 METAR WIHH NIL=
202207280500 METAR WIHH NIL=
202207280430 METAR WIHH NIL=
202207280400 METAR WIHH NIL=
202207280330 METAR WIHH NIL=
202207280300 METAR WIHH NIL=
202207280230 METAR WIHH NIL=
202207280200 METAR WIHH NIL=
202207280130 METAR WIHH NIL=
202207280100 METAR WIHH NIL=
202207280030 METAR WIHH NIL=
202207280000 METAR WIHH NIL=
202207272330 METAR WIHH NIL=
202207272300 METAR WIHH NIL=
202207272230 METAR WIHH NIL=
202207272200 METAR WIHH NIL=
202207272130 METAR WIHH NIL=
202207272100 METAR WIHH NIL=
202207272030 METAR WIHH NIL=
202207272000 METAR WIHH NIL=
202207271930 METAR WIHH NIL=
202207271900 METAR WIHH NIL=
202207271830 METAR WIHH NIL=
202207271800 METAR WIHH NIL=
202207271730 METAR WIHH NIL=
202207271700 METAR WIHH NIL=
202207271630 METAR WIHH NIL=
202207271600 METAR WIHH NIL=
202207271530 METAR WIHH NIL=
202207271500 METAR WIHH NIL=
202207271430 METAR WIHH NIL=
202207271400 METAR WIHH NIL=
202207271330 METAR WIHH NIL=
202207271300 METAR WIHH NIL=
202207271230 METAR WIHH NIL=
202207271200 METAR WIHH NIL=
202207271130 METAR WIHH NIL=
202207271100 METAR WIHH NIL=
202207271030 METAR WIHH NIL=
202207271000 METAR WIHH NIL=
202207270930 METAR WIHH NIL=
202207270900 METAR WIHH NIL=
202207270830 METAR WIHH NIL=
202207270800 METAR WIHH NIL=
202207270730 METAR WIHH NIL=
202207270700 METAR WIHH NIL=
202207270630 METAR WIHH NIL=
202207270600 METAR WIHH NIL=
202207270530 METAR WIHH NIL=
202207270500 METAR WIHH NIL=
202207270430 METAR WIHH NIL=
202207270400 METAR WIHH NIL=
202207270330 METAR WIHH NIL=
202207270300 METAR WIHH NIL=
202207270230 METAR WIHH NIL=
202207270200 METAR WIHH NIL=
202207270130 METAR WIHH NIL=
202207270100 METAR WIHH NIL=
202207270030 METAR WIHH NIL=
202207270000 METAR WIHH NIL=
202207262330 METAR WIHH NIL=
202207262300 METAR WIHH NIL=
202207262230 METAR WIHH NIL=
202207262200 METAR WIHH NIL=
202207262130 METAR WIHH NIL=
202207262100 METAR WIHH NIL=
202207262030 METAR WIHH NIL=
202207262000 METAR WIHH NIL=
202207261930 METAR WIHH NIL=
202207261900 METAR WIHH NIL=
202207261830 METAR WIHH NIL=
202207261800 METAR WIHH NIL=
202207261730 METAR WIHH NIL=
202207261700 METAR WIHH NIL=
202207261630 METAR WIHH NIL=
202207261600 METAR WIHH NIL=
202207261530 METAR WIHH NIL=
202207261500 METAR WIHH NIL=
202207261430 METAR WIHH NIL=
202207261400 METAR WIHH NIL=
202207261330 METAR WIHH NIL=
202207261300 METAR WIHH NIL=
202207261230 METAR WIHH NIL=
202207261200 METAR WIHH NIL=
202207261130 METAR WIHH NIL=
202207261100 METAR WIHH NIL=
202207261030 METAR WIHH NIL=
202207261000 METAR WIHH NIL=
202207260930 METAR WIHH NIL=
202207260900 METAR WIHH NIL=
202207260830 METAR WIHH NIL=
202207260800 METAR WIHH NIL=
202207260730 METAR WIHH NIL=
202207260700 METAR WIHH NIL=
202207260630 METAR WIHH NIL=
202207260600 METAR WIHH NIL=
202207260530 METAR WIHH NIL=
202207260500 METAR WIHH NIL=
202207260430 METAR WIHH NIL=
202207260400 METAR WIHH NIL=
202207260330 METAR WIHH NIL=
202207260300 METAR WIHH NIL=
202207260230 METAR WIHH NIL=
202207260200 METAR WIHH NIL=
202207260130 METAR WIHH NIL=
202207260100 METAR WIHH NIL=
202207260030 METAR WIHH NIL=
202207260000 METAR WIHH NIL=
202207252330 METAR WIHH NIL=
202207252300 METAR WIHH NIL=
202207252230 METAR WIHH NIL=
202207252200 METAR WIHH NIL=
202207252130 METAR WIHH NIL=
202207252100 METAR WIHH NIL=
202207252030 METAR WIHH NIL=
202207252000 METAR WIHH NIL=
202207251930 METAR WIHH NIL=
202207251900 METAR WIHH NIL=
202207251830 METAR WIHH NIL=
202207251800 METAR WIHH NIL=
202207251730 METAR WIHH NIL=
202207251700 METAR WIHH NIL=
202207251630 METAR WIHH NIL=
202207251600 METAR WIHH NIL=
202207251530 METAR WIHH NIL=
202207251500 METAR WIHH NIL=
202207251430 METAR WIHH NIL=
202207251400 METAR WIHH NIL=
202207251330 METAR WIHH NIL=
202207251300 METAR WIHH NIL=
202207251230 METAR WIHH NIL=
202207251200 METAR WIHH NIL=
202207251130 METAR WIHH NIL=
202207251100 METAR WIHH NIL=
202207251030 METAR WIHH NIL=
202207251000 METAR WIHH NIL=
202207250930 METAR WIHH NIL=
202207250900 METAR WIHH NIL=
202207250830 METAR WIHH NIL=
202207250800 METAR WIHH NIL=
202207250730 METAR WIHH NIL=
202207250700 METAR WIHH NIL=
202207250630 METAR WIHH NIL=
202207250600 METAR WIHH NIL=
202207250530 METAR WIHH NIL=
202207250500 METAR WIHH NIL=
202207250430 METAR WIHH NIL=
202207250400 METAR WIHH NIL=
202207250330 METAR WIHH NIL=
202207250300 METAR WIHH NIL=
202207250230 METAR WIHH NIL=
202207250200 METAR WIHH NIL=
202207250130 METAR WIHH NIL=
202207250100 METAR WIHH NIL=
202207250030 METAR WIHH NIL=
202207250000 METAR WIHH NIL=
202207242330 METAR WIHH NIL=
202207242300 METAR WIHH NIL=
202207242230 METAR WIHH NIL=
202207242200 METAR WIHH NIL=
202207242130 METAR WIHH NIL=
202207242100 METAR WIHH NIL=
202207242030 METAR WIHH NIL=
202207242000 METAR WIHH NIL=
202207241930 METAR WIHH NIL=
202207241900 METAR WIHH NIL=
202207241830 METAR WIHH NIL=
202207241800 METAR WIHH NIL=
202207241730 METAR WIHH NIL=
202207241700 METAR WIHH NIL=
202207241630 METAR WIHH NIL=
202207241600 METAR WIHH NIL=
202207241530 METAR WIHH NIL=
202207241500 METAR WIHH NIL=
202207241430 METAR WIHH NIL=
202207241400 METAR WIHH NIL=
202207241330 METAR WIHH NIL=
202207241300 METAR WIHH NIL=
202207241230 METAR WIHH NIL=
202207241200 METAR WIHH NIL=
202207241130 METAR WIHH NIL=
202207241100 METAR WIHH NIL=
202207241030 METAR WIHH NIL=
202207241000 METAR WIHH NIL=
202207240930 METAR WIHH NIL=
202207240900 METAR WIHH NIL=
202207240830 METAR WIHH NIL=
202207240800 METAR WIHH NIL=
202207240730 METAR WIHH NIL=
202207240700 METAR WIHH NIL=
202207240630 METAR WIHH NIL=
202207240600 METAR WIHH NIL=
202207240530 METAR WIHH NIL=
202207240500 METAR WIHH NIL=
202207240430 METAR WIHH NIL=
202207240400 METAR WIHH NIL=
202207240330 METAR WIHH NIL=
202207240300 METAR WIHH NIL=
202207240230 METAR WIHH NIL=
202207240200 METAR WIHH NIL=
202207240130 METAR WIHH NIL=
202207240100 METAR WIHH NIL=
202207240030 METAR WIHH NIL=
202207240000 METAR WIHH NIL=
202207232330 METAR WIHH NIL=
202207232300 METAR WIHH NIL=
202207232230 METAR WIHH NIL=
202207232200 METAR WIHH NIL=
202207232130 METAR WIHH NIL=
202207232100 METAR WIHH NIL=
202207232030 METAR WIHH NIL=
202207232000 METAR WIHH NIL=
202207231930 METAR WIHH NIL=
202207231900 METAR WIHH NIL=
202207231830 METAR WIHH NIL=
202207231800 METAR WIHH NIL=
202207231730 METAR WIHH NIL=
202207231700 METAR WIHH NIL=
202207231630 METAR WIHH NIL=
202207231600 METAR WIHH NIL=
202207231530 METAR WIHH NIL=
202207231500 METAR WIHH NIL=
202207231430 METAR WIHH NIL=
202207231400 METAR WIHH NIL=
202207231330 METAR WIHH NIL=
202207231300 METAR WIHH NIL=
202207231230 METAR WIHH NIL=
202207231200 METAR WIHH NIL=
202207231130 METAR WIHH NIL=
202207231100 METAR WIHH NIL=
202207231030 METAR WIHH NIL=
202207231000 METAR WIHH NIL=
202207230930 METAR WIHH NIL=
202207230900 METAR WIHH NIL=
202207230830 METAR WIHH NIL=
202207230800 METAR WIHH NIL=
202207230730 METAR WIHH NIL=
202207230700 METAR WIHH NIL=
202207230630 METAR WIHH NIL=
202207230600 METAR WIHH NIL=
202207230530 METAR WIHH NIL=
202207230500 METAR WIHH NIL=
202207230430 METAR WIHH NIL=
202207230400 METAR WIHH NIL=
202207230330 METAR WIHH NIL=
202207230300 METAR WIHH NIL=
202207230230 METAR WIHH NIL=
202207230200 METAR WIHH NIL=
202207230130 METAR WIHH NIL=
202207230100 METAR WIHH NIL=
202207230030 METAR WIHH NIL=
202207230000 METAR WIHH NIL=
202207222330 METAR WIHH NIL=
202207222300 METAR WIHH NIL=
202207222230 METAR WIHH NIL=
202207222200 METAR WIHH NIL=
202207222130 METAR WIHH NIL=
202207222100 METAR WIHH NIL=
202207222030 METAR WIHH NIL=
202207222000 METAR WIHH NIL=
202207221930 METAR WIHH NIL=
202207221900 METAR WIHH NIL=
202207221830 METAR WIHH NIL=
202207221800 METAR WIHH NIL=
202207221730 METAR WIHH NIL=
202207221700 METAR WIHH NIL=
202207221630 METAR WIHH NIL=
202207221600 METAR WIHH NIL=
202207221530 METAR WIHH NIL=
202207221500 METAR WIHH NIL=
202207221430 METAR WIHH NIL=
202207221400 METAR WIHH NIL=
202207221330 METAR WIHH NIL=
202207221300 METAR WIHH NIL=
202207221230 METAR WIHH NIL=
202207221200 METAR WIHH NIL=
202207221130 METAR WIHH NIL=
202207221100 METAR WIHH NIL=
202207221030 METAR WIHH NIL=
202207221000 METAR WIHH NIL=
202207220930 METAR WIHH NIL=
202207220900 METAR WIHH NIL=
202207220830 METAR WIHH NIL=
202207220800 METAR WIHH NIL=
202207220730 METAR WIHH NIL=
202207220700 METAR WIHH NIL=
202207220630 METAR WIHH NIL=
202207220600 METAR WIHH NIL=
202207220530 METAR WIHH NIL=
202207220500 METAR WIHH NIL=
202207220430 METAR WIHH NIL=
202207220400 METAR WIHH NIL=
202207220330 METAR WIHH NIL=
202207220300 METAR WIHH NIL=
202207220230 METAR WIHH NIL=
202207220200 METAR WIHH NIL=
202207220130 METAR WIHH NIL=
202207220100 METAR WIHH NIL=
202207220030 METAR WIHH NIL=
202207220000 METAR WIHH NIL=
202207212330 METAR WIHH NIL=
202207212300 METAR WIHH NIL=
202207212230 METAR WIHH NIL=
202207212200 METAR WIHH NIL=
202207212130 METAR WIHH NIL=
202207212100 METAR WIHH NIL=
202207212030 METAR WIHH NIL=
202207212000 METAR WIHH NIL=
202207211930 METAR WIHH NIL=
202207211900 METAR WIHH NIL=
202207211830 METAR WIHH NIL=
202207211800 METAR WIHH NIL=
202207211730 METAR WIHH NIL=
202207211700 METAR WIHH NIL=
202207211630 METAR WIHH NIL=
202207211600 METAR WIHH NIL=
202207211530 METAR WIHH NIL=
202207211500 METAR WIHH NIL=
202207211430 METAR WIHH NIL=
202207211400 METAR WIHH NIL=
202207211330 METAR WIHH NIL=
202207211300 METAR WIHH NIL=
202207211230 METAR WIHH NIL=
202207211200 METAR WIHH NIL=
202207211130 METAR WIHH NIL=
202207211100 METAR WIHH NIL=
202207211030 METAR WIHH NIL=
202207211000 METAR WIHH NIL=
202207210930 METAR WIHH NIL=
202207210900 METAR WIHH NIL=
202207210830 METAR WIHH NIL=
202207210800 METAR WIHH NIL=
202207210730 METAR WIHH NIL=
202207210700 METAR WIHH NIL=
202207210630 METAR WIHH NIL=
202207210600 METAR WIHH NIL=
202207210530 METAR WIHH NIL=
202207210500 METAR WIHH NIL=
202207210430 METAR WIHH NIL=
202207210400 METAR WIHH NIL=
202207210330 METAR WIHH NIL=
202207210300 METAR WIHH NIL=
202207210230 METAR WIHH NIL=
202207210200 METAR WIHH NIL=
202207210130 METAR WIHH NIL=
202207210100 METAR WIHH NIL=
202207210030 METAR WIHH NIL=
202207210000 METAR WIHH NIL=
202207202330 METAR WIHH NIL=
202207202300 METAR WIHH NIL=
202207202230 METAR WIHH NIL=
202207202200 METAR WIHH NIL=
202207202130 METAR WIHH NIL=
202207202100 METAR WIHH NIL=
202207202030 METAR WIHH NIL=
202207202000 METAR WIHH NIL=
202207201930 METAR WIHH NIL=
202207201900 METAR WIHH NIL=
202207201830 METAR WIHH NIL=
202207201800 METAR WIHH NIL=
202207201730 METAR WIHH NIL=
202207201700 METAR WIHH NIL=
202207201630 METAR WIHH NIL=
202207201600 METAR WIHH NIL=
202207201530 METAR WIHH NIL=
202207201500 METAR WIHH NIL=
202207201430 METAR WIHH NIL=
202207201400 METAR WIHH NIL=
202207201330 METAR WIHH NIL=
202207201300 METAR WIHH NIL=
202207201230 METAR WIHH NIL=
202207201200 METAR WIHH NIL=
202207201130 METAR WIHH NIL=
202207201100 METAR WIHH NIL=
202207201030 METAR WIHH NIL=
202207201000 METAR WIHH NIL=
202207200930 METAR WIHH NIL=
202207200900 METAR WIHH NIL=
202207200830 METAR WIHH NIL=
202207200800 METAR WIHH NIL=
202207200730 METAR WIHH NIL=
202207200700 METAR WIHH NIL=
202207200630 METAR WIHH NIL=
202207200600 METAR WIHH NIL=
202207200530 METAR WIHH NIL=
202207200500 METAR WIHH NIL=
202207200430 METAR WIHH NIL=
202207200400 METAR WIHH NIL=
202207200330 METAR WIHH NIL=
202207200300 METAR WIHH NIL=
202207200230 METAR WIHH NIL=
202207200200 METAR WIHH NIL=
202207200130 METAR WIHH NIL=
202207200100 METAR WIHH NIL=
202207200030 METAR WIHH NIL=
202207200000 METAR WIHH NIL=
202207192330 METAR WIHH NIL=
202207192300 METAR WIHH NIL=
202207192230 METAR WIHH NIL=
202207192200 METAR WIHH NIL=
202207192130 METAR WIHH NIL=
202207192100 METAR WIHH NIL=
202207192030 METAR WIHH NIL=
202207192000 METAR WIHH NIL=
202207191930 METAR WIHH NIL=
202207191900 METAR WIHH NIL=
202207191830 METAR WIHH NIL=
202207191800 METAR WIHH NIL=
202207191730 METAR WIHH NIL=
202207191700 METAR WIHH NIL=
202207191630 METAR WIHH NIL=
202207191600 METAR WIHH NIL=
202207191530 METAR WIHH NIL=
202207191500 METAR WIHH NIL=
202207191430 METAR WIHH NIL=
202207191400 METAR WIHH NIL=
202207191330 METAR WIHH NIL=
202207191300 METAR WIHH NIL=
202207191230 METAR WIHH NIL=
202207191200 METAR WIHH NIL=
202207191130 METAR WIHH NIL=
202207191100 METAR WIHH NIL=
202207191030 METAR WIHH NIL=
202207191000 METAR WIHH NIL=
202207190930 METAR WIHH NIL=
202207190900 METAR WIHH NIL=
202207190830 METAR WIHH NIL=
202207190800 METAR WIHH NIL=
202207190730 METAR WIHH NIL=
202207190700 METAR WIHH NIL=
202207190630 METAR WIHH NIL=
202207190600 METAR WIHH NIL=
202207190530 METAR WIHH NIL=
202207190500 METAR WIHH NIL=
202207190430 METAR WIHH NIL=
202207190400 METAR WIHH NIL=
202207190330 METAR WIHH NIL=
202207190300 METAR WIHH NIL=
202207190230 METAR WIHH NIL=
202207190200 METAR WIHH NIL=
202207190130 METAR WIHH NIL=
202207190100 METAR WIHH NIL=
202207190030 METAR WIHH NIL=
202207190000 METAR WIHH NIL=
202207182330 METAR WIHH NIL=
202207182300 METAR WIHH NIL=
202207182230 METAR WIHH NIL=
202207182200 METAR WIHH NIL=
202207182130 METAR WIHH NIL=
202207182100 METAR WIHH NIL=
202207182030 METAR WIHH NIL=
202207182000 METAR WIHH NIL=
202207181930 METAR WIHH NIL=
202207181900 METAR WIHH NIL=
202207181830 METAR WIHH NIL=
202207181800 METAR WIHH NIL=
202207181730 METAR WIHH NIL=
202207181700 METAR WIHH NIL=
202207181630 METAR WIHH NIL=
202207181600 METAR WIHH NIL=
202207181530 METAR WIHH NIL=
202207181500 METAR WIHH NIL=
202207181430 METAR WIHH NIL=
202207181400 METAR WIHH NIL=
202207181330 METAR WIHH NIL=
202207181300 METAR WIHH NIL=
202207181230 METAR WIHH NIL=
202207181200 METAR WIHH NIL=
202207181130 METAR WIHH NIL=
202207181100 METAR WIHH NIL=
202207181030 METAR WIHH NIL=
202207181000 METAR WIHH NIL=
202207180930 METAR WIHH NIL=
202207180900 METAR WIHH NIL=
202207180830 METAR WIHH NIL=
202207180800 METAR WIHH NIL=
202207180730 METAR WIHH NIL=
202207180700 METAR WIHH NIL=
202207180630 METAR WIHH NIL=
202207180600 METAR WIHH NIL=
202207180530 METAR WIHH NIL=
202207180500 METAR WIHH NIL=
202207180430 METAR WIHH NIL=
202207180400 METAR WIHH NIL=
202207180330 METAR WIHH NIL=
202207180300 METAR WIHH NIL=
202207180230 METAR WIHH NIL=
202207180200 METAR WIHH NIL=
202207180130 METAR WIHH NIL=
202207180100 METAR WIHH NIL=
202207180030 METAR WIHH NIL=
202207180000 METAR WIHH NIL=
202207172330 METAR WIHH NIL=
202207172300 METAR WIHH NIL=
202207172230 METAR WIHH NIL=
202207172200 METAR WIHH NIL=
202207172130 METAR WIHH NIL=
202207172100 METAR WIHH NIL=
202207172030 METAR WIHH NIL=
202207172000 METAR WIHH NIL=
202207171930 METAR WIHH NIL=
202207171900 METAR WIHH NIL=
202207171830 METAR WIHH NIL=
202207171800 METAR WIHH NIL=
202207171730 METAR WIHH NIL=
202207171700 METAR WIHH NIL=
202207171630 METAR WIHH NIL=
202207171600 METAR WIHH NIL=
202207171530 METAR WIHH NIL=
202207171500 METAR WIHH NIL=
202207171430 METAR WIHH NIL=
202207171400 METAR WIHH NIL=
202207171330 METAR WIHH NIL=
202207171300 METAR WIHH NIL=
202207171230 METAR WIHH NIL=
202207171200 METAR WIHH NIL=
202207171130 METAR WIHH NIL=
202207171100 METAR WIHH NIL=
202207171030 METAR WIHH NIL=
202207171000 METAR WIHH NIL=
202207170930 METAR WIHH NIL=
202207170900 METAR WIHH NIL=
202207170830 METAR WIHH NIL=
202207170800 METAR WIHH NIL=
202207170730 METAR WIHH NIL=
202207170700 METAR WIHH NIL=
202207170630 METAR WIHH NIL=
202207170600 METAR WIHH NIL=
202207170530 METAR WIHH NIL=
202207170500 METAR WIHH NIL=
202207170430 METAR WIHH NIL=
202207170400 METAR WIHH NIL=
202207170330 METAR WIHH NIL=
202207170300 METAR WIHH NIL=
202207170230 METAR WIHH NIL=
202207170200 METAR WIHH NIL=
202207170130 METAR WIHH NIL=
202207170100 METAR WIHH NIL=
202207170030 METAR WIHH NIL=
202207170000 METAR WIHH NIL=
202207162330 METAR WIHH NIL=
202207162300 METAR WIHH NIL=
202207162230 METAR WIHH NIL=
202207162200 METAR WIHH NIL=
202207162130 METAR WIHH NIL=
202207162100 METAR WIHH NIL=
202207162030 METAR WIHH NIL=
202207162000 METAR WIHH NIL=
202207161930 METAR WIHH NIL=
202207161900 METAR WIHH NIL=
202207161830 METAR WIHH NIL=
202207161800 METAR WIHH NIL=
202207161730 METAR WIHH NIL=
202207161700 METAR WIHH NIL=
202207161630 METAR WIHH NIL=
202207161600 METAR WIHH NIL=
202207161530 METAR WIHH NIL=
202207161500 METAR WIHH NIL=
202207161430 METAR WIHH NIL=
202207161400 METAR WIHH NIL=
202207161330 METAR WIHH NIL=
202207161300 METAR WIHH NIL=
202207161230 METAR WIHH NIL=
202207161200 METAR WIHH NIL=
202207161130 METAR WIHH NIL=
202207161100 METAR WIHH NIL=
202207161030 METAR WIHH NIL=
202207161000 METAR WIHH NIL=
202207160930 METAR WIHH NIL=
202207160900 METAR WIHH NIL=
202207160830 METAR WIHH NIL=
202207160800 METAR WIHH NIL=
202207160730 METAR WIHH NIL=
202207160700 METAR WIHH NIL=
202207160630 METAR WIHH NIL=
202207160600 METAR WIHH NIL=
202207160530 METAR WIHH NIL=
202207160500 METAR WIHH NIL=
202207160430 METAR WIHH NIL=
202207160400 METAR WIHH NIL=
202207160330 METAR WIHH NIL=
202207160300 METAR WIHH NIL=
202207160230 METAR WIHH NIL=
202207160200 METAR WIHH NIL=
202207160130 METAR WIHH NIL=
202207160100 METAR WIHH NIL=
202207160030 METAR WIHH NIL=
202207160000 METAR WIHH NIL=
202207152330 METAR WIHH NIL=
202207152300 METAR WIHH NIL=
202207152230 METAR WIHH NIL=
202207152200 METAR WIHH NIL=
202207152130 METAR WIHH NIL=
202207152100 METAR WIHH NIL=
202207152030 METAR WIHH NIL=
202207152000 METAR WIHH NIL=
202207151930 METAR WIHH NIL=
202207151900 METAR WIHH NIL=
202207151830 METAR WIHH NIL=
202207151800 METAR WIHH NIL=
202207151730 METAR WIHH NIL=
202207151700 METAR WIHH NIL=
202207151630 METAR WIHH NIL=
202207151600 METAR WIHH NIL=
202207151530 METAR WIHH NIL=
202207151500 METAR WIHH NIL=
202207151430 METAR WIHH NIL=
202207151400 METAR WIHH NIL=
202207151330 METAR WIHH NIL=
202207151300 METAR WIHH NIL=
202207151230 METAR WIHH NIL=
202207151200 METAR WIHH NIL=
202207151130 METAR WIHH NIL=
202207151100 METAR WIHH NIL=
202207151030 METAR WIHH NIL=
202207151000 METAR WIHH NIL=
202207150930 METAR WIHH NIL=
202207150900 METAR WIHH NIL=
202207150830 METAR WIHH NIL=
202207150800 METAR WIHH NIL=
202207150730 METAR WIHH NIL=
202207150700 METAR WIHH NIL=
202207150630 METAR WIHH NIL=
202207150600 METAR WIHH NIL=
202207150530 METAR WIHH NIL=
202207150500 METAR WIHH NIL=
202207150430 METAR WIHH NIL=
202207150400 METAR WIHH NIL=
202207150330 METAR WIHH NIL=
202207150300 METAR WIHH NIL=
202207150230 METAR WIHH NIL=
202207150200 METAR WIHH NIL=
202207150130 METAR WIHH NIL=
202207150100 METAR WIHH NIL=
202207150030 METAR WIHH NIL=
202207150000 METAR WIHH NIL=
202207142330 METAR WIHH NIL=
202207142300 METAR WIHH NIL=
202207142230 METAR WIHH NIL=
202207142200 METAR WIHH NIL=
202207142130 METAR WIHH NIL=
202207142100 METAR WIHH NIL=
202207142030 METAR WIHH NIL=
202207142000 METAR WIHH NIL=
202207141930 METAR WIHH NIL=
202207141900 METAR WIHH NIL=
202207141830 METAR WIHH NIL=
202207141800 METAR WIHH NIL=
202207141730 METAR WIHH NIL=
202207141700 METAR WIHH NIL=
202207141630 METAR WIHH NIL=
202207141600 METAR WIHH NIL=
202207141530 METAR WIHH NIL=
202207141500 METAR WIHH NIL=
202207141430 METAR WIHH NIL=
202207141400 METAR WIHH NIL=
202207141330 METAR WIHH NIL=
202207141300 METAR WIHH NIL=
202207141230 METAR WIHH NIL=
202207141200 METAR WIHH NIL=
202207141130 METAR WIHH NIL=
202207141100 METAR WIHH NIL=
202207141030 METAR WIHH NIL=
202207141000 METAR WIHH NIL=
202207140930 METAR WIHH NIL=
202207140900 METAR WIHH NIL=
202207140830 METAR WIHH NIL=
202207140800 METAR WIHH NIL=
202207140730 METAR WIHH NIL=
202207140700 METAR WIHH NIL=
202207140630 METAR WIHH NIL=
202207140600 METAR WIHH NIL=
202207140530 METAR WIHH NIL=
202207140500 METAR WIHH NIL=
202207140430 METAR WIHH NIL=
202207140400 METAR WIHH NIL=
202207140330 METAR WIHH NIL=
202207140300 METAR WIHH NIL=
202207140230 METAR WIHH NIL=
202207140200 METAR WIHH NIL=
202207140130 METAR WIHH NIL=
202207140100 METAR WIHH NIL=
202207140030 METAR WIHH NIL=
202207140000 METAR WIHH NIL=
202207132330 METAR WIHH NIL=
202207132300 METAR WIHH NIL=
202207132230 METAR WIHH NIL=
202207132200 METAR WIHH NIL=
202207132130 METAR WIHH NIL=
202207132100 METAR WIHH NIL=
202207132030 METAR WIHH NIL=
202207132000 METAR WIHH NIL=
202207131930 METAR WIHH NIL=
202207131900 METAR WIHH NIL=
202207131830 METAR WIHH NIL=
202207131800 METAR WIHH NIL=
202207131730 METAR WIHH NIL=
202207131700 METAR WIHH NIL=
202207131630 METAR WIHH NIL=
202207131600 METAR WIHH NIL=
202207131530 METAR WIHH NIL=
202207131500 METAR WIHH NIL=
202207131430 METAR WIHH NIL=
202207131400 METAR WIHH NIL=
202207131330 METAR WIHH NIL=
202207131300 METAR WIHH NIL=
202207131230 METAR WIHH NIL=
202207131200 METAR WIHH NIL=
202207131130 METAR WIHH NIL=
202207131100 METAR WIHH NIL=
202207131030 METAR WIHH NIL=
202207131000 METAR WIHH NIL=
202207130930 METAR WIHH NIL=
202207130900 METAR WIHH NIL=
202207130830 METAR WIHH NIL=
202207130800 METAR WIHH NIL=
202207130730 METAR WIHH NIL=
202207130700 METAR WIHH NIL=
202207130630 METAR WIHH NIL=
202207130600 METAR WIHH NIL=
202207130530 METAR WIHH NIL=
202207130500 METAR WIHH NIL=
202207130430 METAR WIHH NIL=
202207130400 METAR WIHH NIL=
202207130330 METAR WIHH NIL=
202207130300 METAR WIHH NIL=
202207130230 METAR WIHH NIL=
202207130200 METAR WIHH NIL=
202207130100 METAR WIHH NIL=
202207130000 METAR WIHH NIL=
202207122300 METAR WIHH NIL=
202207122200 METAR WIHH NIL=
202207122100 METAR WIHH NIL=
202207122000 METAR WIHH NIL=
202207121930 METAR WIHH NIL=
202207121900 METAR WIHH NIL=
202207121830 METAR WIHH NIL=
202207121800 METAR WIHH NIL=
202207121730 METAR WIHH NIL=
202207121700 METAR WIHH NIL=
202207121630 METAR WIHH NIL=
202207121600 METAR WIHH NIL=
202207121530 METAR WIHH NIL=
202207121500 METAR WIHH NIL=
202207121430 METAR WIHH NIL=
202207121400 METAR WIHH NIL=
202207121330 METAR WIHH NIL=
202207121300 METAR WIHH NIL=
202207121230 METAR WIHH NIL=
202207121200 METAR WIHH NIL=
202207121130 METAR WIHH NIL=
202207121100 METAR WIHH NIL=
202207121030 METAR WIHH NIL=
202207121000 METAR WIHH NIL=
202207120930 METAR WIHH NIL=
202207120900 METAR WIHH NIL=
202207120830 METAR WIHH NIL=
202207120800 METAR WIHH NIL=
202207120730 METAR WIHH NIL=
202207120700 METAR WIHH NIL=
202207120630 METAR WIHH NIL=
202207120600 METAR WIHH NIL=
202207120530 METAR WIHH NIL=
202207120500 METAR WIHH NIL=
202207120430 METAR WIHH NIL=
202207120400 METAR WIHH NIL=
202207120330 METAR WIHH NIL=
202207120300 METAR WIHH NIL=
202207120230 METAR WIHH NIL=
202207120200 METAR WIHH NIL=
202207120130 METAR WIHH NIL=
202207120100 METAR WIHH NIL=
202207120030 METAR WIHH NIL=
202207120000 METAR WIHH NIL=
202207112330 METAR WIHH NIL=
202207112300 METAR WIHH NIL=
202207112230 METAR WIHH NIL=
202207112200 METAR WIHH NIL=
202207112130 METAR WIHH NIL=
202207112100 METAR WIHH NIL=
202207112030 METAR WIHH NIL=
202207112000 METAR WIHH NIL=
202207111930 METAR WIHH NIL=
202207111900 METAR WIHH NIL=
202207111830 METAR WIHH NIL=
202207111800 METAR WIHH NIL=
202207111730 METAR WIHH NIL=
202207111700 METAR WIHH NIL=
202207111630 METAR WIHH NIL=
202207111600 METAR WIHH NIL=
202207111530 METAR WIHH NIL=
202207111500 METAR WIHH NIL=
202207111430 METAR WIHH NIL=
202207111400 METAR WIHH NIL=
202207111330 METAR WIHH NIL=
202207111300 METAR WIHH NIL=
202207111230 METAR WIHH NIL=
202207111200 METAR WIHH NIL=
202207111130 METAR WIHH NIL=
202207111100 METAR WIHH NIL=
202207111030 METAR WIHH NIL=
202207111000 METAR WIHH NIL=
202207110930 METAR WIHH NIL=
202207110900 METAR WIHH NIL=
202207110830 METAR WIHH NIL=
202207110800 METAR WIHH NIL=
202207110730 METAR WIHH NIL=
202207110700 METAR WIHH NIL=
202207110630 METAR WIHH NIL=
202207110600 METAR WIHH NIL=
202207110530 METAR WIHH NIL=
202207110500 METAR WIHH NIL=
202207110430 METAR WIHH NIL=
202207110400 METAR WIHH NIL=
202207110330 METAR WIHH NIL=
202207110300 METAR WIHH NIL=
202207110230 METAR WIHH NIL=
202207110200 METAR WIHH NIL=
202207110130 METAR WIHH NIL=
202207110100 METAR WIHH NIL=
202207110030 METAR WIHH NIL=
202207110000 METAR WIHH NIL=
202207102330 METAR WIHH NIL=
202207102300 METAR WIHH NIL=
202207102230 METAR WIHH NIL=
202207102200 METAR WIHH NIL=
202207102130 METAR WIHH NIL=
202207102100 METAR WIHH NIL=
202207102030 METAR WIHH NIL=
202207102000 METAR WIHH NIL=
202207101930 METAR WIHH NIL=
202207101900 METAR WIHH NIL=
202207101830 METAR WIHH NIL=
202207101800 METAR WIHH NIL=
202207101730 METAR WIHH NIL=
202207101700 METAR WIHH NIL=
202207101630 METAR WIHH NIL=
202207101600 METAR WIHH NIL=
202207101530 METAR WIHH NIL=
202207101500 METAR WIHH NIL=
202207101430 METAR WIHH NIL=
202207101400 METAR WIHH NIL=
202207101330 METAR WIHH NIL=
202207101300 METAR WIHH NIL=
202207101230 METAR WIHH NIL=
202207101200 METAR WIHH NIL=
202207101130 METAR WIHH NIL=
202207101100 METAR WIHH NIL=
202207101030 METAR WIHH NIL=
202207101000 METAR WIHH NIL=
202207100930 METAR WIHH NIL=
202207100900 METAR WIHH NIL=
202207100830 METAR WIHH NIL=
202207100800 METAR WIHH NIL=
202207100730 METAR WIHH NIL=
202207100700 METAR WIHH NIL=
202207100630 METAR WIHH NIL=
202207100600 METAR WIHH NIL=
202207100530 METAR WIHH NIL=
202207100500 METAR WIHH NIL=
202207100430 METAR WIHH NIL=
202207100400 METAR WIHH NIL=
202207100330 METAR WIHH NIL=
202207100300 METAR WIHH NIL=
202207100230 METAR WIHH NIL=
202207100200 METAR WIHH NIL=
202207100130 METAR WIHH NIL=
202207100100 METAR WIHH NIL=
202207100030 METAR WIHH NIL=
202207100000 METAR WIHH NIL=
202207092330 METAR WIHH NIL=
202207092300 METAR WIHH NIL=
202207092230 METAR WIHH NIL=
202207092200 METAR WIHH NIL=
202207092130 METAR WIHH NIL=
202207092100 METAR WIHH NIL=
202207092030 METAR WIHH NIL=
202207092000 METAR WIHH NIL=
202207091930 METAR WIHH NIL=
202207091900 METAR WIHH NIL=
202207091830 METAR WIHH NIL=
202207091800 METAR WIHH NIL=
202207091730 METAR WIHH NIL=
202207091700 METAR WIHH NIL=
202207091630 METAR WIHH NIL=
202207091600 METAR WIHH NIL=
202207091530 METAR WIHH NIL=
202207091500 METAR WIHH NIL=
202207091430 METAR WIHH NIL=
202207091400 METAR WIHH NIL=
202207091330 METAR WIHH NIL=
202207091300 METAR WIHH NIL=
202207091230 METAR WIHH NIL=
202207091200 METAR WIHH NIL=
202207091130 METAR WIHH NIL=
202207091100 METAR WIHH NIL=
202207091030 METAR WIHH NIL=
202207091000 METAR WIHH NIL=
202207090930 METAR WIHH NIL=
202207090900 METAR WIHH NIL=
202207090830 METAR WIHH NIL=
202207090800 METAR WIHH NIL=
202207090730 METAR WIHH NIL=
202207090700 METAR WIHH NIL=
202207090630 METAR WIHH NIL=
202207090600 METAR WIHH NIL=
202207090530 METAR WIHH NIL=
202207090500 METAR WIHH NIL=
202207090430 METAR WIHH NIL=
202207090400 METAR WIHH NIL=
202207090330 METAR WIHH NIL=
202207090300 METAR WIHH NIL=
202207090230 METAR WIHH NIL=
202207090200 METAR WIHH NIL=
202207090130 METAR WIHH NIL=
202207090100 METAR WIHH NIL=
202207090030 METAR WIHH NIL=
202207090000 METAR WIHH NIL=
202207082330 METAR WIHH NIL=
202207082300 METAR WIHH NIL=
202207082230 METAR WIHH NIL=
202207082200 METAR WIHH NIL=
202207082130 METAR WIHH NIL=
202207082100 METAR WIHH NIL=
202207082030 METAR WIHH NIL=
202207082000 METAR WIHH NIL=
202207081930 METAR WIHH NIL=
202207081900 METAR WIHH NIL=
202207081830 METAR WIHH NIL=
202207081800 METAR WIHH NIL=
202207081730 METAR WIHH NIL=
202207081700 METAR WIHH NIL=
202207081630 METAR WIHH NIL=
202207081600 METAR WIHH NIL=
202207081530 METAR WIHH NIL=
202207081500 METAR WIHH NIL=
202207081430 METAR WIHH NIL=
202207081400 METAR WIHH NIL=
202207081330 METAR WIHH NIL=
202207081300 METAR WIHH NIL=
202207081230 METAR WIHH NIL=
202207081200 METAR WIHH NIL=
202207081130 METAR WIHH NIL=
202207081100 METAR WIHH NIL=
202207081030 METAR WIHH NIL=
202207081000 METAR WIHH NIL=
202207080930 METAR WIHH NIL=
202207080900 METAR WIHH NIL=
202207080830 METAR WIHH NIL=
202207080800 METAR WIHH NIL=
202207080730 METAR WIHH NIL=
202207080700 METAR WIHH NIL=
202207080630 METAR WIHH NIL=
202207080600 METAR WIHH NIL=
202207080530 METAR WIHH NIL=
202207080500 METAR WIHH NIL=
202207080430 METAR WIHH NIL=
202207080400 METAR WIHH NIL=
202207080330 METAR WIHH NIL=
202207080300 METAR WIHH NIL=
202207080230 METAR WIHH NIL=
202207080200 METAR WIHH NIL=
202207080130 METAR WIHH NIL=
202207080100 METAR WIHH NIL=
202207080030 METAR WIHH NIL=
202207080000 METAR WIHH NIL=
202207072330 METAR WIHH NIL=
202207072300 METAR WIHH NIL=
202207072230 METAR WIHH NIL=
202207072200 METAR WIHH NIL=
202207072130 METAR WIHH NIL=
202207072100 METAR WIHH NIL=
202207072030 METAR WIHH NIL=
202207072000 METAR WIHH NIL=
202207071930 METAR WIHH NIL=
202207071900 METAR WIHH NIL=
202207071830 METAR WIHH NIL=
202207071800 METAR WIHH NIL=
202207071730 METAR WIHH NIL=
202207071700 METAR WIHH NIL=
202207071630 METAR WIHH NIL=
202207071600 METAR WIHH NIL=
202207071530 METAR WIHH NIL=
202207071500 METAR WIHH NIL=
202207071430 METAR WIHH NIL=
202207071400 METAR WIHH NIL=
202207071330 METAR WIHH NIL=
202207071300 METAR WIHH NIL=
202207071230 METAR WIHH NIL=
202207071200 METAR WIHH NIL=
202207071130 METAR WIHH NIL=
202207071100 METAR WIHH NIL=
202207071030 METAR WIHH NIL=
202207071000 METAR WIHH NIL=
202207070930 METAR WIHH NIL=
202207070900 METAR WIHH NIL=
202207070830 METAR WIHH NIL=
202207070800 METAR WIHH NIL=
202207070730 METAR WIHH NIL=
202207070700 METAR WIHH NIL=
202207070630 METAR WIHH NIL=
202207070600 METAR WIHH NIL=
202207070530 METAR WIHH NIL=
202207070500 METAR WIHH NIL=
202207070430 METAR WIHH NIL=
202207070400 METAR WIHH NIL=
202207070330 METAR WIHH NIL=
202207070300 METAR WIHH NIL=
202207070230 METAR WIHH NIL=
202207070200 METAR WIHH NIL=
202207070130 METAR WIHH NIL=
202207070100 METAR WIHH NIL=
202207070030 METAR WIHH NIL=
202207070000 METAR WIHH NIL=
202207062330 METAR WIHH NIL=
202207062300 METAR WIHH NIL=
202207062230 METAR WIHH NIL=
202207062200 METAR WIHH NIL=
202207062130 METAR WIHH NIL=
202207062100 METAR WIHH NIL=
202207062030 METAR WIHH NIL=
202207062000 METAR WIHH NIL=
202207061930 METAR WIHH NIL=
202207061900 METAR WIHH NIL=
202207061830 METAR WIHH NIL=
202207061800 METAR WIHH NIL=
202207061730 METAR WIHH NIL=
202207061700 METAR WIHH NIL=
202207061630 METAR WIHH NIL=
202207061600 METAR WIHH NIL=
202207061530 METAR WIHH NIL=
202207061500 METAR WIHH NIL=
202207061430 METAR WIHH NIL=
202207061400 METAR WIHH NIL=
202207061330 METAR WIHH NIL=
202207061300 METAR WIHH NIL=
202207061230 METAR WIHH NIL=
202207061200 METAR WIHH NIL=
202207061130 METAR WIHH NIL=
202207061100 METAR WIHH NIL=
202207061030 METAR WIHH NIL=
202207061000 METAR WIHH NIL=
202207060930 METAR WIHH NIL=
202207060900 METAR WIHH NIL=
202207060830 METAR WIHH NIL=
202207060800 METAR WIHH NIL=
202207060730 METAR WIHH NIL=
202207060700 METAR WIHH NIL=
202207060630 METAR WIHH NIL=
202207060600 METAR WIHH NIL=
202207060530 METAR WIHH NIL=
202207060500 METAR WIHH NIL=
202207060400 METAR WIHH NIL=
202207060300 METAR WIHH NIL=
202207060230 METAR WIHH NIL=
202207060200 METAR WIHH NIL=
202207060130 METAR WIHH NIL=
202207060100 METAR WIHH NIL=
202207060030 METAR WIHH NIL=
202207060000 METAR WIHH NIL=
202207052330 METAR WIHH NIL=
202207052300 METAR WIHH NIL=
202207052230 METAR WIHH NIL=
202207052200 METAR WIHH NIL=
202207052130 METAR WIHH NIL=
202207052100 METAR WIHH NIL=
202207052030 METAR WIHH NIL=
202207052000 METAR WIHH NIL=
202207051930 METAR WIHH NIL=
202207051900 METAR WIHH NIL=
202207051830 METAR WIHH NIL=
202207051800 METAR WIHH NIL=
202207051730 METAR WIHH NIL=
202207051700 METAR WIHH NIL=
202207051630 METAR WIHH NIL=
202207051600 METAR WIHH NIL=
202207051530 METAR WIHH NIL=
202207051500 METAR WIHH NIL=
202207051430 METAR WIHH NIL=
202207051400 METAR WIHH NIL=
202207051330 METAR WIHH NIL=
202207051300 METAR WIHH NIL=
202207051230 METAR WIHH NIL=
202207051200 METAR WIHH NIL=
202207051130 METAR WIHH NIL=
202207051100 METAR WIHH NIL=
202207051030 METAR WIHH NIL=
202207051000 METAR WIHH NIL=
202207050930 METAR WIHH NIL=
202207050900 METAR WIHH NIL=
202207050830 METAR WIHH NIL=
202207050800 METAR WIHH NIL=
202207050730 METAR WIHH NIL=
202207050700 METAR WIHH NIL=
202207050630 METAR WIHH NIL=
202207050600 METAR WIHH NIL=
202207050530 METAR WIHH NIL=
202207050500 METAR WIHH NIL=
202207050430 METAR WIHH NIL=
202207050400 METAR WIHH NIL=
202207050330 METAR WIHH NIL=
202207050300 METAR WIHH NIL=
202207050230 METAR WIHH NIL=
202207050200 METAR WIHH NIL=
202207050130 METAR WIHH NIL=
202207050100 METAR WIHH NIL=
202207050030 METAR WIHH NIL=
202207050000 METAR WIHH NIL=
202207042330 METAR WIHH NIL=
202207042300 METAR WIHH NIL=
202207042230 METAR WIHH NIL=
202207042200 METAR WIHH NIL=
202207042130 METAR WIHH NIL=
202207042100 METAR WIHH NIL=
202207042030 METAR WIHH NIL=
202207042000 METAR WIHH NIL=
202207041930 METAR WIHH NIL=
202207041900 METAR WIHH NIL=
202207041830 METAR WIHH NIL=
202207041800 METAR WIHH NIL=
202207041730 METAR WIHH NIL=
202207041700 METAR WIHH NIL=
202207041630 METAR WIHH NIL=
202207041600 METAR WIHH NIL=
202207041530 METAR WIHH NIL=
202207041500 METAR WIHH NIL=
202207041430 METAR WIHH NIL=
202207041400 METAR WIHH NIL=
202207041330 METAR WIHH NIL=
202207041300 METAR WIHH NIL=
202207041230 METAR WIHH NIL=
202207041200 METAR WIHH NIL=
202207041130 METAR WIHH NIL=
202207041100 METAR WIHH NIL=
202207041030 METAR WIHH NIL=
202207041000 METAR WIHH NIL=
202207040930 METAR WIHH NIL=
202207040900 METAR WIHH NIL=
202207040830 METAR WIHH NIL=
202207040800 METAR WIHH NIL=
202207040730 METAR WIHH NIL=
202207040700 METAR WIHH NIL=
202207040630 METAR WIHH NIL=
202207040600 METAR WIHH NIL=
202207040530 METAR WIHH NIL=
202207040500 METAR WIHH NIL=
202207040430 METAR WIHH NIL=
202207040400 METAR WIHH NIL=
202207040330 METAR WIHH NIL=
202207040300 METAR WIHH NIL=
202207040230 METAR WIHH NIL=
202207040200 METAR WIHH NIL=
202207040130 METAR WIHH NIL=
202207040100 METAR WIHH NIL=
202207040030 METAR WIHH NIL=
202207040000 METAR WIHH NIL=
202207032330 METAR WIHH NIL=
202207032300 METAR WIHH NIL=
202207032230 METAR WIHH NIL=
202207032200 METAR WIHH NIL=
202207032130 METAR WIHH NIL=
202207032100 METAR WIHH NIL=
202207032030 METAR WIHH NIL=
202207032000 METAR WIHH NIL=
202207031930 METAR WIHH NIL=
202207031900 METAR WIHH NIL=
202207031830 METAR WIHH NIL=
202207031800 METAR WIHH NIL=
202207031730 METAR WIHH NIL=
202207031700 METAR WIHH NIL=
202207031630 METAR WIHH NIL=
202207031600 METAR WIHH NIL=
202207031530 METAR WIHH NIL=
202207031500 METAR WIHH NIL=
202207031430 METAR WIHH NIL=
202207031400 METAR WIHH NIL=
202207031330 METAR WIHH NIL=
202207031300 METAR WIHH NIL=
202207031230 METAR WIHH NIL=
202207031200 METAR WIHH NIL=
202207031130 METAR WIHH NIL=
202207031100 METAR WIHH NIL=
202207031030 METAR WIHH NIL=
202207031000 METAR WIHH NIL=
202207030930 METAR WIHH NIL=
202207030900 METAR WIHH NIL=
202207030830 METAR WIHH NIL=
202207030800 METAR WIHH NIL=
202207030730 METAR WIHH NIL=
202207030700 METAR WIHH NIL=
202207030630 METAR WIHH NIL=
202207030600 METAR WIHH NIL=
202207030530 METAR WIHH NIL=
202207030500 METAR WIHH NIL=
202207030430 METAR WIHH NIL=
202207030400 METAR WIHH NIL=
202207030330 METAR WIHH NIL=
202207030300 METAR WIHH NIL=
202207030230 METAR WIHH NIL=
202207030200 METAR WIHH NIL=
202207030130 METAR WIHH NIL=
202207030100 METAR WIHH NIL=
202207030030 METAR WIHH NIL=
202207030000 METAR WIHH NIL=
202207022330 METAR WIHH NIL=
202207022300 METAR WIHH NIL=
202207022230 METAR WIHH NIL=
202207022200 METAR WIHH NIL=
202207022130 METAR WIHH NIL=
202207022100 METAR WIHH NIL=
202207022030 METAR WIHH NIL=
202207022000 METAR WIHH NIL=
202207021930 METAR WIHH NIL=
202207021900 METAR WIHH NIL=
202207021830 METAR WIHH NIL=
202207021800 METAR WIHH NIL=
202207021730 METAR WIHH NIL=
202207021700 METAR WIHH NIL=
202207021630 METAR WIHH NIL=
202207021600 METAR WIHH NIL=
202207021530 METAR WIHH NIL=
202207021500 METAR WIHH NIL=
202207021430 METAR WIHH NIL=
202207021400 METAR WIHH NIL=
202207021330 METAR WIHH NIL=
202207021300 METAR WIHH NIL=
202207021230 METAR WIHH NIL=
202207021200 METAR WIHH NIL=
202207021130 METAR WIHH NIL=
202207021100 METAR WIHH NIL=
202207021030 METAR WIHH NIL=
202207021000 METAR WIHH NIL=
202207020930 METAR WIHH NIL=
202207020900 METAR WIHH NIL=
202207020830 METAR WIHH NIL=
202207020800 METAR WIHH NIL=
202207020730 METAR WIHH NIL=
202207020700 METAR WIHH NIL=
202207020630 METAR WIHH NIL=
202207020600 METAR WIHH NIL=
202207020530 METAR WIHH NIL=
202207020500 METAR WIHH NIL=
202207020430 METAR WIHH NIL=
202207020400 METAR WIHH NIL=
202207020330 METAR WIHH NIL=
202207020300 METAR WIHH NIL=
202207020230 METAR WIHH NIL=
202207020200 METAR WIHH NIL=
202207020130 METAR WIHH NIL=
202207020100 METAR WIHH NIL=
202207020030 METAR WIHH NIL=
202207020000 METAR WIHH NIL=
202207012330 METAR WIHH NIL=
202207012300 METAR WIHH NIL=
202207012230 METAR WIHH NIL=
202207012200 METAR WIHH NIL=
202207012130 METAR WIHH NIL=
202207012100 METAR WIHH NIL=
202207012030 METAR WIHH NIL=
202207012000 METAR WIHH NIL=
202207011930 METAR WIHH NIL=
202207011900 METAR WIHH NIL=
202207011830 METAR WIHH NIL=
202207011800 METAR WIHH NIL=
202207011730 METAR WIHH NIL=
202207011700 METAR WIHH NIL=
202207011630 METAR WIHH NIL=
202207011600 METAR WIHH NIL=
202207011530 METAR WIHH NIL=
202207011500 METAR WIHH NIL=
202207011430 METAR WIHH NIL=
202207011400 METAR WIHH NIL=
202207011330 METAR WIHH NIL=
202207011300 METAR WIHH NIL=
202207011230 METAR WIHH NIL=
202207011200 METAR WIHH NIL=
202207011130 METAR WIHH NIL=
202207011100 METAR WIHH NIL=
202207011030 METAR WIHH NIL=
202207011000 METAR WIHH NIL=
202207010930 METAR WIHH NIL=
202207010900 METAR WIHH NIL=
202207010830 METAR WIHH NIL=
202207010800 METAR WIHH NIL=
202207010730 METAR WIHH NIL=
202207010700 METAR WIHH NIL=
202207010630 METAR WIHH NIL=
202207010600 METAR WIHH NIL=
202207010530 METAR WIHH NIL=
202207010500 METAR WIHH NIL=
202207010430 METAR WIHH NIL=
202207010400 METAR WIHH NIL=
202207010330 METAR WIHH NIL=
202207010300 METAR WIHH NIL=
202207010230 METAR WIHH NIL=
202207010200 METAR WIHH NIL=
202207010130 METAR WIHH NIL=
202207010100 METAR WIHH NIL=
202207010030 METAR WIHH NIL=
202207010000 METAR WIHH NIL=

# No short TAF reports from WIHH in databse.

###################################
#  large TAF from WIHH
###################################
202207312300 TAF WIHH 312300Z 0100/0200 09008KT 4000 HZ FEW022
                      BECMG 0101/0103 6000 SCT020
                      BECMG 0106/0108 03010KT=
202207311700 TAF WIHH 311700Z 3118/0118 15004KT 5000 HZ FEW022
                      BECMG 0101/0103 09010KT 6000=
202207311100 TAF WIHH 311100Z 3112/0112 08010KT 6000 FEW022
                      BECMG 3114/3116 12006KT 5000 HZ=
202207310500 TAF WIHH 310500Z 3106/0106 03012KT 6000 SCT020
                      BECMG 3114/3116 12008KT 5000 HZ FEW022=
202207302300 TAF WIHH 302300Z 3100/0100 03006KT 5000 HZ SCT020
                      BECMG 3104/3106 12004KT 6000
                      BECMG 3114/3116 5000 HZ FEW020=
202207301700 TAF WIHH 301700Z 3018/3118 06006KT 6000 FEW020
                      BECMG 3023/3101 VRB03KT 5000 HZ
                      BECMG 3105/3107 12008KT 6000 SCT020=
202207301100 TAF WIHH 301100Z 3012/3112 09006KT 5000 HZ FEW020
                      BECMG 3018/3020 00000KT FEW020
                      BECMG 3103/3105 12004KT 6000 SCT020=
202207300500 TAF WIHH 300500Z 3006/3106 15008KT 6000 SCT020
                      BECMG 3015/3017 03004KT 5000 HZ FEW020=
202207292300 TAF WIHH 292300Z 3000/3100 09008KT 5000 HZ FEW022
                      BECMG 3004/3006 6000 SCT020
                      BECMG 3013/3015 03005KT FEW020=
202207291700 TAF WIHH 291700Z 2918/3018 12006KT 5000 HZ FEW020
                      BECMG 3003/3005 03008KT 6000 SCT020=
202207291100 TAF WIHH 291100Z 2912/3012 09010KT 6000 FEW020
                      BECMG 2916/2918 03005KT 5000 HZ
                      BECMG 3000/3002 00000KT FEW022=
202207290500 TAF WIHH 290500Z 2906/3006 09008KT 6000 SCT020
                      TEMPO 2909/2912 27010KT 4000 -RA BKN018
                      BECMG 2914/2916 03005KT 5000 HZ FEW020
                      BECMG 2921/2923 VRB03KT=
202207282300 TAF WIHH 282300Z 2900/3000 06008KT 6000 FEW022
                      TEMPO 2908/2911 33010KT 4000 -RA SCT018
                      BECMG 2913/2915 VRB04KT 5000 HZ=
202207281700 TAF WIHH 281700Z 2818/2918 15005KT 5000 HZ FEW022
                      BECMG 2901/2903 09010KT 6000
                      TEMPO 2909/2912 24012KT 4000 -RA SCT018=
202207281100 TAF WIHH 281100Z 2812/2912 09008KT 6000 SCT020
                      BECMG 2814/2816 15005KT 5000 HZ FEW022
                      BECMG 2822/2900 00000KT 4000 BR=
202207280500 TAF WIHH 280500Z 2806/2906 06012KT 6000 SCT020
                      TEMPO 2809/2812 4000 -RA
                      BECMG 2814/2815 VRB04KT 5000 HZ=
202207272300 TAF WIHH 272300Z 2800/2900 06008KT 5000 HZ SCT020
                      BECMG 2803/2805 6000 FEW020
                      TEMPO 2809/2812 12010KT 4000 -RA SCT018
                      BECMG 2813/2815 VRB03KT 5000 HZ FEW022=
202207271700 TAF WIHH 271700Z 2718/2818 03006KT 5000 HZ FEW020
                      BECMG 2801/2803 VRB03KT
                      BECMG 2807/2809 12008KT 6000 SCT020=
202207271100 TAF WIHH 271100Z 2712/2812 06006KT 6000 SCT020
                      BECMG 2716/2718 5000 HZ FEW020
                      BECMG 2722/2800 12004KT 4000=
202207270500 TAF WIHH 270500Z 2706/2806 12008KT 5000 HZ SCT020
                      BECMG 2709/2711 06010KT 6000
                      BECMG 2716/2718 VRB03KT 5000 HZ FEW020=
202207262300 TAF WIHH 262300Z 2700/2800 10008KT 4000 HZ FEW022
                      BECMG 2702/2704 04010KT 6000 SCT020
                      BECMG 2713/2715 14005KT=
202207261700 TAF WIHH 261700Z 2618/2718 15004KT 5000 HZ FEW022
                      BECMG 2702/2704 09008KT 6000 SCT020=
202207261100 TAF WIHH 261100Z 2612/2712 03006KT 6000 FEW022
                      BECMG 2614/2616 15005KT 5000 HZ=
202207260500 TAF WIHH 260500Z 2606/2706 08010KT 6000 FEW020
                      TEMPO 2610/2613 03012KT 4000 -RA SCT018
                      BECMG 2615/2617 15004KT 4000 HZ=
202207252300 TAF WIHH 252300Z 2600/2700 03006KT 5000 HZ SCT018
                      BECMG 2602/2604 03004KT 6000
                      TEMPO 2607/2610 27008KT 4000 -RA BKN018
                      BECMG 2611/2613 5000 HZ FEW020=
202207251700 TAF WIHH 251700Z 2518/2618 09003KT 5000 HZ FEW020
                      BECMG 2602/2604 12006KT 6000 SCT020=
202207251100 TAF WIHH 251100Z 2512/2612 06005KT 5000 HZ SCT020
                      BECMG 2516/2518 00000KT FEW020
                      BECMG 2522/2600 3000 BR FEW022=
202207250500 TAF WIHH 250500Z 2506/2606 15006KT 5000 HZ SCT020
                      TEMPO 2507/2509 03008KT 4000 -RA SCT018
                      TEMPO 2511/2514 24010KT 3000 -TSRA FEW017CB
                       BKN018
                      BECMG 2516/2518 00000KT 4000 BR FEW020=
202207242300 TAF WIHH 242300Z 2500/2600 21005KT 4000 HZ FEW022
                      BECMG 2502/2504 35008KT 6000 SCT020
                      TEMPO 2510/2513 21010KT 4000 -RA FEW017CB
                       BECMG 2515/2517 VRB03KT 5000 HZ=
202207241700 TAF WIHH 241700Z 2418/2518 23003KT 5000 HZ FEW022
                      BECMG 2422/2500 00000KT 3000 BR
                      BECMG 2501/2503 28005KT 6000 SCT020=
202207241100 TAF WIHH 241100Z 2412/2512 20005KT 4000 -RA SCT018
                      BECMG 2419/2421 00000KT 4000 BR FEW022
                      BECMG 2501/2503 18003KT 6000=
202207240500 TAF WIHH 240500Z 2406/2506 36008KT 6000 SCT020
                      TEMPO 2410/2412 04012KT 3000 -RA BKN018
                      TEMPO 2415/2418 18006KT 4000 -RA
                      BECMG 2422/2500 23004KT 4000 BR FEW022=
202207232300 TAF WIHH 232300Z 2400/2500 12008KT 5000 HZ FEW020
                      BECMG 2403/2405 06005KT 6000
                      TEMPO 2408/2411 24010KT 3000 -RA BKN017
                      BECMG 2413/2415 00000KT 5000 HZ FEW022=
202207231700 TAF WIHH 231700Z 2318/2418 12006KT 5000 HZ FEW020
                      BECMG 2402/2404 VRB03KT 6000 SCT020=
202207231100 TAF WIHH 231100Z 2312/2412 12005KT 5000 HZ SCT018
                      BECMG 2315/2317 00000KT SCT020
                      BECMG 2321/2323 3000 BR FEW020=
202207230500 TAF WIHH 230500Z 2306/2406 09006KT 5000 HZ SCT020
                      TEMPO 2308/2311 03008KT 4000 -RA BKN018
                      BECMG 2313/2315 00000KT 5000 HZ FEW020=
202207222300 TAF WIHH 222300Z 2300/2400 12004KT 4000 HZ FEW022
                      BECMG 2302/2304 09008KT 6000 SCT020
                      TEMPO 2309/2312 04010KT 4000 -RA
                      BECMG 2314/2316 00000KT 5000 HZ=
202207221700 TAF WIHH 221700Z 2218/2318 15004KT 5000 HZ FEW022
                      BECMG 2301/2303 09010KT 6000 SCT020=
202207221100 TAF WIHH 221100Z 2212/2312 08010KT 6000 FEW022
                      BECMG 2214/2216 15005KT 5000 HZ
                      BECMG 2223/2301 22004KT=
202207220505 TAF WIHH 220505Z 2206/2306 06008KT 6000 SCT018
                      TEMPO 2207/2210 09012KT 3000 -RA BKN017
                      BECMG 2213/2215 15005KT 5000 HZ=
202207220500 TAF WIHH 220500Z NIL=
202207212300 TAF WIHH 212300Z 2200/2300 09008KT 5000 HZ SCT020
                      BECMG 2203/2205 15004KT 6000
                      TEMPO 2209/2212 03010KT 3000 -RA BKN017
                      BECMG 2214/2216 00000KT 4000 BR FEW020=
202207211700 TAF WIHH 211700Z 2118/2218 12006KT 5000 HZ FEW020
                      BECMG 2201/2203 00000KT SCT020
                      TEMPO 2207/2211 03010KT 3000 RA BKN017
                      BECMG 2213/2215 18003KT 4000 BR SCT020=
202207211100 TAF WIHH 211100Z 2112/2212 03006KT 5000 HZ SCT020
                      BECMG 2118/2120 12003KT FEW020
                      BECMG 2122/2200 00000KT 4000 BR=
202207210500 TAF WIHH 210500Z 2106/2206 09006KT 6000 SCT020
                      BECMG 2115/2117 VRB03KT 5000 HZ FEW020=
202207202300 TAF WIHH 202300Z NIL=
202207201700 TAF WIHH 201700Z 2018/2118 VRB03KT 5000 HZ FEW022
                      BECMG 2022/2100 00000KT 4000 BR
                      BECMG 2102/2104 06008KT 6000=
202207201100 TAF WIHH 201100Z 2012/2112 22006KT 6000 FEW022
                      BECMG 2014/2016 VRB03KT 5000 HZ
                      BECMG 2022/2100 00000KT 4000 BR=
202207200500 TAF WIHH 200500Z 2006/2106 03010KT 6000 SCT018
                      TEMPO 2008/2011 4000 -RA BKN017
                      BECMG 2012/2014 26005KT 5000 HZ=
202207192300 TAF WIHH 192300Z 2000/2100 09008KT 6000 FEW022
                      BECMG 2007/2009 03010KT SCT020
                      BECMG 2014/2016 00000KT 5000 HZ FEW020=
202207191700 TAF WIHH 191700Z 1918/2018 12005KT 5000 HZ FEW020
                      BECMG 2000/2002 00000KT FEW022
                      BECMG 2004/2006 03010KT 6000=
202207191100 TAF WIHH 191100Z 1912/2012 06008KT 6000 FEW020
                      BECMG 1915/1917 5000 HZ
                      BECMG 1921/1923 VRB03KT FEW022=
202207190500 TAF WIHH 190500Z 1906/2006 12008KT 5000 HZ FEW020
                      BECMG 1908/1910 06006KT 6000 SCT020
                      BECMG 1915/1917 00000KT 5000 HZ FEW022=
202207182300 TAF WIHH 182300Z 1900/2000 25004KT 5000 HZ FEW022
                      BECMG 1902/1904 02010KT 6000 SCT020
                      TEMPO 1909/1912 06008KT 4000 -RA FEW017CB
                       BECMG 1914/1916 VRB03KT 5000 HZ=
202207181700 TAF WIHH 181700Z 1818/1918 20004KT 5000 HZ FEW022
                      BECMG 1822/1900 00000KT 4000 BR
                      BECMG 1901/1903 08008KT 6000=
202207181100 TAF WIHH 181100Z 1812/1912 03008KT 6000 SCT020
                      BECMG 1814/1816 18004KT 5000 HZ FEW022
                      BECMG 1822/1900 00000KT 4000 BR=
202207180500 TAF WIHH 180500Z 1806/1906 03008KT 6000 SCT018
                      TEMPO 1809/1812 09010KT 4000 -RA
                      BECMG 1814/1816 18005KT 5000 HZ FEW020=
202207172300 TAF WIHH 172300Z 1800/1900 12008KT 5000 HZ FEW022
                      BECMG 1800/1802 18005KT 4000 BR
                      BECMG 1804/1806 06006KT 6000 FEW020
                      TEMPO 1808/1811 03010KT 4000 -RA SCT018
                      BECMG 1813/1815 5000 HZ SCT020=
202207171700 TAF WIHH 171700Z 1718/1818 06006KT 5000 HZ FEW020
                      BECMG 1802/1804 03010KT 6000 FEW022
                      BECMG 1808/1810 SCT020=
202207171100 TAF WIHH 171100Z 1712/1812 06006KT 6000 FEW020
                      BECMG 1719/1721 5000 HZ SCT020
                      BECMG 1802/1804 15008KT 6000 FEW022=
202207170500 TAF WIHH 170500Z 1706/1806 12008KT 5000 HZ SCT018
                      TEMPO 1708/1711 03010KT 4000 -RA BKN017
                      BECMG 1713/1715 06005KT 5000 HZ SCT020
                      BECMG 1721/1723 00000KT FEW020=
202207162300 TAF WIHH 162300Z 1700/1800 22004KT 6000 SCT020
                      TEMPO 1707/1710 06012KT 4000 -RA FEW018CB
                       BECMG 1712/1714 09005KT 5000 HZ=
202207161700 TAF WIHH 161700Z 1618/1718 15004KT 5000 HZ FEW022
                      BECMG 1700/1702 06008KT 6000 SCT020
                      TEMPO 1707/1710 03012KT 4000 -RA FEW017CB=
202207161100 TAF WIHH 161100Z 1612/1712 10007KT 6000 FEW022
                      BECMG 1614/1616 VRB03KT 5000 HZ=
202207160500 TAF WIHH 160500Z 1606/1706 06006KT 6000 SCT018
                      BECMG 1609/1611 10010KT FEW020
                      BECMG 1614/1616 VRB03KT 5000 HZ=
202207152300 TAF WIHH 152300Z 1600/1700 29004KT 4000 -RA SCT018
                      BECMG 1603/1605 12006KT 6000
                      BECMG 1608/1610 09010KT=
202207151700 TAF WIHH 151700Z 1518/1618 00000KT 4000 HZ SCT018
                      TEMPO 1520/1523 24006KT 3000 RA FEW017CB
                       BKN017
                      BECMG 1602/1604 06010KT 5000 HZ FEW020
                      TEMPO 1607/1610 4000 -RA SCT018=
202207151100 TAF WIHH 151100Z 1512/1612 06008KT 5000 HZ SCT018
                      TEMPO 1512/1516 24005KT 3000 RA FEW017CB
                       BKN017
                      BECMG 1519/1521 00000KT 4000 BR SCT020
                      BECMG 1601/1603 06006KT 5000 HZ FEW022=
202207150500 TAF WIHH 150500Z 1506/1606 09010KT 6000 SCT020
                      TEMPO 1507/1510 4000 -RA SCT018
                      BECMG 1512/1514 03006KT 5000 HZ SCT020
                      BECMG 1519/1521 00000KT FEW020=
202207142300 TAF WIHH 142300Z 1500/1600 12006KT 6000 FEW020
                      TEMPO 1506/1509 06010KT 4000 -RA SCT018
                      BECMG 1511/1513 03005KT 5000 HZ SCT020=
202207141700 TAF WIHH 141700Z NIL=
202207141640 TAF WIHH 141640Z 1418/1518 06004KT 5000 HZ SCT020
                      TEMPO 1419/1423 3000 RA BKN017
                      BECMG 1502/1504 12006KT 5000 HZ SCT018
                      TEMPO 1506/1509 4000 -RA=
202207141100 TAF WIHH 141100Z 1412/1512 06010KT 6000 SCT020
                      BECMG 1414/1416 09008KT 5000 HZ SCT018
                      TEMPO 1419/1423 3000 RA BKN017
                      BECMG 1502/1504 12005KT 5000 HZ SCT018=
202207140500 TAF WIHH 140500Z 1406/1506 06008KT 5000 HZ SCT020
                      TEMPO 1410/1413 15006KT 4000 -RA SCT018
                      BECMG 1414/1416 09008KT 5000 HZ
                      TEMPO 1419/1423 3000 RA BKN017=
202207132300 TAF WIHH 132300Z 1400/1500 09008KT 5000 HZ SCT020
                      BECMG 1402/1404 00000KT 6000 SCT020
                      TEMPO 1407/1411 03008KT 4000 -RA BKN017=
202207131700 TAF WIHH 131700Z NIL=
202207131100 TAF WIHH 131100Z 1312/1412 09005KT 5000 HZ SCT020
                      BECMG 1320/1322 VRB03KT 4000 BR
                      BECMG 1401/1403 10010KT 6000=
202207130500 TAF WIHH 130500Z 1306/1406 06008KT 5000 HZ SCT020
                      TEMPO 1308/1311 09012KT 3000 -TSRA FEW018CB
                       BECMG 1314/1316 15005KT 4000 HZ=
202207122300 TAF WIHH 122300Z 1300/1400 VRB03KT 5000 HZ SCT020
                      TEMPO 1301/1304 11008KT 4000 -RA
                      BECMG 1305/1307 6000 FEW022
                      TEMPO 1310/1313 06012KT 3000 -TSRA FEW017CB=
202207121700 TAF WIHH 121700Z 1218/1318 23004KT 5000 HZ FEW022
                      TEMPO 1222/1302 06008KT 4000 -RA BKN018
                      BECMG 1304/1306 09010KT 6000 SCT020=
202207121100 TAF WIHH 121100Z 1212/1312 12006KT 6000 SCT020
                      BECMG 1215/1217 23004KT 5000 HZ FEW022=
202207120500 TAF WIHH 120500Z 1206/1306 03010KT 6000 SCT018
                      TEMPO 1206/1209 4000 -TSRA FEW017CB
                      BECMG 1212/1214 09005KT 5000 HZ FEW022=
202207112300 TAF WIHH 112300Z 1200/1300 17004KT 5000 HZ FEW022
                      BECMG 1202/1204 03008KT 6000 SCT018
                      TEMPO 1206/1209 36012KT 4000 -TSRA FEW018CB
                       BECMG 1212/1214 10005KT 5000 HZ=
202207111700 TAF WIHH 111700Z 1118/1218 15004KT 5000 HZ FEW020
                      BECMG 1201/1203 00000KT 6000
                      TEMPO 1206/1210 18010KT 4000 -RA SCT018=
202207111100 TAF WIHH 111100Z 1112/1212 03006KT 5000 HZ FEW020
                      BECMG 1116/1118 12004KT SCT020
                      BECMG 1200/1202 00000KT 6000 FEW022=
202207110500 TAF WIHH 110500Z 1106/1206 12005KT 5000 HZ SCT020
                      TEMPO 1112/1116 03006KT 4000 -RA BKN018
                      BECMG 1118/1120 00000KT 3000 BR FEW020=
202207102300 TAF WIHH 102300Z 1100/1200 24006KT 6000 FEW020
                      BECMG 1103/1105 06008KT SCT020
                      BECMG 1108/1110 12010KT 5000 HZ SCT018
                      TEMPO 1112/1116 18004KT 4000 -RA BKN017=
202207101700 TAF WIHH 101700Z 1018/1118 00000KT 5000 HZ FEW020
                      BECMG 1103/1105 12006KT 6000 SCT020=
202207101100 TAF WIHH 101100Z 1012/1112 06008KT 6000 FEW020
                      BECMG 1016/1018 12005KT
                      BECMG 1023/1101 00000KT 5000 HZ FEW022=
202207100500 TAF WIHH 100500Z 1006/1106 09006KT 6000 FEW020
                      BECMG 1012/1014 15004KT SCT020
                      BECMG 1020/1022 00000KT 5000 HZ FEW022=
202207092300 TAF WIHH 092300Z 1000/1100 00000KT 6000 FEW020
                      BECMG 1006/1008 12006KT 6000 SCT018
                      BECMG 1013/1015 VRB03KT 5000 HZ=
202207091700 TAF WIHH 091700Z NIL=
202207091100 TAF WIHH 091100Z 0912/1012 15006KT 6000 SCT020
                      BECMG 0914/0916 21004KT 5000 HZ FEW022
                      BECMG 1000/1002 09010KT 7000=
202207090500 TAF WIHH 090500Z 0906/1006 02010KT 6000 SCT020
                      BECMG 0914/0916 21004KT 5000 HZ FEW022=
202207082300 TAF WIHH 082300Z 0900/1000 23005KT 6000 FEW022
                      BECMG 0905/0907 02008KT SCT020
                      BECMG 0914/0916 00000KT 5000 HZ=
202207081700 TAF WIHH 081700Z NIL=
202207081100 TAF WIHH 081100Z 0812/0912 02008KT 6000 SCT020
                      BECMG 0814/0816 15005KT 5000 HZ FEW022=
202207080500 TAF WIHH 080500Z 0806/0906 02010KT 7000 SCT020
                      BECMG 0813/0815 11008KT 5000 HZ FEW022
                      BECMG 0822/0900 21005KT 6000=
202207072300 TAF WIHH 072300Z 0800/0900 21008KT 7000 FEW022
                      BECMG 0805/0807 35010KT SCT020
                      BECMG 0813/0815 12005KT 5000 HZ=
202207071700 TAF WIHH 071700Z 0718/0818 12003KT 5000 HZ FEW020
                      BECMG 0721/0723 00000KT 4000 BR FEW022
                      BECMG 0804/0806 03006KT 6000 SCT020=
202207071100 TAF WIHH 071100Z 0712/0812 03005KT 6000 SCT018
                      BECMG 0717/0719 00000KT 5000 HZ FEW020
                      BECMG 0800/0802 VRB03KT 4000 BR=
202207070500 TAF WIHH 070500Z 0706/0806 06004KT 5000 HZ SCT018
                      BECMG 0712/0714 00000KT 5000 HZ FEW020
                      BECMG 0718/0720 4000 BR=
202207062300 TAF WIHH 062300Z 0700/0800 00000KT 4000 BR FEW022
                      BECMG 0703/0705 03004KT 6000 SCT020
                      TEMPO 0707/0710 15008KT 4000 -RA FEW017CB
                       SCT018
                      BECMG 0712/0714 00000KT 5000 HZ FEW020=
202207061700 TAF WIHH 061700Z 0618/0718 00000KT 5000 HZ FEW020
                      BECMG 0621/0700 00000KT 4000 BR FEW022
                      BECMG 0704/0706 06006KT 6000 SCT020=
202207061100 TAF WIHH 061100Z 0612/0712 03004KT 5000 HZ SCT020
                      TEMPO 0614/0618 12006KT 4000 -RA BKN018
                      BECMG 0620/0622 00000KT 3000 BR FEW020=
202207060530 TAF AMD WIHH 060530Z 0606/0706 06006KT 4000 HZ SCT020
                      TEMPO 0608/0611 12008KT 4000 -RA BKN018
                      BECMG 0613/0615 00000KT 4000 BR FEW020=
202207060500 TAF WIHH 060500Z 0606/0706 12005KT 4000 HZ SCT020
                      TEMPO 0606/0610 06008KT 3000 -TSRA FEW017CB
                       BKN018
                      BECMG 0612/0614 00000KT 4000 BR FEW020=
202207052300 TAF WIHH 052300Z 0600/0700 00000KT 4000 BR SCT018
                      TEMPO 0600/0602 09006KT 4000 -RA BKN017
                      BECMG 0602/0604 12003KT 5000 HZ SCT020
                      TEMPO 0608/0611 15008KT 3000 -TSRA FEW017CB
                       SCT018
                      BECMG 0613/0615 00000KT 4000 BR FEW020=
202207051700 TAF WIHH 051700Z NIL=
202207051100 TAF WIHH 051100Z 0512/0612 24005KT 6000 SCT018
                      TEMPO 0516/0520 33008KT 4000 -RA BKN017
                      BECMG 0522/0600 15004KT 5000 HZ FEW022=
202207050500 TAF WIHH 050500Z 0506/0606 02010KT 6000 SCT020
                      TEMPO 0507/0510 4000 -RA FEW017CB
                      BECMG 0514/0516 00000KT 5000 HZ=
202207042300 TAF WIHH 042300Z 0500/0600 22004KT 5000 HZ FEW022
                      BECMG 0502/0504 06008KT 7000 SCT020
                      TEMPO 0507/0510 02012KT 5000 -RA FEW018CB
                       BECMG 0513/0515 5000 HZ FEW022=
202207041700 TAF WIHH 041700Z 0418/0518 12005KT 5000 HZ FEW022
                      BECMG 0500/0502 06010KT 7000 SCT020=
202207041100 TAF WIHH 041100Z 0412/0512 06008KT 6000 FEW022=
202207040500 TAF WIHH 040500Z NIL=
202207032300 TAF WIHH 032300Z 0400/0500 12007KT 6000 FEW022
                      BECMG 0405/0408 09012KT 4000 -TSRA FEW017CB
                       SCT018
                      BECMG 0412/0414 5000 HZ=
202207031700 TAF WIHH 031700Z 0318/0418 00000KT 5000 HZ FEW020
                      BECMG 0402/0404 00000KT 6000
                      TEMPO 0406/0409 09008KT 4000 -RA FEW017CB
                       SCT018
                      BECMG 0411/0413 21003KT 5000 HZ SCT020=
202207031100 TAF WIHH 031100Z 0312/0412 09006KT 6000 SCT020
                      BECMG 0316/0318 00000KT 5000 HZ FEW020
                      BECMG 0400/0402 VRB03KT 5000 HZ
                      TEMPO 0406/0409 06008KT 4000 -RA FEW017CB
                       SCT018=
202207030500 TAF WIHH 030500Z 0306/0406 24004KT 5000 HZ SCT020
                      TEMPO 0308/0311 03008KT 4000 -RA BKN017
                      BECMG 0313/0315 00000KT 4000 BR FEW020
                      BECMG 0321/0323 5000 HZ=
202207022300 TAF AMD WIHH 030120Z 0300/0400 12006KT 5000 HZ SCT020
                      TEMPO 0302/0305 09008KT 3000 -TSRA FEW017CB
                       BKN018
                      BECMG 0307/0309 21004KT 6000 SCT020
                      BECMG 0312/0314 00000KT 5000 HZ=
202207021700 TAF WIHH 021700Z 0218/0318 00000KT 5000 HZ FEW020
                      TEMPO 0305/0308 06008KT 4000 -RA BKN017
                      BECMG 0310/0312 VRB03KT 6000=
202207021100 TAF WIHH 021100Z 0212/0312 03005KT 5000 HZ FEW020
                      BECMG 0303/0305 21003KT 6000=
202207020500 TAF WIHH 020500Z 0206/0306 12008KT 6000 SCT018
                      BECMG 0218/0220 00000KT 5000 HZ FEW020
                      BECMG 0301/0303 15005KT 6000 NSW=
202207012300 TAF WIHH 012300Z 0200/0300 09008KT 6000 FEW020
                      BECMG 0212/0214 06005KT 5000 HZ SCT018
                      BECMG 0221/0223 00000KT 4000 BR=
202207011700 TAF WIHH 011700Z NIL=
202207011630 TAF WIHH 011630Z 0118/0218 20003KT 5000 HZ FEW022
                      BECMG 0122/0200 00000KT 3000 BR
                      BECMG 0202/0204 12008KT 6000=
202207011100 TAF WIHH 011100Z 0112/0212 06006KT 6000 FEW022
                      BECMG 0114/0116 18004KT 5000 HZ
                      BECMG 0122/0200 00000KT 4000 BR=
202207010500 TAF WIHH 010500Z 0106/0206 06010KT 7000 SCT020
                      BECMG 0114/0116 18005KT 5000 HZ FEW022=
