##########################################################
# Query made at 05/04/2026 14:40:06 UTC
# Time interval: from 02/01/2024 00:00  to 02/29/2024 23:59  UTC
##########################################################

##########################################################
# WIHH, Jakarta Halim Perdanakusuma (Indonesia)
# WMO index: 96747. WIGOS ID: Unknown
# Latitude 06-15S. Longitude 106-54E. Altitude 30 m.
##########################################################

###################################
#  METAR/SPECI from WIHH
###################################
202402292330 METAR WIHH 292330Z 00000KT 5000 HZ FEW020 25/24 Q1009 NOSIG=
202402292300 METAR WIHH 292300Z 29003KT 5000 HZ FEW020 25/24 Q1009 NOSIG=
202402292230 METAR WIHH 292230Z 23003KT 5000 HZ FEW020 25/24 Q1009 NOSIG=
202402292200 METAR WIHH 292200Z 00000KT 4000 HZ FEW020 25/24 Q1009 NOSIG=
202402292130 METAR WIHH 292130Z 23003KT 4000 HZ FEW020 25/24 Q1009 NOSIG=
202402292100 METAR WIHH NIL=
202402292030 METAR WIHH NIL=
202402292000 METAR WIHH NIL=
202402291930 METAR WIHH NIL=
202402291900 METAR WIHH NIL=
202402291830 METAR WIHH NIL=
202402291800 METAR WIHH NIL=
202402291730 METAR WIHH NIL=
202402291700 METAR WIHH 291700Z 22003KT 6000 SCT020 26/25 Q1011 NOSIG=
202402291630 METAR WIHH 291630Z 21003KT 6000 SCT020 26/25 Q1011 NOSIG=
202402291600 METAR WIHH 291600Z 00000KT 6000 SCT020 26/25 Q1011 NOSIG=
202402291530 METAR WIHH 291530Z 00000KT 6000 SCT020 26/25 Q1011 NOSIG=
202402291500 METAR WIHH 291500Z 20003KT 6000 SCT020 26/25 Q1011 RMK RA TO N=
202402291430 METAR WIHH 291430Z 29003KT 6000 SCT020 26/25 Q1011 RMK RA TO NE=
202402291400 METAR WIHH 291400Z 00000KT 6000 SCT020 26/25 Q1010 RMK RA TO SW=
202402291330 METAR WIHH 291330Z 21003KT 6000 SCT020 26/24 Q1010 RMK RA TO S=
202402291300 METAR WIHH 291300Z 17003KT 6000 FEW020 26/24 Q1010 NOSIG=
202402291230 METAR WIHH 291230Z 20003KT 6000 FEW020 26/25 Q1009 NOSIG=
202402291200 METAR WIHH 291200Z 00000KT 6000 FEW020 26/24 Q1009 NOSIG=
202402291130 METAR WIHH 291130Z 21003KT 6000 SCT020 26/24 Q1008 NOSIG=
202402291100 METAR WIHH 291100Z 21003KT 6000 SCT018 27/25 Q1008 NOSIG=
202402291030 METAR WIHH 291030Z 24006KT 6000 SCT018 27/24 Q1008 NOSIG=
202402291000 METAR WIHH 291000Z 28003KT 6000 SCT018 27/24 Q1008 NOSIG=
202402290930 METAR WIHH 290930Z 22006KT 6000 SCT018 27/25 Q1007 NOSIG=
202402290900 METAR WIHH 290900Z 22006KT 5000 HZ SCT018 27/24 Q1007 NOSIG=
202402290830 METAR WIHH 290830Z 19006KT 5000 -RA SCT015 27/25 Q1008 NOSIG=
202402290800 METAR WIHH 290800Z 24003KT 5000 -RA SCT015 26/25 Q1008 NOSIG=
202402290730 METAR WIHH 290730Z 28004KT 5000 -RA SCT015 25/24 Q1009 NOSIG=
202402290700 METAR WIHH 290700Z 25008KT 3000 -RA SCT015 26/25 Q1009 NOSIG=
202402290630 METAR WIHH 290630Z 30004KT 4000 -RA SCT015 26/25 Q1009 NOSIG=
202402290600 METAR WIHH 290600Z 30004KT 4000 -RA SCT015 26/25 Q1009 NOSIG=
202402290530 METAR WIHH 290530Z 24003KT 4000 -RA SCT015 26/25 Q1010 NOSIG=
202402290500 METAR WIHH 290500Z 28004KT 4000 -RA SCT015 26/25 Q1010 NOSIG=
202402290430 METAR WIHH 290430Z 21004KT 3000 -RA BKN015 25/24 Q1011 NOSIG=
202402290400 METAR WIHH 290400Z 34003KT 4000 -RA BKN015 25/24 Q1011 NOSIG=
202402290330 METAR WIHH 290330Z 36006KT 1800 RA BKN015 25/24 Q1011 NOSIG=
202402290300 METAR WIHH 290300Z 19004KT 2000 -RA BKN015 25/24 Q1011 NOSIG=
202402290230 METAR WIHH 290230Z 22007KT 3000 RA BKN015 25/24 Q1011 NOSIG=
202402290200 METAR WIHH 290200Z 19004KT 5000 -RA SCT015 26/25 Q1011 NOSIG=
202402290130 METAR WIHH 290130Z 00000KT 5000 HZ SCT015 26/25 Q1011 RMK RA TO NW=
202402290100 METAR WIHH 290100Z 05003KT 5000 -RA SCT015 FEW017CB 26/25 Q1010 RMK CB TO N=
202402290030 METAR WIHH 290030Z 00000KT 5000 -RA SCT012 FEW017CB 25/25 Q1010 RMK CB TO N=
202402290000 METAR WIHH 290000Z 05003KT 3000 -TSRA SCT012 FEW017CB 25/24 Q1010 RMK CB TO N=
202402282330 METAR WIHH 282330Z 02003KT 1500 -TSRA BKN012 FEW017CB 25/24 Q1009 RMK CB TO N=
202402282300 METAR WIHH 282300Z 33007KT 4000 -TSRA BKN012 FEW017CB 25/24 Q1009 RMK CB TO N=
202402282230 METAR WIHH 282230Z 01005KT 4000 -TSRA SCT016 FEW017CB 25/24 Q1009 RMK CB TO N=
202402282200 METAR WIHH 282200Z 01003KT 4000 -TSRA SCT016 FEW017CB 25/24 Q1008 RMK CB TO N=
202402282130 METAR WIHH 282130Z 35004KT 4000 -TSRA SCT016 FEW017CB 26/24 Q1008 RMK CB TO N=
202402282100 METAR WIHH 282100Z 36008KT 5000 TS SCT016 FEW017CB 26/24 Q1008 RMK CB AND RA TO N=
202402282030 METAR WIHH NIL=
202402282000 METAR WIHH NIL=
202402281930 METAR WIHH NIL=
202402281900 METAR WIHH NIL=
202402281830 METAR WIHH NIL=
202402281800 METAR WIHH NIL=
202402281730 METAR WIHH 281730Z 00000KT 6000 FEW020 26/25 Q1009 NOSIG=
202402281700 METAR WIHH 281700Z 00000KT 6000 FEW020 26/25 Q1009 NOSIG=
202402281630 METAR WIHH NIL=
202402281600 METAR WIHH 281600Z 00000KT 6000 FEW020 26/25 Q1009 NOSIG=
202402281530 METAR WIHH 281530Z 00000KT 6000 FEW020 26/25 Q1009 NOSIG=
202402281500 METAR WIHH 281500Z 00000KT 6000 FEW020 27/25 Q1009 NOSIG=
202402281430 METAR WIHH 281430Z 00000KT 6000 FEW020 27/25 Q1009 NOSIG=
202402281400 METAR WIHH 281400Z 27003KT 6000 FEW020 27/25 Q1009 NOSIG=
202402281330 METAR WIHH 281330Z 25003KT 6000 FEW020 27/25 Q1009 NOSIG=
202402281300 METAR WIHH 281300Z 34003KT 6000 FEW020 27/25 Q1009 NOSIG=
202402281230 METAR WIHH 281230Z 31004KT 6000 SCT020 28/26 Q1008 NOSIG=
202402281200 METAR WIHH 281200Z 31004KT 6000 SCT020 28/25 Q1008 NOSIG=
202402281130 METAR WIHH 281130Z 31004KT 6000 SCT020 29/25 Q1007 NOSIG=
202402281100 METAR WIHH 281100Z 00000KT 6000 SCT020 29/25 Q1007 NOSIG=
202402281030 METAR WIHH 281030Z 00000KT 6000 SCT020 30/26 Q1006 NOSIG=
202402281000 METAR WIHH 281000Z 00000KT 6000 SCT020 30/25 Q1006 NOSIG=
202402280930 METAR WIHH 280930Z 30004KT 6000 SCT017 30/26 Q1007 NOSIG=
202402280900 METAR WIHH 280900Z 12004KT 5000 HZ SCT016 29/27 Q1007 NOSIG=
202402280830 METAR WIHH 280830Z 00000KT 4000 -RA SCT016 28/26 Q1007 NOSIG=
202402280800 METAR WIHH 280800Z 03007KT 4000 -RA SCT016 29/26 Q1007 NOSIG=
202402280730 METAR WIHH 280730Z 24004KT 4000 HZ SCT016 29/26 Q1007 RMK RA TO N=
202402280700 METAR WIHH 280700Z 25003KT 4000 HZ SCT016 29/26 Q1008 RMK RA TO N=
202402280630 METAR WIHH 280630Z 29004KT 4000 HZ SCT016 28/26 Q1008 RMK RA TO E=
202402280600 METAR WIHH 280600Z 26004KT 4000 HZ SCT016 28/26 Q1009 RMK RA TO E=
202402280530 METAR WIHH 280530Z 24004KT 5000 HZ SCT016 27/26 Q1009 RMK RA TO S=
202402280500 METAR WIHH 280500Z 21004KT 5000 -RA SCT016 27/25 Q1009 NOSIG=
202402280430 METAR WIHH 280430Z 23004KT 5000 -RA SCT015 27/25 Q1009 NOSIG=
202402280400 METAR WIHH 280400Z 28003KT 3000 -RA SCT015 26/25 Q1010 NOSIG=
202402280330 METAR WIHH 280330Z 22003KT 3000 -RA SCT015 26/25 Q1010 NOSIG=
202402280300 METAR WIHH 280300Z 23005KT 3000 -RA BKN015 26/25 Q1010 NOSIG=
202402280230 METAR WIHH 280230Z 20003KT 4000 -RA SCT015 26/25 Q1011 NOSIG=
202402280200 METAR WIHH 280200Z 00000KT 4000 -TSRA SCT015 FEW017CB 26/25 Q1011 RMK CB TO N=
202402280130 METAR WIHH 280130Z 00000KT 4000 -TSRA SCT015 FEW017CB 26/25 Q1010 RMK CB TO N=
202402280100 METAR WIHH 280100Z 00000KT 4000 -TSRA SCT015 FEW017CB 25/24 Q1010 RMK CB TO N=
202402280030 METAR WIHH 280030Z 00000KT 5000 -RA SCT018 25/24 Q1010 NOSIG=
202402280000 METAR WIHH 280000Z 24005KT 5000 -TSRA FEW017CB SCT018 25/24 Q1009 RMK CB TO W AND NW=
202402272330 METAR WIHH 272330Z 27003KT 5000 -TSRA FEW017CB SCT018 25/24 Q1009 RMK CB TO NW=
202402272300 METAR WIHH 272300Z 31005KT 5000 -RA FEW017CB SCT018 25/24 Q1008 RMK CB TO NW=
202402272230 METAR WIHH 272230Z 28006KT 5000 HZ FEW017CB SCT018 25/24 Q1008 RMK CB AND RA TO NW=
202402272200 METAR WIHH 272200Z 28006KT 5000 HZ FEW017CB SCT018 25/24 Q1008 RMK CB AND RA TO NW=
202402272130 METAR WIHH 272130Z 27006KT 5000 HZ FEW017CB SCT018 27/24 Q1008 RMK CB AND RA TO NW=
202402272100 METAR WIHH NIL=
202402272030 METAR WIHH NIL=
202402272000 METAR WIHH NIL=
202402271930 METAR WIHH NIL=
202402271900 METAR WIHH NIL=
202402271830 METAR WIHH NIL=
202402271800 METAR WIHH NIL=
202402271730 METAR WIHH NIL=
202402271700 METAR WIHH 271700Z 12003KT 6000 SCT020 28/25 Q1009 NOSIG=
202402271630 METAR WIHH 271630Z 11003KT 6000 SCT020 28/25 Q1009 NOSIG=
202402271600 METAR WIHH 271600Z 15003KT 6000 SCT020 28/24 Q1010 NOSIG=
202402271530 METAR WIHH 271530Z 16003KT 6000 SCT020 28/24 Q1010 NOSIG=
202402271500 METAR WIHH 271500Z 12003KT 6000 SCT020 29/24 Q1010 NOSIG=
202402271430 METAR WIHH 271430Z 18003KT 6000 SCT018 28/24 Q1009 RMK RA TO S=
202402271400 METAR WIHH 271400Z 15003KT 6000 SCT018 28/24 Q1009 RMK RA TO S AND W=
202402271330 METAR WIHH 271330Z 00000KT 6000 SCT018 28/24 Q1009 RMK RA TO SE=
202402271300 METAR WIHH 271300Z 15004KT 6000 SCT018 28/23 Q1009 RMK RA TO SE=
202402271230 METAR WIHH 271230Z 18005KT 6000 SCT018 28/23 Q1009 RMK RA TO SE=
202402271200 METAR WIHH 271200Z 13005KT 6000 SCT018 30/24 Q1008 RMK RA TO S=
202402271130 METAR WIHH 271130Z 33004KT 6000 SCT018 30/22 Q1008 RMK RA TO S=
202402271100 METAR WIHH 271100Z 31005KT 6000 SCT018 31/22 Q1007 NOSIG=
202402271030 METAR WIHH 271030Z 33005KT 6000 SCT018 31/22 Q1006 NOSIG=
202402271000 METAR WIHH 271000Z 31008KT 6000 SCT018 31/22 Q1006 NOSIG=
202402270930 METAR WIHH 270930Z 33008KT 6000 SCT018 32/24 Q1006 NOSIG=
202402270900 METAR WIHH 270900Z 27008KT 6000 SCT018 32/24 Q1006 NOSIG=
202402270830 METAR WIHH 270830Z 33008KT 6000 SCT018 32/24 Q1006 NOSIG=
202402270800 METAR WIHH 270800Z 36008KT 6000 SCT018 32/24 Q1006 NOSIG=
202402270730 METAR WIHH 270730Z 33008KT 6000 SCT018 32/25 Q1007 RMK RA TO NE AND S=
202402270700 METAR WIHH 270700Z 31010KT 6000 FEW017CB SCT018 32/25 Q1007 RMK CB AND RA TO SW=
202402270630 METAR WIHH 270630Z 33005KT 6000 SCT018 32/24 Q1008 RMK RA TO NW=
202402270600 METAR WIHH 270600Z 33005KT 6000 SCT018 32/24 Q1008 NOSIG=
202402270530 METAR WIHH 270530Z 26005KT 6000 SCT018 31/24 Q1008 NOSIG=
202402270500 METAR WIHH 270500Z 33008KT 6000 SCT018 32/24 Q1008 NOSIG=
202402270430 METAR WIHH 270430Z 33003KT 6000 SCT018 32/24 Q1009 NOSIG=
202402270400 METAR WIHH 270400Z 33008KT 6000 SCT018 31/25 Q1010 NOSIG=
202402270330 METAR WIHH 270330Z 36005KT 4000 HZ SCT018 31/24 Q1010 RMK RA TO N=
202402270300 METAR WIHH 270300Z 30003KT 5000 HZ FEW020 31/24 Q1010 RMK RA TO NW=
202402270230 METAR WIHH 270230Z 33008KT 5000 HZ FEW020 31/24 Q1010 NOSIG=
202402270200 METAR WIHH 270200Z 30005KT 5000 HZ FEW020 30/23 Q1010 NOSIG=
202402270130 METAR WIHH NIL=
202402270100 METAR WIHH 270100Z 26003KT 4000 HZ FEW020 29/25 Q1009 NOSIG=
202402270030 METAR WIHH 270030Z 24003KT 4000 HZ FEW020 28/25 Q1009 NOSIG=
202402270000 METAR WIHH NIL=
202402262330 METAR WIHH 262330Z 00000KT 4000 HZ FEW020 26/25 Q1009 NOSIG=
202402262300 METAR WIHH 262300Z 00000KT 5000 HZ FEW020 26/25 Q1009 NOSIG=
202402262230 METAR WIHH 262230Z 00000KT 5000 HZ FEW020 26/25 Q1009 NOSIG=
202402262200 METAR WIHH 262200Z 00000KT 5000 HZ FEW020 26/25 Q1009 NOSIG=
202402262130 METAR WIHH 262130Z 26004KT 7000 SCT020 28/24 Q1010 NOSIG=
202402262100 METAR WIHH NIL=
202402262030 METAR WIHH NIL=
202402262000 METAR WIHH NIL=
202402261930 METAR WIHH NIL=
202402261900 METAR WIHH NIL=
202402261830 METAR WIHH NIL=
202402261800 METAR WIHH NIL=
202402261730 METAR WIHH NIL=
202402261700 METAR WIHH 261700Z 26004KT 7000 SCT020 28/24 Q1010 NOSIG=
202402261630 METAR WIHH 261630Z 23003KT 7000 SCT020 28/24 Q1010 NOSIG=
202402261600 METAR WIHH 261600Z 27003KT 7000 SCT020 28/24 Q1010 NOSIG=
202402261530 METAR WIHH 261530Z 24003KT 7000 SCT020 28/24 Q1010 NOSIG=
202402261500 METAR WIHH 261500Z 18003KT 7000 SCT020 28/24 Q1010 NOSIG=
202402261430 METAR WIHH 261430Z 17003KT 7000 SCT020 28/24 Q1010 NOSIG=
202402261400 METAR WIHH 261400Z 27003KT 7000 SCT020 28/24 Q1010 NOSIG=
202402261330 METAR WIHH 261330Z 30003KT 7000 SCT018 29/24 Q1010 NOSIG=
202402261300 METAR WIHH 261300Z 33003KT 7000 SCT018 29/23 Q1009 NOSIG=
202402261230 METAR WIHH 261230Z 30003KT 7000 SCT018 29/23 Q1009 NOSIG=
202402261200 METAR WIHH 261200Z 28003KT 7000 SCT018 29/23 Q1009 NOSIG=
202402261130 METAR WIHH 261130Z 26003KT 7000 SCT018 29/23 Q1009 NOSIG=
202402261100 METAR WIHH 261100Z 29004KT 7000 SCT018 29/23 Q1008 NOSIG=
202402261030 METAR WIHH 261030Z 26004KT 7000 SCT018 29/23 Q1008 NOSIG=
202402261000 METAR WIHH 261000Z 28007KT 7000 SCT018 30/23 Q1008 NOSIG=
202402260930 METAR WIHH 260930Z 26007KT 7000 SCT018 30/24 Q1008 NOSIG=
202402260900 METAR WIHH 260900Z 33006KT 7000 SCT018 30/24 Q1008 RMK RA TO E=
202402260830 METAR WIHH 260830Z 31004KT 7000 SCT018 30/23 Q1008 RMK RA TO NE=
202402260800 METAR WIHH 260800Z 28004KT 7000 SCT018 31/23 Q1009 NOSIG=
202402260730 METAR WIHH 260730Z 28004KT 7000 SCT018 31/23 Q1009 NOSIG=
202402260700 METAR WIHH 260700Z 30005KT 7000 SCT018 31/23 Q1009 NOSIG=
202402260630 METAR WIHH 260630Z 28005KT 7000 SCT018 31/24 Q1009 NOSIG=
202402260600 METAR WIHH 260600Z 25005KT 7000 SCT018 31/24 Q1009 NOSIG=
202402260530 METAR WIHH 260530Z 33004KT 7000 SCT018 31/24 Q1010 NOSIG=
202402260500 METAR WIHH 260500Z 30005KT 7000 SCT018 31/24 Q1010 NOSIG=
202402260430 METAR WIHH 260430Z 26008KT 7000 SCT018 30/24 Q1010 NOSIG=
202402260400 METAR WIHH 260400Z 33008KT 7000 SCT018 30/24 Q1011 NOSIG=
202402260330 METAR WIHH 260330Z 36007KT 7000 SCT018 30/24 Q1011 RMK RA TO W=
202402260300 METAR WIHH 260300Z 33008KT 7000 SCT018 30/24 Q1011 RMK RA TO W=
202402260230 METAR WIHH 260230Z 28004KT 8000 FEW020 30/25 Q1011 NOSIG=
202402260200 METAR WIHH 260200Z 26006KT 8000 FEW020 30/25 Q1011 NOSIG=
202402260130 METAR WIHH 260130Z 28003KT 6000 FEW020 29/25 Q1011 NOSIG=
202402260100 METAR WIHH 260100Z 00000KT 6000 SCT018 28/23 Q1011 NOSIG=
202402260030 METAR WIHH 260030Z 00000KT 6000 SCT018 27/25 Q1011 NOSIG=
202402260000 METAR WIHH 260000Z 03003KT 6000 SCT018 26/25 Q1010 NOSIG=
202402252330 METAR WIHH 252330Z 15003KT 6000 SCT018 25/25 Q1010 NOSIG=
202402252300 METAR WIHH 252300Z 00000KT 5000 BR SCT018 25/24 Q1010 NOSIG=
202402252230 METAR WIHH 252230Z 21003KT 5000 BR SCT018 25/24 Q1010 NOSIG=
202402252200 METAR WIHH 252200Z 00000KT 5000 -RA SCT018 25/24 Q1010 NOSIG=
202402252130 METAR WIHH 252130Z 25003KT 5000 -RA SCT018 25/24 Q1009 NOSIG=
202402252100 METAR WIHH 252100Z 17003KT 5000 -RA SCT018 26/26 Q1009 NOSIG=
202402252030 METAR WIHH NIL=
202402252000 METAR WIHH NIL=
202402251930 METAR WIHH NIL=
202402251900 METAR WIHH NIL=
202402251830 METAR WIHH NIL=
202402251800 METAR WIHH NIL=
202402251730 METAR WIHH NIL=
202402251700 METAR WIHH 251700Z 30006KT 3000 -TSRA FEW016CB BKN017 26/26 Q1012 RMK CB OVER THE FIELD=
202402251630 METAR WIHH 251630Z 25006KT 3000 -TSRA FEW016CB BKN017 26/26 Q1012 RMK CB TO N=
202402251600 METAR WIHH 251600Z 25003KT 4000 -TSRA FEW016CB BKN017 26/26 Q1012 RMK CB TO NE=
202402251530 METAR WIHH 251530Z 00000KT 4000 -TSRA FEW016CB BKN017 26/26 Q1012 RMK CB TO NE=
202402251500 METAR WIHH 251500Z 03003KT 4000 -TSRA FEW016CB BKN017 26/26 Q1012 RMK CB TO NE=
202402251430 METAR WIHH 251430Z 34003KT 4000 -TSRA FEW016CB BKN017 26/26 Q1012 RMK CB TO N AND S=
202402251400 METAR WIHH 251400Z 34003KT 1500 -TSRA FEW016CB BKN017 27/25 Q1012 TEMPO FM1445 4000 RA RMK CB TO SW AND NW=
202402251330 METAR WIHH 251330Z 00000KT 6000 TS FEW016CB BKN017 28/26 Q1011 TEMPO FM1340 2000 TSRA RMK CB AND RA TO SW AND NW=
202402251300 METAR WIHH 251300Z 36003KT 6000 FEW016CB BKN017 29/25 Q1011 RMK CB AND RA TO SW=
202402251230 METAR WIHH 251230Z 34003KT 6000 FEW016CB BKN017 29/25 Q1010 RMK CB AND RA TO SW=
202402251200 METAR WIHH 251200Z 04003KT 6000 FEW016CB BKN017 29/25 Q1010 RMK CB AND RA TO SW=
202402251130 METAR WIHH 251130Z 30003KT 6000 FEW016CB BKN017 29/25 Q1010 RMK CB AND RA TO SW=
202402251100 METAR WIHH 251100Z 02003KT 6000 FEW016CB BKN017 29/25 Q1010 RMK CB AND RA TO SW=
202402251030 METAR WIHH 251030Z 32003KT 6000 FEW017CB BKN018 29/25 Q1009 RMK CB AND RA TO SW=
202402251000 METAR WIHH 251000Z 35003KT 6000 SCT018 29/24 Q1008 RMK RA TO SW=
202402250930 METAR WIHH 250930Z 30003KT 6000 SCT018 29/25 Q1008 RMK RA TO W=
202402250900 METAR WIHH 250900Z 31003KT 6000 SCT018 29/26 Q1008 NOSIG=
202402250830 METAR WIHH 250830Z 31003KT 6000 SCT020 29/26 Q1008 NOSIG=
202402250800 METAR WIHH 250800Z 15005KT 5000 -RA SCT018 27/26 Q1008 NOSIG=
202402250730 METAR WIHH 250730Z 19007KT 4000 RA SCT018 27/25 Q1008 NOSIG=
202402250700 METAR WIHH 250700Z 25010KT 5000 -RA SCT018 28/25 Q1008 NOSIG=
202402250630 METAR WIHH 250630Z 27007KT 6000 SCT018 31/25 Q1009 RMK RA TO N=
202402250600 METAR WIHH 250600Z 35006KT 6000 SCT018 32/23 Q1009 RMK RA TO W=
202402250530 METAR WIHH 250530Z 29004KT 6000 SCT020 32/24 Q1010 NOSIG=
202402250500 METAR WIHH 250500Z 28004KT 6000 SCT020 31/24 Q1011 NOSIG=
202402250430 METAR WIHH 250430Z 24005KT 6000 SCT020 31/23 Q1011 NOSIG=
202402250400 METAR WIHH 250400Z 25005KT 6000 SCT020 31/23 Q1011 NOSIG=
202402250330 METAR WIHH 250330Z 24005KT 6000 SCT020 30/24 Q1011 NOSIG=
202402250300 METAR WIHH 250300Z 26006KT 6000 SCT020 29/24 Q1011 NOSIG=
202402250230 METAR WIHH 250230Z 30004KT 6000 SCT020 29/25 Q1011 NOSIG=
202402250200 METAR WIHH 250200Z 30004KT 6000 SCT020 28/25 Q1011 NOSIG=
202402250130 METAR WIHH 250130Z 00000KT 6000 SCT020 28/25 Q1011 NOSIG=
202402250100 METAR WIHH 250100Z 24003KT 6000 SCT020 28/25 Q1011 NOSIG=
202402250030 METAR WIHH 250030Z 24004KT 6000 FEW020 27/25 Q1010 NOSIG=
202402250000 METAR WIHH 250000Z 24005KT 6000 FEW020 26/24 Q1009 NOSIG=
202402242330 METAR WIHH 242330Z 24005KT 6000 FEW020 26/24 Q1009 NOSIG=
202402242300 METAR WIHH 242300Z 22005KT 6000 SCT018 26/24 Q1009 NOSIG=
202402242230 METAR WIHH 242230Z 27005KT 5000 HZ SCT018 26/24 Q1009 RMK RA TO SE=
202402242200 METAR WIHH 242200Z 24004KT 5000 HZ SCT018 26/25 Q1009 RMK RA TO SE=
202402242130 METAR WIHH 242130Z 24005KT 6000 SCT018 26/25 Q1009 RMK RA TO SE=
202402242100 METAR WIHH NIL=
202402242030 METAR WIHH NIL=
202402242000 METAR WIHH NIL=
202402241930 METAR WIHH NIL=
202402241900 METAR WIHH NIL=
202402241830 METAR WIHH NIL=
202402241800 METAR WIHH NIL=
202402241730 METAR WIHH NIL=
202402241700 METAR WIHH NIL=
202402241630 METAR WIHH NIL=
202402241600 METAR WIHH NIL=
202402241530 METAR WIHH NIL=
202402241500 METAR WIHH 241500Z 35004KT 6000 SCT018 29/25 Q1011 NOSIG=
202402241430 METAR WIHH 241430Z 29005KT 6000 SCT018 29/25 Q1011 RMK RA TO SE=
202402241400 METAR WIHH 241400Z 26004KT 6000 SCT018 29/25 Q1010 RMK RA TO E AND S=
202402241330 METAR WIHH 241330Z 36007KT 6000 SCT018 29/25 Q1010 RMK RA TO S=
202402241300 METAR WIHH 241300Z 23003KT 6000 SCT018 28/25 Q1010 NOSIG=
202402241230 METAR WIHH 241230Z 33005KT 6000 SCT018 29/25 Q1010 NOSIG=
202402241200 METAR WIHH 241200Z 00000KT 6000 FEW017CB SCT018 28/25 Q1009 RMK CB AND RA TO E=
202402241130 METAR WIHH 241130Z 16003KT 5000 -RA SCT015 FEW017CB 27/24 Q1008 RMK CB TO SE=
202402241100 METAR WIHH 241100Z 24006KT 5000 -TSRA SCT015 FEW017CB 28/24 Q1008 RMK CB TO SW=
202402241030 METAR WIHH 241030Z 35006KT 6000 TS SCT015 FEW017CB 30/25 Q1008 RMK CB AND RA TO W-S=
202402241000 METAR WIHH 241000Z 04005KT 6000 FEW017CB SCT018 31/25 Q1007 RMK CB AND RA TO S=
202402240930 METAR WIHH 240930Z 04005KT 6000 FEW017CB SCT018 31/25 Q1007 RMK CB AND RA TO S=
202402240900 METAR WIHH 240900Z 33004KT 7000 SCT018 32/25 Q1007 RMK RA TO SW=
202402240830 METAR WIHH 240830Z 32005KT 7000 SCT018 32/25 Q1007 RMK RA TO SW=
202402240800 METAR WIHH 240800Z 01006KT 6000 SCT018 31/25 Q1008 RMK RA TO SE=
202402240730 METAR WIHH 240730Z 36008KT 6000 FEW017CB SCT018 31/25 Q1008 RMK CB AND RA TO SE=
202402240700 METAR WIHH NIL=
202402240630 METAR WIHH 240630Z 34006KT 6000 SCT018 32/25 Q1008 RMK RA TO S=
202402240600 METAR WIHH 240600Z 26005KT 6000 SCT018 33/26 Q1009 RMK RA TO S=
202402240530 METAR WIHH 240530Z 36008KT 6000 SCT018 31/25 Q1010 RMK RA TO W=
202402240500 METAR WIHH 240500Z 35006KT 6000 SCT018 32/24 Q1010 NOSIG=
202402240430 METAR WIHH 240430Z 36006KT 6000 SCT018 32/25 Q1010 NOSIG=
202402240400 METAR WIHH 240400Z 34010KT 6000 SCT018 32/25 Q1011 RMK RA TO W=
202402240330 METAR WIHH 240330Z 35011KT 6000 SCT018 31/25 Q1011 RMK RA TO W=
202402240300 METAR WIHH 240300Z 33008KT 6000 FEW022 32/24 Q1011 RMK RA TO W=
202402240230 METAR WIHH NIL=
202402240200 METAR WIHH 240200Z 3005KT 6000 FEW022 30/25 Q1012 NOSIG=
202402240130 METAR WIHH 240130Z 27003KT 6000 FEW022 29/25 Q1011 NOSIG=
202402240100 METAR WIHH 240100Z 27003KT 6000 FEW022 28/25 Q1011 NOSIG=
202402240030 METAR WIHH 240030Z 27003KT 6000 FEW022 28/25 Q1011 NOSIG=
202402240000 METAR WIHH 240000Z 30003KT 6000 FEW022 27/25 Q1011 NOSIG=
202402232330 METAR WIHH 232330Z 26003KT 6000 FEW020 27/25 Q1011 NOSIG=
202402232300 METAR WIHH 232300Z 23003KT 6000 SCT020 27/25 Q1010 NOSIG=
202402232230 METAR WIHH 232230Z 27004KT 6000 SCT020 27/25 Q1010 NOSIG=
202402232200 METAR WIHH 232200Z 28004KT 6000 SCT020 27/25 Q1010 NOSIG=
202402232130 METAR WIHH 232130Z 28004KT 6000 SCT020 27/25 Q1009 NOSIG=
202402232100 METAR WIHH NIL=
202402232030 METAR WIHH NIL=
202402232000 METAR WIHH NIL=
202402231930 METAR WIHH NIL=
202402231900 METAR WIHH NIL=
202402231830 METAR WIHH NIL=
202402231800 METAR WIHH NIL=
202402231730 METAR WIHH NIL=
202402231700 METAR WIHH NIL=
202402231630 METAR WIHH NIL=
202402231600 METAR WIHH 231600Z 28003KT 6000 SCT020 29/24 Q1011 NOSIG=
202402231530 METAR WIHH 231530Z 26006KT 6000 SCT020 29/24 Q1011 NOSIG=
202402231500 METAR WIHH 231500Z 29006KT 6000 SCT020 29/24 Q1011 NOSIG=
202402231430 METAR WIHH 231430Z 24008KT 6000 SCT020 29/24 Q1011 NOSIG=
202402231400 METAR WIHH 231400Z 27008KT 6000 SCT020 30/24 Q1011 NOSIG=
202402231330 METAR WIHH 231330Z 24008KT 6000 SCT020 30/23 Q1010 NOSIG=
202402231300 METAR WIHH 231300Z 25008KT 6000 SCT020 30/23 Q1010 NOSIG=
202402231230 METAR WIHH 231230Z 24008KT 6000 SCT020 30/23 Q1009 NOSIG=
202402231200 METAR WIHH 231200Z 26006KT 6000 SCT020 31/23 Q1009 NOSIG=
202402231130 METAR WIHH 231130Z 24008KT 6000 SCT018 31/23 Q1008 NOSIG=
202402231100 METAR WIHH 231100Z 25008KT 6000 SCT018 32/23 Q1008 NOSIG=
202402231030 METAR WIHH 231030Z 25006KT 6000 SCT018 32/23 Q1007 RMK RA TO E-SE=
202402231000 METAR WIHH 231000Z 36007KT 6000 SCT018 32/26 Q1007 RMK RA TO S=
202402230930 METAR WIHH 230930Z 36015KT 6000 SCT018 33/26 Q1007 NOSIG=
202402230900 METAR WIHH 230900Z 36008KT 6000 SCT018 33/25 Q1006 NOSIGDUPE=
202402230830 METAR WIHH 230830Z 35008KT 6000 SCT018 33/25 Q1007 NOSIG=
202402230800 METAR WIHH 230800Z 25006KT 6000 SCT018 34/23 Q1007 NOSIG=
202402230730 METAR WIHH 230730Z 24006KT 6000 SCT018 34/23 Q1007 NOSIG=
202402230700 METAR WIHH 230700Z 33005KT 6000 SCT018 33/23 Q1008 NOSIG=
202402230630 METAR WIHH 230630Z 29005KT 6000 SCT018 34/23 Q1008 NOSIG=
202402230600 METAR WIHH 230600Z 24008KT 6000 SCT018 33/22 Q1009 NOSIG=
202402230530 METAR WIHH 230530Z 20005KT 6000 SCT020 33/24 Q1010 NOSIG=
202402230500 METAR WIHH 230500Z 25010KT 6000 FEW020 33/24 Q1010 NOSIG=
202402230430 METAR WIHH 230430Z 24008KT 6000 FEW020 33/24 Q1011 NOSIG=
202402230400 METAR WIHH 230400Z 24008KT 6000 FEW020 32/24 Q1011 NOSIG=
202402230330 METAR WIHH 230330Z 24008KT 6000 FEW020 31/24 Q1011 NOSIG=
202402230300 METAR WIHH 230300Z 24005KT 6000 FEW020 30/23 Q1012 NOSIG=
202402230230 METAR WIHH 230230Z 24005KT 6000 FEW020 30/23 Q1012 NOSIG=
202402230200 METAR WIHH 230200Z 24006KT 6000 FEW020 30/23 Q1012 NOSIG=
202402230130 METAR WIHH 230130Z 21005KT 6000 NSC 31/24 Q1012 NOSIG=
202402230100 METAR WIHH 230100Z 26006KT 6000 NSC 29/24 Q1012 NOSIG=
202402230030 METAR WIHH 230030Z 24006KT 6000 NSC 29/25 Q1012 NOSIG=
202402230000 METAR WIHH 230000Z 25006KT 6000 NSC 27/25 Q1011 NOSIG=
202402222330 METAR WIHH 222330Z 29003KT 6000 FEW020 26/24 Q1011 NOSIG=
202402222300 METAR WIHH 222300Z 24003KT 6000 FEW020 26/24 Q1011 NOSIG=
202402222230 METAR WIHH 222230Z 27003KT 6000 NSC 26/24 Q1010 NOSIG=
202402222200 METAR WIHH 222200Z 00000KT 6000 NSC 25/25 Q1010 NOSIG=
202402222130 METAR WIHH 222130Z 00000KT 6000 FEW020 25/24 Q1010 NOSIG=
202402222100 METAR WIHH NIL=
202402222030 METAR WIHH NIL=
202402222000 METAR WIHH NIL=
202402221930 METAR WIHH NIL=
202402221900 METAR WIHH NIL=
202402221830 METAR WIHH NIL=
202402221800 METAR WIHH NIL=
202402221730 METAR WIHH NIL=
202402221700 METAR WIHH 221700Z 00000KT 6000 SCT018 25/23 Q1011 NOSIG=
202402221630 METAR WIHH 221630Z 27004KT 7000 SCT018 25/24 Q1011 NOSIG=
202402221600 METAR WIHH 221600Z 00000KT 6000 SCT018 26/23 Q1012 RMK RA TO SE=
202402221530 METAR WIHH 221530Z 17004KT 6000 SCT018 26/24 Q1012 RMK RA TO SE=
202402221500 METAR WIHH 221500Z 18004KT 6000 SCT018 26/24 Q1012 RMK RA TO SE=
202402221430 METAR WIHH 221430Z 14003KT 6000 SCT018 26/24 Q1012 RMK RA TO NE=
202402221400 METAR WIHH 221400Z 10004KT 6000 SCT018 27/24 Q1011 RMK RA TO NE=
202402221330 METAR WIHH 221330Z 10008KT 6000 SCT018 27/26 Q1011 RMK RA TO SE=
202402221300 METAR WIHH 221300Z 12003KT 5000 -RA FEW016CB SCT017 28/27 Q1010 RMK CB TO SE=
202402221230 METAR WIHH 221230Z 31006KT 5000 -TSRA FEW016CB SCT017 28/27 Q1009 TEMPO TL1245 5000 RA RMK CB TO SE=
202402221200 METAR WIHH 221200Z 04006KT 2000 -TSRA FEW016CB SCT017 28/27 Q1009 TEMPO TL1245 4000 RA RMK CB TO SE=
202402221130 METAR WIHH 221130Z 04010KT 5000 -TSRA FEW016CB SCT017 29/27 Q1008 TEMPO TL1200 3000 TSRA RMK CB TO NW=
202402221100 METAR WIHH 221100Z 00000KT 5000 -TSRA FEW017CB SCT018 31/26 Q1007 TEMPO TL1130 3000 TSRA RMK CB TO SW AND NW=
202402221030 METAR WIHH 221030Z 07005KT 5000 TS FEW017CB SCT018 32/26 Q1007 TEMPO FM1100 3000 TSRA RMK CB AND RA TO SE=
202402221000 METAR WIHH 221000Z 10010KT 5000 TS FEW017CB SCT018 31/25 Q1007 TEMPO FM1015 3000 TSRA RMK CB AND RA TO SE-S=
202402220930 METAR WIHH 220930Z 35005KT 7000 SCT020 34/26 Q1006 NOSIG=
202402220900 METAR WIHH 220900Z 35005KT 7000 SCT020 33/26 Q1006 NOSIG=
202402220830 METAR WIHH 220830Z 32006KT 7000 SCT020 34/26 Q1007 NOSIG=
202402220800 METAR WIHH 220800Z 26003KT 7000 SCT020 35/23 Q1007 NOSIG=
202402220730 METAR WIHH 220730Z 26007KT 7000 SCT020 36/23 Q1007 NOSIG=
202402220700 METAR WIHH 220700Z 24007KT 7000 SCT020 35/23 Q1008 NOSIG=
202402220630 METAR WIHH 220630Z 29010KT 7000 SCT020 35/23 Q1008 NOSIG=
202402220600 METAR WIHH 220600Z 23010KT 7000 SCT020 34/25 Q1009 NOSIG=
202402220530 METAR WIHH 220530Z 24004KT 7000 SCT020 34/25 Q1010 NOSIG=
202402220500 METAR WIHH 220500Z 24007KT 7000 SCT020 33/23 Q1010 NOSIG=
202402220430 METAR WIHH 220430Z 21004KT 7000 SCT020 32/24 Q1011 NOSIG=
202402220400 METAR WIHH 220400Z 30005KT 7000 SCT020 32/24 Q1011 NOSIG=
202402220330 METAR WIHH 220330Z 24006KT 7000 FEW020 31/25 Q1011 NOSIG=
202402220300 METAR WIHH 220300Z 27007KT 7000 FEW020 30/25 Q1011 NOSIG=
202402220230 METAR WIHH 220230Z 21010KT 7000 FEW020 30/25 Q1012 NOSIG=
202402220200 METAR WIHH 220200Z 24010KT 7000 FEW020 30/24 Q1012 NOSIG=
202402220130 METAR WIHH 220130Z 24010KT 7000 FEW020 29/24 Q1012 NOSIG=
202402220100 METAR WIHH 220100Z 24011KT 7000 FEW020 28/24 Q1012 NOSIG=
202402220030 METAR WIHH 220030Z 26007KT 7000 FEW020 27/24 Q1012 NOSIG=
202402220000 METAR WIHH 220000Z 26007KT 5000 HZ SCT018 28/25 Q1012 NOSIG=
202402212330 METAR WIHH 212330Z 25010KT 6000 SCT018 26/25 Q1012 NOSIG=
202402212300 METAR WIHH 212300Z 26009KT 6000 SCT018 27/25 Q1012 NOSIG=
202402212230 METAR WIHH 212230Z 25006KT 5000 HZ SCT018 27/25 Q1011 NOSIG=
202402212200 METAR WIHH 212200Z 27006KT 5000 HZ SCT018 27/25 Q1011 NOSIG=
202402212130 METAR WIHH 212130Z 24006KT 5000 HZ SCT018 27/25 Q1011 NOSIG=
202402212100 METAR WIHH 212100Z 25003KT 5000 HZ SCT018 27/25 Q1010 NOSIG=
202402212030 METAR WIHH NIL=
202402212000 METAR WIHH NIL=
202402211930 METAR WIHH NIL=
202402211900 METAR WIHH NIL=
202402211830 METAR WIHH NIL=
202402211800 METAR WIHH NIL=
202402211730 METAR WIHH NIL=
202402211700 METAR WIHH 211700Z 00000KT 5000 HZ SCT018 28/25 Q1013 RMK RA TO NE=
202402211630 METAR WIHH 211630Z 00000KT 5000 HZ SCT018 28/25 Q1013 NOSIG=
202402211600 METAR WIHH 211600Z 12003KT 5000 HZ SCT018 28/25 Q1013 NOSIG=
202402211530 METAR WIHH NIL=
202402211500 METAR WIHH 211500Z 00000KT 5000 HZ SCT016 28/25 Q1012 NOSIG=
202402211430 METAR WIHH 211430Z 29003KT 5000 HZ SCT016 28/24 Q1012 RMK RA TO NW AND E=
202402211400 METAR WIHH 211400Z 30003KT 5000 HZ SCT016 28/25 Q1011 NOSIG=
202402211330 METAR WIHH 211330Z 29003KT 5000 HZ SCT016 28/25 Q1011 RMK RA TO N=
202402211300 METAR WIHH 211300Z 28003KT 5000 HZ SCT016 FEW017CB 28/25 Q1011 RMK CB AND RA TO N=
202402211230 METAR WIHH 211230Z 25003KT 5000 HZ SCT016 FEW017CB 28/25 Q1010 RMK CB AND RA TO N=
202402211200 METAR WIHH 211200Z 23004KT 6000 SCT018 27/24 Q1009 NOSIG=
202402211130 METAR WIHH 211130Z 25003KT 6000 SCT018 27/24 Q1009 RMK RA TO W=
202402211100 METAR WIHH 211100Z 25005KT 5000 -RA SCT018 28/24 Q1008 TEMPO TL1130 4000 -RA=
202402211030 METAR WIHH 211030Z 20006KT 5000 -RA SCT016 FEW017CB 28/24 Q1008 TEMPO FM1050 3000 -TSRA BKN015 RMK CB TO W=
202402211000 METAR WIHH 211000Z 26003KT 5000 TS FEW017CB SCT018 30/25 Q1008 RMK CB AND RA TO S-SW=
202402210930 METAR WIHH 210930Z 26003KT 5000 HZ FEW017CB SCT018 31/25 Q1007 RMK CB AND RA TO SW=
202402210900 METAR WIHH 210900Z 36004KT 5000 HZ FEW017CB SCT018 31/25 Q1007 RMK CB AND RA TO S=
202402210830 METAR WIHH 210830Z 34003KT 5000 HZ FEW017CB SCT018 31/25 Q1007 RMK CB AND RA TO S=
202402210800 METAR WIHH 210800Z 33007KT 5000 HZ FEW017CB SCT018 31/25 Q1007 RMK CB AND RA TO S=
202402210730 METAR WIHH 210730Z 35006KT 5000 HZ SCT018 31/25 Q1008 RMK CB AND RA TO S=
202402210700 METAR WIHH 210700Z 35007KT 4000 HZ SCT018 31/25 Q1008 RMK RA TO SW=
202402210630 METAR WIHH 210630Z 03010KT 3000 HZ SCT018 32/26 Q1008 RMK RA TO N=
202402210600 METAR WIHH 210600Z 03006KT 4000 HZ FEW017CB SCT018 32/26 Q1009 RMK CB AND RA TO NE=
202402210530 METAR WIHH 210530Z 04005KT 4000 HZ FEW017CB SCT018 33/24 Q1009 TEMPO FM0545 3000 -RA BKN012 RMK CB AND RA TO NE=
202402210500 METAR WIHH 210500Z 28003KT 4000 HZ SCT018 33/25 Q1010 RMK RA TO NE AND NW=
202402210430 METAR WIHH 210430Z 27004KT 4000 HZ SCT018 32/25 Q1010 RMK RA TO N AND E=
202402210400 METAR WIHH 210400Z 21005KT 5000 HZ SCT018 31/25 Q1011 RMK RA TO E=
202402210330 METAR WIHH 210330Z 00000KT 5000 HZ SCT018 31/24 Q1011 RMK RA TO NE=
202402210300 METAR WIHH 210300Z 00000KT 5000 HZ SCT018 30/25 Q1011 RMK RA TO SW=
202402210230 METAR WIHH 210230Z 18002KT 5000 HZ SCT020 30/25 Q1012 RMK RA TO SW=
202402210200 METAR WIHH 210200Z 15003KT 4000 HZ SCT020 30/25 Q1012 NOSIG=
202402210130 METAR WIHH 210130Z 18003KT 4000 HZ SCT020 28/25 Q1012 NOSIG=
202402210100 METAR WIHH 210100Z 18003KT 4000 HZ SCT020 28/25 Q1012 NOSIG=
202402210030 METAR WIHH 210030Z 00000KT 3000 HZ SCT020 28/25 Q1011 NOSIG=
202402210000 METAR WIHH 210000Z 00000KT 3000 HZ SCT020 27/25 Q1011 NOSIG=
202402202330 METAR WIHH 202330Z 11003KT 3000 HZ SCT020 28/25 Q1010 NOSIG=
202402202300 METAR WIHH 202300Z 11003KT 3000 HZ SCT020 27/25 Q1010 NOSIG=
202402202230 METAR WIHH 202230Z 17003KT 3000 HZ SCT020 27/25 Q1009 NOSIG=
202402202200 METAR WIHH 202200Z 17003KT 3000 HZ SCT020 27/25 Q1009 NOSIG=
202402202130 METAR WIHH 202130Z 15003KT 3000 HZ SCT020 27/25 Q1009 NOSIG=
202402202100 METAR WIHH NIL=
202402202030 METAR WIHH NIL=
202402202000 METAR WIHH NIL=
202402201930 METAR WIHH NIL=
202402201900 METAR WIHH NIL=
202402201830 METAR WIHH NIL=
202402201800 METAR WIHH NIL=
202402201730 METAR WIHH NIL=
202402201700 METAR WIHH NIL=
202402201630 METAR WIHH NIL=
202402201600 METAR WIHH 201600Z 26003KT 6000 FEW020 28/26 Q1011 NOSIG=
202402201530 METAR WIHH 201530Z 23004KT 6000 FEW020 28/26 Q1011 NOSIG=
202402201500 METAR WIHH 201500Z 19004KT 6000 FEW020 29/26 Q1011 NOSIG=
202402201430 METAR WIHH 201430Z 22003KT 6000 SCT020 29/25 Q1011 NOSIG=
202402201400 METAR WIHH NIL=
202402201330 METAR WIHH 201330Z 01003KT 6000 SCT019 29/25 Q1010 NOSIG=
202402201300 METAR WIHH 201300Z 01003KT 6000 FEW018CB SCT019 30/25 Q1010 RMK CB AND RA TO S=
202402201230 METAR WIHH 201230Z 36003KT 6000 FEW018CB SCT019 29/25 Q1010 RMK CB AND RA TO S=
202402201200 METAR WIHH 201200Z 31003KT 6000 FEW018CB FEW019 30/25 Q1010 RMK CB AND RA TO S=
202402201130 METAR WIHH 201130Z 03005KT 6000 SCT020 30/25 Q1009 NOSIG=
202402201100 METAR WIHH 201100Z 33008KT 6000 SCT020 30/25 Q1009 NOSIG=
202402201030 METAR WIHH 201030Z 36008KT 6000 SCT020 30/25 Q1008 NOSIG=
202402201000 METAR WIHH 201000Z 36008KT 6000 SCT020 31/25 Q1008 NOSIG=
202402200930 METAR WIHH 200930Z 03008KT 6000 SCT020 31/25 Q1008 NOSIG=
202402200900 METAR WIHH 200900Z 03008KT 6000 SCT020 32/25 Q1007 NOSIG=
202402200830 METAR WIHH 200830Z 33008KT 6000 SCT020 32/24 Q1007 NOSIG=
202402200800 METAR WIHH 200800Z 35008KT 6000 SCT018 33/25 Q1007 NOSIG=
202402200730 METAR WIHH 200730Z 35008KT 6000 SCT018 33/25 Q1008 NOSIG=
202402200700 METAR WIHH 200700Z 35008KT 6000 SCT018 33/25 Q1008 NOSIG=
202402200630 METAR WIHH 200630Z 35010KT 6000 SCT018 33/25 Q1009 NOSIG=
202402200600 METAR WIHH 200600Z 01010KT 6000 SCT018 33/25 Q1009 NOSIG=
202402200530 METAR WIHH 200530Z 31008KT 5000 HZ SCT018 33/24 Q1010 NOSIG=
202402200500 METAR WIHH 200500Z 34005KT 5000 HZ SCT018 32/25 Q1011 NOSIG=
202402200430 METAR WIHH 200430Z 03005KT 5000 HZ SCT018 33/24 Q1011 NOSIG=
202402200400 METAR WIHH 200400Z 35004KT 5000 HZ SCT018 31/25 Q1012 NOSIG=
202402200330 METAR WIHH 200330Z 04003KT 5000 HZ SCT018 32/25 Q1012 NOSIG=
202402200300 METAR WIHH 200300Z 15003KT 5000 HZ SCT018 32/24 Q1012 NOSIG=
202402200230 METAR WIHH 200230Z 21003KT 5000 HZ FEW018 31/25 Q1012 NOSIG=
202402200200 METAR WIHH 200200Z 15003KT 5000 HZ FEW020 30/25 Q1012 NOSIG=
202402200130 METAR WIHH 200130Z 22004KT 4000 HZ NSC 29/25 Q1012 NOSIG=
202402200100 METAR WIHH 200100Z 18004KT 4000 HZ NSC 28/26 Q1012 NOSIG=
202402200030 METAR WIHH 200030Z 17004KT 4000 HZ NSC 27/26 Q1012 NOSIG=
202402200000 METAR WIHH 200000Z 17003KT 3000 BR NSC 27/26 Q1011 NOSIG=
202402192330 METAR WIHH 192330Z 15003KT 3000 BR NSC 26/26 Q1011 NOSIG=
202402192300 METAR WIHH 192300Z 14003KT 3000 BR NSC 26/26 Q1011 NOSIG=
202402192230 METAR WIHH 192230Z 00000KT 5000 BR NSC 26/26 Q1010 NOSIG=
202402192200 METAR WIHH NIL=
202402192130 METAR WIHH NIL=
202402192100 METAR WIHH NIL=
202402192030 METAR WIHH NIL=
202402192000 METAR WIHH NIL=
202402191930 METAR WIHH NIL=
202402191900 METAR WIHH NIL=
202402191830 METAR WIHH NIL=
202402191800 METAR WIHH NIL=
202402191730 METAR WIHH NIL=
202402191700 METAR WIHH NIL=
202402191630 METAR WIHH NIL=
202402191600 METAR WIHH NIL=
202402191530 METAR WIHH 191530Z 09003KT 6000 NSC 28/25 Q1012 NOSIG=
202402191500 METAR WIHH 191500Z 00000KT 6000 NSC 28/25 Q1012 NOSIG=
202402191430 METAR WIHH 191430Z 02003KT 6000 FEW020 29/25 Q1012 NOSIG=
202402191400 METAR WIHH 191400Z 02003KT 6000 FEW020 29/26 Q1011 NOSIG=
202402191330 METAR WIHH 191330Z 36003KT 6000 FEW020 29/25 Q1011 NOSIG=
202402191300 METAR WIHH 191300Z 02002KT 6000 SCT020 29/25 Q1011 NOSIG=
202402191230 METAR WIHH 191230Z 00000KT 6000 SCT020 29/25 Q1011 NOSIG=
202402191200 METAR WIHH 191200Z 01005KT 6000 SCT020 29/25 Q101 NOSIG=
202402191130 METAR WIHH 191130Z 33005KT 6000 SCT018 30/24 Q1010 NOSIG=
202402191100 METAR WIHH 191100Z 33005KT 6000 SCT018 30/24 Q1010 NOSIG=
202402191030 METAR WIHH 191030Z 01005KT 6000 SCT018 31/24 Q1009 NOSIG=
202402191000 METAR WIHH 191000Z 36004KT 6000 SCT018 31/24 Q1009 NOSIG=
202402190930 METAR WIHH 190930Z 01005KT 6000 SCT018 31/25 Q1008 RMK RA TO S=
202402190900 METAR WIHH 190900Z 01005KT 6000 SCT018 31/25 Q1008 RMK RA TO S=
202402190830 METAR WIHH 190830Z 03006KT 5000 HZ SCT018 32/25 Q1008 RMK RA TO S=
202402190800 METAR WIHH 190800Z 34007KT 5000 HZ SCT018 31/25 Q1009 RMK RA TO S=
202402190730 METAR WIHH 190730Z 36007KT 5000 HZ SCT018 32/24 Q1009 RMK RA TO SE-S=
202402190700 METAR WIHH 190700Z 33003KT 5000 HZ SCT018 31/25 Q1009 RMK RA TO SE-S=
202402190630 METAR WIHH 190630Z 01005KT 5000 HZ SCT018 31/25 Q1010 RMK RA TO SE AND SW=
202402190600 METAR WIHH 190600Z 01010KT 5000 HZ SCT018 33/25 Q1010 RMK RA TO SE=
202402190530 METAR WIHH 190530Z 06006KT 6000 SCT018 33/24 Q1011 RMK RA TO SE=
202402190500 METAR WIHH 190500Z 36006KT 6000 SCT018 32/25 Q1011 NOSIG=
202402190430 METAR WIHH 190430Z 05003KT 6000 SCT018 32/24 Q1012 NOSIG=
202402190400 METAR WIHH 190400Z 26003KT 6000 SCT018 32/25 Q1012 NOSIG=
202402190330 METAR WIHH 190330Z 00000KT 6000 SCT018 31/24 Q1013 NOSIG=
202402190300 METAR WIHH 190300Z 04003KT 5000 HZ SCT018 30/25 Q1013 NOSIG=
202402190230 METAR WIHH 190230Z 07003KT 5000 HZ SCT018 30/25 Q1013 NOSIG=
202402190200 METAR WIHH 190200Z 08003KT 5000 HZ SCT018 29/25 Q1013 NOSIG=
202402190130 METAR WIHH 190130Z 18003KT 5000 HZ SCT018 29/25 Q1013 NOSIG=
202402190100 METAR WIHH 190100Z 20005KT 5000 HZ SCT018 28/24 Q1012 NOSIG=
202402190030 METAR WIHH 190030Z 00000KT 5000 HZ SCT018 27/24 Q1012 NOSIG=
202402190000 METAR WIHH 190000Z 00000KT 5000 HZ SCT018 26/24 Q1012 NOSIG=
202402182330 METAR WIHH 182330Z 23003KT 5000 HZ SCT020 26/25 Q1011 NOSIG=
202402182300 METAR WIHH 182300Z 21003KT 5000 HZ SCT020 26/25 Q1011 NOSIG=
202402182230 METAR WIHH 182230Z 15003KT 6000 FEW020 26/25 Q1011 NOSIG=
202402182200 METAR WIHH 182200Z 18003KT 6000 FEW020 26/24 Q1011 NOSIG=
202402182130 METAR WIHH 182130Z 13003KT 6000 FEW020 26/24 Q1010 NOSIG=
202402182100 METAR WIHH 182100Z 19003KT 6000 FEW020 26/24 Q1010 NOSIG=
202402182030 METAR WIHH NIL=
202402182000 METAR WIHH NIL=
202402181930 METAR WIHH NIL=
202402181900 METAR WIHH NIL=
202402181830 METAR WIHH NIL=
202402181800 METAR WIHH NIL=
202402181730 METAR WIHH NIL=
202402181700 METAR WIHH 181700Z 00000KT 5000 HZ FEW020 27/24 Q1011 NOSIG=
202402181630 METAR WIHH 181630Z 00000KT 6000 FEW020 27/24 Q1011 NOSIG=
202402181600 METAR WIHH 181600Z 15003KT 6000 FEW020 27/24 Q1011 NOSIG=
202402181530 METAR WIHH 181530Z 13003KT 6000 SCT020 27/24 Q1012 NOSIG=
202402181500 METAR WIHH 181500Z 13003KT 6000 SCT020 27/24 Q1012 NOSIG=
202402181430 METAR WIHH 181430Z 12004KT 6000 SCT020 28/24 Q1012 NOSIG=
202402181400 METAR WIHH 181400Z 19003KT 6000 SCT018 28/24 Q1011 NOSIG=
202402181330 METAR WIHH 181330Z 16003KT 6000 SCT018 27/23 Q1011 NOSIG=
202402181300 METAR WIHH 181300Z 19003KT 6000 SCT018 27/24 Q1010 NOSIG=
202402181230 METAR WIHH 181230Z 25003KT 6000 SCT018 27/24 Q1010 RMK RA TO S=
202402181200 METAR WIHH 181200Z 16003KT 6000 SCT018 27/24 Q1010 RMK RA TO S=
202402181130 METAR WIHH 181130Z 14005KT 6000 SCT018 27/24 Q1010 RMK RA TO S=
202402181100 METAR WIHH 181100Z 13004KT 6000 SCT018 28/24 Q1010 RMK RA TO S=
202402181030 METAR WIHH 181030Z 30007KT 6000 SCT018 28/23 Q1009 RMK RA TO S=
202402181000 METAR WIHH 181000Z 24005KT 6000 SCT018 28/23 Q1009 RMK RA TO S=
202402180930 METAR WIHH 180930Z 18015KT 5000 TS FEW016CB SCT018 31/24 Q1009 RMK CB AND RA TO S=
202402180900 METAR WIHH 180900Z 01007KT 6000 FEW016CB SCT018 31/24 Q1008 RMK CB AND RA TO S=
202402180830 METAR WIHH 180830Z 31010KT 6000 SCT018 32/24 Q1009 NOSIG=
202402180800 METAR WIHH 180800Z 35005KT 6000 SCT018 32/25 Q1009 NOSIG=
202402180730 METAR WIHH 180730Z 33008KT 6000 SCT018 32/25 Q1009 NOSIG=
202402180700 METAR WIHH 180700Z 36007KT 6000 SCT018 32/25 Q1009 NOSIG=
202402180630 METAR WIHH 180630Z 36005KT 6000 SCT018 31/25 Q1009 NOSIG=
202402180600 METAR WIHH 180600Z 34005KT 6000 SCT018 31/25 Q1010 NOSIG=
202402180530 METAR WIHH 180530Z 28004KT 6000 SCT018 31/25 Q1011 RMK RA TO SE=
202402180500 METAR WIHH 180500Z 34005KT 6000 SCT018 31/25 Q1011 RMK RA TO SE=
202402180430 METAR WIHH 180430Z 30003KT 5000 HZ SCT018 30/27 Q1011 RMK RA TO NW=
202402180400 METAR WIHH 180400Z 34003KT 5000 HZ SCT018 28/27 Q1012 RMK RA TO W=
202402180330 METAR WIHH 180330Z 30003KT 5000 -RA SCT018 31/25 Q1012 TEMPO TL0400 4000 -RA=
202402180300 METAR WIHH 180300Z 32004KT 6000 SCT018 31/25 Q1012 RMK RA TO SW=
202402180230 METAR WIHH 180230Z 25005KT 6000 SCT018 30/25 Q1012 NOSIG=
202402180200 METAR WIHH 180200Z 27003KT 5000 HZ SCT018 29/25 Q1012 NOSIG=
202402180130 METAR WIHH 180130Z 31004KT 5000 HZ SCT018 29/25 Q1012 NOSIG=
202402180100 METAR WIHH 180100Z 00000KT 5000 HZ SCT018 28/25 Q1012 NOSIG=
202402180030 METAR WIHH 180030Z 00000KT 5000 HZ SCT018 27/25 Q1012 NOSIG=
202402180000 METAR WIHH 180000Z 00000KT 5000 HZ SCT018 26/25 Q1012 NOSIG=
202402172330 METAR WIHH 172330Z 00000KT 5000 HZ SCT016 26/25 Q1011 RMK RA TO SE=
202402172300 METAR WIHH 172300Z 25003KT 5000 HZ SCT016 26/25 Q1011 RMK RA TO NW=
202402172230 METAR WIHH 172230Z 00000KT 5000 HZ SCT016 26/25 Q1011 RMK RA TO NW=
202402172200 METAR WIHH 172200Z 00000KT 5000 HZ SCT016 26/25 Q1011 RMK RA TO N=
202402172130 METAR WIHH 172130Z 00000KT 5000 HZ SCT016 26/25 Q1011 RMK RA TO N=
202402172100 METAR WIHH NIL=
202402172030 METAR WIHH NIL=
202402172000 METAR WIHH NIL=
202402171930 METAR WIHH NIL=
202402171900 METAR WIHH NIL=
202402171830 METAR WIHH NIL=
202402171800 METAR WIHH NIL=
202402171730 METAR WIHH NIL=
202402171700 METAR WIHH 171700Z 34006KT 4000 HZ FEW016CB SCT017 26/25 Q1012 RMK CB AND RA TO NW=
202402171630 METAR WIHH 171630Z 14004KT 4000 HZ SCT016 26/25 Q1012 NOSIG=
202402171600 METAR WIHH 171600Z 14004KT 4000 HZ SCT016 26/25 Q1012 NOSIG=
202402171530 METAR WIHH 171530Z 14003KT 4000 HZ SCT016 26/26 Q1012 NOSIG=
202402171500 METAR WIHH 171500Z 00000KT 5000 HZ SCT016 26/25 Q1012 NOSIG=
202402171430 METAR WIHH 171430Z 16003KT 4000 HZ SCT016 26/25 Q1011 RMK RA TO E=
202402171400 METAR WIHH 171400Z 13003KT 4000 -RA SCT016 26/25 Q1011 NOSIG=
202402171330 METAR WIHH 171330Z 11003KT 4000 HZ SCT016 26/25 Q1011 NOSIG=
202402171300 METAR WIHH 171300Z 10003KT 4000 HZ SCT016 26/26 Q1011 NOSIG=
202402171230 METAR WIHH 171230Z 13003KT 5000 HZ SCT016 26/26 Q1011 RMK RA TO NE=
202402171200 METAR WIHH 171200Z 00000KT 5000 -RA SCT016 26/26 Q1010 NOSIG=
202402171130 METAR WIHH 171130Z 00000KT 4000 -RA SCT015 26/26 Q1011 NOSIG=
202402171100 METAR WIHH 171100Z 22004KT 4000 -RA SCT015 26/25 Q1010 NOSIG=
202402171030 METAR WIHH 171030Z 21005KT 5000 HZ SCT015 27/25 Q1009 NOSIG=
202402171000 METAR WIHH 171000Z 21012KT 5000 HZ SCT015 FEW017CB 28/24 Q1009 RMK CB AND RA TO S=
202402170930 METAR WIHH 170930Z 31003KT 5000 HZ SCT015 FEW017CB 30/24 Q1008 RMK CB AND RA TO S=
202402170900 METAR WIHH 170900Z 27004KT 6000 SCT015 FEW017CB 30/25 Q1008 RMK CB AND RA TO SE-S=
202402170830 METAR WIHH 170830Z 02006KT 6000 SCT015 FEW017CB 31/25 Q1008 RMK CB AND RA TO S=
202402170800 METAR WIHH 170800Z 30006KT 6000 SCT015 FEW017CB 31/25 Q1008 RMK CB AND RA TO S=
202402170730 METAR WIHH 170730Z 34008KT 6000 SCT015 31/25 Q1008 NOSIG=
202402170700 METAR WIHH 170700Z 32008KT 6000 SCT015 31/25 Q1009 NOSIG=
202402170630 METAR WIHH 170630Z 34010KT 6000 SCT015 30/25 Q1009 NOSIG=
202402170600 METAR WIHH 170600Z 32011KT 6000 SCT015 30/25 Q1010 RMK RA TO N=
202402170530 METAR WIHH 170530Z 31011KT 6000 SCT015 30/24 Q1010 RMK RA TO NE=
202402170500 METAR WIHH 170500Z 30005KT 6000 SCT015 31/25 Q1010 RMK RA TO NW=
202402170430 METAR WIHH 170430Z 35005KT 6000 SCT015 31/25 Q1011 NOSIG=
202402170400 METAR WIHH 170400Z 31005KT 6000 SCT015 31/25 Q1011 NOSIG=
202402170330 METAR WIHH 170330Z 25005KT 6000 SCT015 31/25 Q1011 NOSIG=
202402170300 METAR WIHH 170300Z 35005KT 6000 SCT018 30/24 Q1011 NOSIG=
202402170230 METAR WIHH 170230Z 26006KT 6000 SCT018 30/25 Q1012 NOSIG=
202402170200 METAR WIHH 170200Z 28003KT 6000 SCT018 29/25 Q1012 NOSIG=
202402170130 METAR WIHH 170130Z 31003KT 6000 SCT020 28/25 Q1012 NOSIG=
202402170100 METAR WIHH 170100Z 30003KT 5000 HZ SCT020 27/25 Q1012 RMK RA TO NW=
202402170030 METAR WIHH 170030Z 31005KT 5000 HZ SCT020 27/25 Q1011 RMK RA TO NW=
202402170000 METAR WIHH 170000Z 25005KT 5000 HZ SCT020 27/25 Q1011 RMK RA TO NW=
202402162330 METAR WIHH 162330Z 27003KT 5000 HZ SCT020 27/25 Q1010 NOSIG=
202402162300 METAR WIHH 162300Z 33005KT 5000 HZ SCT020 27/25 Q1010 RMK RA TO NW=
202402162230 METAR WIHH 162230Z 24003KT 5000 HZ SCT020 27/25 Q1010 RMK RA TO NW=
202402162200 METAR WIHH 162200Z 24007KT 5000 HZ SCT020 27/25 Q1010 RMK RA TO NW=
202402162130 METAR WIHH 162130Z 25003KT 5000 HZ SCT020 27/25 Q1010 NOSIG=
202402162100 METAR WIHH NIL=
202402162030 METAR WIHH NIL=
202402162000 METAR WIHH NIL=
202402161930 METAR WIHH NIL=
202402161900 METAR WIHH NIL=
202402161830 METAR WIHH NIL=
202402161800 METAR WIHH NIL=
202402161730 METAR WIHH NIL=
202402161700 METAR WIHH NIL=
202402161630 METAR WIHH NIL=
202402161600 METAR WIHH 161600Z 00000KT 5000 HZ SCT020 27/25 Q1011 NOSIG=
202402161530 METAR WIHH 161530Z 00000KT 4000 HZ SCT020 27/25 Q1011 NOSIG=
202402161500 METAR WIHH 161500Z 00000KT 4000 HZ SCT020 27/25 Q1011 NOSIG=
202402161430 METAR WIHH 161430Z 00000KT 5000 HZ SCT020 27/25 Q1012 NOSIG=
202402161400 METAR WIHH 161400Z 00000KT 5000 HZ SCT020 27/25 Q1011 NOSIG=
202402161330 METAR WIHH 161330Z 161330Z 18003KT 5000 HZ SCT020 27/25 Q1011 NOSIG=
202402161300 METAR WIHH 161300Z 18003KT 5000 HZ SCT018 27/25 Q1011 NOSIG=
202402161230 METAR WIHH NIL=
202402161200 METAR WIHH 161200Z 20005KT 5000 HZ SCT018 27/25 Q1011 RMK RA TO SW=
202402161130 METAR WIHH 161130Z 18005KT 6000 SCT018 28/25 Q1010 RMK RA TO SW=
202402161100 METAR WIHH 161100Z 34003KT 6000 SCT018 29/25 Q1010 RMK RA TO S=
202402161030 METAR WIHH 161030Z 35005KT 6000 FEW018CB SCT019 29/25 Q1009 RMK CB AND RA TO S=
202402161000 METAR WIHH 161000Z 30005KT 6000 FEW018CB SCT019 29/25 Q1009 RMK CB AND RA TO S=
202402160930 METAR WIHH 160930Z 36008KT 6000 FEW018CB SCT019 30/25 Q1009 RMK CB AND RA TO S=
202402160900 METAR WIHH 160900Z 33008KT 6000 SCT018 30/25 Q1009 RMK RA TO S=
202402160830 METAR WIHH 160830Z 24008KT 6000 FEW017CB SCT019 30/25 Q1009 RMK CB AND RA TO SW=
202402160800 METAR WIHH 160800Z 34008KT 6000 SCT018 30/25 Q1009 NOSIG=
202402160730 METAR WIHH 160730Z 33008KT 6000 SCT018 30/25 Q1009 RMK RA TO N=
202402160700 METAR WIHH 160700Z 33005KT 6000 SCT018 29/25 Q1010 NOSIG=
202402160630 METAR WIHH 160630Z 33005KT 6000 SCT018 29/25 Q1010 NOSIG=
202402160600 METAR WIHH 160600Z 32004KT 6000 SCT018 29/25 Q1010 NOSIG=
202402160530 METAR WIHH 160530Z 01006KT 6000 SCT018 30/25 Q1010 NOSIG=
202402160500 METAR WIHH 160500Z 35006KT 5000 HZ SCT018 29/25 Q1011 NOSIG=
202402160430 METAR WIHH 160430Z 34006KT 5000 HZ SCT018 29/25 Q1011 RMK RA TO NW=
202402160400 METAR WIHH 160400Z 33006KT 5000 HZ FEW018CB SCT019 28/26 Q1012 RMK CB AND RA TO NW=
202402160330 METAR WIHH 160330Z 32004KT 3000 HZ FEW018CB SCT019 30/26 Q1012 RMK CB AND RA TO NW=
202402160300 METAR WIHH 160300Z 35003KT 4000 HZ SCT018 30/26 Q1012 NOSIG=
202402160230 METAR WIHH 160230Z 36003KT 4000 HZ SCT018 29/26 Q1012 NOSIG=
202402160200 METAR WIHH 160200Z 14003KT 4000 HZ SCT018 29/26 Q1012 NOSIG=
202402160130 METAR WIHH 160130Z 06003KT 3000 HZ SCT018 28/26 Q1012 NOSIG=
202402160100 METAR WIHH 160100Z 15003KT 3000 HZ SCT018 28/26 Q1011 NOSIG=
202402160030 METAR WIHH 160030Z 25003KT 3000 BR SCT018 26/26 Q1011 NOSIG=
202402160000 METAR WIHH 160000Z 28003KT 3000 BR SCT018 26/26 Q1011 NOSIG=
202402152330 METAR WIHH 152330Z 17003KT 3000 BR SCT020 26/26 Q1010 NOSIG=
202402152300 METAR WIHH 152300Z 12002KT 3000 BR SCT020 26/26 Q1010 NOSIG=
202402152230 METAR WIHH 152230Z 00000KT 4000 BR FEW020 25/25 Q1010 NOSIG=
202402152200 METAR WIHH 152200Z 00000KT 4000 BR FEW020 25/25 Q1010 NOSIG=
202402152130 METAR WIHH 152130Z 00000KT 4000 HZ FEW020 26/25 Q1009 NOSIG=
202402152100 METAR WIHH NIL=
202402152030 METAR WIHH NIL=
202402152000 METAR WIHH NIL=
202402151930 METAR WIHH NIL=
202402151900 METAR WIHH NIL=
202402151830 METAR WIHH NIL=
202402151800 METAR WIHH NIL=
202402151730 METAR WIHH NIL=
202402151700 METAR WIHH NIL=
202402151630 METAR WIHH NIL=
202402151600 METAR WIHH 151600Z 04002KT 4000 HZ SCT020 27/26 Q1012 NOSIG=
202402151530 METAR WIHH 151530Z 07002KT 4000 HZ SCT020 27/26 Q1012 NOSIG=
202402151500 METAR WIHH 151500Z 13002KT 4000 HZ SCT020 27/26 Q1012 NOSIG=
202402151430 METAR WIHH 151430Z 04002KT 4000 HZ SCT020 27/25 Q1012 NOSIG=
202402151400 METAR WIHH 151400Z 06003KT 4000 HZ SCT018 27/25 Q1012 NOSIG=
202402151330 METAR WIHH 151330Z 09003KT 4000 HZ SCT018 27/26 Q1011 NOSIG=
202402151300 METAR WIHH 151300Z 12004KT 4000 HZ SCT018 28/26 Q101` NOSIG=
202402151230 METAR WIHH 151230Z 10004KT 4000 HZ SCT018 28/26 Q1010 NOSIG=
202402151200 METAR WIHH 151200Z 13004KT 4000 HZ SCT018 28/26 Q1010 NOSIG=
202402151130 METAR WIHH 151130Z 29003KT 4000 HZ SCT017 29/26 Q1010 RMK RA TO NE=
202402151100 METAR WIHH 151100Z 24003KT 5000 HZ SCT017 29/26 Q1010 RMK RA TO NE=
202402151030 METAR WIHH 151030Z 04005KT 4000 HZ SCT017 29/26 Q1010 RMK RA TO E=
202402151000 METAR WIHH 151000Z 03005KT 4000 HZ SCT017 29/25 Q1009 RMK RA TO SE=
202402150930 METAR WIHH 150930Z 34006KT 4000 HZ FEW015CB SCT017 29/25 Q1009 RMK CB AND RA TO N=
202402150900 METAR WIHH 150900Z 04005KT 4000 HZ FEW015CB SCT017 29/26 Q1009 RMK CB AND RA TO E=
202402150830 METAR WIHH 150830Z 07004KT 4000 HZ FEW015CB SCT017 28/25 Q1009 RMK CB AND RA TO NE=
202402150800 METAR WIHH 150800Z 09005KT 4000 HZ FEW015CB SCT017 29/25 Q1009 RMK CB AND RA TO NE=
202402150730 METAR WIHH 150730Z 15007KT 4000 TS FEW015CB SCT017 29/24 Q1009 RMK CB AND RA TO E=
202402150700 METAR WIHH 150700Z 13007KT 4000 HZ FEW015CB SCT017 29/24 Q1009 RMK CB AND RA TO E=
202402150630 METAR WIHH 150630Z 26005KT 4000 HZ FEW013CB SCT015 31/25 Q1009 RMK CB AND RA TO S=
202402150600 METAR WIHH 150600Z 27005KT 4000 HZ FEW013CB SCT015 32/25 Q1010 RMK CB AND RA TO SW=
202402150530 METAR WIHH NIL=
202402150500 METAR WIHH 150500Z 33005KT 4000 HZ SCT015 31/26 Q1011 RMK RA TO SW=
202402150430 METAR WIHH 150430Z 33005KT 4000 HZ SCT015 31/26 Q1011 RMK RA TO W=
202402150400 METAR WIHH 150400Z 23004KT 4000 HZ SCT016 31/26 Q1012 RMK RA TO NW=
202402150330 METAR WIHH 150330Z 30004KT 4000 HZ SCT016 31/27 Q1012 RMK RA TO NW=
202402150300 METAR WIHH 150300Z 32003KT 6000 SCT018 31/27 Q1012 RMK RA TO S=
202402150230 METAR WIHH 150230Z 34002KT 6000 SCT018 30/26 Q1012 NOSIG=
202402150200 METAR WIHH 150200Z 28003KT 5000 HZ SCT018 30/26 Q1012 NOSIG=
202402150130 METAR WIHH 150130Z 34003KT 5000 HZ FEW020 30/26 Q1012 NOSIG=
202402150100 METAR WIHH 150100Z 00000KT 4000 HZ FEW020 29/26 Q1012 NOSIG=
202402150030 METAR WIHH 150030Z 21003KT 4000 HZ SCT020 28/26 Q1011 NOSIG=
202402150000 METAR WIHH 150000Z 14004KT 4000 HZ SCT018 26/23 Q1011 NOSIG=
202402142330 METAR WIHH 142330Z 00000KT 5000 HZ SCT018 26/23 Q1011 NOSIGDUPE=
202402142300 METAR WIHH NIL=
202402142200 METAR WIHH NIL=
202402142100 METAR WIHH NIL=
202402142000 METAR WIHH NIL=
202402141900 METAR WIHH NIL=
202402141830 METAR WIHH NIL=
202402141800 METAR WIHH NIL=
202402141730 METAR WIHH NIL=
202402141700 METAR WIHH 141700Z 00000KT 6000 SCT018 27/26 Q1011 NOSIG=
202402141630 METAR WIHH 141630Z 00000KT 6000 SCT018 27/26 Q1011 NOSIG=
202402141600 METAR WIHH 141600Z 00000KT 6000 SCT018 27/26 Q1011 NOSIG=
202402141530 METAR WIHH 141530Z 00000KT 6000 FEW020 28/26 Q1011 NOSIG=
202402141500 METAR WIHH 141500Z 00000KT 6000 FEW020 28/26 Q1011 NOSIG=
202402141430 METAR WIHH 141430Z 00000KT 6000 FEW020 27/25 Q1011 NOSIG=
202402141400 METAR WIHH 141400Z 00000KT 6000 FEW020 28/25 Q1011 NOSIG=
202402141330 METAR WIHH 141330Z 00000KT 7000 FEW020 28/25 Q1011 NOSIG=
202402141300 METAR WIHH 141300Z 31003KT 7000 FEW020 28/25 Q1010 NOSIG=
202402141230 METAR WIHH 141230Z 00000KT 7000 FEW020 28/25 Q1010 NOSIG=
202402141200 METAR WIHH 141200Z 32003KT 7000 FEW020 29/25 Q1010 NOSIG=
202402141130 METAR WIHH 141130Z 01003KT 7000 FEW020 29/24 Q1009 NOSIG=
202402141100 METAR WIHH 141100Z 36003KT 7000 FEW020 29/24 Q1009 NOSIG=
202402141030 METAR WIHH 141030Z 34003KT 7000 FEW020 29/24 Q1009 NOSIG=
202402141000 METAR WIHH 141000Z 29003KT 7000 FEW020 30/24 Q1008 NOSIG=
202402140930 METAR WIHH 140930Z 32003KT 7000 FEW020 31/24 Q1008 NOSIG=
202402140900 METAR WIHH 140900Z 31006KT 7000 FEW020 31/24 Q1008 NOSIG=
202402140830 METAR WIHH 140830Z 30003KT 6000 FEW018 31/24 Q1008 NOSIG=
202402140800 METAR WIHH 140800Z 32003KT 6000 SCT015 31/25 Q1008 NOSIG=
202402140730 METAR WIHH 140730Z 30003KT 5000 HZ SCT015 31/25 Q1009 NOSIG=
202402140700 METAR WIHH 140700Z 19003KT 5000 HZ SCT015 30/25 Q1009 RMK RA TO S=
202402140630 METAR WIHH 140630Z 02003KT 5000 HZ SCT015 30/25 Q1010 RMK RA TO SW=
202402140600 METAR WIHH 140600Z 31003KT 5000 HZ SCT015 29/25 Q1010 RMK RA TO N=
202402140530 METAR WIHH 140530Z 01003KT 5000 HZ SCT015 29/26 Q1011 RMK RA TO S=
202402140500 METAR WIHH 140500Z 06003KT 5000 HZ SCT015 28/26 Q1012 RMK RA TO SW=
202402140430 METAR WIHH 140430Z 15003KT 5000 HZ SCT016 28/26 Q1012 RMK RA TO SW=
202402140400 METAR WIHH 140400Z 14003KT 5000 HZ SCT016 27/26 Q1012 RMK RA TO SW=
202402140330 METAR WIHH 140330Z 16003KT 5000 HZ SCT016 26/26 Q1013 RMK RA TO NE AND S=
202402140300 METAR WIHH 140300Z 12003KT 5000 HZ SCT016 26/26 Q1013 RMK RA TO NE=
202402140230 METAR WIHH 140230Z 15003KT 4000 -RA SCT015 26/26 Q1013 NOSIG=
202402140200 METAR WIHH 140200Z 11003KT 4000 -RA SCT015 26/26 Q1013 NOSIG=
202402140130 METAR WIHH 140130Z 08002KT 5000 -RA SCT015 25/25 Q1013 NOSIG=
202402140100 METAR WIHH 140100Z 00000KT 5000 -RA BKN015 25/25 Q1013 NOSIG=
202402140030 METAR WIHH 140030Z 00000KT 3000 -RA BKN016 FEW017CB 25/25 Q1012 RMK CB TO SW=
202402140000 METAR WIHH 140000Z 00000KT 3000 -TSRA BKN016 FEW017CB 25/25 Q1012 RMK CB TO SW=
202402132330 METAR WIHH 132330Z 21003KT 3000 -TSRA BKN016 FEW017CB 25/25 Q1012 RMK CB TO SW=
202402132300 METAR WIHH 132300Z 23006KT 3000 -TSRA BKN016 FEW017CB 25/25 Q1011 RMK CB TO SW=
202402132230 METAR WIHH 132230Z 26005KT 3000 -TSRA BKN016 FEW017CB 25/25 Q1011 RMK CB TO SW=
202402132200 METAR WIHH NIL=
202402132130 METAR WIHH 132130Z 29007KT 3000 TSRA FEW017CB BKN018 24/24 Q1011 RMK CB TO OTF=
202402132100 METAR WIHH 132100Z 33003KT 3000 -TSRA FEW017CB BKN018 26/26 Q1010 RMK CB TO NW=
202402132030 METAR WIHH NIL=
202402132000 METAR WIHH NIL=
202402131930 METAR WIHH NIL=
202402131900 METAR WIHH NIL=
202402131830 METAR WIHH NIL=
202402131800 METAR WIHH NIL=
202402131730 METAR WIHH NIL=
202402131700 METAR WIHH NIL=
202402131630 METAR WIHH NIL=
202402131600 METAR WIHH 131600Z 00000KT 7000 NSC 28/26 Q1012 NOSIG=
202402131530 METAR WIHH 131530Z 17003KT 7000 NSC 28/26 Q1012 NOSIG=
202402131500 METAR WIHH 131500Z 00000KT 7000 NSC 29/26 Q1012 NOSIG=
202402131430 METAR WIHH 131430Z 00000KT 7000 NSC 29/26 Q1012 NOSIG=
202402131400 METAR WIHH 131400Z 34003KT 7000 NSC 29/25 Q1011 NOSIG=
202402131330 METAR WIHH 131330Z 33004KT 7000 NSC 29/25 Q1011 NOSIG=
202402131300 METAR WIHH 131300Z 36003KT 7000 NSC 29/25 Q1011 NOSIG=
202402131230 METAR WIHH 131230Z 03006KT 7000 FEW020 29/25 Q1010 NOSIG=
202402131200 METAR WIHH 131200Z 03006KT 7000 FEW020 29/25 Q1010 NOSIG=
202402131130 METAR WIHH 131130Z 35004KT 8000 FEW020 30/25 Q1010 NOSIG=
202402131100 METAR WIHH 131100Z 36004KT 8000 FEW020 30/24 Q1009 NOSIG=
202402131030 METAR WIHH 131030Z 36005KT 8000 FEW020 31/24 Q1009 NOSIG=
202402131000 METAR WIHH 131000Z 01005KT 8000 FEW020 31/25 Q1009 NOSIG=
202402130930 METAR WIHH 130930Z 01005KT 8000 FEW020 31/25 Q1009 NOSIG=
202402130900 METAR WIHH 130900Z 31004KT 8000 FEW020 31/24 Q1008 NOSIG=
202402130830 METAR WIHH NIL=
202402130800 METAR WIHH 130800Z 31007KT 8000 SCT018 32/23 Q1009 NOSIG=
202402130730 METAR WIHH 130730Z 23003KT 8000 SCT018 32/24 Q1009 NOSIG=
202402130700 METAR WIHH 130700Z 31003KT 6000 SCT018 32/24 Q1010 NOSIG=
202402130630 METAR WIHH 130630Z 30003KT 6000 SCT018 32/25 Q1010 NOSIG=
202402130600 METAR WIHH 130600Z 30004KT 6000 SCT018 32/24 Q1011 NOSIG=
202402130530 METAR WIHH 130530Z 34007KT 6000 SCT018 32/23 Q1011 NOSIG=
202402130500 METAR WIHH 130500Z 05005KT 6000 SCT018 31/25 Q1011 NOSIG=
202402130430 METAR WIHH 130430Z 33006KT 6000 -RA SCT018 29/24 Q1012 NOSIG=
202402130400 METAR WIHH 130400Z 34006KT 6000 -RA SCT018 30/24 Q1012 NOSIG=
202402130330 METAR WIHH 130330Z 27006KT 6000 SCT020 31/24 Q1013 NOSIG=
202402130300 METAR WIHH 130300Z 30003KT 6000 SCT020 30/24 Q1013 NOSIG=
202402130230 METAR WIHH 130230Z 23005KT 6000 SCT020 30/25 Q1013 NOSIG=
202402130200 METAR WIHH 130200Z 29004KT 6000 SCT020 30/25 Q1013 NOSIG=
202402130130 METAR WIHH 130130Z 23003KT 5000 HZ FEW020 28/26 Q1013 NOSIG=
202402130100 METAR WIHH 130100Z 00000KT 5000 HZ FEW020 27/26 Q1013 NOSIG=
202402130030 METAR WIHH 130030Z 27003KT 5000 HZ FEW020 26/25 Q1013 NOSIG=
202402130000 METAR WIHH 130000Z 27003KT 4000 BR SCT020 26/25 Q1012 NOSIG=
202402122330 METAR WIHH 122330Z 27003KT 4000 BR SCT020 25/25 Q1012 NOSIG=
202402122300 METAR WIHH 122300Z 23003KT 4000 BR SCT020 25/25 Q1012 NOSIG=
202402122230 METAR WIHH 122230Z 22003KT 5000 BR SCT020 25/25 Q1011 NOSIG=
202402122200 METAR WIHH 122200Z 22003KT 5000 BR SCT020 25/25 Q1011 NOSIG=
202402122130 METAR WIHH NIL=
202402122100 METAR WIHH NIL=
202402122030 METAR WIHH NIL=
202402122000 METAR WIHH NIL=
202402121930 METAR WIHH NIL=
202402121900 METAR WIHH NIL=
202402121830 METAR WIHH NIL=
202402121800 METAR WIHH NIL=
202402121730 METAR WIHH 121730Z 33006KT 3000 -TSRA FEW017CB SCT018 27/26 Q1013 RMK CB OVER THE FIELD=
202402121700 METAR WIHH 121700Z 33006KT 5000 HZ FEW017CB SCT018 28/26 Q1013 RMK CB AND RA TO N=
202402121630 METAR WIHH 121630Z 00000KT 6000 FEW020 28/26 Q1013 RMK RA TO NW=
202402121600 METAR WIHH 121600Z 00000KT 6000 FEW020 28/26 Q1013 RMK RA TO NW=
202402121530 METAR WIHH 121530Z 00000KT 6000 NSC 28/26 Q1013 NOSIG=
202402121500 METAR WIHH 121500Z 00000KT 6000 NSC 28/26 Q1013 NOSIG=
202402121430 METAR WIHH 121430Z 35003KT 6000 NSC 29/25 Q1013 NOSIG=
202402121400 METAR WIHH 121400Z 00000KT 6000 NSC 29/26 Q1013 NOSIG=
202402121330 METAR WIHH 121330Z 00000KT 6000 FEW020 29/25 Q1012 NOSIG=
202402121300 METAR WIHH 121300Z 00000KT 6000 FEW020 29/25 Q1012 NOSIG=
202402121230 METAR WIHH 121230Z 35003KT 6000 FEW020 29/25 Q1011 NOSIG=
202402121200 METAR WIHH 121200Z 34003KT 6000 FEW020 29/25 Q1011 NOSIG=
202402121130 METAR WIHH 121130Z 35004KT 6000 FEW020 30/25 Q1010 NOSIG=
202402121100 METAR WIHH 121100Z 32004KT 6000 FEW020 30/24 Q1010 NOSIG=
202402121030 METAR WIHH 121030Z 01006KT 6000 SCT020 30/24 Q1010 NOSIG=
202402121000 METAR WIHH 121000Z 02006KT 6000 SCT020 32/24 Q1009 NOSIG=
202402120930 METAR WIHH 120930Z 32004KT 6000 SCT020 31/24 Q1009 NOSIG=
202402120900 METAR WIHH 120900Z 36007KT 6000 SCT020 32/24 Q1009 NOSIG=
202402120830 METAR WIHH 120830Z 36008KT 6000 SCT020 32/24 Q1009 NOSIG=
202402120800 METAR WIHH 120800Z 34003KT 6000 SCT020 31/24 Q1010 NOSIG=
202402120730 METAR WIHH 120730Z 34006KT 6000 SCT020 32/24 Q1010 NOSIG=
202402120700 METAR WIHH 120700Z 31003KT 6000 SCT020 32/24 Q1011 NOSIG=
202402120630 METAR WIHH 120630Z 30004KT 6000 SCT018 32/22 Q1011 NOSIG=
202402120600 METAR WIHH 120600Z 30005KT 6000 SCT018 32/24 Q1011 NOSIG=
202402120530 METAR WIHH 120530Z 34004KT 5000 HZ SCT018 31/24 Q1012 NOSIG=
202402120500 METAR WIHH 120500Z 25007KT 5000 HZ SCT018 31/23 Q1012 RMK RA TO S=
202402120430 METAR WIHH 120430Z 23008KT 5000 HZ SCT018 29/25 Q1013 RMK RA TO SE=
202402120400 METAR WIHH 120400Z 33005KT 5000 HZ SCT018 30/24 Q1013 RMK RA TO NE AND SW=
202402120330 METAR WIHH 120330Z 23006KT 5000 HZ SCT018 29/25 Q1013 RMK RA TO NE=
202402120300 METAR WIHH 120300Z 23004KT 5000 HZ SCT018 29/25 Q1014 NOSIG=
202402120230 METAR WIHH 120230Z 25005KT 5000 HZ SCT018 28/25 Q1014 RMK RA TO NW=
202402120200 METAR WIHH 120200Z 27006KT 5000 HZ SCT018 28/25 Q1014 RMK RA TO NW=
202402120130 METAR WIHH 120130Z 25006KT 5000 HZ SCT018 27/25 Q1014 RMK RA TO N=
202402120100 METAR WIHH 120100Z 21007KT 5000 HZ SCT018 27/26 Q1014 RMK RA TO NW=
202402120030 METAR WIHH 120030Z 24004KT 5000 HZ SCT018 26/26 Q1014 RMK RA TO N=
202402120000 METAR WIHH 120000Z 26004KT 5000 HZ SCT018 26/26 Q1013 RMK RA TO NW=
202402112330 METAR WIHH 112330Z 25003KT 5000 HZ SCT018 26/25 Q1013 RMK RA TO N=
202402112300 METAR WIHH 112300Z 29003KT 5000 HZ SCT018 26/25 Q1013 RMK RA TO NW=
202402112230 METAR WIHH 112230Z 33003KT 5000 HZ SCT018 25/24 Q1012 RMK RA TO E=
202402112200 METAR WIHH 112200Z 32004KT 5000 HZ SCT018 25/24 Q1012 RMK RA TO NW=
202402112130 METAR WIHH 112130Z 35003KT 5000 HZ SCT018 25/24 Q1012 RMK RA TO N=
202402112100 METAR WIHH NIL=
202402112030 METAR WIHH NIL=
202402112000 METAR WIHH NIL=
202402111930 METAR WIHH NIL=
202402111900 METAR WIHH NIL=
202402111830 METAR WIHH NIL=
202402111800 METAR WIHH NIL=
202402111730 METAR WIHH NIL=
202402111700 METAR WIHH NIL=
202402111630 METAR WIHH NIL=
202402111600 METAR WIHH NIL=
202402111530 METAR WIHH 111530Z 20004KT 5000 HZ SCT018 25/24 Q1014 RMK CB TO E=
202402111500 METAR WIHH 111500Z 02007KT 4000 TSRA FEW016CB SCT018 25/24 Q1014 RMK CB TO NE=
202402111430 METAR WIHH 111430Z 36007KT 4000 TSRA FEW016CB SCT018 25/24 Q1014 RMK CB TO OTF=
202402111400 METAR WIHH 111400Z 21005KT 2000 TSRA FEW016CB SCT020 27/25 Q1014 RMK CB TO W=
202402111330 METAR WIHH 111330Z 18003KT 6000 SCT020 27/24 Q1013 NOSIG=
202402111300 METAR WIHH 111300Z 15003KT 6000 SCT020 27/24 Q1013 NOSIG=
202402111230 METAR WIHH 111230Z 20003KT 6000 SCT018 28/24 Q1012 RMK RA TO E=
202402111200 METAR WIHH 111200Z 16003KT 6000 SCT018 27/24 Q1011 RMK RA TO E=
202402111130 METAR WIHH 111130Z 20008KT 6000 FEW017CB SCT018 27/25 Q1011 CB AND RA TO SE=
202402111100 METAR WIHH 111100Z 35004KT 6000 FEW017CB SCT018 30/25 Q1011 RMK CB AND RA TO S=
202402111030 METAR WIHH NIL=
202402111000 METAR WIHH 111000Z 25005KT 6000 SCT018 31/24 Q1010 NOSIG=
202402110930 METAR WIHH NIL=
202402110900 METAR WIHH 110900Z 33008KT 6000 SCT018 31/25 Q1009 NOSIG=
202402110830 METAR WIHH 110830Z 24007KT 6000 SCT018 31/24 Q1010 NOSIG=
202402110800 METAR WIHH 110800Z 35007KT 6000 SCT018 32/24 Q1010 NOSIG=
202402110730 METAR WIHH 110730Z 03008KT 6000 SCT018 32/24 Q1010 NOSIG=
202402110700 METAR WIHH 110700Z 02005KT 6000 SCT018 32/24 Q1010 NOSIG=
202402110630 METAR WIHH 110630Z 34008KT 6000 SCT018 32/24 Q1011 NOSIG=
202402110600 METAR WIHH 110600Z 01010KT 6000 SCT018 32/24 Q1012 NOSIG=
202402110530 METAR WIHH 110530Z 34006KT 6000 SCT018 31/24 Q1013 NOSIG=
202402110500 METAR WIHH 110500Z 32004KT 6000 SCT018 31/24 Q1013 NOSIG=
202402110430 METAR WIHH 110430Z 34004KT 6000 SCT018 31/24 Q1013 NOSIG=
202402110400 METAR WIHH 110400Z 334004KT 6000 SCT018 31/24 Q1013 NOSIG=
202402110330 METAR WIHH 110330Z 33006KT 6000 SCT018 31/24 Q1014 NOSIG=
202402110300 METAR WIHH 110300Z 36004KT 6000 SCT018 31/24 Q1014 NOSIG=
202402110230 METAR WIHH 110230Z 32003KT 5000 HZ SCT020 30/25 Q1014 NOSIG=
202402110200 METAR WIHH 110200Z 27003KT 5000 HZ FEW020 30/25 Q1014 NOSIG=
202402110130 METAR WIHH 110130Z 30004KT 4000 HZ FEW022 29/25 Q1014 NOSIG=
202402110100 METAR WIHH 110100Z 22003KT 4000 HZ FEW022 27/25 Q1014 NOSIG=
202402110030 METAR WIHH 110030Z 24003KT 4000 HZ FEW022 26/24 Q1014 NOSIG=
202402110000 METAR WIHH 110000Z 24003KT 3000 HZ FEW022 25/24 Q1013 NOSIG=
202402102330 METAR WIHH 102330Z 19003KT 3000 HZ FEW022 25/24 Q1013 NOSIG=
202402102300 METAR WIHH 102300Z 23003KT 3000 HZ FEW022 25/24 Q1012 NOSIG=
202402102230 METAR WIHH 102230Z 22003KT 4000 HZ FEW020 25/24 Q1012 NOSIG=
202402102200 METAR WIHH 102200Z 23003KT 4000 HZ SCT020 25/24 Q1012 NOSIG=
202402102130 METAR WIHH 102130Z 24003KT 4000 HZ SCT020 25/23 Q1012 NOSIG=
202402102100 METAR WIHH NIL=
202402102030 METAR WIHH NIL=
202402102000 METAR WIHH NIL=
202402101930 METAR WIHH NIL=
202402101900 METAR WIHH NIL=
202402101830 METAR WIHH NIL=
202402101800 METAR WIHH NIL=
202402101730 METAR WIHH NIL=
202402101700 METAR WIHH 101700Z 00000KT 5000 HZ SCT019 26/24 Q1014 RMK RA TO NE=
202402101630 METAR WIHH 101630Z 18003KT 5000 HZ SCT019 26/24 Q1014 RMK RA TO NE=
202402101600 METAR WIHH 101600Z 18003KT 5000 TS FEW018CB SCT019 26/24 Q1014 RMK CB AND RA TO NE=
202402101530 METAR WIHH 101530Z 16004KT 6000 FEW018CB SCT019 26/24 Q1014 RMK CB AND RA TO NE=
202402101500 METAR WIHH 101500Z 16004KT 6000 SCT020 26/24 Q1014 RMK RA TO N=
202402101430 METAR WIHH 101430Z 18003KT 6000 SCT020 27/25 Q1014 RMK RA TO NW=
202402101400 METAR WIHH 101400Z 09003KT 6000 SCT020 27/25 Q1014 RMK RA TO NW=
202402101330 METAR WIHH 101330Z 15003KT 6000 SCT020 27/25 Q1014 RMK RA TO NW=
202402101300 METAR WIHH 101300Z 24003KT 6000 SCT020 27/24 Q1013 RMK RA TO N=
202402101230 METAR WIHH 101230Z 31003KT 6000 SCT020 27/24 Q1012 NOSIG=
202402101200 METAR WIHH 101200Z 30003KT 6000 SCT020 27/24 Q1012 NOSIG=
202402101130 METAR WIHH 101130Z 22003KT 6000 SCT18 27/24 Q1012 NOSIG=
202402101100 METAR WIHH 101100Z 22003KT 6000 SCT18 27/24 Q1012 NOSIG=
202402101030 METAR WIHH 101030Z 18003KT 5000 HZ SCT18 26/23 Q1011 NOSIG=
202402101000 METAR WIHH 101000Z 25005KT 5000 -RA SCT18 27/24 Q1010 TEMPO TL1020 4000 -RA=
202402100930 METAR WIHH NIL=
202402100900 METAR WIHH 100900Z 24010KT 5000 HZ SCT18 29/24 Q1010 TEMPO FM0930 -RA 4000 RMK RA TO E AND S=
202402100830 METAR WIHH 100830Z 24015KT 5000 TS FEW018CB SCT019 29/23 Q1010 TEMPO FM0900 3000 -RA BKN016 RMK CB AND RA TO SE-SW=
202402100800 METAR WIHH 100800Z 24015KT 5000 TS FEW018CB SCT019 30/23 Q1011 TEMPO FM0830 3000 -TSRA BKN016 RMK CB AND RA TO SW=
202402100730 METAR WIHH 100730Z 33010KT 5000 HZ FEW018CB SCT019 32/24 Q1010 RMK CB AND RA TO SW=
202402100700 METAR WIHH 100700Z 33010KT 5000 HZ FEW018CB SCT019 32/25 Q1011 RMK CB AND RA TO SW=
202402100630 METAR WIHH 100630Z 33010KT 5000 HZ SCT018 32/24 Q1011 NOSIG=
202402100600 METAR WIHH 100600Z 01008KT 5000 HZ SCT018 32/25 Q1011 NOSIG=
202402100530 METAR WIHH 100530Z 33005KT 5000 HZ SCT018 32/25 Q1012 NOSIG=
202402100500 METAR WIHH 100500Z 33003KT 5000 HZ SCT018 31/25 Q1012 RMK RA TO N=
202402100430 METAR WIHH 100430Z 01003KT 4000 HZ SCT018 31/25 Q1013 RMK RA TO N=
202402100400 METAR WIHH 100400Z 33003KT 4000 HZ SCT018 30/25 Q1014 RMK RA TO N=
202402100330 METAR WIHH 100330Z 03003KT 4000 HZ SCT018 30/26 Q1014 NOSIG=
202402100300 METAR WIHH 100300Z 27003KT 4000 HZ SCT018 29/27 Q1014 NOSIG=
202402100230 METAR WIHH 100230Z 23004KT 3000 HZ SCT018 28/26 Q1014 NOSIG=
202402100200 METAR WIHH 100200Z 23003KT 3000 HZ SCT018 28/26 Q1014 NOSIG=
202402100130 METAR WIHH 100130Z 00000KT 4000 BR FEW018 27/26 Q1014 NOSIG=
202402100100 METAR WIHH 100100Z 00000KT 4000 BR SCT018 26/26 Q1014 NOSIG=
202402100030 METAR WIHH 100030Z 00000KT 3000 BR SCT017 26/26 Q1013 NOSIG=
202402100000 METAR WIHH 100000Z 00000KT 3000 BR SCT017 26/26 Q1013 NOSIG=
202402092330 METAR WIHH 092330Z 24003KT 3000 BR SCT016 FEW018CB 25/25 Q1013 RMK CB AND RA TO E=
202402092300 METAR WIHH 092300Z 27003KT 3000 BR SCT016 FEW018CB 26/26 Q1012 RMK CB AND RA TO E=
202402092230 METAR WIHH 092230Z 24003KT 4000 BR SCT016 26/26 Q1012 RERA=
202402092200 METAR WIHH 092200Z 24003KT 4000 -RA BKN016 FEW017CB 26/26 Q1012 TEMPO TL2200 4000 -RA RMK CB TO N=
202402092130 METAR WIHH 092130Z 24003KT 4000 -RA BKN016 FEW017CB 26/26 Q1012 TEMPO TL2200 4000 -RA RMK CB TO E=
202402092100 METAR WIHH NIL=
202402092030 METAR WIHH NIL=
202402092000 METAR WIHH NIL=
202402091930 METAR WIHH NIL=
202402091900 METAR WIHH NIL=
202402091830 METAR WIHH NIL=
202402091800 METAR WIHH NIL=
202402091730 METAR WIHH 091730Z 17005KT 2500 TSRA BKN015 FEW017CB 26/26 Q1013 TEMPO TL1830 2000 TSRA RMK CB OVER THE FIELD=
202402091700 METAR WIHH 091700Z 17006KT 3000 -TSRA BKN015 FEW017CB 26/26 Q1013 TEMPO TL1730 2000 TSRA RMK CB TO SE AND W=
202402091630 METAR WIHH 091630Z 23010KT 5000 -TSRA BKN015 FEW017CB 26/25 Q1013 TEMPO TL1640 1500 TSRA RMK CB TO SW=
202402091600 METAR WIHH 091600Z 27010KT 5000 TS FEW017CB SCT017 28/26 Q1013 RMK CB AND RA TO SW=
202402091530 METAR WIHH 091530Z 00000KT 6000 FEW017CB SCT017 28/26 Q1013 RMK CB AND RA TO SW=
202402091500 METAR WIHH 091500Z 00000KT 6000 FEW017CB SCT017 28/26 Q1013 RMK CB AND RA TO SW=
202402091430 METAR WIHH 091430Z 00000KT 6000 SCT018 28/26 Q1013 RMK RA TO SW=
202402091400 METAR WIHH 091400Z 00000KT 6000 SCT018 27/25 Q1012 NOSIG=
202402091330 METAR WIHH 091330Z 00000KT 6000 FEW018 28/25 Q1012 NOSIG=
202402091300 METAR WIHH 091300Z 00000KT 6000 FEW018 28/25 Q1011 NOSIG=
202402091230 METAR WIHH 091230Z 33003KT 6000 SCT018 29/25 Q1011 NOSIG=
202402091200 METAR WIHH 091200Z 01003KT 6000 SCT018 29/24 Q1010 NOSIG=
202402091130 METAR WIHH 091130Z 33003KT 6000 SCT018 29/24 Q1010 NOSIG=
202402091100 METAR WIHH 091100Z 34005KT 6000 SCT018 29/24 Q1009 NOSIG=
202402091030 METAR WIHH 091030Z 01006KT 6000 SCT017 30/24 Q1009 NOSIG=
202402091000 METAR WIHH 091000Z 35007KT 6000 SCT017 30/26 Q1008 NOSIG=
202402090930 METAR WIHH 090930Z 03004KT 5000 HZ SCT017 31/26 Q1008 NOSIG=
202402090900 METAR WIHH 090900Z 03004KT 5000 HZ SCT017 31/26 Q1008 NOSIG=
202402090830 METAR WIHH 090830Z 34003KT 4000 -RA SCT017 29/27 Q1008 NOSIG=
202402090800 METAR WIHH 090800Z 30006KT 2000 -TSRA SCT015 FEW017CB 28/27 Q1008 RMK CB TO S=
202402090730 METAR WIHH 090730Z 00000KT 3000 -TSRA FEW017CB SCT017 29/25 Q1009 RMK CB OVER THE FIELD=
202402090700 METAR WIHH 090700Z 01007KT 5000 HZ SCT017 31/24 Q1009 RMK RA TO W=
202402090630 METAR WIHH 090630Z 01009KT 5000 TS FEW017CB SCT017 32/25 Q1009 TEMPO FM0640 3000 -TSRA BKN015 RMK CB AND RA TO W AND NE=
202402090600 METAR WIHH 090600Z 35009KT 5000 TS FEW017CB SCT017 33/24 Q1010 TEMPO FM0630 3000 RA BKN015 RMK CB AND RA TO W=
202402090530 METAR WIHH 090530Z 06006KT 5000 HZ SCT018 32/23 Q1010 TEMPO FM0540 3000 RA BKN015 RMK RA TO NW AND SW=
202402090500 METAR WIHH 090500Z 05007KT 5000 HZ SCT018 31/23 Q1011 TEMPO FM0520 3000 RA BKN015 RMK RA TO NE AND SW=
202402090430 METAR WIHH 090430Z 02007KT 5000 HZ SCT018 31/24 Q1011 TEMPO FM0440 3000 RA BKN015 RMK RA TO NE AND SW=
202402090400 METAR WIHH 090400Z 04004KT 5000 HZ SCT018 32/23 Q1011 RMK RA TO NE=
202402090330 METAR WIHH 090330Z 10006KT 5000 HZ SCT018 32/24 Q1012 NOSIG=
202402090300 METAR WIHH 090300Z 07006KT 5000 HZ SCT018 32/24 Q1012 NOSIG=
202402090230 METAR WIHH 090230Z 09006KT 6000 FEW018 31/24 Q1012 NOSIG=
202402090200 METAR WIHH 090200Z 08004KT 6000 FEW018 30/25 Q1012 NOSIG=
202402090130 METAR WIHH 090130Z 16003KT 6000 NSC 29/25 Q1012 NOSIG=
202402090100 METAR WIHH 090100Z 13003KT 6000 FEW020 28/25 Q1012 NOSIG=
202402090030 METAR WIHH 090030Z 00000KT 6000 FEW020 28/25 Q1011 NOSIG=
202402090000 METAR WIHH 090000Z 00000KT 6000 SCT020 26/25 Q1011 NOSIG=
202402082330 METAR WIHH 082330Z 00000KT 6000 FEW020 26/24 Q1011 NOSIG=
202402082300 METAR WIHH 082300Z 00000KT 6000 FEW020 26/24 Q1011 NOSIG=
202402082230 METAR WIHH 082230Z 20002KT 6000 FEW020 26/24 Q1010 NOSIG=
202402082200 METAR WIHH 082200Z 20002KT 6000 FEW020 26/24 Q1010 NOSIG=
202402082130 METAR WIHH 082130Z 18005KT 6000 FEW020 26/24 Q1010 NOSIG=
202402082100 METAR WIHH NIL=
202402082030 METAR WIHH NIL=
202402082000 METAR WIHH NIL=
202402081930 METAR WIHH NIL=
202402081900 METAR WIHH NIL=
202402081830 METAR WIHH NIL=
202402081800 METAR WIHH NIL=
202402081730 METAR WIHH NIL=
202402081700 METAR WIHH NIL=
202402081630 METAR WIHH NIL=
202402081600 METAR WIHH 081600Z 00000KT 6000 FEW020 27/25 Q1012 NOSIG=
202402081530 METAR WIHH 081530Z 12003KT 6000 FEW020 27/25 Q1012 NOSIG=
202402081500 METAR WIHH 081500Z 14003KT 6000 FEW020 27/25 Q1012 NOSIG=
202402081430 METAR WIHH 081430Z 14003KT 6000 FEW020 27/25 Q1012 NOSIG=
202402081400 METAR WIHH 081400Z 15003KT 6000 FEW020 27/25 Q1011 NOSIG=
202402081330 METAR WIHH 081330Z 15005KT 6000 FEW020 28/25 Q1010 NOSIG=
202402081300 METAR WIHH 081300Z 15005KT 6000 SCT020 28/24 Q1010 NOSIG=
202402081230 METAR WIHH 081230Z 20005KT 6000 SCT020 29/25 Q1010 RMK RA TO S=
202402081200 METAR WIHH 081200Z 00000KT 6000 SCT020 30/25 Q1010 RMK RA TO SE=
202402081130 METAR WIHH 081130Z 02004KT 6000 TS FEW018CB SCT019 30/24 Q1009 RMK CB AND RA TO SE=
202402081100 METAR WIHH 081100Z 35006KT 6000 TS FEW018CB SCT019 31/24 Q1009 RMK CB AND RA TO S=
202402081030 METAR WIHH 081030Z 32008KT 6000 TS FEW018CB SCT019 31/24 Q1008 RMK CB AND RA TO S=
202402081000 METAR WIHH 081000Z 36008KT 6000 FEW018CB SCT019 31/23 Q1008 RMK CB AND RA TO S=
202402080930 METAR WIHH 080930Z 33005KT 6000 FEW018CB SCT020 31/24 Q1008 RMK CB AND RA TO SE=
202402080900 METAR WIHH 080900Z 02007KT 6000 FEW018CB SCT020 32/24 Q1008 RMK CB AND RA TO SW=
202402080830 METAR WIHH 080830Z 34007KT 6000 FEW018CB SCT020 32/24 Q1008 RMK CB AND RA TO SW=
202402080800 METAR WIHH 080800Z 35005KT 6000 SCT020 32/24 Q1008 NOSIG=
202402080730 METAR WIHH 080730Z 03007KT 7000 SCT020 32/25 Q1008 NOSIG=
202402080700 METAR WIHH 080700Z 30006KT 7000 SCT020 33/25 Q1009 NOSIG=
202402080630 METAR WIHH 080630Z 34007KT 7000 SCT020 32/25 Q1009 NOSIG=
202402080600 METAR WIHH 080600Z 02006KT 7000 SCT020 32/24 Q1009 NOSIG=
202402080530 METAR WIHH 080530Z 32003KT 7000 FEW022 33/24 Q1010 NOSIG=
202402080500 METAR WIHH 080500Z 00000KT 7000 FEW022 33/22 Q1011 NOSIG=
202402080430 METAR WIHH 080430Z 22005KT 6000 FEW022 33/22 Q1011 NOSIG=
202402080400 METAR WIHH 080400Z 24005KT 6000 FEW022 32/22 Q1011 NOSIG=
202402080330 METAR WIHH 080330Z 24010KT 6000 FEW022 31/23 Q1012 NOSIG=
202402080300 METAR WIHH 080300Z 24005KT 6000 FEW022 31/23 Q1012 NOSIG=
202402080230 METAR WIHH 080230Z 25010KT 6000 FEW022 30/23 Q1012 NOSIG=
202402080200 METAR WIHH 080200Z 25010KT 6000 FEW022 30/23 Q1012 NOSIG=
202402080130 METAR WIHH 080130Z 23006KT 6000 FEW022 26/23 Q1012 NOSIG=
202402080100 METAR WIHH 080100Z 23004KT 6000 FEW022 26/23 Q1011 NOSIG=
202402080030 METAR WIHH 080030Z 20003KT 6000 FEW022 26/23 Q1011 NOSIG=
202402080000 METAR WIHH 080000Z 23003KT 6000 FEW022 26/23 Q1011 NOSIG=
202402072330 METAR WIHH 072330Z 00000KT 4000 BR FEW022 25/25 Q1010 NOSIG=
202402072300 METAR WIHH 072300Z 00000KT 4000 BR FEW022 25/25 Q1010 NOSIG=
202402072230 METAR WIHH 072230Z 00000KT 4000 BR FEW022 24/24 Q1010 NOSIG=
202402072200 METAR WIHH 072200Z 00000KT 4000 BR FEW022 24/24 Q1010 NOSIG=
202402072130 METAR WIHH 072130Z 00000KT 4000 BR FEW022 25/25 Q1010 NOSIG=
202402072100 METAR WIHH 072100Z 00000KT 4000 BR FEW022 25/25 Q1010 NOSIG=
202402072030 METAR WIHH NIL=
202402072000 METAR WIHH NIL=
202402071930 METAR WIHH NIL=
202402071900 METAR WIHH NIL=
202402071830 METAR WIHH NIL=
202402071800 METAR WIHH NIL=
202402071730 METAR WIHH NIL=
202402071700 METAR WIHH NIL=
202402071630 METAR WIHH NIL=
202402071600 METAR WIHH 071600Z 00000KT 6000 NSC 26/24 Q1012 NOSIG=
202402071530 METAR WIHH NIL=
202402071500 METAR WIHH NIL=
202402071430 METAR WIHH 071430Z 34003KT 6000 FEW020 27/24 Q1012 NOSIG=
202402071400 METAR WIHH 071400Z 16003KT 6000 FEW020 27/24 Q1011 NOSIG=
202402071330 METAR WIHH 071330Z 14003KT 6000 FEW020 27/24 Q1011 NOSIG=
202402071300 METAR WIHH 071300Z 12003KT 6000 SCT020 27/24 Q1010 NOSIG=
202402071230 METAR WIHH 071230Z 12003KT 6000 SCT020 27/24 Q1010 NOSIG=
202402071200 METAR WIHH 071200Z 10003KT 6000 SCT020 27/24 Q1010 NOSIG=
202402071130 METAR WIHH 071130Z 00000KT 6000 SCT018 27/24 Q1010 NOSIG=
202402071100 METAR WIHH 071100Z 06004KT 6000 SCT018 27/24 Q1010 RMK RA TO E=
202402071030 METAR WIHH 071030Z 18005KT 5000 HZ SCT018 27/24 Q1010 RMK RA TO E=
202402071000 METAR WIHH 071000Z 15010KT 5000 HZ FEW016CB BKN018 27/24 Q1009 RMK CB AND RA TO NE=
202402070930 METAR WIHH 070930Z 20015KT 6000 FEW016CB BKN018 29/24 Q1009 RMK CB AND RA TO N AND S=
202402070900 METAR WIHH 070900Z 23015KT 6000 FEW016CB BKN018 29/24 Q1009 RMK CB AND RA TO N AND S=
202402070830 METAR WIHH 070830Z 21015KT 6000 SCT018 31/23 Q1009 RMK RA TO S=
202402070800 METAR WIHH 070800Z 24012KT 6000 SCT018 33/22 Q1009 RMK RA TO S=
202402070730 METAR WIHH 070730Z 28008KT 6000 SCT018 33/21 Q1009 NOSIG=
202402070700 METAR WIHH 070700Z 25010KT 6000 SCT018 33/22 Q1010 NOSIG=
202402070630 METAR WIHH 070630Z 30012KT 6000 SCT018 33/22 Q1010 NOSIG=
202402070600 METAR WIHH 070600Z 29010KT 6000 SCT018 32/23 Q1011 NOSIG=
202402070530 METAR WIHH 070530Z 26012KT 6000 SCT018 32/24 Q1011 NOSIG=
202402070500 METAR WIHH 070500Z 29008KT 6000 SCT018 32/24 Q1011 RMK RA TO NE=
202402070430 METAR WIHH 070430Z 30008KT 6000 SCT018 30/24 Q1012 RMK RA TO NW=
202402070400 METAR WIHH 070400Z 26006KT 6000 SCT018 30/24 Q1012 RMK RA TO NW=
202402070330 METAR WIHH 070330Z 28010KT 6000 SCT018 30/25 Q1013 NOSIG=
202402070300 METAR WIHH 070300Z 29005KT 6000 SCT018 29/25 Q1013 NOSIG=
202402070230 METAR WIHH 070230Z 30005KT 6000 SCT018 28/25 Q1013 NOSIG=
202402070200 METAR WIHH 070200Z 27005KT 6000 SCT018 28/24 Q1013 NOSIG=
202402070130 METAR WIHH 070130Z 25004KT 6000 SCT018 27/24 Q1013 NOSIG=
202402070100 METAR WIHH 070100Z 30004KT 6000 SCT018 26/24 Q1013 NOSIG=
202402070030 METAR WIHH 070030Z 24004KT 6000 SCT020 25/24 Q1012 NOSIG=
202402070000 METAR WIHH 070000Z 22003KT 6000 SCT020 25/24 Q1012 NOSIG=
202402062330 METAR WIHH 062330Z 00000KT 6000 SCT018 24/23 Q1012 NOSIG=
202402062300 METAR WIHH 062300Z 00000KT 6000 SCT020 24/23 Q1012 NOSIG=
202402062230 METAR WIHH 062230Z 27003KT 6000 SCT020 24/23 Q1011 NOSIG=
202402062200 METAR WIHH 062200Z 26003KT 6000 SCT020 24/23 Q1011 NOSIG=
202402062130 METAR WIHH 062130Z 27003KT 6000 SCT020 24/23 Q1011 NOSIG=
202402062100 METAR WIHH NIL=
202402062030 METAR WIHH NIL=
202402062000 METAR WIHH NIL=
202402061930 METAR WIHH NIL=
202402061900 METAR WIHH NIL=
202402061830 METAR WIHH NIL=
202402061800 METAR WIHH NIL=
202402061730 METAR WIHH NIL=
202402061700 METAR WIHH 061700Z 26004KT 6000 SCT020 25/24 Q1013 NOSIG=
202402061630 METAR WIHH 061630Z 26004KT 6000 SCT020 25/23 Q1013 NOSIG=
202402061600 METAR WIHH NIL=
202402061530 METAR WIHH 061530Z 24003KT 6000 SCT020 25/22 Q1013 NOSIG=
202402061500 METAR WIHH 061500Z 23003KT 6000 SCT020 25/23 Q1013 NOSIG=
202402061430 METAR WIHH 061430Z 26004KT 6000 SCT020 25/23 Q1012 NOSIG=
202402061400 METAR WIHH 061400Z 27004KT 6000 SCT020 25/23 Q1012 NOSIG=
202402061330 METAR WIHH 061330Z 27005KT 6000 SCT020 25/23 Q1012 NOSIG=
202402061300 METAR WIHH 061300Z 29004KT 6000 SCT020 25/24 Q1011 NOSIG=
202402061230 METAR WIHH 061230Z 31003KT 6000 SCT020 25/24 Q1010 NOSIG=
202402061200 METAR WIHH 061200Z 26003KT 6000 SCT020 25/24 Q1010 NOSIG=
202402061130 METAR WIHH 061130Z 24008KT 6000 SCT018 26/24 Q1010 NOSIG=
202402061100 METAR WIHH 061100Z 24010KT 6000 SCT018 26/24 Q1010 RMK RA TO SW=
202402061030 METAR WIHH 061030Z 24010KT 6000 SCT018 26/24 Q1010 RMK RA TO E=
202402061000 METAR WIHH 061000Z 24010KT 4000 -RA BKN018 26/24 Q1010 NOSIG=
202402060930 METAR WIHH 060930Z 24010KT 4000 -RA FEW017CB BKN018 26/24 Q1010 TEMPO TL1000 -RA 4000 RMK CB TO NW=
202402060900 METAR WIHH 060900Z 24015KT 4000 -RA FEW017CB BKN018 28/24 Q1010 TEMPO TL1000 -RA 4000 RMK CB TO NW=
202402060830 METAR WIHH 060830Z 24012KT 5000 HZ SCT018 28/24 Q1010 RMK RA TO SW=
202402060800 METAR WIHH 060800Z 24008KT 5000 HZ SCT018 28/24 Q1011 RMK RA TO E AND SW=
202402060730 METAR WIHH 060730Z 24007KT 5000 -RA SCT018 26/24 Q1011 NOSIG=
202402060700 METAR WIHH 060700Z 27005KT 5000 -RA SCT018 26/24 Q1011 NOSIG=
202402060630 METAR WIHH 060630Z 27008KT 4000 -RA FEW017CB SCT018 25/24 Q1012 RMK CB TO W=
202402060600 METAR WIHH 060600Z 27008KT 4000 -RA FEW017CB SCT018 25/24 Q1012 RMK CB TO W=
202402060530 METAR WIHH 060530Z 24013KT 2500 -RA FEW017CB BKN018 26/24 Q1012 TEMPO TL0600 3000 TSRA BKN015 RMK CB TO W=
202402060500 METAR WIHH 060500Z 24008KT 4000 RA FEW017CB SCT018 30/25 Q1012 TEMPO TL0540 3000 TSRA BKN015 RMK CB TO W=
202402060430 METAR WIHH 060430Z 29010KT 5000 HZ FEW017CB SCT018 31/25 Q1013 TEMPO FM0540 3000 TSRA BKN015 RMK CB AND RA TO W=
202402060400 METAR WIHH 060400Z 26006KT 5000 HZ SCT018 30/25 Q1013 NOSIG=
202402060330 METAR WIHH 060330Z 25003KT 5000 HZ SCT018 30/25 Q1014 NOSIG=
202402060300 METAR WIHH 060300Z 22003KT 5000 HZ SCT018 29/25 Q1014 NOSIG=
202402060230 METAR WIHH 060230Z 27004KT 5000 HZ SCT017 28/25 Q1014 NOSIG=
202402060200 METAR WIHH 060200Z 23003KT 5000 HZ SCT016 27/25 Q1014 NOSIG=
202402060130 METAR WIHH 060130Z 21005KT 5000 HZ SCT016 27/25 Q1014 RMK RA TO S=
202402060100 METAR WIHH 060100Z 22005KT 5000 HZ SCT016 27/25 Q1014 RMK RA TO S=
202402060030 METAR WIHH 060030Z 00000KT 4000 HZ SCT016 26/25 Q1014 RMK RA TO N=
202402060000 METAR WIHH 060000Z 28003KT 3000 HZ FEW016CB SCT016 26/25 Q1013 RMK CB AND RA TO NW AND RA TO SW=
202402052330 METAR WIHH 052330Z 34003KT 3000 -RA FEW016CB SCT016 25/25 Q1013 RMK CB TO N=
202402052300 METAR WIHH 052300Z 27004KT 3000 -RA FEW016CB SCT016 25/25 Q1013 RMK CB TO NW=
202402052230 METAR WIHH 052230Z 21006KT 3000 -RA SCT016 25/25 Q1012 NOSIG=
202402052200 METAR WIHH 052200Z 22002KT 4000 BR SCT018 25/25 Q1012 RMK RA TO W=
202402052130 METAR WIHH 052130Z 00000KT 4000 BR FEW018 25/25 Q1012 NOSIG=
202402052100 METAR WIHH 052100Z 00000KT 4000 BR FEW018 25/25 Q1012 NOSIG=
202402052030 METAR WIHH NIL=
202402052000 METAR WIHH NIL=
202402051930 METAR WIHH NIL=
202402051900 METAR WIHH NIL=
202402051830 METAR WIHH NIL=
202402051800 METAR WIHH NIL=
202402051730 METAR WIHH NIL=
202402051700 METAR WIHH 051700Z 00000KT 4000 BR FEW018 26/25 Q1014 NOSIG=
202402051630 METAR WIHH 051630Z 00000KT 4000 BR FEW018 26/25 Q1014 NOSIG=
202402051600 METAR WIHH 051600Z 00000KT 4000 BR FEW018 26/25 Q1014 NOSIG=
202402051530 METAR WIHH 051530Z 00000KT 5000 BR FEW018 26/25 Q1014 NOSIG=
202402051500 METAR WIHH 051500Z 00000KT 4000 BR SCT018 26/25 Q1014 NOSIG=
202402051430 METAR WIHH 051430Z 00000KT 5000 HZ SCT018 26/25 Q1014 NOSIG=
202402051400 METAR WIHH 051400Z 00000KT 5000 HZ SCT018 26/25 Q1014 NOSIG=
202402051330 METAR WIHH 051330Z 00000KT 6000 SCT016 26/25 Q1014 NOSIG=
202402051300 METAR WIHH 051300Z 00000KT 6000 SCT016 26/25 Q1013 NOSIG=
202402051230 METAR WIHH 051230Z 00000KT 5000 HZ SCT016 26/25 Q1013 NOSIG=
202402051200 METAR WIHH 051200Z 00000KT 6000 SCT016 26/25 Q1012 NOSIG=
202402051130 METAR WIHH 051130Z 00000KT 5000 HZ SCT016 25/25 Q1012 NOSIG=
202402051100 METAR WIHH 051100Z 00000KT 5000 HZ SCT016 25/25 Q1011 NOSIG=
202402051030 METAR WIHH 051030Z 00000KT 5000 HZ SCT016 25/24 Q1011 NOSIG=
202402051000 METAR WIHH 051000Z 00000KT 5000 HZ SCT016 25/24 Q1011 RMK RA TO E=
202402050930 METAR WIHH 050930Z 00000KT 5000 -RA SCT015 25/24 Q1011 NOSIG=
202402050900 METAR WIHH 050900Z 00000KT 5000 -RA SCT015 24/24 Q1011 NOSIG=
202402050830 METAR WIHH 050830Z 26004KT 5000 -RA SCT015 FEW016CB 24/24 Q1011 RMK CB TO E=
202402050800 METAR WIHH 050800Z 32005KT 2000 -TSRA BKN013 FEW016CB 24/24 Q1012 RMK CB OVER THE FIELD=
202402050730 METAR WIHH 050730Z 29006KT 1000 TSRA BKN012 FEW016CB 25/25 Q1012 RMK CB OVER THE FIELD=
202402050700 METAR WIHH 050700Z 36020KT 0500 TSRA BKN012 FEW016CB 26/25 Q1012 RMK CB OVER THE FIELD=
202402050630 METAR WIHH 050630Z 24008KT 5000 HZ FEW017CB SCT018 31/25 Q1011 RMK CB AND RA TO W=
202402050600 METAR WIHH 050600Z 24008KT 6000 SCT020 33/23 Q1011 RMK RA TO E=
202402050530 METAR WIHH 050530Z 24007KT 6000 SCT020 32/23 Q1011 NOSIG=
202402050500 METAR WIHH 050500Z 28008KT 6000 SCT020 32/23 Q1012 NOSIG=
202402050430 METAR WIHH 050430Z 26005KT 6000 SCT020 32/22 Q1012 NOSIG=
202402050400 METAR WIHH 050400Z 21006KT 5000 HZ SCT020 32/23 Q1013 NOSIG=
202402050330 METAR WIHH 050330Z 30006KT 5000 HZ SCT020 32/24 Q1013 NOSIG=
202402050300 METAR WIHH 050300Z 36004KT 5000 HZ SCT020 32/24 Q1014 NOSIG=
202402050230 METAR WIHH 050230Z 02006KT 5000 HZ SCT020 31/25 Q1014 NOSIG=
202402050200 METAR WIHH 050200Z 03003KT 5000 HZ FEW020 30/25 Q1014 NOSIG=
202402050130 METAR WIHH 050130Z 31004KT 5000 HZ FEW020 30/25 Q1014 NOSIG=
202402050100 METAR WIHH 050100Z 04003KT 5000 HZ FEW020 28/25 Q1013 NOSIG=
202402050030 METAR WIHH 050030Z 050030Z 11003KT 5000 HZ FEW020 27/24 Q1013 NOSIG=
202402050000 METAR WIHH 050000Z 15003KT 5000 HZ FEW020 26/24 Q1013 NOSIG=
202402042330 METAR WIHH 042330Z 22003KT 5000 HZ FEW020 25/24 Q1012 NOSIG=
202402042300 METAR WIHH 042300Z 22003KT 5000 HZ FEW020 25/24 Q1012 NOSIG=
202402042230 METAR WIHH NIL=
202402042200 METAR WIHH NIL=
202402042130 METAR WIHH NIL=
202402042100 METAR WIHH 042100Z 15003KT 5000 HZ SCT020 26/24 Q1012 NOSIG=
202402042030 METAR WIHH NIL=
202402042000 METAR WIHH NIL=
202402041930 METAR WIHH NIL=
202402041900 METAR WIHH NIL=
202402041830 METAR WIHH NIL=
202402041800 METAR WIHH NIL=
202402041730 METAR WIHH NIL=
202402041700 METAR WIHH NIL=
202402041630 METAR WIHH NIL=
202402041600 METAR WIHH 041600Z 00000KT 8000 FEW020 27/24 Q1013 NOSIG=
202402041530 METAR WIHH 041530Z 23003KT 8000 FEW020 28/24 Q1014 NOSIG=
202402041500 METAR WIHH 041500Z 27003KT 8000 FEW020 28/23 Q1014 NOSIG=
202402041430 METAR WIHH 041430Z 24003KT 8000 FEW020 28/23 Q1014 NOSIG=
202402041400 METAR WIHH 041400Z 27003KT 8000 FEW020 28/23 Q1013 NOSIG=
202402041330 METAR WIHH 041330Z 00000KT 8000 FEW020 28/23 Q1013 NOSIG=
202402041300 METAR WIHH 041300Z 24006KT 8000 FEW020 28/23 Q1013 NOSIG=
202402041230 METAR WIHH 041230Z 23006KT 8000 FEW020 28/24 Q1012 NOSIG=
202402041200 METAR WIHH 041200Z 25007KT 8000 SCT020 28/23 Q1012 NOSIG=
202402041130 METAR WIHH 041130Z 26006KT 8000 SCT020 29/23 Q1012 NOSIG=
202402041100 METAR WIHH 041100Z 27004KT 8000 SCT020 29/23 Q1011 NOSIG=
202402041030 METAR WIHH 041030Z 25008KT 7000 SCT020 30/23 Q1011 NOSIG=
202402041000 METAR WIHH 041000Z 24010KT 7000 SCT020 30/24 Q1010 NOSIG=
202402040930 METAR WIHH 040930Z 27010KT 7000 SCT020 30/24 Q1010 NOSIG=
202402040900 METAR WIHH 040900Z 28010KT 7000 SCT020 30/24 Q1010 NOSIG=
202402040830 METAR WIHH NIL=
202402040800 METAR WIHH NIL=
202402040730 METAR WIHH NIL=
202402040700 METAR WIHH 040700Z 25005KT 6000 -RA SCT018 26/24 Q1011 NOSIG=
202402040630 METAR WIHH 040630Z 25005KT 4000 -RA FEW917CB BKN018 25/24 Q1012 RMK CB TO E=
202402040600 METAR WIHH 040600Z 27015KT 3000 -TSRA FEW917CB BKN018 25/24 Q1012 RMK CB TO NE-SE=
202402040530 METAR WIHH 040530Z 29015KT 6000 -RA FEW917CB SCT018 30/23 Q1012 RMK CB TO W-NW=
202402040500 METAR WIHH 040500Z 25010KT 7000 SCT018 31/23 Q1013 NOSIG=
202402040430 METAR WIHH 040430Z 25012KT 7000 SCT018 31/243Q1013 NOSIG=
202402040400 METAR WIHH 040400Z 27005KT 7000 SCT018 31/24 Q1013 NOSIG=
202402040330 METAR WIHH 040330Z 26010KT 7000 SCT018 30/25 Q1013 NOSIG=
202402040300 METAR WIHH 040300Z 26010KT 7000 SCT020 30/24 Q1014 NOSIG=
202402040230 METAR WIHH 040230Z 28006KT 7000 SCT020 30/24 Q1014 NOSIG=
202402040200 METAR WIHH 040200Z 24010KT 7000 SCT020 29/25 Q1014 NOSIG=
202402040130 METAR WIHH 040130Z 25005KT 7000 SCT018 27/24 Q1014 NOSIG=
202402040100 METAR WIHH 040100Z 28005KT 7000 SCT018 27/24 Q1014 NOSIG=
202402040030 METAR WIHH 040030Z 27006KT 7000 SCT018 26/24 Q1013 NOSIG=
202402040000 METAR WIHH 040000Z 30004KT 7000 SCT018 26/24 Q1013 RMK RA TO NE=
202402032330 METAR WIHH 032330Z 25005KT 8000 SCT020 26/24 Q1012 RMK RA TO NE=
202402032300 METAR WIHH 032300Z 29003KT 8000 FEW020 26/24 Q1012 NOSIG=
202402032230 METAR WIHH NIL=
202402032200 METAR WIHH NIL=
202402032130 METAR WIHH NIL=
202402032100 METAR WIHH NIL=
202402032030 METAR WIHH NIL=
202402032000 METAR WIHH NIL=
202402031930 METAR WIHH NIL=
202402031900 METAR WIHH NIL=
202402031830 METAR WIHH NIL=
202402031800 METAR WIHH NIL=
202402031730 METAR WIHH NIL=
202402031700 METAR WIHH 031700Z 25003KT 6000 FEW020 27/24 Q1013 NOSIG=
202402031630 METAR WIHH 031630Z 25003KT 7000 FEW020 27/24 Q1013 NOSIG=
202402031600 METAR WIHH 031600Z 27004KT 8000 FEW020 27/24 Q1013 NOSIG=
202402031530 METAR WIHH 031530Z 27004KT 8000 FEW020 27/25 Q1013 NOSIG=
202402031500 METAR WIHH 031500Z 30005KT 8000 FEW020 27/24 Q1013 NOSIG=
202402031430 METAR WIHH 031430Z 26007KT 8000 FEW020 27/24 Q1013 NOSIG=
202402031400 METAR WIHH 031400Z 25005KT 8000 SCT020 27/24 Q1013 NOSIG=
202402031330 METAR WIHH 031330Z 26005KT 8000 SCT020 27/24 Q1013 NOSIG=
202402031300 METAR WIHH 031300Z 24008KT 8000 SCT020 28/24 Q1012 NOSIG=
202402031230 METAR WIHH 031230Z 27008KT 6000 SCT018 29/23 Q1012 NOSIG=
202402031200 METAR WIHH 031200Z 25008KT 6000 SCT018 28/23 Q1012 NOSIG=
202402031130 METAR WIHH 031130Z 26008KT 6000 SCT018 28/24 Q1011 NOSIG=
202402031100 METAR WIHH 031100Z 24008KT 6000 SCT018 28/24 Q1011 NOSIG=
202402031030 METAR WIHH 031030Z 24005KT 6000 SCT018 28/24 Q1011 NOSIG=
202402031000 METAR WIHH 031000Z 25010KT 6000 SCT018 28/24 Q1010 NOSIG=
202402030930 METAR WIHH 030930Z 27010KT 6000 SCT018 28/24 Q1010 NOSIG=
202402030900 METAR WIHH 030900Z 24012KT 6000 SCT018 28/24 Q1010 RMK RA TO NW=
202402030830 METAR WIHH 030830Z 23015KT 6000 SCT018 29/24 Q1010 RMK RA TO N=
202402030800 METAR WIHH 030800Z 25015KT 6000 SCT018 29/24 Q1010 RMK RA TO NW=
202402030730 METAR WIHH 030730Z 27010KT 6000 SCT018 29/24 Q1010 RMK RA TO NW=
202402030700 METAR WIHH 030700Z 25010KT 6000 SCT018 29/24 Q1011 RMK RA TO NW=
202402030630 METAR WIHH 030630Z 28008KT 6000 SCT018 30/24 Q1011 NOSIG=
202402030600 METAR WIHH 030600Z 33008KT 6000 SCT018 31/24 Q1011 NOSIG=
202402030530 METAR WIHH 030530Z 27008KT 6000 SCT018 30/24 Q1012 NOSIG=
202402030500 METAR WIHH 030500Z 29005KT 6000 SCT018 29/24 Q1012 RMK RA TO E=
202402030430 METAR WIHH 030430Z 26007KT 6000 SCT018 30/25 Q1012 RMK RA TO NE=
202402030400 METAR WIHH 030400Z 29010KT 6000 SCT018 30/25 Q1012 RMK RA TO NE=
202402030330 METAR WIHH 030330Z 31010KT 6000 SCT018 29/25 Q1013 RMK RA TO NE=
202402030300 METAR WIHH 030300Z 27010KT 6000 SCT018 29/25 Q1013 RMK RA TO NW=
202402030230 METAR WIHH 030230Z 27007KT 6000 SCT018 29/25 Q1013 NOSIG=
202402030200 METAR WIHH 030200Z 25010KT 6000 SCT018 28/25 Q1013 NOSIG=
202402030130 METAR WIHH 030130Z 29005KT 6000 SCT018 28/25 Q1013 NOSIG=
202402030100 METAR WIHH 030100Z 28005KT 6000 FEW020 27/25 Q1013 NOSIG=
202402030030 METAR WIHH 030030Z 00000KT 5000 HZ FEW020 27/25 Q1012 NOSIG=
202402030000 METAR WIHH 030000Z 00000KT 4000 BR FEW020 25/25 Q1012 NOSIG=
202402022330 METAR WIHH 022330Z 00000KT 3000 BR FEW020 25/24 Q1012 NOSIG=
202402022300 METAR WIHH 022300Z 00000KT 3000 BR FEW020 24/24 Q1011 NOSIG=
202402022230 METAR WIHH 022230Z 00000KT 3000 BR FEW020 24/24 Q1011 NOSIG=
202402022200 METAR WIHH 022200Z 00000KT 3000 BR FEW020 24/24 Q1011 NOSIG=
202402022130 METAR WIHH 022130Z 00000KT 5000 HZ FEW020 25/24 Q1011 NOSIG=
202402022100 METAR WIHH NIL=
202402022030 METAR WIHH NIL=
202402022000 METAR WIHH NIL=
202402021930 METAR WIHH NIL=
202402021900 METAR WIHH NIL=
202402021830 METAR WIHH NIL=
202402021800 METAR WIHH NIL=
202402021730 METAR WIHH NIL=
202402021700 METAR WIHH NIL=
202402021630 METAR WIHH NIL=
202402021600 METAR WIHH NIL=
202402021530 METAR WIHH NIL=
202402021500 METAR WIHH 021500Z 13003KT 5000 -RA SCT014 FEW017CB 24/24 Q1013 RMK CB TO E=
202402021430 METAR WIHH 021430Z 08003KT 4000 -RA SCT012 FEW017CB 24/24 Q1013 RMK CB TO NE=
202402021400 METAR WIHH 021400Z 07006KT 3000 -TSRA BKN012 FEW017CB 24/24 Q1013 RMK CB TO NE=
202402021330 METAR WIHH 021330Z 15006KT 1500 TSRA SCT014 FEW017CB 25/24 Q1013 RMK CB TO NE-SE=
202402021300 METAR WIHH 021300Z 08003KT 3000 -TSRA SCT014 FEW017CB 25/24 Q1012 RMK CB TO N-E=
202402021230 METAR WIHH 021230Z 07003KT 5000 -TSRA BKN015 FEW017CB 25/24 Q1011 RMK CB TO N-S=
202402021200 METAR WIHH 021200Z 23003KT 4000 -TSRA BKN014 FEW017CB 25/24 Q1011 RMK CB TO N-E=
202402021130 METAR WIHH 021130Z 34005KT 4000 -TSRA BKN014 FEW017CB 25/24 Q1010 RMK CB TO N-NE=
202402021100 METAR WIHH 021100Z 00000KT 3000 -TSRA BKN014 FEW017CB 25/25 Q1010 RMK CB TO N-NE=
202402021030 METAR WIHH 021030Z 03012KT 3000 -TSRA BKN012 FEW017CB 25/24 Q1009 RMK CB TO N-NE=
202402021000 METAR WIHH 021000Z 02018KT 0500 TSRA BKN012 FEW017CB 26/23 Q1008 RMK CB OTF=
202402020930 METAR WIHH 020930Z 10012KT 5000 -RA SCT015 FEW017CB 30/26 Q1008 RMK CB TO SE=
202402020900 METAR WIHH 020900Z 36008KT 6000 SCT018 32/25 Q1007 RMK RA TO E AND S=
202402020830 METAR WIHH 020830Z 02011KT 7000 SCT020 32/25 Q1007 RMK RA TO E=
202402020800 METAR WIHH NIL=
202402020730 METAR WIHH 020730Z 25006KT 7000 SCT020 34/24 Q1008 NOSIG=
202402020700 METAR WIHH NIL=
202402020630 METAR WIHH 020630Z 24005KT 7000 SCT020 34/24 Q1009 NOSIG=
202402020600 METAR WIHH 020600Z 27004KT 6000 SCT020 33/23 Q1010 NOSIG=
202402020530 METAR WIHH 020530Z 21007KT 6000 SCT020 33/23 Q1010 NOSIG=
202402020500 METAR WIHH 020500Z 24003KT 6000 FEW020 33/24 Q1011 NOSIG=
202402020430 METAR WIHH 020430Z 24004KT 6000 FEW020 33/24 Q1011 NOSIG=
202402020400 METAR WIHH 020400Z 27005KT 6000 FEW020 32/24 Q1012 NOSIG=
202402020330 METAR WIHH 020330Z 27006KT 6000 FEW020 32/24 Q1012 NOSIG=
202402020300 METAR WIHH 020300Z 22007KT 6000 FEW020 31/25 Q1012 NOSIG=
202402020230 METAR WIHH 020230Z 28005KT 6000 FEW020 29/24 Q1012 NOSIG=
202402020200 METAR WIHH 020200Z 24007KT 6000 FEW020 29/24 Q1012 NOSIG=
202402020130 METAR WIHH 020130Z 24006KT 6000 NSC 29/25 Q1013 NOSIG=
202402020100 METAR WIHH 020100Z 27006KT 6000 NSC 28/25 Q1013 NOSIG=
202402020030 METAR WIHH 020030Z 25003KT 6000 NSC 27/25 Q1012 NOSIG=
202402020000 METAR WIHH 020000Z 27003KT 6000 NSC 26/25 Q1012 NOSIG=
202402012330 METAR WIHH 012330Z 25004KT 5000 BR NSC 25/24 Q1012 NOSIG=
202402012300 METAR WIHH 012300Z 24004KT 4000 BR NSC 24/24 Q1012 NOSIG=
202402012230 METAR WIHH 012230Z 23003KT 6000 NSC 24/24 Q1012 NOSIG=
202402012200 METAR WIHH 012200Z 26003KT 6000 NSC 24/24 Q1011 NOSIG=
202402012130 METAR WIHH 012130Z 22004KT 7000 NSC 24/24 Q1011 NOSIG=
202402012100 METAR WIHH 012100Z 24003KT 7000 FEW020 25/24 Q1011 NOSIG=
202402012030 METAR WIHH NIL=
202402012000 METAR WIHH NIL=
202402011930 METAR WIHH NIL=
202402011900 METAR WIHH NIL=
202402011830 METAR WIHH NIL=
202402011800 METAR WIHH NIL=
202402011730 METAR WIHH NIL=
202402011700 METAR WIHH NIL=
202402011630 METAR WIHH 011630Z 22003KT 6000 FEW020 25/24 Q1013 NOSIG=
202402011600 METAR WIHH 011600Z 24003KT 6000 FEW020 25/24 Q1013 NOSIG=
202402011530 METAR WIHH 011530Z 27003KT 6000 FEW020 25/24 Q1014 NOSIG=
202402011500 METAR WIHH 011500Z 28003KT 6000 FEW020 25/24 Q1014 NOSIG=
202402011430 METAR WIHH 011430Z 00000KT 7000 FEW020 25/24 Q1014 NOSIG=
202402011400 METAR WIHH 011400Z 19003KT 7000 SCT018 25/24 Q1014 NOSIG=
202402011330 METAR WIHH 011330Z 00000KT 7000 SCT017 25/24 Q1013 NOSIG=
202402011300 METAR WIHH 011300Z 01002KT 5000 -RA SCT017 25/24 Q1013 NOSIG=
202402011230 METAR WIHH 011230Z 00000KT 5000 -RA SCT017 25/24 Q1013 NOSIG=
202402011200 METAR WIHH 011200Z 00000KT 5000 -RA SCT017 25/24 Q1013 NOSIG=
202402011130 METAR WIHH 011130Z 00000KT 5000 -TSRA SCT016 FEW017CB 25/24 Q1013 RMK CB TO NE=
202402011100 METAR WIHH 011100Z 23004KT 5000 -TSRA BKN016 FEW017CB 25/24 Q1012 TEMPO TL1120 5000 -RA RMK CB TO NE=
202402011030 METAR WIHH 011030Z 22005KT 4000 -TSRA BKN016 FEW017CB 26/25 Q1011 TEMPO TL1100 4000 -RA RMK CB TO N=
202402011000 METAR WIHH 011000Z 20005KT 2000 -TSRA BKN016 FEW017CB 26/25 Q1011 TEMPO FM1100 4000 -RA RMK CB TO NW=
202402010930 METAR WIHH 010930Z 20005KT 2000 TS BKN016 FEW017CB 27/25 Q1011 TEMPO FM0945 2000 TSRA RMK CB AND RA TO SE-SW=
202402010900 METAR WIHH 010900Z 27003KT 5000 TS BKN016 FEW017CB 27/25 Q1014 TEMPO FM0925 2000 TSRA RMK CB AND RA TO SE-SW=
202402010830 METAR WIHH 010830Z 19010KT 5000 TS BKN016 FEW017CB 28/25 Q1011 TEMPO TL0850 2000 TSRA RMK CB AND RA TO SE-SW=
202402010800 METAR WIHH 010800Z 30005KT 4000 TS BKN016 FEW017CB 29/25 Q1010 TEMPO TL0830 2000 TSRA RMK CB TO SE-SW=
202402010730 METAR WIHH 010730Z 31006KT 3000 -TSRA BKN016 FEW017CB 30/24 Q1010 TEMPO TL0745 2000 TSRA RMK CB TO SE-SW=
202402010700 METAR WIHH 010700Z 01008KT 2000 -RA BKN016 FEW017CB 31/24 Q1010 TEMPO TL0715 2000 RA RMK CB TO SE-SW=
202402010630 METAR WIHH 010630Z 34006KT 5000 HZ SCT018 32/25 Q1011 RMK RA TO NW AND SE=
202402010600 METAR WIHH 010600Z 33006KT 6000 SCT018 32/25 Q1011 NOSIG=
202402010530 METAR WIHH 010530Z 36005KT 6000 SCT020 32/25 Q1011 NOSIG=
202402010500 METAR WIHH 010500Z 36004KT 6000 SCT020 32/25 Q1012 NOSIG=
202402010430 METAR WIHH 010430Z 34008KT 6000 SCT020 32/24 Q1013 NOSIG=
202402010400 METAR WIHH 010400Z 00000KT 6000 SCT020 32/24 Q1013 NOSIG=
202402010330 METAR WIHH 010330Z 25003KT 6000 SCT020 32/24 Q1013 NOSIG=
202402010300 METAR WIHH 010300Z 25005KT 6000 SCT020 31/24 Q1014 NOSIG=
202402010230 METAR WIHH 010230Z 00000KT 6000 FEW020 30/24 Q1014 NOSIG=
202402010200 METAR WIHH 010200Z 00000KT 6000 FEW020 30/24 Q1014 NOSIG=
202402010130 METAR WIHH 010130Z 17005KT 6000 FEW020 29/24 Q1014 NOSIG=
202402010100 METAR WIHH 010100Z 19003KT 6000 FEW020 28/25 Q1013 NOSIG=
202402010030 METAR WIHH 010030Z 18003KT 4000 HZ FEW020 26/25 Q1013 NOSIG=
202402010000 METAR WIHH 010000Z 23003KT 4000 HZ FEW020 26/25 Q1013 NOSIG=

# No short TAF reports from WIHH in databse.

###################################
#  large TAF from WIHH
###################################
202402292300 TAF WIHH 292300Z 0100/0200 35005KT 7000 SCT020
                      TEMPO 0106/0110 27015KT 3000 -TSRA BKN015
                       FEW016CB
                      BECMG 0115/0117 4000 HZ=
202402291700 TAF WIHH 291700Z 2918/0118 35005KT 6000 SCT020
                      TEMPO 2921/0100 15006KT 3000 -RA FEW017CB
                       TEMPO 0106/0110 27015KT 3000 -TSRA BKN015
                       FEW016CB=
202402291100 TAF WIHH 291100Z 2912/0112 27005KT 7000 SCT018
                      TEMPO 2921/0100 35015KT 3000 -TSRA FEW017CB
                       BECMG 0102/0104 4000 HZ=
202402290500 TAF WIHH 290500Z 2906/0106 34006KT 4000 -RA BKN015
                      BECMG 2909/2911 HZ SCT018
                      TEMPO 2914/2917 24010KT 2000 -TSRA FEW016CB=
202402282300 TAF WIHH 282300Z 2900/0100 35010KT 3000 -TSRA BKN015 FEW016CB
                      BECMG 2903/2905 6000 NSW
                      TEMPO 2907/2910 2000 TSRA BKN015 FEW016CB
                       BECMG 2915/2917 00000KT 4000 HZ=
202402281700 TAF WIHH 281700Z 2818/2918 35005KT 7000 FEW020
                      TEMPO 2822/2901 3000 -TSRA FEW016CB SCT017
                       TEMPO 2908/2911 25015KT 3000 -TSRA BKN015
                       FEW016CB=
202402281100 TAF WIHH 281100Z 2812/2912 30005KT 7000 SCT020
                      TEMPO 2822/2901 3000 RA FEW017CB=
202402280800 TAF AMD WIHH 280800Z 2809/2906 25005KT 3000 -TSRA SCT016 FEW017CB
                       BECMG 2811/2813 5000 HZ SCT016
                      TEMPO 2822/2901 35012KT 3000 -TSRA FEW017CB=
202402280500 TAF WIHH 280500Z 2806/2906 25005KT 5000 HZ SCT016
                      TEMPO 2822/2901 35012KT 3000 -TSRA FEW017CB=
202402272300 TAF WIHH 272300Z 2800/2900 27008KT 5000 HZ SCT018
                      TEMPO 2800/2802 3000 -TSRA FEW017CB
                      BECMG 2803/2805 33010KT 6000
                      TEMPO 2808/2812 4000 -TSRA FEW016CB BKN018=
202402271700 TAF WIHH 271700Z 2718/2818 23003KT 5000 HZ SCT020
                      TEMPO 2719/2723 29010KT 3000 -TSRA FEW017CB
                       BKN018
                      BECMG 2802/2804 33008KT 7000=
202402271100 TAF WIHH 271100Z 2712/2812 22005KT 7000 SCT020
                      BECMG 2716/2718 VRB03KT 5000 HZ=
202402270500 TAF WIHH 270500Z 2706/2806 34010KT 7000 SCT018
                      TEMPO 2708/2712 28014KT 4000 -TSRA FEW016CB
                       BKN017
                      BECMG 2713/2715 18004KT 5000 HZ=
202402262300 TAF WIHH 262300Z 2700/2800 33008KT 5000 HZ FEW020
                      BECMG 2702/2704 7000 SCT018
                      TEMPO 2707/2711 3000 -TSRA FEW016CB BKN017
                       BECMG 2712/2714 18003KT=
202402261700 TAF WIHH 261700Z 2618/2718 20003KT 5000 HZ SCT020
                      BECMG 2702/2704 24008KT 7000=
202402261100 TAF WIHH 261100Z 2612/2712 17005KT 7000 SCT020
                      BECMG 2615/2617 5000 HZ FEW022=
202402260500 TAF WIHH 260500Z 2606/2706 34010KT 7000 SCT018
                      TEMPO 2607/2611 36015KT 3000 -TSRA FEW016CB
                       BECMG 2614/2616 18003KT 5000 HZ=
202402252300 TAF WIHH 252300Z 2600/2700 24005KT 6000 SCT018
                      TEMPO 2608/2612 35015KT 3000 -TSRA BKN015
                       FEW016CB
                      BECMG 2614/2616 4000 HZ=
202402251700 TAF WIHH 251700Z 2518/2618 26007KT 3000 -TSRA BKN015 FEW016CB
                      BECMG 2521/2523 5000 HZ SCT018
                      TEMPO 2606/2610 3000 -TSRA FEW016CB=
202402251100 TAF WIHH 251100Z 2512/2612 30007KT 5000 HZ SCT018
                      TEMPO 2512/2515 15015KT 3000 -TSRA FEW017CB=
202402250500 TAF WIHH 250500Z 2506/2606 24008KT 7000 SCT018
                      TEMPO 2506/2510 35015KT 3000 -TSRA BKN015
                       FEW016CB
                      BECMG 2512/2514 4000 HZ
                      TEMPO 2516/2519 3000 -RA FEW017CB=
202402242300 TAF WIHH 242300Z 2500/2600 33008KT 7000 SCT018
                      TEMPO 2508/2512 28014KT 3000 -TSRA FEW016CB
                       BKN017
                      BECMG 2514/2516 4000 HZ=
202402241700 TAF WIHH 241700Z 2418/2518 34004KT 6000 SCT020
                      TEMPO 2418/2421 24006KT 4000 -RA FEW017CB
                       BECMG 2502/2504 7000 NSW=
202402241100 TAF WIHH 241100Z 2412/2512 30006KT 6000 SCT017
                      BECMG 2414/2416 22003KT 5000 HZ
                      TEMPO 2418/2421 3000 -TSRA BKN016 FEW017CB=
202402240500 TAF WIHH 240500Z 2406/2506 33010KT 7000 SCT018
                      TEMPO 2409/2412 4000 -RA FEW016CB
                      BECMG 2415/2417 22004KT 5000 HZ FEW020=
202402232300 TAF WIHH 232300Z 2400/2500 30008KT 7000 SCT020
                      TEMPO 2409/2412 33014KT 4000 -RA FEW016CB
                       BECMG 2415/2417 5000 HZ=
202402231700 TAF WIHH 231700Z 2318/2418 16003KT 5000 HZ SCT020
                      BECMG 2402/2404 30008KT 7000=
202402231100 TAF WIHH 231100Z 2312/2412 32006KT 7000 SCT018
                      BECMG 2314/2316 11003KT 5000 HZ=
202402230500 TAF WIHH 230500Z 2306/2406 25010KT 7000 FEW020
                      TEMPO 2309/2312 32014KT 4000 -TSRA FEW017CB
                       SCT018
                      BECMG 2314/2316 VRB03KT 5000 HZ=
202402222300 TAF WIHH 222300Z 2300/2400 30006KT 7000 FEW020
                      TEMPO 2307/2311 24016KT 3000 -TSRA BKN015
                       FEW016CB
                      BECMG 2313/2315 5000 HZ=
202402221700 TAF WIHH 221700Z 2218/2318 00000KT 4000 HZ SCT018
                      BECMG 2301/2303 30010KT 8000 NSW
                      TEMPO 2309/2313 15015KT 3000 -TSRA BKN015
                       FEW016CB=
202402221100 TAF WIHH 221100Z 2212/2312 15006KT 6000 SCT018
                      TEMPO 2212/2215 30010KT 3000 -TSRA FEW017CB
                       BECMG 2216/2218 00000KT 4000 HZ=
202402220500 TAF WIHH 220500Z 2206/2306 24010KT 7000 SCT020
                      TEMPO 2210/2213 3000 -TSRA FEW017CB
                      BECMG 2214/2216 00000KT 4000 HZ=
202402212300 TAF WIHH 212300Z 2200/2300 24007KT 6000 SCT018
                      TEMPO 2208/2212 3000 -TSRA BKN015 FEW016CB
                       BECMG 2215/2217 00000KT 4000 HZ=
202402211700 TAF WIHH 211700Z 2118/2218 00000KT 5000 HZ SCT018
                      TEMPO 2118/2121 3000 -RA FEW016CB
                      BECMG 2202/2204 23010KT
                      TEMPO 2208/2212 3000 -TSRA BKN015 FEW016CB=
202402211100 TAF WIHH 211100Z 2112/2212 18007KT 5000 HZ SCT018
                      TEMPO 2112/2115 3000 -RA FEW016CB=
202402210500 TAF WIHH 210500Z 2106/2206 22006KT 5000 HZ SCT018
                      TEMPO 2109/2112 3000 -RA FEW016CB=
202402202300 TAF WIHH 202300Z 2100/2200 25008KT 5000 HZ SCT018
                      TEMPO 2102/2104 30012KT 4000 -RA
                      TEMPO 2107/2111 3000 -TSRA FEW017CB BKN018
                       BECMG 2113/2115 4000 HZ=
202402201700 TAF WIHH 201700Z 2018/2118 23003KT 4000 HZ FEW022
                      BECMG 2102/2104 28008KT 6000 SCT020
                      TEMPO 2107/2110 3000 -TSRA FEW017CB BKN018=
202402201100 TAF WIHH 201100Z 2012/2112 17006KT 6000 SCT020
                      BECMG 2015/2017 22003KT 4000 HZ=
202402200500 TAF WIHH 200500Z 2006/2106 01008KT 6000 SCT018
                      TEMPO 2008/2012 30014KT 4000 -TSRA FEW017CB
                       BECMG 2014/2016 21003KT=
202402192300 TAF WIHH 192300Z 2000/2100 34008KT 5000 HZ FEW022
                      BECMG 2002/2004 7000 SCT020
                      TEMPO 2008/2012 25012KT 3000 -TSRA FEW017CB
                       BECMG 2014/2016 00000KT 4000 HZ=
202402191700 TAF WIHH 191700Z 1918/2018 23003KT 5000 HZ FEW022
                      BECMG 2001/2003 34008KT 7000 SCT020=
202402191100 TAF WIHH 191100Z 1912/2012 01006KT 7000 SCT020
                      BECMG 1915/1917 16004KT 5000 HZ=
202402190500 TAF WIHH 190500Z 1906/2006 36010KT 7000 SCT018
                      TEMPO 1907/1911 3000 -TSRA FEW017CB
                      BECMG 1915/1917 16003KT 5000 HZ=
202402182300 TAF WIHH 182300Z 1900/2000 35005KT 7000 SCT020
                      TEMPO 1907/1911 25015KT 3000 -TSRA FEW017CB
                       BECMG 1915/1917 4000 HZ=
202402181700 TAF WIHH 181700Z 1818/1918 00000KT 4000 HZ FEW020
                      BECMG 1901/1903 35010KT 8000 NSW
                      TEMPO 1908/1911 15010KT 5000 -RA BKN015 FEW016CB=
202402181100 TAF WIHH 181100Z 1812/1912 33007KT 7000 SCT017
                      BECMG 1816/1818 00000KT 4000 HZ=
202402180730 TAF AMD WIHH 180730Z 1808/1906 35006KT 7000 SCT017
                      TEMPO 1811/1814 4000 -RA FEW016CB
                      BECMG 1815/1817 00000KT 4000 HZ=
202402180500 TAF WIHH 180500Z 1806/1906 23006KT 7000 SCT017
                      TEMPO 1806/1810 15012KT 3000 RA FEW016CB
                       BECMG 1814/1816 00000KT 4000 HZ=
202402172300 TAF WIHH 172300Z 1800/1900 34006KT 5000 HZ SCT017
                      TEMPO 1800/1802 -RA
                      BECMG 1805/1807 7000 NSW
                      TEMPO 1809/1812 25015KT 3000 -TSRA FEW016CB=
202402171700 TAF WIHH 171700Z 1718/1818 00000KT 5000 HZ SCT017
                      TEMPO 1718/1722 34015KT 3000 -TSRA BKN015
                       FEW016CB
                      BECMG 1804/1806 27005KT 7000 NSW=
202402171100 TAF WIHH 171100Z 1712/1812 21008KT 5000 -RA BKN015 FEW016CB
                      BECMG 1714/1716 HZ SCT017
                      TEMPO 1718/1721 3000 RA FEW016CB=
202402170500 TAF WIHH 170500Z 1706/1806 35005KT 5000 HZ SCT017
                      TEMPO 1706/1710 25015KT 3000 -TSRA BKN015
                       FEW016CB
                      TEMPO 1718/1721 15010KT 3000 RA FEW016CB=
202402162300 TAF WIHH 162300Z 1700/1800 23006KT 7000 SCT020
                      TEMPO 1700/1702 30010KT 4000 -RA FEW017CB
                       TEMPO 1708/1712 34014KT 3000 -TSRA FEW016CB
                       BKN018
                      BECMG 1713/1715 5000 HZ=
202402161700 TAF WIHH 161700Z 1618/1718 20004KT 5000 HZ SCT018
                      TEMPO 1620/1623 24010KT 3000 -TSRA FEW017CB
                       BECMG 1701/1704 30008KT=
202402161150 TAF AMD WIHH 161150Z 1612/1712 22006KT 6000 SCT018
                      BECMG 1616/1618 4000 HZ=
202402161100 TAF WIHH 161100Z 1612/1712 22006KT 6000 SCT018
                      TEMPO 1612/1615 3000 -RA FEW017CB
                      BECMG 1616/1618 4000 HZ=
202402160500 TAF WIHH 160500Z 1606/1706 33010KT 6000 SCT018
                      TEMPO 1607/1611 3000 -TSRA FEW017CB BKN018
                       BECMG 1612/1614 22005KT 5000 HZ=
202402152300 TAF WIHH 152300Z 1600/1700 08004KT 4000 HZ FEW022
                      BECMG 1602/1604 33010KT 7000 SCT020
                      TEMPO 1607/1611 3000 -TSRA FEW017CB BKN018
                       BECMG 1612/1614 25005KT 5000 HZ=
202402151700 TAF WIHH 151700Z 1518/1618 21003KT 4000 HZ FEW022
                      TEMPO 1520/1523 33012KT 3000 -TSRA FEW017CB
                       BKN018
                      BECMG 1602/1604 30008KT 6000=
202402151100 TAF WIHH 151100Z 1512/1612 27006KT 6000 SCT018
                      TEMPO 1518/1521 20010KT 3000 -RA FEW017CB
                       BECMG 1602/1604 34008KT=
202402150500 TAF WIHH 150500Z 1506/1606 33006KT 5000 HZ SCT015
                      TEMPO 1507/1510 16015KT 3000 -TSRA BKN015
                       FEW016CB
                      TEMPO 1518/1521 3000 -RA FEW017CB=
202402142300 TAF WIHH 142300Z 1500/1600 24006KT 7000 SCT018
                      TEMPO 1507/1510 15016KT 3000 -TSRA BKN015
                       FEW016CB
                      TEMPO 1517/1520 3000 -RA FEW017CB
                      BECMG 1521/1523 4000 HZ=
202402141700 TAF WIHH 141700Z 1418/1518 32006KT 6000 SCT018
                      TEMPO 1420/1500 3000 -RA BKN015 FEW016CB
                       BECMG 1502/1504 4000 HZ=
202402141100 TAF WIHH 141100Z 1412/1512 34005KT 8000 FEW020
                      TEMPO 1417/1420 3000 TSRA BKN015 FEW016CB
                       BECMG 1421/1423 4000 HZ=
202402140830 TAF AMD WIHH 140830Z 1409/1506 21005KT 7000 SCT017
                      TEMPO 1416/1420 32015KT 3000 TSRA BKN015
                       FEW016CB
                      BECMG 1421/1423 4000 HZ=
202402140500 TAF WIHH 140500Z 1406/1506 21006KT 5000 HZ SCT017
                      TEMPO 1407/1411 32015KT 3000 RA FEW016CB
                       TEMPO 1417/1420 32012KT 3000 TSRA BKN015
                       FEW016CB=
202402132300 TAF WIHH 132300Z 1400/1500 25008KT 3000 -RA BKN016 FEW017CB
                      BECMG 1403/1405 33010KT 7000 SCT020
                      TEMPO 1409/1412 32015KT 3000 -TSRA FEW016CB
                       BECMG 1413/1415 20004KT 5000 HZ=
202402131700 TAF WIHH 131700Z 1318/1418 27005KT 7000 SCT020
                      TEMPO 1318/1321 32010KT 4000 -RA FEW016CB
                       BECMG 1322/1400 5000 HZ FEW020=
202402131100 TAF WIHH 131100Z 1312/1412 29006KT 8000 FEW022
                      BECMG 1316/1318 VRB03KT 5000 HZ=
202402130500 TAF WIHH 130500Z 1306/1406 33010KT 6000 SCT018
                      TEMPO 1309/1312 27015KT 4000 -RA FEW017CB
                       TEMPO 1318/1321 20012KT 3000 -TSRA FEW016CB
                       BKN017=
202402122300 TAF WIHH 122300Z 1300/1400 33006KT 7000 SCT020
                      TEMPO 1307/1310 25016KT 3000 -TSRA FEW017CB
                       TEMPO 1317/1320 3000 -TSRA BKN015 FEW016CB
                       BECMG 1321/1323 4000 HZ=
202402121700 TAF WIHH 121700Z 1218/1318 00000KT 7000 SCT020
                      TEMPO 1218/1221 33010KT 3000 -TSRA FEW017CB
                       BECMG 1222/1300 4000 HZ=
202402121100 TAF WIHH 121100Z 1212/1312 35007KT 8000 SCT020
                      TEMPO 1217/1220 3000 RA FEW017CB
                      BECMG 1222/1300 00000KT 4000 HZ=
202402120700 TAF AMD WIHH 120700Z 1208/1306 32010KT 7000 SCT018
                      TEMPO 1217/1220 3000 -TSRA BKN015 FEW017CB
                       BECMG 1221/1223 00000KT 4000 HZ=
202402120500 TAF WIHH 120500Z 1206/1306 24010KT 6000 SCT018
                      TEMPO 1207/1211 2000 TSRA BKN015 FEW016CB
                       TEMPO 1217/1220 32008KT 3000 RA FEW017CB
                       BECMG 1221/1223 00000KT 4000 HZ=
202402112300 TAF WIHH 112300Z 1200/1300 28010KT 6000 SCT018
                      TEMPO 1200/1202 4000 -RA
                      TEMPO 1209/1212 33015KT 3000 TSRA FEW016CB
                       BKN017
                      BECMG 1213/1215 24003KT=
202402111700 TAF WIHH 111700Z 1118/1218 VRB03KT 4000 HZ FEW022
                      BECMG 1201/1203 32010KT 6000=
202402111350 TAF AMD WIHH 111350Z 1114/1212 21006KT 4000 -TSRA FEW017CB SCT020
                       BECMG 1117/1119 VRB03KT 4000 HZ=
202402111100 TAF WIHH 111100Z 1112/1212 25006KT 6000 SCT020
                      BECMG 1115/1117 15003KT 4000 HZ=
202402110500 TAF WIHH 110500Z 1106/1206 33010KT 7000 SCT018
                      TEMPO 1107/1111 27015KT 3000 -TSRA FEW017CB
                       BECMG 1114/1116 18003KT 5000 HZ=
202402102300 TAF WIHH 102300Z 1100/1200 21005KT 7000 SCT020
                      TEMPO 1107/1111 32015KT 3000 -TSRA FEW017CB
                       BECMG 1115/1117 4000 HZ=
202402101700 TAF WIHH 101700Z 1018/1118 18003KT 5000 HZ SCT018
                      BECMG 1101/1103 7000 NSW
                      TEMPO 1107/1111 28015KT 3000 TSRA BKN015
                       FEW016CB=
202402101100 TAF WIHH 101100Z 1012/1112 25006KT 5000 HZ SCT018
                      TEMPO 1017/1020 3000 RA FEW016CB=
202402100500 TAF WIHH 100500Z 1006/1106 26006KT 5000 HZ SCT018
                      TEMPO 1006/1010 34016KT 2000 TSRA BKN014
                       FEW016CB
                      TEMPO 1016/1020 33015KT 3000 RA FEW016CB=
202402092300 TAF AMD WIHH 100130Z 1002/1100 24005KT 4000 HZ SCT018
                      BECMG 1003/1005 6000 NSW
                      TEMPO 1007/1011 32015KT 2000 TSRA BKN014
                       FEW016CB
                      TEMPO 1017/1020 3000 -RA FEW016CB=
202402091700 TAF WIHH 091700Z 0918/1018 17005KT 2000 TSRA BKN014 FEW016CB
                      BECMG 0921/0923 27015KT 4000 HZ SCT018
                      TEMPO 1000/1003 3000 -RA BKN015=
202402091100 TAF WIHH 091100Z 0912/1012 34006KT 6000 SCT018
                      TEMPO 0917/0920 3000 -RA FEW016CB
                      BECMG 0922/1000 00000KT 4000 HZ=
202402090500 TAF WIHH 090500Z 0906/1006 16005KT 5000 HZ SCT018
                      TEMPO 0906/0910 24010G25KT 2000 TSRA BKN014
                       FEW016CB
                      TEMPO 0918/0921 3000 -RA FEW016CB=
202402082300 TAF WIHH 082300Z 0900/1000 02008KT 7000 FEW022
                      TEMPO 0908/0912 34015KT 4000 -TSRA FEW017CB
                       SCT018
                      BECMG 0914/0916 22003KT=
202402081700 TAF WIHH 081700Z 0818/0918 14003KT 5000 HZ FEW022
                      BECMG 0901/0903 02008KT 7000=
202402081100 TAF WIHH 081100Z 0812/0912 26005KT 7000 SCT018
                      BECMG 0815/0817 VRB03KT 5000 HZ FEW020=
202402080500 TAF WIHH 080500Z 0806/0906 28010KT 7000 SCT020
                      TEMPO 0808/0811 33015KT 4000 -RA FEW017CB
                       BECMG 0812/0814 22005KT=
202402072300 TAF WIHH 072300Z 0800/0900 16005KT 4000 HZ FEW022
                      BECMG 0802/0804 30010KT 6000 SCT018
                      TEMPO 0807/0811 33015KT 4000 -TSRA FEW017CB
                       BECMG 0813/0815 22004KT=
202402071700 TAF WIHH 071700Z 0718/0818 VRB03KT 5000 HZ FEW022
                      TEMPO 0722/0802 22010KT 3000 RA FEW016CB
                       BKN018=
202402071100 TAF WIHH 071100Z 0712/0812 20006KT 6000 SCT020
                      BECMG 0716/0718 25003KT 4000 HZ=
202402070500 TAF WIHH 070500Z 0706/0806 30010KT 7000 SCT018
                      TEMPO 0707/0711 27015KT 3000 -RA FEW017CB
                       BECMG 0715/0717 24005KT 5000 HZ=
202402062300 TAF WIHH 062300Z 0700/0800 22006KT 7000 SCT020
                      TEMPO 0706/0710 28010G25KT 2000 TSRA BKN015
                       FEW016CB
                      BECMG 0714/0716 4000 HZ=
202402061700 TAF WIHH 061700Z 0618/0718 00000KT 4000 HZ SCT020
                      BECMG 0701/0703 24008KT 7000 NSW
                      TEMPO 0706/0710 30010G25KT 2000 TSRA BKN015
                       FEW016CB=
202402061100 TAF WIHH 061100Z 0612/0712 24008KT 6000 SCT018
                      BECMG 0616/0618 00000KT 3000 BR=
202402060500 TAF WIHH 060500Z 0606/0706 21006KT 6000 SCT018
                      TEMPO 0606/0610 27010G25KT 2000 TSRA BKN014
                       FEW017CB
                      BECMG 0614/0616 4000 BR=
202402052300 TAF WIHH 052300Z 0600/0700 24006KT 5000 HZ SCT018
                      TEMPO 0600/0602 3000 -RA
                      TEMPO 0607/0611 32017KT 2000 TSRA BKN015
                       FEW016CB=
202402051700 TAF WIHH 051700Z 0518/0618 00000KT 3000 BR SCT020
                      BECMG 0600/0602 24008KT 6000 NSW
                      TEMPO 0607/0610 32018KT 2000 TSRA BKN015
                       FEW016CB=
202402051100 TAF WIHH 051100Z 0512/0612 24006KT 6000 SCT017
                      BECMG 0516/0518 4000 HZ=
202402050500 TAF WIHH 050500Z 0506/0606 24007KT 7000 SCT020
                      TEMPO 0507/0511 32018KT 3000 TSRA BKN016
                       FEW017CB
                      BECMG 0513/0515 4000 HZ=
202402042330 TAF AMD WIHH 042330Z 0500/0600 27010KT 7000 FEW022
                      TEMPO 0500/0502 4000 RA SCT018
                      TEMPO 0506/0510 33015KT 3000 -TSRA FEW016CB
                       BKN018
                      BECMG 0512/0514 23005KT 5000 HZ=
202402042300 TAF WIHH 042300Z 0500/0600 27010KT 7000 FEW022
                      TEMPO 0506/0510 33015KT 3000 -TSRA FEW016CB
                       BKN018
                      BECMG 0512/0514 23005KT 5000 HZ=
202402041700 TAF WIHH 041700Z 0418/0518 21003KT 5000 HZ FEW022
                      BECMG 0502/0504 33008KT 7000 SCT020=
202402041100 TAF WIHH 041100Z 0412/0512 26006KT 7000 FEW020
                      BECMG 0416/0418 VRB03KT 5000 HZ=
202402040500 TAF WIHH 040500Z 0406/0506 26015KT 7000 SCT018
                      TEMPO 0407/0411 3000 -TSRA FEW016CB BKN017
                       BECMG 0416/0418 VRB03KT 5000 HZ=
202402032300 TAF WIHH 032300Z 0400/0500 27008KT 7000 SCT020
                      TEMPO 0406/0410 34015KT 3000 TSRA FEW016CB
                       BKN017
                      BECMG 0415/0417 00000KT 4000 HZ=
202402031700 TAF WIHH 031700Z 0318/0418 00000KT 5000 HZ FEW020
                      BECMG 0402/0404 27010KT 7000 NSW
                      TEMPO 0407/0410 34012KT 4000 RA FEW016CB
                       BKN017=
202402031100 TAF WIHH 031100Z 0312/0412 25008KT 6000 SCT018
                      TEMPO 0316/0319 3000 RA FEW016CB
                      BECMG 0320/0322 00000KT 4000 HZ=
202402030500 TAF WIHH 030500Z 0306/0406 27010KT 5000 HZ SCT018
                      TEMPO 0307/0310 34010G25KT 2000 -TSRA FEW016CB
                       BKN017
                      TEMPO 0313/0316 3000 RA FEW016CB=
202402022300 TAF WIHH 022300Z 0300/0400 25010KT 4000 HZ FEW020
                      BECMG 0302/0304 6000 SCT020
                      TEMPO 0307/0311 33012G20KT 3000 -TSRA BKN015
                       FEW017CB
                      BECMG 0312/0314 27005KT=
202402021700 TAF WIHH 021700Z 0218/0318 24003KT 4000 HZ SCT020
                      BECMG 0301/0303 32008KT 6000=
202402021100 TAF WIHH 021100Z 0212/0312 27006KT 3000 -TSRA BKN012 FEW017CB
                      BECMG 0215/0217 VRB03KT 5000 HZ SCT020=
202402020525 TAF AMD WIHH 020525Z 0206/0306 24008KT 7000 SCT020
                      TEMPO 0209/0213 27012KT 3000 -TSRA FEW017CB
                       BKN018
                      BECMG 0215/0217 5000 HZ=
202402020500 TAF WIHH 020500Z 0206/0306 24008KT 7000 SCT020
                      TEMPO 0210/0214 27012KT 3000 -TSRA FEW017CB
                       BKN018
                      BECMG 0215/0217 5000 HZ=
202402012300 TAF WIHH 012300Z 0200/0300 24006KT 6000 FEW020
                      TEMPO 0206/0210 30014G18KT 2000 TSRA BKN016
                       FEW017CB
                      BECMG 0213/0215 7000 NSW=
202402011700 TAF WIHH 011700Z 0118/0218 27005KT 5000 HZ FEW020
                      BECMG 0202/0204 6000 SCT020
                      TEMPO 0206/0209 33012KT 3000 -TSRA FEW017CB
                       BKN018=
202402011100 TAF WIHH 011100Z 0112/0212 24006KT 4000 -RA SCT018
                      BECMG 0113/0115 5000 HZ
                      TEMPO 0119/0122 3000 -RA BKN018=
202402010500 TAF WIHH 010500Z 0106/0206 27006KT 6000 SCT020
                      TEMPO 0107/0110 24012G18KT 2000 TSRA FEW016CB
                       BKN018
                      BECMG 0113/0115 5000 HZ=
