##########################################################
# Query made at 05/05/2026 03:33:13 UTC
# Time interval: from 11/01/2023 00:00  to 11/30/2023 23:59  UTC
##########################################################

##########################################################
# WIHH, Jakarta Halim Perdanakusuma (Indonesia)
# WMO index: 96747. WIGOS ID: Unknown
# Latitude 06-15S. Longitude 106-54E. Altitude 30 m.
##########################################################

###################################
#  METAR/SPECI from WIHH
###################################
202311302330 METAR WIHH 302330Z 00000KT 4000 BR SCT020 26/25 Q1009 NOSIG=
202311302300 METAR WIHH 302300Z 00000KT 4000 BR SCT020 25/25 Q1009 NOSIG=
202311302230 METAR WIHH 302230Z 33003KT 5000 -RA BKN018 25/24 Q1009 NOSIG=
202311302200 METAR WIHH 302200Z 20003KT 5000 -RA BKN018 25/24 Q1009 TEMPO TL2230 4000 -RA=
202311302130 METAR WIHH 302130Z 17003KT 5000 -RA BKN018 25/24 Q1009 TEMPO TL2230 4000 -RA=
202311302100 METAR WIHH 302100Z 15004KT 5000 -RA BKN018 26/24 Q1009 TEMPO TL2200 4000 -RA=
202311302030 METAR WIHH NIL=
202311302000 METAR WIHH NIL=
202311301930 METAR WIHH NIL=
202311301900 METAR WIHH NIL=
202311301830 METAR WIHH NIL=
202311301800 METAR WIHH NIL=
202311301730 METAR WIHH NIL=
202311301700 METAR WIHH NIL=
202311301630 METAR WIHH NIL=
202311301600 METAR WIHH NIL=
202311301530 METAR WIHH 301530Z 00000KT 7000 SCT018 26/24 Q1011 RMK RA TO SE=
202311301500 METAR WIHH 301500Z 19005KT 7000 SCT020 26/24 Q1011 RMK RA TO SE=
202311301430 METAR WIHH 301430Z 19006KT 7000 SCT018 26/24 Q1011 RMK RA TO SE=
202311301400 METAR WIHH 301400Z 21006KT 7000 SCT018 26/24 Q1011 RMK RA TO SE=
202311301330 METAR WIHH 301330Z 19010KT 7000 SCT018 26/24 Q1011 RMK RA TO SE=
202311301300 METAR WIHH 301300Z 17010KT 6000 SCT018 26/24 Q1010 RMK RA TO SE=
202311301230 METAR WIHH 301230Z 14012KT 6000 TS FEW017CB SCT018 27/23 Q1010 RMK CB AND RA TO SE=
202311301200 METAR WIHH 301200Z 22015KT 6000 TS FEW017CB SCT018 27/23 Q1009 TEMPO FM1230 14012G20KT 2000 MOD TSRA BKN017 RMK CB AND RA TO SE-W=
202311301130 METAR WIHH 301130Z 19015KT 6000 FEW018CB SCT019 27/23 Q1008 TEMPO FM1200 14012G20KT 2000 MOD TSRA BKN017 RMK CB AND RA TO SE=
202311301100 METAR WIHH 301100Z 03010KT 6000 FEW018CB SCT020 31/25 Q1007 TEMPO FM1100 24012KT 2000 MOD TSRA BKN017 RMK CB AND RA TO S=
202311301030 METAR WIHH 301030Z 03010KT 6000 FEW018CB SCT020 31/25 Q1007 TEMPO FM1100 24012KT 2000 MOD TSRA BKN017 RMK CB AND RA TO S=
202311301000 METAR WIHH 301000Z 03005KT 6000 FEW018CB SCT020 32/25 Q1006 RMK CB AND RA TO S=
202311300930 METAR WIHH 300930Z 33007KT 5000 HZ SCT020 33/24 Q1006 RMK RA TO SE=
202311300900 METAR WIHH 300900Z 35005KT 5000 HZ SCT018 33/24 Q1005 NOSIG=
202311300830 METAR WIHH 300830Z 33004KT 6000 SCT020 33/23 Q1005 NOSIG=
202311300800 METAR WIHH 300800Z 30003KT 6000 SCT020 34/23 Q1006 NOSIG=
202311300730 METAR WIHH 300730Z 14003KT 6000 SCT020 32/25 Q1006 NOSIG=
202311300700 METAR WIHH 300700Z 19003KT 6000 FEW020 32/25 Q1006 NOSIG=
202311300630 METAR WIHH 300630Z 20003KT 5000 HZ SCT018 31/25 Q1007 NOSIG=
202311300600 METAR WIHH 300600Z 24003KT 5000 HZ SCT018 31/25 Q1007 NOSIG=
202311300530 METAR WIHH 300530Z 23003KT 5000 HZ SCT018 30/25 Q1009 NOSIG=
202311300500 METAR WIHH 300500Z 22003KT 5000 HZ SCT018 30/25 Q1009 NOSIG=
202311300430 METAR WIHH 300430Z 00000KT 5000 -RA SCT018 30/25 Q1009 NOSIG=
202311300400 METAR WIHH 300400Z 00000KT 5000 -RA SCT018 29/25 Q1010 NOSIG=
202311300330 METAR WIHH 300330Z 30003KT 5000 HZ SCT018 29/25 Q1010 TEMPO FM0340 TL0420 4000 -RA BKN018 RMK RA TO NE=
202311300300 METAR WIHH 300300Z 23003KT 5000 HZ SCT018 28/25 Q1010 RMK RA TO NW=
202311300230 METAR WIHH 300230Z 28003KT 5000 -RA SCT018 27/25 Q1010 NOSIG=
202311300200 METAR WIHH 300200Z 26004KT 5000 -RA SCT018 27/25 Q1011 NOSIG=
202311300130 METAR WIHH 300130Z 29004KT 5000 HZ SCT018 27/25 Q1011 RMK RA TO NW=
202311300100 METAR WIHH 300100Z 29004KT 5000 HZ SCT018 26/25 Q1010 TEMPO FM0105 -RA RMK RA TO NW=
202311300030 METAR WIHH 300030Z 24004KT 5000 -RA SCT018 26/25 Q1010 TEMPO TL0110 HZ=
202311300000 METAR WIHH 300000Z 22005KT 6000 SCT018 26/25 Q1009 RMK RA TO NW=
202311292330 METAR WIHH 292330Z 25005KT 6000 SCT018 25/24 Q1009 RMK RA TO NW=
202311292300 METAR WIHH 292300Z 23006KT 6000 FEW017CB SCT018 25/24 Q1009 RMK CB AND RA TO N=
202311292230 METAR WIHH 292230Z 23005KT 6000 FEW017CB SCT018 25/24 Q1008 RMK CB AND RA TO N=
202311292200 METAR WIHH 292200Z 25005KT 5000 HZ FEW017CB SCT018 25/24 Q1008 RMK CB AND RA TO SW=
202311292130 METAR WIHH 292130Z 24005KT 5000 -TSRA FEW017CB BKN018 25/24 Q1008 RMK CB TO W=
202311292100 METAR WIHH 292100Z 24006KT 5000 HZ FEW017CB BKN018 26/25 Q1008 RMK CB AND RA TO SW=
202311292030 METAR WIHH NIL=
202311292000 METAR WIHH NIL=
202311291930 METAR WIHH NIL=
202311291900 METAR WIHH NIL=
202311291830 METAR WIHH NIL=
202311291800 METAR WIHH NIL=
202311291730 METAR WIHH NIL=
202311291700 METAR WIHH 291700Z 22005KT 5000 HZ SCT018 25/25 Q1010 RMK RA TO W=
202311291630 METAR WIHH 291630Z 24006KT 5000 HZ SCT018 25/25 Q1010 RMK RA TO W=
202311291600 METAR WIHH 291600Z 24005KT 5000 TS FEW017CB SCT017 25/25 Q1010 RMK CB AND RA TO W=
202311291530 METAR WIHH 291530Z 24007KT 5000 -TSRA FEW017CB SCT017 25/25 Q1010 RMK CB TO W=
202311291500 METAR WIHH 291500Z 23006KT 5000 TS FEW017CB BKN017 26/24 Q1010 RMK CB AND RA TO N AND W=
202311291430 METAR WIHH 291430Z 22010KT 6000 TS FEW017CB SCT017 28/26 Q1010 RMK CB AND RA TO SW=
202311291400 METAR WIHH 291400Z 07006KT 6000 FEW017CB SCT018 30/26 Q1009 RMK CB AND RA TO NE AND W=
202311291330 METAR WIHH 291330Z 03006KT 6000 FEW017CB SCT018 30/25 Q1009 RMK CB AND RA TO SW AND W=
202311291300 METAR WIHH 291300Z 04007KT 6000 FEW017CB SCT018 30/26 Q1008 RMK CB AND RA TO SW=
202311291230 METAR WIHH 291230Z 03008KT 6000 FEW017CB SCT018 30/25 Q1008 RMK CB AND RA TO SW=
202311291200 METAR WIHH 291200Z 04007KT 7000 FEW017CB SCT018 30/25 Q1008 RMK CB AND RA TO SW=
202311291130 METAR WIHH 291130Z 03008KT 7000 FEW017CB SCT018 30/25 Q1007 RMK CB AND RA TO SW=
202311291100 METAR WIHH 291100Z 02008KT 7000 FEW017CB SCT018 31/24 Q1007 RMK CB AND RA TO SW=
202311291030 METAR WIHH 291030Z 03010KT 7000 FEW017CB SCT018 31/24 Q1006 RMK CB AND RA TO SW=
202311291000 METAR WIHH 291000Z 03010KT 7000 FEW017CB SCT018 32/24 Q1006 RMK CB AND RA TO SW=
202311290930 METAR WIHH 290930Z 03012KT 8000 SCT020 33/24 Q1005 RMK RA TO SW=
202311290900 METAR WIHH 290900Z 05008KT 8000 FEW020 34/23 Q1005 NOSIG=
202311290830 METAR WIHH 290830Z 04009KT 8000 FEW020 34/22 Q1005 NOSIG=
202311290800 METAR WIHH 290800Z 07009KT 8000 SCT020 34/23 Q1005 NOSIG=
202311290730 METAR WIHH 290730Z 03009KT 8000 SCT020 34/23 Q1005 NOSIG=
202311290700 METAR WIHH 290700Z 05009KT 8000 SCT020 34/23 Q1006 NOSIG=
202311290630 METAR WIHH 290630Z 08011KT 7000 SCT018 34/23 Q1006 NOSIG=
202311290600 METAR WIHH 290600Z 10012KT 7000 SCT018 33/22 Q1007 NOSIG=
202311290530 METAR WIHH 290530Z 06013KT 7000 SCT018 33/24 Q1007 NOSIG=
202311290500 METAR WIHH 290500Z 05011KT 6000 SCT018 33/23 Q1008 NOSIG=
202311290430 METAR WIHH 290430Z 10005KT 6000 SCT018 33/23 Q1008 NOSIG=
202311290400 METAR WIHH 290400Z 10008KT 5000 HZ SCT018 32/24 Q1008 NOSIG=
202311290330 METAR WIHH 290330Z 14010KT 5000 HZ SCT018 33/23 Q1008 NOSIG=
202311290300 METAR WIHH 290300Z 18008KT 6000 SCT018 32/23 Q1009 NOSIG=
202311290230 METAR WIHH 290230Z 14004KT 6000 SCT018 31/23 Q1009 NOSIG=
202311290200 METAR WIHH 290200Z 18004KT 6000 SCT018 31/24 Q1010 NOSIG=
202311290130 METAR WIHH 290130Z 21004KT 5000 HZ FEW020 30/24 Q1010 NOSIG=
202311290100 METAR WIHH 290100Z 25004KT 5000 HZ FEW020 29/25 Q1010 NOSIG=
202311290030 METAR WIHH 290030Z 31004KT 5000 HZ FEW020 28/24 Q1010 NOSIG=
202311290000 METAR WIHH 290000Z 26003KT 5000 HZ FEW020 27/24 Q1009 NOSIG=
202311282330 METAR WIHH 282330Z 25003KT 5000 HZ SCT020 26/24 Q1009 NOSIG=
202311282300 METAR WIHH 282300Z 25003KT 5000 HZ SCT020 26/24 Q1008 NOSIG=
202311282230 METAR WIHH 282230Z 00000KT 5000 HZ SCT020 25/24 Q1008 NOSIG=
202311282200 METAR WIHH 282200Z 00000KT 5000 HZ FEW020 25/24 Q1007 NOSIG=
202311282130 METAR WIHH 282130Z 18003KT 4000 HZ SCT020 25/24 Q1008 NOSIG=
202311282100 METAR WIHH NIL=
202311282030 METAR WIHH NIL=
202311282000 METAR WIHH NIL=
202311281930 METAR WIHH NIL=
202311281900 METAR WIHH NIL=
202311281830 METAR WIHH NIL=
202311281800 METAR WIHH NIL=
202311281730 METAR WIHH NIL=
202311281700 METAR WIHH 281700Z 21003KT 4000 HZ SCT020 26/25 Q1008 RMK RA TO SW=
202311281630 METAR WIHH 281630Z 21003KT 4000 HZ SCT018 27/25 Q1008 RMK RA TO W=
202311281600 METAR WIHH 281600Z 19003KT 4000 -RA SCT018 27/25 Q1008 NOSIG=
202311281530 METAR WIHH 281530Z 04003KT 4000 -RA SCT018 27/25 Q1008 NOSIG=
202311281500 METAR WIHH 281500Z 11003KT 4000 HZ SCT018 27/24 Q1009 RMK RA TO E=
202311281430 METAR WIHH 281430Z 15003KT 5000 HZ SCT020 27/24 Q1009 RMK RA TO E=
202311281400 METAR WIHH 281400Z 15003KT 5000 HZ SCT020 27/24 Q1009 RMK RA TO E=
202311281330 METAR WIHH 281330Z 14003KT 4000 HZ SCT020 27/25 Q1008 NOSIG=
202311281300 METAR WIHH 281300Z 12005KT 4000 -RA SCT018 28/24 Q1008 NOSIG=
202311281230 METAR WIHH 281230Z 12008KT 5000 HZ SCT020 28/24 Q1008 RMK RA TO E=
202311281200 METAR WIHH 281200Z 13008KT 5000 HZ SCT020 29/24 Q1007 NOSIG=
202311281130 METAR WIHH 281130Z 06008KT 4000 HZ SCT020 29/24 Q1007 RMK RA TO E AND SW=
202311281100 METAR WIHH 281100Z 06008KT 4000 HZ FEW018CB SCT020 30/24 Q1007 RMK CB AND RA TO SW=
202311281030 METAR WIHH 281030Z 06010KT 4000 HZ FEW018CB SCT020 30/23 Q1007 RMK CB AND RA TO SW=
202311281000 METAR WIHH 281000Z 06010KT 5000 HZ FEW018CB SCT020 31/23 Q1006 RMK CB AND RA TO SW=
202311280930 METAR WIHH 280930Z 04011KT 6000 SCT020 32/23 Q1006 RMK RA TO SW=
202311280900 METAR WIHH 280900Z 04011KT 6000 SCT020 32/24 Q1005 NOSIG=
202311280830 METAR WIHH 280830Z 04010KT 6000 SCT020 32/24 Q1005 NOSIG=
202311280800 METAR WIHH 280800Z 04010KT 6000 SCT020 33/24 Q1006 NOSIG=
202311280730 METAR WIHH 280730Z 01010KT 6000 SCT020 33/23 Q1006 NOSIG=
202311280700 METAR WIHH 280700Z 03010KT 6000 SCT020 33/23 Q1006 NOSIG=
202311280630 METAR WIHH 280630Z 03010KT 6000 SCT020 33/24 Q1006 NOSIG=
202311280600 METAR WIHH 280600Z 33008KT 6000 SCT020 33/23 Q1007 NOSIG=
202311280530 METAR WIHH 280530Z 02008KT 5000 HZ SCT020 32/23 Q1008 NOSIG=
202311280500 METAR WIHH 280500Z 02008KT 5000 HZ SCT020 33/23 Q1008 NOSIG=
202311280430 METAR WIHH 280430Z 04006KT 5000 HZ SCT020 33/23 Q1008 NOSIG=
202311280400 METAR WIHH 280400Z 03006KT 5000 HZ FEW020 32/23 Q1009 NOSIG=
202311280330 METAR WIHH 280330Z 11005KT 5000 HZ FEW020 32/23 Q1009 NOSIG=
202311280300 METAR WIHH 280300Z 28002KT 5000 HZ FEW020 32/24 Q1009 NOSIG=
202311280230 METAR WIHH 280230Z 12003KT 6000 FEW020 31/25 Q1010 NOSIG=
202311280200 METAR WIHH 280200Z 00000KT 6000 FEW020 30/23 Q1010 NOSIG=
202311280130 METAR WIHH 280130Z 13003KT 6000 FEW020 30/23 Q1010 NOSIG=
202311280100 METAR WIHH 280100Z 19003KT 6000 FEW020 29/23 Q1010 NOSIG=
202311280030 METAR WIHH NIL=
202311280000 METAR WIHH 280000Z 19002KT 6000 FEW020 27/23 Q1009 NOSIG=
202311272330 METAR WIHH 272330Z 16002KT 6000 FEW020 26/23 Q1009 NOSIG=
202311272300 METAR WIHH 272300Z 00000KT 6000 SCT020 25/23 Q1009 NOSIG=
202311272230 METAR WIHH 272230Z 00000KT 6000 SCT020 26/24 Q1009 NOSIG=
202311272200 METAR WIHH 272200Z 25002KT 6000 SCT020 25/23 Q1008 NOSIG=
202311272130 METAR WIHH 272130Z 25003KT 6000 SCT020 25/23 Q1008 NOSIG=
202311272100 METAR WIHH 272100Z 23003KT 6000 SCT020 25/23 Q1008 NOSIG=
202311272030 METAR WIHH NIL=
202311272000 METAR WIHH NIL=
202311271930 METAR WIHH NIL=
202311271900 METAR WIHH NIL=
202311271830 METAR WIHH NIL=
202311271800 METAR WIHH NIL=
202311271730 METAR WIHH NIL=
202311271700 METAR WIHH NIL=
202311271630 METAR WIHH NIL=
202311271600 METAR WIHH NIL=
202311271530 METAR WIHH 271530Z 00000KT 5000 HZ FEW020 26/23 Q1010 NOSIG=
202311271500 METAR WIHH 271500Z 23002KT 6000 FEW020 26/23 Q1010 NOSIG=
202311271430 METAR WIHH 271430Z 22004KT 6000 FEW020 26/23 Q1010 NOSIG=
202311271400 METAR WIHH 271400Z 23004KT 6000 FEW020 26/23 Q1010 NOSIG=
202311271330 METAR WIHH 271330Z 22004KT 6000 SCT020 27/24 Q1010 NOSIG=
202311271300 METAR WIHH 271300Z 24003KT 6000 SCT020 27/24 Q1010 NOSIG=
202311271230 METAR WIHH 271230Z 23006KT 6000 SCT020 27/24 Q1009 NOSIG=
202311271200 METAR WIHH 271200Z 25005KT 5000 HZ SCT018 27/24 Q1009 NOSIG=
202311271130 METAR WIHH 271130Z 27003KT 5000 HZ SCT018 27/24 Q1008 NOSIG=
202311271100 METAR WIHH 271100Z 27006KT 4000 HZ SCT020 27/24 Q1008 RMK RA TO NE=
202311271030 METAR WIHH 271030Z 23008KT 4000 HZ SCT020 27/24 Q1007 RMK RA TO NW=
202311271000 METAR WIHH 271000Z 27006KT 6000 SCT020 28/24 Q1007 RMK RA TO NW=
202311270930 METAR WIHH 270930Z 22008KT 6000 SCT020 28/24 Q1007 NOSIG=
202311270900 METAR WIHH 270900Z 00000KT 6000 SCT020 29/24 Q1006 NOSIG=
202311270830 METAR WIHH 270830Z 27003KT 6000 SCT020 29/24 Q1007 NOSIG=
202311270800 METAR WIHH 270800Z 06003KT 6000 SCT018 29/24 Q1007 NOSIG=
202311270730 METAR WIHH 270730Z 03006KT 6000 SCT018 29/24 Q1007 NOSIG=
202311270700 METAR WIHH 270700Z 06006KT 6000 SCT018 29/23 Q1007 NOSIG=
202311270630 METAR WIHH 270630Z 36012KT 5000 HZ SCT018 29/23 Q1008 NOSIG=
202311270600 METAR WIHH 270600Z 04012KT 5000 HZ SCT018 29/24 Q1008 RMK RA TO SW=
202311270530 METAR WIHH 270530Z 02012KT 5000 HZ SCT018 30/24 Q1009 RMK RA TO SW=
202311270500 METAR WIHH 270500Z 02008KT 5000 HZ FEW017CB SCT018 31/24 Q1009 CB AND RA TO S-SW=
202311270430 METAR WIHH 270430Z 02008KT 5000 HZ FEW017CB SCT018 31/24 Q1009 CB AND RA TO S-SW=
202311270400 METAR WIHH 270400Z 03005KT 5000 -RA SCT018 30/23 Q1009 NOSIG=
202311270330 METAR WIHH 270330Z 03003KT 5000 HZ SCT018 30/23 Q1010 NOSIG=
202311270300 METAR WIHH 270300Z 03003KT 5000 HZ SCT018 30/23 Q1010 RMK RA TO NE=
202311270230 METAR WIHH 270230Z 32003KT 4000 HZ SCT020 30/24 Q1010 NOSIG=
202311270200 METAR WIHH 270200Z 00000KT 4000 HZ SCT020 29/24 Q1010 NOSIG=
202311270130 METAR WIHH 270130Z 00000KT 4000 HZ SCT020 29/24 Q1010 NOSIG=
202311270100 METAR WIHH 270100Z 00000KT 4000 HZ FEW020 28/25 Q1010 NOSIG=
202311270030 METAR WIHH 270030Z 00000KT 4000 HZ FEW020 27/24 Q1009 NOSIG=
202311270000 METAR WIHH 270000Z 16003KT 4000 HZ FEW020 26/24 Q1009 NOSIG=
202311262330 METAR WIHH 262330Z 00000KT 4000 HZ FEW020 26/24 Q1008 NOSIG=
202311262300 METAR WIHH 262300Z 00000KT 5000 HZ FEW020 25/24 Q1008 NOSIG=
202311262230 METAR WIHH 262230Z 00000KT 5000 HZ FEW020 25/24 Q1008 NOSIG=
202311262200 METAR WIHH 262200Z 00000KT 6000 FEW020 25/24 Q1008 NOSIG=
202311262130 METAR WIHH 262130Z 12003KT 6000 SCT020 25/24 Q1008 NOSIG=
202311262100 METAR WIHH 262100Z 10003KT 6000 SCT020 25/24 Q1008 NOSIG=
202311262030 METAR WIHH NIL=
202311262000 METAR WIHH NIL=
202311261930 METAR WIHH NIL=
202311261900 METAR WIHH NIL=
202311261830 METAR WIHH NIL=
202311261800 METAR WIHH NIL=
202311261730 METAR WIHH NIL=
202311261700 METAR WIHH 261700Z 10003KT 6000 SCT020 27/23 Q1010 RMK RA TO E=
202311261630 METAR WIHH 261630Z 12003KT 6000 SCT020 27/23 Q1010 RMK RA TO E=
202311261600 METAR WIHH 261600Z 12003KT 7000 SCT020 28/23 Q1010 RMK RA TO E=
202311261530 METAR WIHH 261530Z 04003KT 7000 FEW018CB SCT020 28/23 Q1010 RMK CB AND RA TO NE=
202311261500 METAR WIHH 261500Z 04003KT 7000 SCT020 27/23 Q1010 NOSIG=
202311261430 METAR WIHH 261430Z 11003KT 7000 SCT020 27/23 Q1010 NOSIG=
202311261400 METAR WIHH 261400Z 23004KT 7000 SCT020 27/23 Q1010 NOSIG=
202311261330 METAR WIHH 261330Z 20003KT 7000 SCT020 27/23 Q1009 NOSIG=
202311261300 METAR WIHH 261300Z 22004KT 7000 SCT020 28/23 Q1009 NOSIG=
202311261230 METAR WIHH 261230Z 20004KT 7000 SCT020 28/23 Q1009 NOSIG=
202311261200 METAR WIHH 261200Z 21004KT 7000 SCT020 28/24 Q1009 RMK RA TO SW=
202311261130 METAR WIHH 261130Z 32003KT 7000 SCT020 30/24 Q1008 NOSIG=
202311261100 METAR WIHH 261100Z 33003KT 7000 SCT020 30/24 Q1008 NOSIG=
202311261030 METAR WIHH 261030Z 31004KT 7000 SCT020 31/24 Q1006 NOSIG=
202311261000 METAR WIHH 261000Z 02005KT 7000 SCT020 31/24 Q1006 NOSIG=
202311260930 METAR WIHH 260930Z 03010KT 7000 SCT020 32/24 Q1006 NOSIG=
202311260900 METAR WIHH NIL=
202311260830 METAR WIHH NIL=
202311260800 METAR WIHH NIL=
202311260730 METAR WIHH 260730Z 08008KT 6000 SCT020 33/24 Q1007 NOSIG=
202311260700 METAR WIHH 260700Z 05008KT 6000 SCT020 33/24 Q1007 NOSIG=
202311260630 METAR WIHH 260630Z 09010KT 6000 SCT020 33/22 Q1007 NOSIG=
202311260600 METAR WIHH 260600Z 07005KT 6000 SCT020 33/23 Q1007 NOSIG=
202311260530 METAR WIHH 260530Z 08005KT 6000 SCT020 33/24 Q1008 NOSIG=
202311260500 METAR WIHH 260500Z 13005KT 6000 SCT020 32/24 Q1009 NOSIG=
202311260430 METAR WIHH 260430Z 18005KT 6000 SCT020 32/24 Q1009 NOSIG=
202311260400 METAR WIHH 260400Z 16004KT 6000 SCT020 31/23 Q1009 NOSIG=
202311260330 METAR WIHH 260330Z 11006KT 5000 HZ SCT020 31/23 Q1010 NOSIG=
202311260300 METAR WIHH 260300Z 14004KT 5000 HZ SCT020 30/25 Q1010 NOSIG=
202311260230 METAR WIHH 260230Z 13004KT 3000 HZ SCT020 30/25 Q1010 NOSIG=
202311260200 METAR WIHH 260200Z 14003KT 3000 HZ SCT020 28/25 Q1010 NOSIG=
202311260130 METAR WIHH 260130Z 16003KT 3000 HZ SCT020 27/24 Q1010 NOSIG=
202311260100 METAR WIHH 260100Z 00000KT 3000 HZ SCT020 26/24 Q1010 NOSIG=
202311260030 METAR WIHH 260030Z 14003KT 3000 HZ SCT020 26/24 Q1010 NOSIG=
202311260000 METAR WIHH 260000Z 14003KT 3000 HZ SCT020 25/24 Q1010 NOSIG=
202311252330 METAR WIHH 252330Z 16003KT 3000 HZ SCT020 25/23 Q1010 NOSIG=
202311252300 METAR WIHH 252300Z 09003KT 3000 HZ SCT020 25/23 Q1009 NOSIG=
202311252230 METAR WIHH 252230Z 11003KT 3000 HZ SCT020 25/23 Q1008 NOSIG=
202311252200 METAR WIHH 252200Z 11004KT 3000 HZ FEW020 25/23 Q1008 NOSIG=
202311252130 METAR WIHH 252130Z 14004KT 3000 HZ FEW020 25/24 Q1008 NOSIG=
202311252100 METAR WIHH NIL=
202311252030 METAR WIHH NIL=
202311252000 METAR WIHH NIL=
202311251930 METAR WIHH NIL=
202311251900 METAR WIHH NIL=
202311251830 METAR WIHH NIL=
202311251800 METAR WIHH NIL=
202311251730 METAR WIHH NIL=
202311251700 METAR WIHH 251700Z 22004KT 5000 HZ FEW020 25/24 Q1009 NOSIG=
202311251630 METAR WIHH 251630Z 21004KT 5000 HZ FEW022 25/24 Q1009 NOSIG=
202311251600 METAR WIHH 251600Z 23003KT 6000 FEW022 25/24 Q1009 NOSIG=
202311251530 METAR WIHH 251530Z 25003KT 6000 FEW022 25/24 Q1010 NOSIG=
202311251500 METAR WIHH 251500Z 25003KT 6000 FEW022 25/24 Q1010 NOSIG=
202311251430 METAR WIHH 251430Z 24005KT 6000 FEW020 25/24 Q1010 NOSIG=
202311251400 METAR WIHH 251400Z 24003KT 6000 FEW020 25/24 Q1010 NOSIG=
202311251330 METAR WIHH 251330Z 22003KT 6000 FEW020 25/24 Q1010 NOSIG=
202311251300 METAR WIHH 251300Z 24003KT 6000 FEW020 25/24 Q1010 NOSIG=
202311251230 METAR WIHH 251230Z 20003KT 6000 SCT020 25/24 Q1010 NOSIG=
202311251200 METAR WIHH 251200Z 19003KT 6000 SCT020 25/24 Q1010 RMK RA TO W=
202311251130 METAR WIHH 251130Z 20005KT 4000 -RA SCT018 24/24 Q1010 NOSIG=
202311251100 METAR WIHH 251100Z 09005KT 4000 -RA BKN018 25/24 Q1010 NOSIG=
202311251030 METAR WIHH 251030Z 09005KT 3000 -RA BKN017 25/24 Q1010 NOSIG=
202311251000 METAR WIHH 251000Z 19008KT 2000 -RA BKN017 FEW018CB 25/24 Q1009 RMK CB TO SW=
202311250930 METAR WIHH 250930Z 15008KT 2000 -RA BKN016 FEW018CB 28/25 Q1009 RMK CB TO S=
202311250900 METAR WIHH 250900Z 34004KT 6000 SCT018 28/23 Q1008 RMK RA TO E=
202311250830 METAR WIHH 250830Z 30004KT 6000 SCT018 28/24 Q1008 RMK RA TO NE-E=
202311250800 METAR WIHH 250800Z 07008KT 6000 SCT018 28/24 Q1008 RMK RA TO N AND E=
202311250730 METAR WIHH 250730Z 06003KT 6000 SCT020 28/24 Q1009 NOSIG=
202311250700 METAR WIHH 250700Z 03003KT 6000 SCT020 28/24 Q1009 NOSIG=
202311250630 METAR WIHH 250630Z 36003KT 6000 SCT020 27/23 Q1009 RMK RA TO W=
202311250600 METAR WIHH 250600Z 00000KT 6000 SCT020 26/23 Q1010 RMK RA TO W=
202311250530 METAR WIHH 250530Z 00000KT 5000 HZ SCT018 25/23 Q1010 RMK RA TO W=
202311250500 METAR WIHH 250500Z 05008KT 5000 -RA BKN018 25/23 Q1010 NOSIG=
202311250430 METAR WIHH 250430Z 02010KT 5000 -RA BKN017 FEW018CB 25/23 Q1010 RMK CB TO NW=
202311250400 METAR WIHH 250400Z 02013KT 3000 -RA BKN017 FEW018CB 26/23 Q1011 RMK CB TO N=
202311250330 METAR WIHH 250330Z 00000KT 3000 HZ SCT020 28/25 Q1010 RMK RA TO NE=
202311250300 METAR WIHH 250300Z 00000KT 4000 HZ SCT020 28/25 Q1010 RMK RA TO NE=
202311250230 METAR WIHH 250230Z 00000KT 4000 HZ SCT020 28/25 Q1011 NOSIG=
202311250200 METAR WIHH 250200Z 00000KT 4000 HZ SCT020 27/25 Q1010 NOSIG=
202311250130 METAR WIHH 250130Z 00000KT 5000 HZ SCT020 27/25 Q1010 NOSIG=
202311250100 METAR WIHH 250100Z 05003KT 5000 HZ SCT020 27/25 Q1010 NOSIG=
202311250030 METAR WIHH 250030Z 22003KT 5000 HZ SCT020 26/25 Q1009 NOSIG=
202311250000 METAR WIHH 250000Z 24003KT 5000 HZ FEW020 26/24 Q1009 NOSIG=
202311242330 METAR WIHH 242330Z 23003KT 5000 HZ FEW020 26/24 Q1008 NOSIG=
202311242300 METAR WIHH 242300Z 00000KT 5000 HZ FEW020 25/24 Q1008 NOSIG=
202311242230 METAR WIHH 242230Z 28003KT 5000 HZ FEW020 26/24 Q1007 NOSIG=
202311242200 METAR WIHH 242200Z 00000KT 5000 HZ FEW020 25/24 Q1007 NOSIG=
202311242130 METAR WIHH NIL=
202311242100 METAR WIHH NIL=
202311242030 METAR WIHH NIL=
202311242000 METAR WIHH NIL=
202311241930 METAR WIHH NIL=
202311241900 METAR WIHH NIL=
202311241830 METAR WIHH NIL=
202311241800 METAR WIHH NIL=
202311241730 METAR WIHH NIL=
202311241700 METAR WIHH NIL=
202311241630 METAR WIHH NIL=
202311241600 METAR WIHH 241600Z 14003KT 2000 HZ SCT020 26/25 Q1009 NOSIG=
202311241530 METAR WIHH 241530Z 16003KT 3000 HZ SCT020 26/25 Q1009 NOSIG=
202311241500 METAR WIHH 241500Z 16003KT 3000 BR SCT020 26/25 Q1009 NOSIG=
202311241430 METAR WIHH 241430Z 17003KT 4000 BR SCT018 26/25 Q1010 NOSIG=
202311241400 METAR WIHH 241400Z 17003KT 4000 BR SCT018 26/25 Q1009 NOSIG=
202311241330 METAR WIHH 241330Z 00000KT 4000 HZ SCT018 26/25 Q1009 NOSIG=
202311241300 METAR WIHH 241300Z 00000KT 4000 HZ SCT018 26/25 Q1009 RMK RA TO W=
202311241230 METAR WIHH 241230Z 24003KT 4000 -TSRA FEW017CB BKN018 26/25 Q1009 RMK CB TO NW=
202311241200 METAR WIHH 241200Z 25003KT 4000 -TSRA FEW017CB BKN018 26/24 Q1008 RMK CB TO NW=
202311241130 METAR WIHH 241130Z 09004KT 5000 TS FEW017CB BKN018 26/24 Q1007 RMK CB AND RA TO E AND W=
202311241100 METAR WIHH 241100Z 36003KT 4000 TS FEW017CB SCT018 30/25 Q1007 RMK CB AND RA TO E AND W=
202311241030 METAR WIHH 241030Z 03003KT 5000 HZ SCT020 30/26 Q1007 RMK RA TO W=
202311241000 METAR WIHH 241000Z 00000KT 5000 HZ SCT020 30/26 Q1006 RMK RA TO NW=
202311240930 METAR WIHH 240930Z 36003KT 5000 HZ SCT020 30/26 Q1006 NOSIG=
202311240900 METAR WIHH 240900Z 36005KT 5000 HZ SCT020 30/25 Q1005 NOSIG=
202311240830 METAR WIHH 240830Z 34005KT 5000 HZ SCT020 29/26 Q1005 NOSIG=
202311240800 METAR WIHH 240800Z 30006KT 5000 HZ SCT020 29/26 Q1005 RMK RA TO N=
202311240730 METAR WIHH 240730Z 01007KT 5000 -RA FEW018CB SCT019 29/26 Q1005 RMK CB AND RA TO NE=
202311240700 METAR WIHH NIL=
202311240630 METAR WIHH NIL=
202311240600 METAR WIHH 240600Z 09005KT 2000 -TSRA FEW018CB BKN019 SCT020 29/25 Q1007 RMK CB TO W=
202311240530 METAR WIHH 240530Z 35007KT 4000 TS FEW018CB BKN019 SCT020 32/24 Q1008 RMK CB OTF AND RA TO E-SE=
202311240500 METAR WIHH 240500Z 36003KT 4000 HZ SCT020 32/25 Q1008 RMK RA TO SE=
202311240430 METAR WIHH 240430Z 01005KT 4000 HZ SCT020 31/25 Q1008 RMK RA TO W AND SE=
202311240400 METAR WIHH 240400Z 27004KT 3000 HZ SCT020 33/24 Q1008 NOSIG=
202311240330 METAR WIHH 240330Z 21003KT 3000 HZ SCT020 33/25 Q1009 NOSIG=
202311240300 METAR WIHH 240300Z 18003KT 3000 HZ SCT018 31/25 Q1009 NOSIG=
202311240230 METAR WIHH 240230Z 23003KT 3000 HZ SCT018 31/25 Q1010 NOSIG=
202311240200 METAR WIHH 240200Z 04003KT 3000 HZ FEW020 31/25 Q1010 NOSIG=
202311240130 METAR WIHH 240130Z 18003KT 3000 HZ FEW020 30/25 Q1009 NOSIG=
202311240100 METAR WIHH 240100Z 34003KT 3000 HZ FEW020 30/25 Q1009 NOSIG=
202311240030 METAR WIHH 240030Z 00000KT 3000 BR FEW020 29/25 Q1009 NOSIG=
202311240000 METAR WIHH 240000Z 00000KT 2000 BR FEW020 28/25 Q1008 NOSIG=
202311232330 METAR WIHH 232330Z 00000KT 2000 BR FEW020 27/25 Q1008 NOSIG=
202311232300 METAR WIHH 232300Z 00000KT 2000 BR FEW020 26/25 Q1007 NOSIG=
202311232230 METAR WIHH 232230Z 00000KT 2000 BR FEW020 26/25 Q1007 NOSIG=
202311232200 METAR WIHH 232200Z 00000KT 3000 BR FEW020 26/25 Q1007 NOSIG=
202311232130 METAR WIHH NIL=
202311232100 METAR WIHH NIL=
202311232030 METAR WIHH NIL=
202311232000 METAR WIHH NIL=
202311231930 METAR WIHH NIL=
202311231900 METAR WIHH NIL=
202311231830 METAR WIHH NIL=
202311231800 METAR WIHH NIL=
202311231730 METAR WIHH NIL=
202311231700 METAR WIHH 231700Z 24003KT 6000 FEW020 27/25 Q1008 NOSIG=
202311231630 METAR WIHH 231630Z 24003KT 6000 FEW020 27/25 Q1008 NOSIG=
202311231600 METAR WIHH 231600Z 33003KT 6000 FEW020 27/24 Q1008 NOSIG=
202311231530 METAR WIHH 231530Z 22003KT 6000 FEW020 27/24 Q1008 NOSIG=
202311231500 METAR WIHH 231500Z 24003KT 6000 FEW020 27/24 Q1008 NOSIG=
202311231430 METAR WIHH 231430Z 23003KT 6000 FEW020 26/25 Q1008 NOSIG=
202311231400 METAR WIHH 231400Z 25003KT 6000 FEW020 26/24 Q1008 NOSIG=
202311231330 METAR WIHH 231330Z 24003KT 6000 FEW020 27/24 Q1007 NOSIG=
202311231300 METAR WIHH 231300Z 23003KT 6000 FEW020 27/24 Q1007 NOSIG=
202311231230 METAR WIHH 231230Z 20004KT 5000 HZ SCT020 27/25 Q1007 NOSIG=
202311231200 METAR WIHH 231200Z 21004KT 5000 HZ SCT020 27/25 Q1007 NOSIG=
202311231130 METAR WIHH 231130Z 23005KT 5000 HZ SCT020 27/24 Q1006 NOSIG=
202311231100 METAR WIHH 231100Z 18005KT 3000 HZ SCT020 27/24 Q1006 RMK RA TO SW=
202311231030 METAR WIHH 231030Z 12010KT 3000 HZ FEW018C BKN019 27/24 Q1006 RMK CB AND RA TO SW=
202311231000 METAR WIHH 231000Z 18012KT 3000 TS FEW018C BKN019 28/25 Q1006 RMK CB AND RA TO SW=
202311230930 METAR WIHH 230930Z 34005KT 3000 TS FEW018C BKN019 31/26 Q1006 RMK CB AND RA TO S=
202311230900 METAR WIHH 230900Z 36005KT 3000 TS FEW018C SCT018 31/26 Q1006 RMK CB AND RA TO S-SW=
202311230830 METAR WIHH 230830Z 35011KT 2000 HZ FEW018CB SCT018 31/26 Q1005 RMK CB AND RA TO S-SW=
202311230800 METAR WIHH 230800Z 03006KT 3000 -RA SCT018 31/25 Q1006 NOSIG=
202311230730 METAR WIHH 230730Z 34006KT 5000 HZ SCT018 32/25 Q1006 RMK RA TO S AND W=
202311230700 METAR WIHH 230700Z 01005KT 4000 HZ SCT018 32/24 Q1007 NOSIG=
202311230630 METAR WIHH 230630Z 06003KT 5000 HZ SCT018 32/24 Q1007 NOSIG=
202311230600 METAR WIHH 230600Z 03007KT 5000 HZ SCT018 33/24 Q1007 NOSIG=
202311230530 METAR WIHH 230530Z 04005KT 5000 HZ SCT018 32/24 Q1007 NOSIG=
202311230500 METAR WIHH 230500Z 05006KT 5000 HZ SCT018 32/24 Q1008 NOSIG=
202311230430 METAR WIHH 230430Z 06010KT 2500 HZ SCT020 32/23 Q1008 NOSIG=
202311230400 METAR WIHH 230400Z 06006KT 3000 HZ SCT020 32/24 Q1009 NOSIG=
202311230330 METAR WIHH 230330Z 11005KT 4000 HZ SCT020 31/24 Q1009 NOSIG=
202311230300 METAR WIHH 230300Z 08006KT 5000 HZ SCT020 31/25 Q1009 NOSIG=
202311230230 METAR WIHH 230230Z 13005KT 5000 HZ SCT020 30/24 Q1010 NOSIG=
202311230200 METAR WIHH 230200Z 12007KT 5000 HZ SCT020 29/24 Q1010 NOSIG=
202311230130 METAR WIHH 230130Z 00000KT 5000 HZ SCT020 29/24 Q1010 NOSIG=
202311230100 METAR WIHH 230100Z 16003KT 5000 HZ SCT020 28/24 Q1009 NOSIG=
202311230030 METAR WIHH 230030Z 00000KT 5000 HZ SCT020 28/24 Q1009 NOSIG=
202311230000 METAR WIHH 230000Z 16003KT 5000 HZ FEW020 27/24 Q1009 NOSIG=
202311222330 METAR WIHH 222330Z 00000KT 5000 HZ FEW020 27/24 Q1008 NOSIG=
202311222300 METAR WIHH 222300Z 25003KT 5000 HZ FEW020 27/24 Q1007 NOSIG=
202311222230 METAR WIHH 222230Z 26004KT 5000 HZ FEW020 26/24 Q1007 NOSIG=
202311222200 METAR WIHH 222200Z 24004KT 5000 HZ FEW020 26/24 Q1007 NOSIG=
202311222130 METAR WIHH 222130Z 24004KT 6000 FEW020 26/24 Q1006 NOSIG=
202311222100 METAR WIHH NIL=
202311222030 METAR WIHH NIL=
202311222000 METAR WIHH NIL=
202311221930 METAR WIHH NIL=
202311221900 METAR WIHH NIL=
202311221830 METAR WIHH NIL=
202311221800 METAR WIHH NIL=
202311221730 METAR WIHH NIL=
202311221700 METAR WIHH NIL=
202311221630 METAR WIHH NIL=
202311221600 METAR WIHH NIL=
202311221530 METAR WIHH NIL=
202311221500 METAR WIHH 221500Z 18006KT 6000 SCT018 28/24 Q1010 NOSIG=
202311221430 METAR WIHH 221430Z 23006KT 6000 SCT018 28/24 Q1010 RMK RA TO NW=
202311221400 METAR WIHH 221400Z 22006KT 6000 SCT018 29/25 Q1009 NOSIG=
202311221330 METAR WIHH 221330Z 29003KT 6000 SCT020 30/24 Q1009 NOSIG=
202311221300 METAR WIHH 221300Z 30003KT 6000 SCT020 30/24 Q1008 NOSIG=
202311221230 METAR WIHH 221230Z 00000KT 6000 SCT020 30/24 Q1008 NOSIG=
202311221200 METAR WIHH 221200Z 34004KT 6000 SCT018 31/24 Q1007 RMK RA TO SW=
202311221130 METAR WIHH 221130Z 34004KT 6000 SCT018 31/24 Q1007 RMK RA TO SW=
202311221100 METAR WIHH 221100Z 31003KT 6000 FEW018CB SCT018 31/24 Q1007 RMK CB AND RA TO SW=
202311221030 METAR WIHH NIL=
202311221000 METAR WIHH 221000Z 34008KT 6000 SCT018 32/24 Q1006 RMK RA TO S=
202311220930 METAR WIHH 220930Z 34006KT 6000 SCT020 32/24 Q1005 RMK RA TO SW=
202311220900 METAR WIHH 220900Z 04004KT 6000 SCT020 33/24 Q1005 NOSIG=
202311220830 METAR WIHH 220830Z 33006KT 6000 SCT020 33/24 Q1005 NOSIG=
202311220800 METAR WIHH 220800Z 01006KT 6000 SCT020 34/23 Q1005 NOSIG=
202311220730 METAR WIHH 220730Z 01007KT 6000 SCT020 34/22 Q1005 NOSIG=
202311220700 METAR WIHH 220700Z 25006KT 6000 SCT020 35/24 Q1005 NOSIG=
202311220630 METAR WIHH 220630Z 01007KT 6000 SCT020 34/23 Q1006 NOSIG=
202311220600 METAR WIHH 220600Z 34007KT 6000 SCT020 34/24 Q1007 NOSIG=
202311220530 METAR WIHH 220530Z 03006KT 6000 SCT020 34/22 Q1007 NOSIG=
202311220500 METAR WIHH 220500Z 01003KT 6000 FEW020 34/23 Q1008 NOSIG=
202311220430 METAR WIHH 220430Z 29003KT 6000 FEW020 33/23 Q1008 NOSIG=
202311220400 METAR WIHH NIL=
202311220300 METAR WIHH NIL=
202311220200 METAR WIHH NIL=
202311220100 METAR WIHH NIL=
202311220000 METAR WIHH NIL=
202311212300 METAR WIHH NIL=
202311212200 METAR WIHH NIL=
202311212100 METAR WIHH NIL=
202311212000 METAR WIHH NIL=
202311211900 METAR WIHH NIL=
202311211800 METAR WIHH NIL=
202311211700 METAR WIHH 211700Z 24003KT 6000 SCT020 27/25 Q1010 NOSIG=
202311211630 METAR WIHH 211630Z 24004KT 6000 SCT018 27/24 Q1010 NOSIG=
202311211600 METAR WIHH 211600Z 21005KT 6000 SCT018 27/24 Q1010 NOSIG=
202311211530 METAR WIHH 211530Z 18010KT 6000 SCT018 27/24 Q1010 RMK RA TO NW=
202311211500 METAR WIHH 211500Z 21010KT 6000 SCT020 27/24 Q1010 RMK RA TO NW=
202311211430 METAR WIHH 211430Z 22010KT 5000 HZ FEW018CB SCT019 27/24 Q1010 RMK CB AND RA TO SW-W=
202311211400 METAR WIHH 211400Z 24010KT 5000 HZ FEW018CB SCT019 28/24 Q1009 RMK CB AND RA TO S-SW=
202311211330 METAR WIHH 211330Z 19008KT 5000 HZ FEW018CB SCT019 29/26 Q1010 RMK CB AND RA TO S-SWDUPE=
202311211300 METAR WIHH 211300Z 15004KT 5000 HZ FEW018CB SCT019 29/26 Q1009 RMK CB AND RA TO S-SW=
202311211230 METAR WIHH 211230Z 03008KT 5000 HZ FEW018CB SCT019 31/25 Q1009 RMK CB AND RA TO S-SW=
202311211200 METAR WIHH 211200Z 03008KT 5000 HZ FEW018CB SCT019 31/24 Q1008 RMK CB AND RA TO SW=
202311211130 METAR WIHH 211130Z 03007KT 5000 HZ FEW018CB SCT019 31/24 Q1008 RMK CB AND RA TO SW=
202311211100 METAR WIHH 211100Z 05008KT 5000 HZ FEW018CB SCT019 30/25 Q1007 RMK CB AND RA TO SW=
202311211030 METAR WIHH 211030Z 17008KT 5000 HZ FEW018CB SCT019 29/25 Q1007 RMK CB AND RA TO S-SW=
202311211000 METAR WIHH 211000Z 12008KT 5000 TS FEW018CB BKN019 30/25 Q1007 TEMPO FM1015 TL1030 2000 MODTSRA RMK CB AND RA TO SE-SW=
202311210930 METAR WIHH 210930Z 03008KT 5000 HZ FEW018CB SCT020 33/24 Q1006 RMK CB AND RA TO SE-SW=
202311210900 METAR WIHH 210900Z 03008KT 5000 HZ FEW018CB SCT020 33/24 Q1006 RMK CB AND RA TO S=
202311210830 METAR WIHH 210830Z 34006KT 5000 HZ FEW018CB SCT020 34/25 Q1005 RMK CB AND RA TO SE-S=
202311210800 METAR WIHH 210800Z 34006KT 5000 HZ SCT020 34/25 Q1005 RMK RA TO SE=
202311210730 METAR WIHH 210730Z 35005KT 5000 HZ SCT020 33/25 Q1005 RMK RA TO SE=
202311210700 METAR WIHH 210700Z 33005KT 5000 HZ SCT020 33/25 Q1006 RMK RA TO SE AND SW=
202311210630 METAR WIHH NIL=
202311210600 METAR WIHH 210600Z 27005KT 6000 SCT020 34/24 Q1007 RMK RA TO SE AND SW=
202311210530 METAR WIHH 210530Z 04007KT 6000 SCT020 34/24 Q1007 NOSIG=
202311210500 METAR WIHH 210500Z 01007KT 6000 SCT020 34/23 Q1007 NOSIG=
202311210430 METAR WIHH 210430Z 12008KT 6000 SCT020 34/24 Q1008 NOSIG=
202311210400 METAR WIHH 210400Z 09008KT 5000 HZ SCT020 34/22 Q1008 NOSIG=
202311210330 METAR WIHH 210330Z 09008KT 5000 HZ SCT020 34/23 Q1009 NOSIG=
202311210300 METAR WIHH 210300Z 24003KT 5000 HZ SCT020 33/24 Q1009 NOSIG=
202311210230 METAR WIHH 210230Z 11003KT 5000 HZ SCT020 32/23 Q1009 NOSIG=
202311210200 METAR WIHH 210200Z 18003KT 5000 HZ FEW020 32/24 Q1010 NOSIG=
202311210130 METAR WIHH 210130Z 16003KT 5000 HZ NSC 30/25 Q1010 NOSIG=
202311210100 METAR WIHH 210100Z 16003KT 5000 HZ NSC 30/25 Q1010 NOSIG=
202311210030 METAR WIHH 210030Z 9003KT 4000 HZ NSC 29/25 Q1010 NOSIG=
202311210000 METAR WIHH 210000Z 17003KT 4000 HZ FEW020 28/25 Q1010 NOSIG=
202311202330 METAR WIHH 202330Z 22002KT 5000 HZ SCT020 27/25 Q1010 NOSIG=
202311202300 METAR WIHH 202300Z 18002KT 6000 SCT020 27/24 Q1009 NOSIG=
202311202230 METAR WIHH 202230Z 22002KT 6000 FEW020 26/23 Q1009 NOSIG=
202311202200 METAR WIHH 202200Z 00000KT 6000 FEW020 26/23 Q1009 NOSIG=
202311202130 METAR WIHH 202130Z 00000KT 6000 FEW020 27/23 Q1008 NOSIG=
202311202100 METAR WIHH NIL=
202311202030 METAR WIHH NIL=
202311202000 METAR WIHH NIL=
202311201930 METAR WIHH NIL=
202311201900 METAR WIHH NIL=
202311201830 METAR WIHH NIL=
202311201800 METAR WIHH NIL=
202311201730 METAR WIHH NIL=
202311201700 METAR WIHH NIL=
202311201630 METAR WIHH NIL=
202311201600 METAR WIHH NIL=
202311201530 METAR WIHH 201530Z 23003KT 6000 FEW020 28/24 Q1011 NOSIG=
202311201500 METAR WIHH 201500Z 24003KT 6000 FEW020 28/24 Q1011 NOSIG=
202311201430 METAR WIHH 201430Z 23004KT 6000 SCT020 29/24 Q1011 NOSIG=
202311201400 METAR WIHH 201400Z 22007KT 6000 SCT020 29/24 Q1011 NOSIG=
202311201330 METAR WIHH 201330Z 22005KT 6000 SCT020 30/24 Q1011 NOSIG=
202311201300 METAR WIHH 201300Z 32002KT 6000 SCT020 30/23 Q1010 NOSIG=
202311201230 METAR WIHH 201230Z 33003KT 6000 SCT018 30/24 Q1010 NOSIG=
202311201200 METAR WIHH NIL=
202311201130 METAR WIHH 201130Z 33003KT 6000 SCT018 30/23 Q1009 NOSIG=
202311201100 METAR WIHH 201100Z 29002KT 6000 SCT018 31/23 Q1009 NOSIG=
202311201030 METAR WIHH 201030Z 00000KT 6000 SCT018 31/23 Q1008 NOSIG=
202311201000 METAR WIHH 201000Z 32005KT 6000 SCT018 32/23 Q1008 NOSIG=
202311200930 METAR WIHH NIL=
202311200900 METAR WIHH NIL=
202311200830 METAR WIHH NIL=
202311200800 METAR WIHH 200800Z 34006KT 6000 SCT018 34/24 Q1007 NOSIG=
202311200730 METAR WIHH 200730Z 27006KT 6000 SCT018 34/24 Q1007 NOSIG=
202311200700 METAR WIHH 200700Z 34006KT 6000 SCT018 34/24 Q1007 RMK RA TO SE=
202311200630 METAR WIHH NIL=
202311200600 METAR WIHH 200600Z 33006KT 6000 SCT018 34/24 Q1008 NOSIG=
202311200530 METAR WIHH 200530Z 36005KT 6000 SCT020 34/24 Q1008 NOSIG=
202311200500 METAR WIHH 200500Z 36003KT 6000 SCT020 34/24 Q1008 NOSIG=
202311200430 METAR WIHH 200430Z 09004KT 6000 SCT020 33/23 Q1009 NOSIG=
202311200400 METAR WIHH 200400Z 09004KT 6000 SCT020 33/23 Q1009 NOSIG=
202311200330 METAR WIHH 200330Z 06007KT 6000 SCT020 33/23 Q1010 NOSIG=
202311200300 METAR WIHH NIL=
202311200230 METAR WIHH NIL=
202311200200 METAR WIHH 200200Z 16003KT 6000 FEW020 31/24 Q1011 NOSIG=
202311200130 METAR WIHH 200130Z 18003KT 6000 FEW020 29/24 Q1011 NOSIG=
202311200100 METAR WIHH 200100Z 11003KT 5000 HZ FEW020 29/24 Q1011 NOSIG=
202311200030 METAR WIHH 200030Z 11003KT 5000 HZ FEW020 29/24 Q1011 NOSIG=
202311200000 METAR WIHH 200000Z 11003KT 5000 HZ FEW020 29/24 Q1011 NOSIG=
202311192330 METAR WIHH 192330Z 10005KT 5000 HZ SCT020 27/24 Q1010 NOSIG=
202311192300 METAR WIHH 192300Z 16004KT 5000 HZ SCT020 26/23 Q1010 NOSIG=
202311192230 METAR WIHH 192230Z 14003KT 5000 HZ SCT020 26/23 Q1010 NOSIG=
202311192200 METAR WIHH 192200Z 09003KT 5000 HZ SCT020 26/24 Q1009 NOSIG=
202311192130 METAR WIHH 192130Z 09004KT 5000 HZ SCT020 26/25 Q1010 RMK RA TO NE=
202311192100 METAR WIHH NIL=
202311192030 METAR WIHH NIL=
202311192000 METAR WIHH NIL=
202311191930 METAR WIHH NIL=
202311191900 METAR WIHH NIL=
202311191830 METAR WIHH NIL=
202311191800 METAR WIHH NIL=
202311191730 METAR WIHH NIL=
202311191700 METAR WIHH 191700Z 24005KT 5000 HZ BKN018 26/25 Q1010 RMK RA TO W=
202311191630 METAR WIHH 191630Z 20006KT 5000 HZ BKN018 26/25 Q1010 RMK RA TO W=
202311191600 METAR WIHH 191600Z 15008KT 3000 -RA BKN018 27/25 Q1010 NOSIG=
202311191530 METAR WIHH 191530Z 11008KT 6000 SCT018 27/24 Q1010 RMK RA TO NE=
202311191500 METAR WIHH 191500Z 22008KT 6000 SCT018 28/24 Q1010 RMK RA TO NE=
202311191430 METAR WIHH 191430Z 27005KT 6000 SCT018 28/24 Q1010 RMK RA TO N=
202311191400 METAR WIHH 191400Z 23008KT 6000 SCT018 28/24 Q1010 RMK RA TO N=
202311191330 METAR WIHH 191330Z 20008KT 6000 SCT018 29/24 Q1010 RMK RA TO NW=
202311191300 METAR WIHH 191300Z 21008KT 6000 SCT018 29/24 Q1010 RMK RA TO S AND NW=
202311191230 METAR WIHH 191230Z 21008KT 6000 SCT018 29/24 Q1009 RMK RA TO SW=
202311191200 METAR WIHH 191200Z 23010KT 6000 FEW018CB SCT018 29/24 Q1008 RMK CB AND RA TO SW=
202311191130 METAR WIHH 191130Z 33010KT 5000 HZ FEW018CB SCT018 31/25 Q1008 RMK CB AND RA TO S-SW=
202311191100 METAR WIHH 191100Z 01010KT 5000 HZ FEW018CB SCT018 31/25 Q1007 RMK CB AND RA TO S-SW=
202311191030 METAR WIHH 191030Z 36010KT 6000 FEW018CB SCT020 31/25 Q1007 RMK CB AND RA TO S=
202311191000 METAR WIHH 191000Z 34010KT 6000 SCT020 32/25 Q1007 RMK RA TO S=
202311190930 METAR WIHH 190930Z 34007KT 6000 SCT020 32/25 Q1007 RMK RA TO S=
202311190900 METAR WIHH 190900Z 36009KT 6000 SCT020 33/25 Q1006 NOSIG=
202311190830 METAR WIHH 190830Z 36010KT 6000 SCT020 33/25 Q1006 NOSIG=
202311190800 METAR WIHH 190800Z 32010KT 6000 SCT020 34/25 Q1007 NOSIG=
202311190730 METAR WIHH 190730Z 03010KT 6000 SCT018 35/24 Q1007 NOSIG=
202311190700 METAR WIHH 190700Z 36010KT 6000 SCT018 35/25 Q1007 RMK RA TO S=
202311190630 METAR WIHH 190630Z 01010KT 6000 SCT018 34/24 Q1008 NOSIG=
202311190600 METAR WIHH 190600Z 03006KT 5000 HZ SCT018 34/24 Q1008 NOSIG=
202311190530 METAR WIHH 190530Z 35005KT 6000 SCT018 35/25 Q1008 RMK RA TO E=
202311190500 METAR WIHH 190500Z 02008KT 6000 SCT018 35/25 Q1009 NOSIG=
202311190430 METAR WIHH 190430Z 11003KT 6000 SCT018 35/23 Q1009 NOSIG=
202311190400 METAR WIHH 190400Z 21003KT 6000 SCT018 34/23 Q1010 NOSIG=
202311190330 METAR WIHH NIL=
202311190300 METAR WIHH 190300Z 30005KT 6000 SCT018 33/24 Q1011 NOSIG=
202311190230 METAR WIHH 190230Z 12003KT 5000 HZ FEW020 32/25 Q1011 NOSIG=
202311190200 METAR WIHH 190200Z 04003KT 5000 HZ FEW020 32/25 Q1011 NOSIG=
202311190130 METAR WIHH 190130Z 16003KT 5000 HZ NSC 31/24 Q1011 NOSIG=
202311190100 METAR WIHH 190100Z 15004KT 5000 HZ NSC 30/24 Q1011 NOSIG=
202311190030 METAR WIHH 190030Z 14004KT 5000 HZ NSC 29/24 Q1011 NOSIG=
202311190000 METAR WIHH 190000Z 00000KT 5000 HZ FEW020 27/24 Q1011 NOSIG=
202311182330 METAR WIHH 182330Z 20002KT 5000 HZ FEW020 26/23 Q1011 NOSIG=
202311182300 METAR WIHH 182300Z 21003KT 5000 HZ FEW020 25/23 Q1010 NOSIG=
202311182230 METAR WIHH 182230Z 19003KT 5000 HZ FEW020 25/23 Q1010 NOSIG=
202311182200 METAR WIHH 182200Z 00000KT 6000 FEW020 25/23 Q1010 NOSIG=
202311182130 METAR WIHH NIL=
202311182100 METAR WIHH 182100Z 00000KT 6000 FEW020 25/23 Q1010 NOSIG=
202311182030 METAR WIHH NIL=
202311182000 METAR WIHH NIL=
202311181930 METAR WIHH NIL=
202311181900 METAR WIHH NIL=
202311181830 METAR WIHH NIL=
202311181800 METAR WIHH 181800Z 00000KT 6000 FEW020 25/24 Q1010 NOSIG=
202311181730 METAR WIHH NIL=
202311181700 METAR WIHH 181700Z 23003KT 5000 HZ SCT020 25/24 Q1010 NOSIG=
202311181630 METAR WIHH NIL=
202311181600 METAR WIHH 181600Z 19003KT 5000 HZ SCT020 25/24 Q1010 NOSIG=
202311181530 METAR WIHH 181530Z 24002KT 5000 HZ FEW020 25/24 Q1010 NOSIG=
202311181500 METAR WIHH 181500Z 23003KT 5000 HZ SCT020 25/24 Q1010 NOSIG=
202311181430 METAR WIHH 181430Z 14003KT 5000 HZ SCT020 25/24 Q1010 NOSIG=
202311181400 METAR WIHH 181400Z 29003KT 5000 HZ FEW020 24/23 Q1010 NOSIG=
202311181330 METAR WIHH 181330Z 26003KT 7000 FEW020 24/23 Q1010 NOSIG=
202311181300 METAR WIHH 181300Z 22002KT 7000 FEW020 24/23 Q1010 NOSIG=
202311181230 METAR WIHH 181230Z 17003KT 7000 FEW020 24/22 Q1009 NOSIG=
202311181200 METAR WIHH 181200Z 26002KT 7000 FEW020 24/22 Q1009 NOSIG=
202311181130 METAR WIHH 181130Z 21004KT 7000 SCT018 24/22 Q1009 NOSIG=
202311181100 METAR WIHH 181100Z 15003KT 4000 -TSRA FEW018CB SCT018 23/22 Q1008 RMK CB TO NW=
202311181030 METAR WIHH 181030Z 23006KT 2000 -TSRA FEW018CB SCT015 24/21 Q1008 RMK CB OTF=
202311181000 METAR WIHH 181000Z 33003KT 4000 TS FEW018CB SCT019 32/25 Q1007 RMK CB AND RA TO SE-SW=
202311180930 METAR WIHH 180930Z 36006KT 6000 FEW018CB SCT018 32/24 Q1007 RMK CB AND RA TO S=
202311180900 METAR WIHH 180900Z 33008KT 6000 SCT018 33/24 Q1007 RMK RA TO S=
202311180830 METAR WIHH 180830Z 36008KT 6000 SCT018 34/25 Q1006 NOSIG=
202311180800 METAR WIHH 180800Z 36008KT 6000 SCT018 34/25 Q1007 NOSIG=
202311180730 METAR WIHH 180730Z 34008KT 6000 SCT018 35/24 Q1007 NOSIG=
202311180700 METAR WIHH 180700Z 34008KT 6000 SCT018 35/24 Q1007 NOSIG=
202311180630 METAR WIHH 180630Z 33008KT 6000 SCT018 34/24 Q1008 RMK RA TO SE=
202311180600 METAR WIHH 180600Z 33008KT 6000 SCT018 36/24 Q1008 RMK RA TO E=
202311180530 METAR WIHH 180530Z 21003KT 6000 SCT020 35/23 Q1008 NOSIG=
202311180500 METAR WIHH 180500Z 30004KT 6000 SCT020 35/23 Q1009 NOSIG=
202311180430 METAR WIHH 180430Z 24005KT 6000 SCT020 35/24 Q1010 NOSIG=
202311180400 METAR WIHH 180400Z 12003KT 6000 SCT020 33/24 Q1010 NOSIG=
202311180330 METAR WIHH 180330Z 18003KT 6000 HZ SCT020 33/24 Q1011 NOSIG=
202311180300 METAR WIHH 180300Z 24003KT 6000 HZ SCT020 32/24 Q1011 NOSIG=
202311180230 METAR WIHH 180230Z 13003KT 6000 HZ SCT020 32/25 Q1011 NOSIG=
202311180200 METAR WIHH 180200Z 21003KT 5000 HZ SCT020 29/25 Q1012 NOSIG=
202311180130 METAR WIHH 180130Z 13003KT 5000 HZ FEW020 29/25 Q1012 NOSIG=
202311180100 METAR WIHH 180100Z 13003KT 5000 HZ FEW020 29/25 Q1011 NOSIG=
202311180030 METAR WIHH 180030Z 17003KT 5000 HZ FEW020 28/24 Q1011 NOSIG=
202311180000 METAR WIHH 180000Z 23003KT 5000 HZ FEW020 28/25 Q1011 NOSIG=
202311172330 METAR WIHH 172330Z 19003KT 4000 HZ SCT020 27/25 Q1011 NOSIG=
202311172300 METAR WIHH 172300Z 00000KT 4000 HZ SCT020 27/25 Q1011 NOSIG=
202311172230 METAR WIHH 172230Z 21003KT 3000 HZ FEW020 26/25 Q1011 NOSIG=
202311172200 METAR WIHH 172200Z 00000KT 4000 HZ FEW020 27/25 Q1010 NOSIG=
202311172130 METAR WIHH 172130Z 18003KT 4000 HZ FEW020 27/25 Q1010 NOSIG=
202311172100 METAR WIHH 172100Z 18003KT 4000 HZ FEW020 26/24 Q1010 NOSIG=
202311172030 METAR WIHH NIL=
202311172000 METAR WIHH NIL=
202311171930 METAR WIHH NIL=
202311171900 METAR WIHH NIL=
202311171830 METAR WIHH NIL=
202311171800 METAR WIHH NIL=
202311171730 METAR WIHH NIL=
202311171700 METAR WIHH 171700Z 24003KT 6000 SCT020 27/25 Q1012 NOSIG=
202311171630 METAR WIHH 171630Z 24003KT 6000 SCT020 27/25 Q1012 NOSIG=
202311171600 METAR WIHH 171600Z 21003KT 6000 SCT020 27/24 Q1012 NOSIG=
202311171530 METAR WIHH 171530Z 26003KT 6000 SCT020 27/24 Q1012 RMK RA TO NW=
202311171500 METAR WIHH 171500Z 24003KT 6000 SCT020 27/24 Q1012 RMK RA TO NW=
202311171430 METAR WIHH 171430Z 24003KT 6000 SCT019 27/25 Q1012 RMK RA TO NE AND NW=
202311171400 METAR WIHH 171400Z 13005KT 5000 HZ SCT019 27/25 Q1012 RMK RA TO NW=
202311171330 METAR WIHH 171330Z 21008KT 5000 -RA FEW018CB SCT019 27/25 Q1012 RMK CB TO S=
202311171300 METAR WIHH 171300Z 21008KT 6000 SCT020 29/25 Q1011 RMK RA TO S AND W=
202311171230 METAR WIHH 171230Z 02003KT 6000 SCT020 30/25 Q1011 RMK RA TO S=
202311171200 METAR WIHH 171200Z 02008KT 6000 SCT020 30/25 Q1010 RMK RA TO SE AND S=
202311171130 METAR WIHH 171130Z 03008KT 5000 HZ FEW018CB SCT019 30/25 Q1010 RMK CB AND RA TO SE-SW=
202311171100 METAR WIHH 171100Z 36008KT 5000 HZ FEW018CB SCT019 31/25 Q1009 RMK CB AND RA TO S-SW=
202311171030 METAR WIHH 171030Z 34008KT 5000 HZ FEW018CB SCT020 31/25 Q1009 RMK CB AND RA TO S-SW=
202311171000 METAR WIHH 171000Z 34008KT 5000 HZ FEW018CB SCT020 31/25 Q1008 RMK CB AND RA TO S-SW=
202311170930 METAR WIHH 170930Z 01010KT 5000 HZ FEW018CB SCT020 32/25 Q1008 RMK CB AND RA TO S AND SW=
202311170900 METAR WIHH 170900Z 36010KT 5000 HZ SCT018 32/24 Q1008 RMK RA TO S AND SW=
202311170830 METAR WIHH 170830Z 01008KT 5000 HZ FEW018CB SCT019 33/25 Q1008 RMK CB AND RA TO SE-SW=
202311170800 METAR WIHH 170800Z 01008KT 5000 HZ FEW018CB SCT019 33/25 Q1008 RMK CB AND RA TO SE-SW=
202311170730 METAR WIHH 170730Z 01008KT 5000 HZ FEW018CB SCT019 33/24 Q1008 RMK CB AND RA TO SE-SW=
202311170700 METAR WIHH 170700Z 36008KT 5000 HZ SCT018 33/24 Q1009 RMK RA TO SE=
202311170630 METAR WIHH 170630Z 34005KT 5000 HZ SCT018 33/24 Q1009 TEMPO FM0645 3000 RA RMK RA TO E=
202311170600 METAR WIHH 170600Z 36005KT 5000 -RA SCT018 32/24 Q1010 NOSIG=
202311170530 METAR WIHH 170530Z 35003KT 5000 HZ SCT018 34/24 Q1010 RMK RA TO NE-E=
202311170500 METAR WIHH 170500Z 36005KT 6000 SCT020 34/24 Q1010 NOSIG=
202311170430 METAR WIHH 170430Z 36007KT 6000 SCT020 35/24 Q1011 NOSIG=
202311170400 METAR WIHH 170400Z 03003KT 6000 SCT020 33/23 Q1011 NOSIG=
202311170330 METAR WIHH 170330Z 00000KT 6000 SCT020 34/24 Q1011 NOSIG=
202311170300 METAR WIHH 170300Z 03004KT 5000 HZ SCT020 33/23 Q1012 NOSIG=
202311170230 METAR WIHH 170230Z 09003KT 5000 HZ FEW022 32/24 Q1012 NOSIG=
202311170200 METAR WIHH 170200Z 11003KT 5000 HZ FEW022 32/24 Q1012 NOSIG=
202311170130 METAR WIHH 170130Z 01003KT 5000 HZ FEW022 31/24 Q1012 NOSIG=
202311170100 METAR WIHH 170100Z 03003KT 5000 HZ NSC 29/24 Q1012 NOSIG=
202311170030 METAR WIHH 170030Z 25002KT 5000 HZ NSC 28/22 Q1012 NOSIG=
202311170000 METAR WIHH 170000Z 25003KT 5000 HZ NSC 27/24 Q1012 NOSIG=
202311162330 METAR WIHH 162330Z 22003KT 5000 HZ NSC 27/24 Q1011 NOSIG=
202311162300 METAR WIHH 162300Z 24004KT 5000 HZ NSC 26/24 Q1011 NOSIG=
202311162230 METAR WIHH 162230Z 23003KT 5000 HZ NSC 26/23 Q1011 NOSIG=
202311162200 METAR WIHH 162200Z 23003KT 5000 HZ NSC 25/23 Q1010 NOSIG=
202311162130 METAR WIHH 162130Z 23003KT 5000 HZ NSC 26/23 Q1010 NOSIG=
202311162100 METAR WIHH 162100Z 29003KT 4000 HZ NSC 26/24 Q1010 NOSIG=
202311162030 METAR WIHH NIL=
202311162000 METAR WIHH NIL=
202311161930 METAR WIHH NIL=
202311161900 METAR WIHH NIL=
202311161830 METAR WIHH NIL=
202311161800 METAR WIHH NIL=
202311161730 METAR WIHH NIL=
202311161700 METAR WIHH NIL=
202311161630 METAR WIHH NIL=
202311161600 METAR WIHH NIL=
202311161530 METAR WIHH 161530Z 25003KT 6000 FEW020 26/24 Q1012 NOSIG=
202311161500 METAR WIHH 161500Z 24002KT 6000 FEW020 27/24 Q1012 NOSIG=
202311161430 METAR WIHH 161430Z 24004KT 6000 FEW020 27/24 Q1012 NOSIG=
202311161400 METAR WIHH 161400Z 19003KT 6000 SCT020 27/24 Q1012 NOSIG=
202311161330 METAR WIHH 161330Z 00000KT 6000 SCT020 27/24 Q1012 NOSIG=
202311161300 METAR WIHH 161300Z 24004KT 5000 HZ SCT018 28/24 Q1012 NOSIG=
202311161230 METAR WIHH 161230Z 22004KT 5000 HZ FEW017CB SCT018 26/24 Q1012 RMK CB TO NW=
202311161200 METAR WIHH 161200Z 19008KT 5000 HZ FEW017CB BKN018 26/24 Q1011 RMK CB AND RA TO NW=
202311161130 METAR WIHH 161130Z 22008KT 3000 -RA FEW017CB BKN018 28/25 Q1011 RMK CB TO E=
202311161100 METAR WIHH 161100Z 19006KT 3000 -RA FEW017CB BKN018 28/25 Q1011 RMK CB TO SW=
202311161030 METAR WIHH 161030Z 15007KT 2000 HZ FEW017CB BKN018 30/24 Q1010 RMK CB AND RA TO SE-S=
202311161000 METAR WIHH 161000Z 02008KT 6000 FEW017CB BKN018 32/23 Q1009 RMK CB AND RA TO S=
202311160930 METAR WIHH 160930Z 01008KT 6000 FEW017CB SCT018 33/23 Q1009 RMK CB AND RA TO S=
202311160900 METAR WIHH 160900Z 35008KT 6000 FEW018CB SCT020 34/23 Q1008 RMK CB TO S=
202311160830 METAR WIHH 160830Z 01008KT 6000 SCT020 34/23 Q1008 RMK RA TO SW=
202311160800 METAR WIHH 160800Z 03004KT 6000 SCT020 35/23 Q1008 NOSIG=
202311160730 METAR WIHH 160730Z 03005KT 6000 SCT020 35/23 Q1008 NOSIG=
202311160700 METAR WIHH 160700Z 35006KT 6000 SCT020 35/24 Q1009 NOSIG=
202311160630 METAR WIHH 160630Z 04007KT 6000 SCT020 35/24 Q1009 RMK RA TO SW=
202311160600 METAR WIHH 160600Z 04007KT 6000 SCT020 35/25 Q1009 RMK RA TO E=
202311160530 METAR WIHH 160530Z 03008KT 6000 SCT020 35/24 Q1010 NOSIG=
202311160500 METAR WIHH 160500Z 24008KT 6000 SCT020 35/23 Q1010 NOSIG=
202311160430 METAR WIHH 160430Z 04005KT 6000 SCT020 34/22 Q1011 NOSIG=
202311160400 METAR WIHH 160400Z 33007KT 6000 SCT020 35/23 Q1011 NOSIG=
202311160330 METAR WIHH 160330Z 14004KT 6000 SCT020 35/23 Q1012 NOSIG=
202311160300 METAR WIHH 160300Z 16004KT 6000 SCT020 33/23 Q1012 NOSIG=
202311160230 METAR WIHH 160230Z 25003KT 6000 NSC 33/24 Q1012 NOSIG=
202311160200 METAR WIHH 160200Z 14002KT 6000 NSC 32/23 Q1012 NOSIG=
202311160130 METAR WIHH 160130Z 25003KT 7000 NSC 31/24 Q1012 NOSIG=
202311160100 METAR WIHH 160100Z 16004KT 7000 NSC 30/24 Q1012 NOSIG=
202311160030 METAR WIHH 160030Z 21004KT 7000 NSC 29/24 Q1012 NOSIG=
202311160000 METAR WIHH 160000Z 19002KT 7000 NSC 27/23 Q1012 NOSIG=
202311152330 METAR WIHH 152330Z 21005KT 6000 NSC 26/24 Q1012 NOSIG=
202311152300 METAR WIHH 152300Z 22004KT 6000 FEW020 26/23 Q1011 NOSIG=
202311152230 METAR WIHH 152230Z 26003KT 6000 FEW020 26/23 Q1011 NOSIG=
202311152200 METAR WIHH 152200Z 24004KT 6000 FEW020 26/23 Q1011 NOSIG=
202311152130 METAR WIHH 152130Z 24004KT 6000 NSC 25/23 Q1011 NOSIG=
202311152100 METAR WIHH 152100Z 26003KT 6000 NSC 26/23 Q1011 NOSIG=
202311152030 METAR WIHH NIL=
202311152000 METAR WIHH NIL=
202311151930 METAR WIHH NIL=
202311151900 METAR WIHH NIL=
202311151830 METAR WIHH NIL=
202311151800 METAR WIHH NIL=
202311151730 METAR WIHH NIL=
202311151700 METAR WIHH 151700Z 00000KT 6000 FEW020 26/24 Q1010 NOSIG=
202311151630 METAR WIHH 151630Z 00000KT 6000 FEW020 27/24 Q1011 NOSIG=
202311151600 METAR WIHH 151600Z 00000KT 6000 FEW020 27/24 Q1011 NOSIG=
202311151530 METAR WIHH 151530Z 00000KT 6000 FEW020 28/24 Q1011 NOSIG=
202311151500 METAR WIHH 151500Z 00000KT 6000 FEW020 27/24 Q1011 NOSIG=
202311151430 METAR WIHH 151430Z 23004KT 6000 SCT020 27/24 Q1011 NOSIG=
202311151400 METAR WIHH 151400Z 21004KT 6000 SCT020 27/24 Q1011 NOSIG=
202311151330 METAR WIHH 151330Z 22004KT 6000 SCT020 27/25 Q1011 NOSIG=
202311151300 METAR WIHH 151300Z 25005KT 6000 SCT020 27/25 Q1011 NOSIG=
202311151230 METAR WIHH 151230Z 18003KT 5000 HZ SCT020 28/25 Q1010 NOSIG=
202311151200 METAR WIHH 151200Z 18006KT 6000 SCT020 28/25 Q1010 NOSIG=
202311151130 METAR WIHH 151130Z 25008KT 6000 SCT020 28/24 Q1010 RMK RA TO S=
202311151100 METAR WIHH 151100Z 24010KT 5000 HZ FEW018CB BKN020 28/24 Q1010 TEMPO FM1200 3000 -TSRA RMK CB AND RA TO SW=
202311151030 METAR WIHH 151030Z 21015KT 5000 TS FEW018CB BKN020 29/25 Q1009 RMK CB AND RA TO SW=
202311151000 METAR WIHH 151000Z 33005KT 5000 TS FEW018CB SCT020 31/25 Q1009 RMK CB AND RA TO SW=
202311150930 METAR WIHH 150930Z 31006KT 6000 SCT020 31/25 Q1008 RMK RA TO SW=
202311150900 METAR WIHH 150900Z 33008KT 6000 SCT020 32/25 Q1008 RMK RA TO SW=
202311150830 METAR WIHH 150830Z 01007KT 6000 SCT020 32/25 Q1008 RMK RA TO S=
202311150800 METAR WIHH 150800Z 01009KT 6000 SCT020 34/25 Q1007 RMK RA TO S=
202311150730 METAR WIHH 150730Z 02008KT 6000 SCT020 34/24 Q1008 NOSIG=
202311150700 METAR WIHH 150700Z 03006KT 6000 SCT020 34/24 Q1008 NOSIG=
202311150630 METAR WIHH 150630Z 01005KT 6000 SCT020 35/24 Q1009 NOSIG=
202311150600 METAR WIHH 150600Z 04008KT 6000 SCT020 34/24 Q1009 NOSIG=
202311150530 METAR WIHH 150530Z 05006KT 6000 SCT020 34/24 Q1010 NOSIG=
202311150500 METAR WIHH 150500Z 06007KT 6000 SCT020 33/24 Q1010 RMK RA TO S=
202311150430 METAR WIHH 150430Z 06007KT 6000 SCT020 33/24 Q1011 RMK RA TO S=
202311150400 METAR WIHH 150400Z 23003KT 6000 SCT020 33/24 Q1011 NOSIG=
202311150330 METAR WIHH 150330Z 12005KT 6000 SCT020 33/24 Q1012 NOSIG=
202311150300 METAR WIHH 150300Z 06004KT 6000 FEW020 32/24 Q1012 NOSIG=
202311150230 METAR WIHH 150230Z 15003KT 5000 HZ FEW020 32/24 Q1012 NOSIG=
202311150200 METAR WIHH 150200Z 13003KT 5000 HZ FEW020 30/24 Q1013 NOSIG=
202311150130 METAR WIHH 150130Z 00000KT 5000 HZ FEW020 29/25 Q1012 NOSIG=
202311150100 METAR WIHH 150100Z 21004KT 5000 HZ FEW020 28/25 Q1012 NOSIG=
202311150030 METAR WIHH 150030Z 20003KT 4000 HZ FEW020 27/25 Q1012 NOSIG=
202311150000 METAR WIHH 150000Z 16003KT 4000 HZ FEW020 26/25 Q1012 NOSIG=
202311142330 METAR WIHH 142330Z 23003KT 3000 BR FEW018 26/25 Q1011 NOSIG=
202311142300 METAR WIHH 142300Z 00000KT 3000 BR FEW018 25/25 Q1011 NOSIG=
202311142230 METAR WIHH 142230Z 18004KT 3000 BR SCT018 25/25 Q1011 NOSIG=
202311142200 METAR WIHH 142200Z 18002KT 4000 HZ FEW018 25/25 Q1011 NOSIG=
202311142130 METAR WIHH 142130Z 29003KT 4000 HZ FEW018 25/25 Q1011 NOSIG=
202311142100 METAR WIHH NIL=
202311142030 METAR WIHH NIL=
202311142000 METAR WIHH NIL=
202311141930 METAR WIHH NIL=
202311141900 METAR WIHH NIL=
202311141830 METAR WIHH NIL=
202311141800 METAR WIHH NIL=
202311141730 METAR WIHH NIL=
202311141700 METAR WIHH 141700Z 21003KT 5000 HZ SCT018 26/24 Q1012 RMK RA TO E AND S=
202311141630 METAR WIHH 141630Z 18003KT 5000 HZ SCT018 26/24 Q1012 RMK RA TO E AND S=
202311141600 METAR WIHH 141600Z 19003KT 5000 HZ SCT018 26/24 Q1012 RMK RA TO S=
202311141530 METAR WIHH 141530Z 31003KT 5000 -RA FEW018CB SCT018 26/24 Q1012 RMK CB TO S=
202311141500 METAR WIHH 141500Z 23003KT 5000 HZ SCT018 26/24 Q1012 RMK RA TO N AND E=
202311141430 METAR WIHH 141430Z 21005KT 4000 -RA SCT018 26/24 Q1012 NOSIG=
202311141400 METAR WIHH 141400Z 21005KT 4000 -RA SCT018 26/24 Q1012 NOSIG=
202311141330 METAR WIHH 141330Z 17005KT 4000 RA SCT018 26/24 Q1012 NOSIG=
202311141300 METAR WIHH 141300Z 25004KT 5000 HZ FEW018CB SCT018 27/25 Q1011 RMK CB AND RA TO N=
202311141230 METAR WIHH 141230Z 22006KT 5000 HZ FEW017CB SCT018 27/25 Q1010 RMK CB AND RA TO N=
202311141200 METAR WIHH 141200Z 23005KT 5000 HZ FEW017CB SCT018 27/25 Q1010 RMK CB AND RA TO SW=
202311141130 METAR WIHH 141130Z 22006KT 5000 HZ SCT017 FEW018CB 27/25 Q1010 RMK CB AND RA TO SW=
202311141100 METAR WIHH 141100Z 21009KT 5000 RA SCT017 FEW018CB 28/25 Q1009 RMK CB TO SW=
202311141030 METAR WIHH 141030Z 22006KT 5000 HZ SCT017 FEW018CB 29/25 Q1009 RMK CB AND RA TO SW=
202311141000 METAR WIHH 141000Z 20006KT 5000 HZ SCT017 FEW018CB 30/25 Q1008 RMK CB AND RA TO S-SW=
202311140930 METAR WIHH 140930Z 02008KT 5000 HZ FEW018CB SCT020 32/24 Q1008 RMK CB AND RA TO S-SW=
202311140900 METAR WIHH 140900Z 03009KT 5000 HZ FEW018CB SCT020 33/25 Q1007 RMK CB AND RA TO S=
202311140830 METAR WIHH 140830Z 02009KT 6000 FEW018CB SCT020 33/24 Q1007 RMK CB AND RA TO S=
202311140800 METAR WIHH 140800Z 04009KT 6000 SCT020 33/24 Q1007 RMK RA TO S=
202311140730 METAR WIHH 140730Z 05009KT 6000 SCT020 34/24 Q1007 NOSIG=
202311140700 METAR WIHH 140700Z 04011KT 6000 SCT020 35/23 Q1007 NOSIG=
202311140630 METAR WIHH 140630Z 05011KT 6000 SCT020 35/23 Q1008 NOSIG=
202311140600 METAR WIHH 140600Z 07010KT 5000 HZ SCT020 34/23 Q1009 NOSIG=
202311140530 METAR WIHH 140530Z 05012KT 5000 HZ SCT020 35/23 Q1009 NOSIG=
202311140500 METAR WIHH 140500Z 08012KT 5000 HZ SCT020 35/23 Q1009 NOSIG=
202311140430 METAR WIHH 140430Z 07010KT 5000 HZ SCT020 34/23 Q1010 NOSIG=
202311140400 METAR WIHH 140400Z 10010KT 5000 HZ SCT020 33/23 Q1011 NOSIG=
202311140330 METAR WIHH 140330Z 04010KT 4000 HZ SCT018 33/23 Q1012 NOSIG=
202311140300 METAR WIHH 140300Z 07008KT 5000 HZ SCT020 33/23 Q1011 NOSIG=
202311140230 METAR WIHH 140230Z 09008KT 5000 HZ SCT020 32/23 Q1011 NOSIG=
202311140200 METAR WIHH 140200Z 06008KT 5000 HZ SCT020 32/23 Q1011 NOSIG=
202311140130 METAR WIHH 140130Z 07005KT 5000 HZ FEW020 31/24 Q1011 NOSIG=
202311140100 METAR WIHH 140100Z 10004KT 4000 HZ FEW020 30/26 Q1011 NOSIG=
202311140030 METAR WIHH 140030Z 14003KT 4000 HZ FEW020 30/26 Q1011 NOSIG=
202311140000 METAR WIHH 140000Z 15003KT 4000 HZ FEW020 28/25 Q1011 NOSIG=
202311132330 METAR WIHH 132330Z 20002KT 4000 HZ FEW020 28/25 Q1011 NOSIG=
202311132300 METAR WIHH 132300Z 00000KT 4000 HZ FEW020 27/25 Q1010 NOSIG=
202311132230 METAR WIHH 132230Z 00000KT 4000 HZ FEW020 27/25 Q1010 NOSIG=
202311132200 METAR WIHH 132200Z 23003KT 4000 HZ FEW020 27/25 Q1010 NOSIG=
202311132130 METAR WIHH 132130Z 19003KT 4000 HZ SCT020 27/25 Q1010 NOSIG=
202311132100 METAR WIHH 132100Z 18003KT 4000 HZ SCT020 27/25 Q1010 NOSIG=
202311132030 METAR WIHH NIL=
202311132000 METAR WIHH NIL=
202311131930 METAR WIHH NIL=
202311131900 METAR WIHH NIL=
202311131830 METAR WIHH NIL=
202311131800 METAR WIHH NIL=
202311131730 METAR WIHH NIL=
202311131700 METAR WIHH NIL=
202311131630 METAR WIHH NIL=
202311131600 METAR WIHH 131600Z 00000KT 5000 HZ SCT020 28/23 Q1011 NOSIG=
202311131530 METAR WIHH 131530Z 26003KT 5000 HZ SCT020 28/24 Q1011 NOSIG=
202311131500 METAR WIHH 131500Z 21005KT 5000 HZ SCT020 28/23 Q1011 NOSIG=
202311131430 METAR WIHH 131430Z 21004KT 5000 HZ SCT020 28/24 Q1011 NOSIG=
202311131400 METAR WIHH 131400Z 21005KT 5000 HZ SCT020 28/23 Q1011 NOSIG=
202311131330 METAR WIHH 131330Z 21008KT 5000 HZ SCT020 28/23 Q1011 NOSIG=
202311131300 METAR WIHH 131300Z 21008KT 5000 HZ SCT020 29/23 Q1010 NOSIG=
202311131230 METAR WIHH 131230Z 06010KT 5000 HZ FEW018CB SCT020 30/24 Q1010 RMK CB AND RA TO SW=
202311131200 METAR WIHH 131200Z 08010KT 5000 HZ FEW018CB SCT020 31/24 Q1010 RMK CB AND RA TO SW=
202311131130 METAR WIHH 131130Z 06008KT 5000 HZ FEW018CB SCT020 31/23 Q1010 RMK CB AND RA TO SW=
202311131100 METAR WIHH 131100Z 06010KT 5000 HZ FEW018CB SCT020 32/23 Q1009 RMK CB AND RA TO SW=
202311131030 METAR WIHH 131030Z 03012KT 5000 HZ FEW018CB SCT020 33/23 Q1008 RMK CB AND RA TO SW=
202311131000 METAR WIHH 131000Z 03012KT 5000 HZ FEW018CB SCT020 33/22 Q1008 RMK CB AND RA TO SW=
202311130930 METAR WIHH 130930Z 03012KT 6000 SCT020 34/23 Q1007 RMK RA TO S=
202311130900 METAR WIHH 130900Z 06012KT 6000 SCT020 34/23 Q1007 RMK RA TO S=
202311130830 METAR WIHH 130830Z 06010KT 6000 SCT020 35/23 Q1007 RMK RA TO SE=
202311130800 METAR WIHH 130800Z 02010KT 6000 SCT020 35/23 Q1007 NOSIG=
202311130730 METAR WIHH 130730Z 06012KT 6000 SCT020 35/22 Q1008 NOSIG=
202311130700 METAR WIHH 130700Z 03010KT 6000 SCT020 35/22 Q1008 NOSIG=
202311130630 METAR WIHH 130630Z 06012KT 5000 HZ SCT020 35/22 Q1008 NOSIG=
202311130600 METAR WIHH 130600Z 06012KT 5000 HZ SCT020 36/22 Q1009 NOSIG=
202311130530 METAR WIHH 130530Z 09010KT 5000 HZ SCT020 35/22 Q1010 NOSIG=
202311130500 METAR WIHH 130500Z 08010KT 5000 HZ SCT020 35/22 Q1010 NOSIG=
202311130430 METAR WIHH 130430Z 08010KT 5000 HZ SCT020 35/22 Q1010 NOSIG=
202311130400 METAR WIHH 130400Z 08010KT 5000 HZ SCT020 34/22 Q1011 NOSIG=
202311130330 METAR WIHH 130330Z 09010KT 5000 HZ SCT020 32/24 Q1012 NOSIG=
202311130300 METAR WIHH 130300Z 09010KT 6000 SCT020 32/24 Q1012 NOSIG=
202311130230 METAR WIHH 130230Z 12010KT 6000 SCT020 32/24 Q1012 NOSIG=
202311130200 METAR WIHH 130200Z 12008KT 6000 FEW022 32/24 Q1012 NOSIG=
202311130130 METAR WIHH 130130Z 14004KT 6000 NSC 31/24 Q1012 NOSIG=
202311130100 METAR WIHH 130100Z 19005KT 6000 NSC 30/24 Q1012 NOSIG=
202311130030 METAR WIHH 130030Z 18003KT 5000 HZ NSC 29/24 Q1011 NOSIG=
202311130000 METAR WIHH 130000Z 17002KT 5000 HZ NSC 27/24 Q1011 NOSIG=
202311122330 METAR WIHH 122330Z 18003KT 5000 HZ FEW020 27/24 Q1011 NOSIG=
202311122300 METAR WIHH 122300Z 00000KT 5000 HZ NSC 26/24 Q1011 NOSIG=
202311122230 METAR WIHH 122230Z 24002KT 5000 HZ FEW020 25/23 Q1011 NOSIG=
202311122200 METAR WIHH 122200Z 19002KT 5000 HZ FEW020 26/23 Q1010 NOSIG=
202311122130 METAR WIHH 122130Z 21003KT 5000 HZ NSC 25/23 Q1010 NOSIG=
202311122100 METAR WIHH 122100Z 21003KT 5000 HZ NSC 25/23 Q1010 NOSIG=
202311122030 METAR WIHH NIL=
202311122000 METAR WIHH NIL=
202311121930 METAR WIHH NIL=
202311121900 METAR WIHH NIL=
202311121830 METAR WIHH NIL=
202311121800 METAR WIHH NIL=
202311121730 METAR WIHH NIL=
202311121700 METAR WIHH 121700Z 00000KT 5000 HZ FEW020 27/24 Q1011 NOSIG=
202311121630 METAR WIHH 121630Z 15003KT 5000 HZ FEW020 27/24 Q1011 NOSIG=
202311121600 METAR WIHH 121600Z 18003KT 5000 HZ FEW020 27/24 Q1011 NOSIG=
202311121530 METAR WIHH 121530Z 18003KT 5000 HZ FEW020 27/24 Q1012 NOSIG=
202311121500 METAR WIHH 121500Z 18004KT 5000 HZ FEW020 27/24 Q1012 NOSIG=
202311121430 METAR WIHH 121430Z 00000KT 5000 HZ NSC 27/24 Q1012 NOSIG=
202311121400 METAR WIHH 121400Z 14003KT 6000 FEW020 27/24 Q1011 NOSIG=
202311121330 METAR WIHH 121330Z 11002KT 6000 FEW020 28/23 Q1011 NOSIG=
202311121300 METAR WIHH 121300Z 09002KT 6000 FEW020 28/24 Q1011 NOSIG=
202311121230 METAR WIHH 121230Z 04002KT 6000 FEW020 28/23 Q1011 NOSIG=
202311121200 METAR WIHH 121200Z 00000KT 6000 FEW020 28/23 Q1010 NOSIG=
202311121130 METAR WIHH 121130Z 00000KT 6000 SCT020 28/23 Q1010 NOSIG=
202311121100 METAR WIHH 121100Z 00000KT 6000 SCT020 28/23 Q1009 NOSIG=
202311121030 METAR WIHH 121030Z 21007KT 5000 HZ SCT018 28/23 Q1009 NOSIG=
202311121000 METAR WIHH 121000Z 25007KT 5000 HZ SCT018 28/23 Q1009 RMK RA TO NE=
202311120930 METAR WIHH 120930Z 16010KT 5000 TS FEW017CB SCT018 27/24 Q1009 RMK CB AND RA TO E AND S=
202311120900 METAR WIHH 120900Z 15010KT 5000 TS FEW017CB SCT018 28/23 Q1009 TEMPO FM0920 3000 TSRA RMK CB AND RA TO E AND S=
202311120830 METAR WIHH 120830Z 22013KT 5000 TS FEW017CB SCT018 29/23 Q1008 TEMPO FM0840 3000 TSRA RMK CB AND RA TO S-SW=
202311120800 METAR WIHH 120800Z 01010KT 5000 HZ FEW017CB SCT018 34/23 Q1008 RMK CB AND RA TO S=
202311120730 METAR WIHH 120730Z 34010KT 6000 FEW017CB SCT018 35/24 Q1008 RMK CB TO S=
202311120700 METAR WIHH 120700Z 02010KT 6000 FEW017CB SCT018 35/23 Q1008 RMK CB TO SW=
202311120630 METAR WIHH 120630Z 02007KT 5000 HZ SCT018 35/24 Q1008 NOSIG=
202311120600 METAR WIHH 120600Z 02007KT 5000 HZ SCT018 34/24 Q1009 RMK RA TO SE-S=
202311120530 METAR WIHH 120530Z 33005KT 6000 SCT020 34/24 Q1010 NOSIG=
202311120500 METAR WIHH 120500Z 33005KT 6000 SCT020 34/23 Q1010 RMK RA TO SW=
202311120430 METAR WIHH 120430Z 27003KT 6000 SCT020 34/22 Q1011 NOSIG=
202311120400 METAR WIHH 120400Z 00000KT 5000 HZ FEW020 34/22 Q1012 NOSIG=
202311120330 METAR WIHH 120330Z 00000KT 5000 HZ FEW020 34/22 Q1012 NOSIG=
202311120300 METAR WIHH 120300Z 01002KT 5000 HZ FEW020 33/23 Q1012 NOSIG=
202311120230 METAR WIHH 120230Z 12003KT 5000 HZ NSC 33/23 Q1012 NOSIG=
202311120200 METAR WIHH 120200Z 16003KT 5000 HZ NSC 32/24 Q1012 NOSIG=
202311120130 METAR WIHH 120130Z 19003KT 5000 HZ NSC 31/24 Q1012 NOSIG=
202311120100 METAR WIHH 120100Z 18003KT 5000 HZ NSC 30/24 Q1012 NOSIG=
202311120030 METAR WIHH 120030Z 22003KT 5000 HZ NSC 28/24 Q1012 NOSIG=
202311120000 METAR WIHH 120000Z 24003KT 6000 NSC 28/23 Q1012 NOSIG=
202311112330 METAR WIHH 112330Z 00000KT 6000 NSC 27/24 Q1011 NOSIG=
202311112300 METAR WIHH 112300Z 22002KT 6000 NSC 26/23 Q1011 NOSIG=
202311112230 METAR WIHH 112230Z 22002KT 6000 NSC 26/23 Q1011 NOSIG=
202311112200 METAR WIHH 112200Z 21003KT 6000 NSC 26/23 Q1010 NOSIG=
202311112130 METAR WIHH 112130Z 23003KT 6000 NSC 20 26/23 Q1010 NOSIG=
202311112100 METAR WIHH 112100Z 21003KT 6000 NSC 20 25/23 Q1010 NOSIG=
202311112030 METAR WIHH NIL=
202311112000 METAR WIHH NIL=
202311111930 METAR WIHH NIL=
202311111900 METAR WIHH NIL=
202311111830 METAR WIHH NIL=
202311111800 METAR WIHH NIL=
202311111730 METAR WIHH NIL=
202311111700 METAR WIHH 111700Z 17003KT 5000 HZ FEW020 26/24 Q1010 NOSIG=
202311111630 METAR WIHH 111630Z 20003KT 5000 HZ FEW020 26/24 Q1010 NOSIG=
202311111600 METAR WIHH 111600Z 18003KT 5000 HZ FEW020 27/24 Q1010 NOSIG=
202311111530 METAR WIHH 111530Z 17004KT 5000 HZ SCT020 27/24 Q1011 NOSIG=
202311111500 METAR WIHH 111500Z 18003KT 5000 HZ SCT020 27/24 Q1011 NOSIG=
202311111430 METAR WIHH 111430Z 18004KT 5000 HZ SCT020 28/24 Q1011 NOSIG=
202311111400 METAR WIHH 111400Z 16004KT 5000 HZ SCT020 28/24 Q1011 NOSIG=
202311111330 METAR WIHH 111330Z 18004KT 5000 HZ SCT020 28/24 Q1011 NOSIG=
202311111300 METAR WIHH 111300Z 16005KT 5000 HZ SCT020 28/24 Q1011 RMK RA TO S=
202311111230 METAR WIHH 111230Z 18005KT 4000 HZ FEW018CB SCT020 28/24 Q1011 RMK CB AND RA TO S=
202311111200 METAR WIHH 111200Z 24008KT 4000 HZ FEW018CB SCT020 28/24 Q1010 RMK CB AND RA TO S=
202311111130 METAR WIHH 111130Z 26008KT 4000 HZ FEW018CB SCT020 29/24 Q1010 RMK CB AND RA TO SE=
202311111100 METAR WIHH 111100Z 24008KT 4000 HZ FEW018CB SCT020 29/24 Q1009 RMK CB AND RA TO S=
202311111030 METAR WIHH 111030Z 36005KT 4000 HZ FEW018CB SCT020 31/24 Q1008 RMK CB TO S AND RA TO SW=
202311111000 METAR WIHH 111000Z 34004KT 5000 HZ FEW018CB SCT020 31/24 Q1008 RMK CB AND RA TO SW=
202311110930 METAR WIHH 110930Z 34011KT 5000 HZ FEW018CB SCT020 31/24 Q1008 RMK CB AND RA TO S=
202311110900 METAR WIHH 110900Z 33012KT 5000 HZ SCT020 31/24 Q1008 RMK RA TO SW=
202311110830 METAR WIHH 110830Z 34012KT 5000 HZ SCT020 32/24 Q1008 RMK RA TO SW=
202311110800 METAR WIHH 110800Z 03010KT 5000 HZ SCT020 34/25 Q1008 NOSIG=
202311110730 METAR WIHH 110730Z 04015KT 5000 HZ SCT020 35/24 Q1008 NOSIG=
202311110700 METAR WIHH 110700Z 02009KT 5000 HZ SCT020 35/24 Q1008 NOSIG=
202311110630 METAR WIHH 110630Z 06008KT 5000 HZ SCT020 33/25 Q1009 NOSIG=
202311110600 METAR WIHH 110600Z 06006KT 5000 HZ SCT020 34/24 Q1009 NOSIG=
202311110530 METAR WIHH 110530Z 04007KT 5000 HZ SCT020 34/24 Q1010 NOSIG=
202311110500 METAR WIHH 110500Z 05007KT 5000 HZ SCT020 33/24 Q1010 NOSIG=
202311110430 METAR WIHH 110430Z 33005KT 5000 HZ SCT020 33/24 Q1011 NOSIG=
202311110400 METAR WIHH 110400Z 09003KT 5000 HZ SCT020 32/24 Q1012 NOSIG=
202311110330 METAR WIHH 110330Z 02004KT 5000 HZ FEW020 32/24 Q1012 NOSIG=
202311110300 METAR WIHH 110300Z 05004KT 5000 HZ FEW020 30/24 Q1012 NOSIG=
202311110230 METAR WIHH 110230Z 05003KT 4000 HZ FEW020 30/25 Q1012 NOSIG=
202311110200 METAR WIHH 110200Z 14003KT 4000 HZ FEW020 30/24 Q1013 NOSIG=
202311110130 METAR WIHH 110130Z 26003KT 4000 HZ FEW020 28/25 Q1012 NOSIG=
202311110100 METAR WIHH 110100Z 24002KT 4000 HZ FEW020 28/25 Q1012 NOSIG=
202311110030 METAR WIHH 110030Z 24003KT 4000 HZ FEW020 27/25 Q1012 NOSIG=
202311110000 METAR WIHH 110000Z 00000KT 3000 HZ FEW020 26/25 Q1012 NOSIG=
202311102330 METAR WIHH 102330Z 32002KT 3000 HZ FEW018 26/25 Q1011 NOSIG=
202311102300 METAR WIHH 102300Z 29002KT 2000 BR SCT018 25/25 Q1011 NOSIG=
202311102230 METAR WIHH 102230Z 18002KT 2000 BR SCT018 25/25 Q1011 NOSIG=
202311102200 METAR WIHH 102200Z 00000KT 3000 BR FEW018 25/25 Q1011 NOSIG=
202311102130 METAR WIHH 102130Z 00000KT 3000 BR FEW020 25/25 Q1010 NOSIG=
202311102100 METAR WIHH 102100Z 00000KT 4000 HZ FEW020 25/24 Q1010 NOSIG=
202311102030 METAR WIHH NIL=
202311102000 METAR WIHH NIL=
202311101930 METAR WIHH NIL=
202311101900 METAR WIHH NIL=
202311101830 METAR WIHH NIL=
202311101800 METAR WIHH NIL=
202311101730 METAR WIHH NIL=
202311101700 METAR WIHH 101700Z 16004KT 5000 HZ SCT018 25/24 Q1012 NOSIG=
202311101630 METAR WIHH NIL=
202311101600 METAR WIHH 101600Z 13006KT 5000 -TSRA FEW018CB BKN018 24/23 Q1012 RMK CB TO W=
202311101530 METAR WIHH 101530Z 35003KT 3000 TSRA FEW018CB BKN015 25/25 Q1013 RMK CB OTF=
202311101500 METAR WIHH 101500Z 09007KT 2000 TSRA FEW018CB BKN015 26/26 Q1013 RMK CB OTF=
202311101430 METAR WIHH 101430Z 14015KT 3000 -TSRA FEW018CB BKN015 25/25 Q1012 RMK CB OTF=
202311101400 METAR WIHH 101400Z 09003KT 2000 -TSRA FEW018CB BKN015 26/26 Q1012 RMK CB TO NE AND W=
202311101330 METAR WIHH 101330Z 00000KT 1800 -TSRA FEW018CB BKN015 26/26 Q1012 RMK CB OTF=
202311101300 METAR WIHH 101300Z 15008KT 2000 -TSRA FEW018CB BKN015 26/26 Q1011 RMK CB OTF=
202311101230 METAR WIHH NIL=
202311101200 METAR WIHH 101200Z 14006KT 4000 -TSRA FEW018CB BKN018 28/26 Q1010 RMK CB TO S=
202311101130 METAR WIHH 101130Z 33005KT 3000 -RA FEW018CB BKN018 29/25 Q1009 RMK CB TO SE=
202311101100 METAR WIHH 101100Z 32004KT 4000 HZ FEW018CB SCT020 31/25 Q1009 RMK CB AND RA TO SE=
202311101030 METAR WIHH 101030Z 36004KT 5000 HZ FEW018CB SCT020 31/25 Q1009 RMK CB AND RA TO S=
202311101000 METAR WIHH 101000Z 35006KT 5000 HZ FEW018CB SCT020 31/25 Q1008 RMK CB AND RA TO S=
202311100930 METAR WIHH 100930Z 33004KT 5000 HZ FEW018CB SCT020 31/25 Q1008 RMK CB AND RA TO S=
202311100900 METAR WIHH 100900Z 35004KT 5000 HZ FEW018CB SCT020 32/25 Q1008 RMK CB AND RA TO S=
202311100830 METAR WIHH 100830Z 33006KT 5000 HZ FEW018CB SCT020 32/25 Q1008 RMK CB AND RA TO S=
202311100800 METAR WIHH 100800Z 01007KT 5000 HZ SCT020 33/25 Q1007 RMK RA TO E AND SW=
202311100730 METAR WIHH 100730Z 34006KT 5000 HZ SCT020 33/25 Q1008 RMK RA TO E AND W=
202311100700 METAR WIHH 100700Z 03010KT 4000 HZ SCT020 34/25 Q1008 RMK RA TO NE AND W=
202311100630 METAR WIHH 100630Z 03010KT 4000 HZ SCT020 34/25 Q1008 RMK RA TO NW=
202311100600 METAR WIHH 100600Z 36006KT 4000 HZ SCT020 34/24 Q1009 RMK RA TO SE=
202311100530 METAR WIHH 100530Z 32003KT 4000 HZ SCT020 35/23 Q1009 RMK RA TO E=
202311100500 METAR WIHH 100500Z 08003KT 4000 HZ SCT020 34/23 Q1010 NOSIG=
202311100430 METAR WIHH 100430Z 34004KT 5000 HZ SCT020 34/23 Q1010 NOSIG=
202311100400 METAR WIHH 100400Z 02003KT 5000 HZ SCT020 33/23 Q1011 NOSIG=
202311100330 METAR WIHH 100330Z 03005KT 5000 HZ FEW020 33/23 Q1011 NOSIG=
202311100300 METAR WIHH 100300Z 11004KT 5000 HZ FEW020 33/24 Q1012 NOSIG=
202311100230 METAR WIHH 100230Z 09004KT 5000 HZ FEW020 32/24 Q1012 NOSIG=
202311100200 METAR WIHH 100200Z 14003KT 5000 HZ FEW020 31/23 Q1012 NOSIG=
202311100130 METAR WIHH 100130Z 16003KT 5000 HZ FEW020 30/23 Q1012 NOSIG=
202311100100 METAR WIHH 100100Z 20005KT 5000 HZ FEW020 29/23 Q1012 NOSIG=
202311100030 METAR WIHH 100030Z 23005KT 5000 HZ FEW020 28/23 Q1012 NOSIG=
202311100000 METAR WIHH 100000Z 24005KT 5000 HZ FEW020 27/23 Q1012 NOSIG=
202311092330 METAR WIHH 092330Z 25004KT 5000 HZ FEW020 27/23 Q1011 NOSIG=
202311092300 METAR WIHH 092300Z 24004KT 5000 HZ FEW020 26/23 Q1011 NOSIG=
202311092230 METAR WIHH 092230Z 26003KT 6000 NSC 26/23 Q1010 NOSIG=
202311092200 METAR WIHH 092200Z 25003KT 6000 NSC 26/23 Q1010 NOSIG=
202311092130 METAR WIHH 092130Z 25003KT 6000 NSC 26/23 Q1010 NOSIG=
202311092100 METAR WIHH 092100Z 24004KT 6000 NSC 26/23 Q1010 NOSIG=
202311092030 METAR WIHH NIL=
202311092000 METAR WIHH NIL=
202311091930 METAR WIHH NIL=
202311091900 METAR WIHH NIL=
202311091830 METAR WIHH NIL=
202311091800 METAR WIHH NIL=
202311091730 METAR WIHH NIL=
202311091700 METAR WIHH 091700Z 21003KT 5000 HZ SCT020 26/23 Q1011 NOSIG=
202311091630 METAR WIHH 091630Z 24003KT 5000 HZ SCT020 27/23 Q1011 NOSIG=
202311091600 METAR WIHH 091600Z 26003KT 5000 HZ SCT020 27/23 Q1011 NOSIG=
202311091530 METAR WIHH 091530Z 15003KT 5000 HZ SCT020 27/22 Q1011 NOSIG=
202311091500 METAR WIHH 091500Z 18003KT 5000 HZ SCT020 27/22 Q1011 NOSIG=
202311091430 METAR WIHH 091430Z 14003KT 5000 HZ SCT020 28/22 Q1011 NOSIG=
202311091400 METAR WIHH 091400Z 13003KT 5000 HZ SCT020 27/22 Q1011 NOSIG=
202311091330 METAR WIHH 091330Z 21005KT 5000 HZ SCT020 27/23 Q1011 NOSIG=
202311091300 METAR WIHH 091300Z 22005KT 5000 HZ SCT020 27/23 Q1011 NOSIG=
202311091230 METAR WIHH 091230Z 18008KT 5000 HZ SCT020 29/22 Q1010 NOSIG=
202311091200 METAR WIHH 091200Z 19004KT 5000 HZ FEW018CB SCT020 29/22 Q1010 RMK CB AND RA TO SW=
202311091130 METAR WIHH 091130Z 33008KT 4000 HZ FEW018CB SCT020 31/24 Q1009 RMK CB AND RA TO SW=
202311091100 METAR WIHH 091100Z 34005KT 4000 HZ FEW018CB SCT020 31/24 Q1009 RMK CB AND RA TO SW=
202311091030 METAR WIHH 091030Z 33005KT 4000 HZ FEW018CB SCT020 30/24 Q1007 RMK CB AND RA TO SW=
202311091000 METAR WIHH 091000Z 33008KT 4000 HZ FEW018CB SCT020 31/24 Q1007 RMK CB AND RA TO SW=
202311090930 METAR WIHH 090930Z 03009KT 4000 HZ SCT020 33/24 Q1007 NOSIG=
202311090900 METAR WIHH 090900Z 02008KT 4000 HZ SCT020 33/24 Q1007 NOSIG=
202311090830 METAR WIHH 090830Z 03010KT 4000 HZ SCT020 34/25 Q1007 NOSIG=
202311090800 METAR WIHH 090800Z 04010KT 4000 HZ SCT020 34/25 Q1007 NOSIG=
202311090730 METAR WIHH 090730Z 33008KT 3000 HZ SCT020 34/25 Q1008 NOSIG=
202311090700 METAR WIHH 090700Z 35008KT 3000 HZ SCT020 34/25 Q1008 NOSIG=
202311090630 METAR WIHH 090630Z 03008KT 3000 HZ SCT020 34/25 Q1008 NOSIG=
202311090600 METAR WIHH 090600Z 36008KT 3000 HZ SCT020 34/25 Q1008 NOSIG=
202311090530 METAR WIHH 090530Z 10003KT 3000 HZ SCT020 35/23 Q1009 NOSIG=
202311090500 METAR WIHH 090500Z 00000KT 3000 HZ SCT020 35/23 Q1009 NOSIG=
202311090430 METAR WIHH 090430Z 29003KT 3000 HZ SCT020 34/23 Q1010 NOSIG=
202311090400 METAR WIHH 090400Z 00000KT 3000 HZ SCT020 33/23 Q1010 NOSIG=
202311090330 METAR WIHH 090330Z 12003KT 4000 HZ SCT020 33/24 Q1010 NOSIG=
202311090300 METAR WIHH 090300Z 14003KT 4000 HZ SCT020 33/24 Q1011 NOSIG=
202311090230 METAR WIHH 090230Z 03006KT 5000 HZ FEW020 32/24 Q1011 NOSIG=
202311090200 METAR WIHH 090200Z 02003KT 5000 HZ FEW020 32/24 Q1011 NOSIG=
202311090130 METAR WIHH 090130Z 20003KT 5000 HZ FEW020 31/25 Q1011 NOSIG=
202311090100 METAR WIHH 090100Z 14003KT 5000 HZ FEW020 30/24 Q1011 NOSIG=
202311090030 METAR WIHH 090030Z 24003KT 5000 HZ FEW020 29/24 Q1011 NOSIG=
202311090000 METAR WIHH 090000Z 24003KT 5000 HZ FEW020 28/24 Q1011 NOSIG=
202311082330 METAR WIHH 082330Z 24004KT 5000 HZ FEW020 27/23 Q1011 NOSIG=
202311082300 METAR WIHH 082300Z 24005KT 5000 HZ FEW020 27/23 Q1010 NOSIG=
202311082230 METAR WIHH 082230Z 21003KT 5000 HZ NSC 26/23 Q1010 NOSIG=
202311082200 METAR WIHH 082200Z 23003KT 5000 HZ FEW020 26/23 Q1010 NOSIG=
202311082130 METAR WIHH 082130Z 24004KT 4000 HZ FEW020 27/24 Q1009 NOSIG=
202311082100 METAR WIHH 082100Z 24004KT 6000 FEW020 29/25 Q1010 NOSIG=
202311082030 METAR WIHH NIL=
202311082000 METAR WIHH NIL=
202311081930 METAR WIHH NIL=
202311081900 METAR WIHH NIL=
202311081830 METAR WIHH NIL=
202311081800 METAR WIHH NIL=
202311081730 METAR WIHH NIL=
202311081700 METAR WIHH NIL=
202311081630 METAR WIHH NIL=
202311081600 METAR WIHH NIL=
202311081530 METAR WIHH NIL=
202311081500 METAR WIHH 081500Z 24004KT 6000 FEW020 29/25 Q1010 NOSIG=
202311081430 METAR WIHH 081430Z 00000KT 6000 FEW020 29/25 Q1010 NOSIG=
202311081400 METAR WIHH 081400Z 26002KT 6000 FEW020 30/25 Q1010 NOSIG=
202311081330 METAR WIHH 081330Z 26003KT 6000 FEW020 30/24 Q1009 NOSIG=
202311081300 METAR WIHH 081300Z 28003KT 6000 FEW020 30/24 Q1009 NOSIG=
202311081230 METAR WIHH 081230Z 32002KT 6000 FEW020 30/25 Q1009 NOSIG=
202311081200 METAR WIHH 081200Z 30003KT 6000 FEW020 30/25 Q1009 NOSIG=
202311081130 METAR WIHH 081130Z 36004KT 6000 FEW020 31/25 Q1008 NOSIG=
202311081100 METAR WIHH 081100Z 33004KT 6000 FEW020 31/25 Q1008 NOSIG=
202311081030 METAR WIHH 081030Z 00000KT 6000 HZ FEW020 31/24 Q1007 NOSIG=
202311081000 METAR WIHH 081000Z 33004KT 5000 HZ FEW020 32/24 Q1007 NOSIG=
202311080930 METAR WIHH 080930Z 34004KT 5000 HZ FEW020 32/24 Q1007 NOSIG=
202311080900 METAR WIHH NIL=
202311080830 METAR WIHH NIL=
202311080800 METAR WIHH 080800Z 35008KT 5000 HZ SCT020 34/24 Q1007 NOSIG=
202311080730 METAR WIHH 080730Z 35005KT 5000 HZ SCT020 35/24 Q1007 NOSIG=
202311080700 METAR WIHH 080700Z 03009KT 5000 HZ SCT020 35/24 Q1007 NOSIG=
202311080630 METAR WIHH 080630Z 01008KT 5000 HZ SCT020 34/24 Q1007 NOSIG=
202311080600 METAR WIHH 080600Z 33004KT 5000 HZ SCT020 33/23 Q1008 NOSIG=
202311080530 METAR WIHH 080530Z 02004KT 5000 HZ SCT020 35/24 Q1009 NOSIG=
202311080500 METAR WIHH 080500Z 05006KT 5000 HZ SCT020 35/24 Q1009 NOSIG=
202311080430 METAR WIHH 080430Z 07004KT 5000 HZ SCT020 35/23 Q1009 NOSIG=
202311080400 METAR WIHH 080400Z 02004KT 5000 HZ SCT020 34/23 Q1010 NOSIG=
202311080330 METAR WIHH 080330Z 34004KT 4000 HZ SCT020 34/23 Q1010 NOSIG=
202311080300 METAR WIHH 080300Z 06003KT 5000 HZ SCT020 34/23 Q1011 NOSIG=
202311080230 METAR WIHH 080230Z 13004KT 5000 HZ FEW020 33/23 Q1011 NOSIG=
202311080200 METAR WIHH 080200Z 22004KT 5000 HZ NSC 30/23 Q1011 NOSIG=
202311080130 METAR WIHH 080130Z 21004KT 5000 HZ NSC 30/23 Q1011 NOSIG=
202311080100 METAR WIHH 080100Z 15004KT 5000 HZ NSC 30/23 Q1011 NOSIG=
202311080030 METAR WIHH 080030Z 16005KT 5000 HZ NSC 29/24 Q1011 NOSIG=
202311080000 METAR WIHH 080000Z 22003KT 5000 HZ NSC 28/24 Q1011 NOSIG=
202311072330 METAR WIHH 072330Z 24004KT 5000 HZ NSC 27/24 Q1010 NOSIG=
202311072300 METAR WIHH 072300Z 25004KT 6000 NSC 27/24 Q1010 NOSIG=
202311072230 METAR WIHH 072230Z 00000KT 6000 NSC 27/24 Q1010 NOSIG=
202311072200 METAR WIHH 072200Z 00000KT 6000 NSC 27/24 Q1010 NOSIG=
202311072130 METAR WIHH 072130Z 00000KT 6000 NSC 27/26 Q1009 NOSIG=
202311072100 METAR WIHH 072100Z 00000KT 6000 FEW020 27/24 Q1009 NOSIG=
202311072030 METAR WIHH NIL=
202311072000 METAR WIHH NIL=
202311071930 METAR WIHH NIL=
202311071900 METAR WIHH NIL=
202311071830 METAR WIHH NIL=
202311071800 METAR WIHH NIL=
202311071730 METAR WIHH NIL=
202311071700 METAR WIHH 071700Z 00000KT 9999 FEW020 29/25 Q1010 NOSIG=
202311071630 METAR WIHH 071630Z 00000KT 9999 FEW020 29/25 Q1011 NOSIG=
202311071600 METAR WIHH 071600Z 20003KT 9999 FEW020 29/25 Q1011 NOSIG=
202311071530 METAR WIHH 071530Z 21003KT 9999 FEW020 30/25 Q1011 NOSIG=
202311071500 METAR WIHH 071500Z 03003KT 9999 FEW020 30/25 Q1011 NOSIG=
202311071430 METAR WIHH 071430Z 33003KT 9999 FEW020 30/25 Q1011 NOSIG=
202311071400 METAR WIHH 071400Z 30003KT 9999 FEW020 30/25 Q1011 NOSIG=
202311071330 METAR WIHH 071330Z 32003KT 8000 FEW020 30/25 Q1010 NOSIG=
202311071300 METAR WIHH 071300Z 33003KT 8000 FEW020 30/25 Q1010 NOSIG=
202311071230 METAR WIHH 071230Z 33003KT 8000 FEW020 30/24 Q1009 NOSIG=
202311071200 METAR WIHH 071200Z 36004KT 8000 FEW020 30/24 Q1009 NOSIG=
202311071130 METAR WIHH 071130Z 35005KT 8000 FEW020 31/24 Q1009 NOSIG=
202311071100 METAR WIHH 071100Z 03005KT 6000 FEW020 31/24 Q1008 NOSIG=
202311071030 METAR WIHH 071030Z 36008KT 6000 SCT020 32/23 Q1008 NOSIG=
202311071000 METAR WIHH 071000Z 33010KT 6000 SCT020 32/23 Q1007 NOSIG=
202311070930 METAR WIHH 070930Z 34008KT 6000 SCT020 32/24 Q1007 NOSIG=
202311070900 METAR WIHH 070900Z 36007KT 6000 SCT020 32/23 Q1007 NOSIG=
202311070830 METAR WIHH 070830Z 34012KT 6000 SCT020 33/23 Q1007 NOSIG=
202311070800 METAR WIHH 070800Z 36010KT 6000 SCT020 33/23 Q1007 NOSIG=
202311070730 METAR WIHH 070730Z 34010KT 6000 SCT020 34/23 Q1007 NOSIG=
202311070700 METAR WIHH NIL=
202311070600 METAR WIHH NIL=
202311070530 METAR WIHH 070530Z 32006KT 6000 SCT020 35/23 Q1009 NOSIG=
202311070500 METAR WIHH 070500Z 34007KT 6000 SCT020 34/23 Q1010 NOSIG=
202311070430 METAR WIHH 070430Z 32010KT 5000 HZ SCT020 35/22 Q1010 NOSIG=
202311070400 METAR WIHH 070400Z 01003KT 5000 HZ SCT020 34/22 Q1011 NOSIG=
202311070330 METAR WIHH 070330Z 08003KT 5000 HZ SCT020 33/22 Q1011 NOSIG=
202311070300 METAR WIHH 070300Z 10003KT 5000 HZ SCT020 33/22 Q1011 NOSIG=
202311070230 METAR WIHH 070230Z 07006KT 5000 HZ SCT020 32/22 Q1011 NOSIG=
202311070200 METAR WIHH 070200Z 08003KT 5000 HZ FEW020 32/23 Q1012 NOSIG=
202311070130 METAR WIHH 070130Z 12003KT 5000 HZ NSC 32/24 Q1012 NOSIG=
202311070100 METAR WIHH 070100Z 15003KT 5000 HZ NSC 30/24 Q1012 NOSIG=
202311070030 METAR WIHH 070030Z 14003KT 5000 HZ NSC 29/24 Q1011 NOSIG=
202311070000 METAR WIHH 070000Z 20003KT 4000 HZ NSC 27/24 Q1011 NOSIG=
202311062330 METAR WIHH 062330Z 00000KT 4000 HZ NSC 27/24 Q1011 NOSIG=
202311062300 METAR WIHH 062300Z 22003KT 4000 HZ NSC 26/24 Q1010 NOSIG=
202311062230 METAR WIHH 062230Z 23003KT 4000 HZ NSC 26/24 Q1010 NOSIG=
202311062200 METAR WIHH 062200Z 23003KT 5000 HZ NSC 26/24 Q1010 NOSIG=
202311062130 METAR WIHH 062130Z 23003KT 5000 HZ NSC 26/24 Q1010 NOSIG=
202311062100 METAR WIHH 062100Z 24004KT 5000 HZ NSC 26/24 Q1010 NOSIG=
202311062030 METAR WIHH NIL=
202311062000 METAR WIHH NIL=
202311061930 METAR WIHH NIL=
202311061900 METAR WIHH NIL=
202311061830 METAR WIHH NIL=
202311061800 METAR WIHH NIL=
202311061730 METAR WIHH NIL=
202311061700 METAR WIHH NIL=
202311061630 METAR WIHH NIL=
202311061600 METAR WIHH NIL=
202311061530 METAR WIHH NIL=
202311061500 METAR WIHH 061500Z 28004KT 6000 SCT020 29/24 Q1011 NOSIG=
202311061430 METAR WIHH 061430Z 24004KT 6000 SCT020 29/24 Q1011 NOSIG=
202311061400 METAR WIHH 061400Z 25003KT 6000 SCT020 29/24 Q1011 NOSIG=
202311061330 METAR WIHH 061330Z 23003KT 6000 SCT018 29/24 Q1010 NOSIG=
202311061300 METAR WIHH 061300Z 00000KT 6000 SCT018 29/24 Q1010 NOSIG=
202311061230 METAR WIHH 061230Z 00000KT 6000 SCT018 29/24 Q1010 NOSIG=
202311061200 METAR WIHH 061200Z 35003KT 6000 SCT018 29/24 Q1009 NOSIG=
202311061130 METAR WIHH 061130Z 34003KT 6000 SCT020 30/24 Q1009 RMK RA TO S=
202311061100 METAR WIHH 061100Z 31005KT 6000 SCT020 30/24 Q1008 RMK RA TO S=
202311061030 METAR WIHH 061030Z 36005KT 6000 SCT020 31/24 Q1008 RMK RA TO S=
202311061000 METAR WIHH 061000Z 36006KT 6000 FEW020 32/24 Q1008 RMK RA TO S=
202311060930 METAR WIHH 060930Z 02006KT 6000 FEW020 32/24 Q1007 NOSIG=
202311060900 METAR WIHH 060900Z 01011KT 6000 SCT020 33/24 Q1007 NOSIG=
202311060830 METAR WIHH 060830Z 03012KT 6000 SCT020 34/24 Q1007 NOSIG=
202311060800 METAR WIHH 060800Z 03012KT 6000 SCT020 35/24 Q1007 NOSIG=
202311060730 METAR WIHH 060730Z 03012KT 6000 SCT020 35/24 Q1007 NOSIG=
202311060700 METAR WIHH 060700Z 01010KT 6000 SCT020 34/24 Q1007 NOSIG=
202311060630 METAR WIHH 060630Z 01006KT 6000 SCT020 35/23 Q1008 NOSIG=
202311060600 METAR WIHH 060600Z 01007KT 6000 SCT020 35/23 Q1008 NOSIG=
202311060530 METAR WIHH 060530Z 04010KT 6000 SCT020 34/22 Q1009 NOSIG=
202311060500 METAR WIHH 060500Z 05010KT 6000 SCT020 34/22 Q1010 NOSIG=
202311060430 METAR WIHH 060430Z 10010KT 6000 SCT020 34/23 Q1010 NOSIG=
202311060400 METAR WIHH 060400Z 05006KT 6000 SCT020 34/22 Q1011 NOSIG=
202311060330 METAR WIHH 060330Z 08006KT 6000 SCT020 33/23 Q1011 NOSIG=
202311060300 METAR WIHH 060300Z 05006KT 6000 SCT020 32/23 Q1011 NOSIG=
202311060230 METAR WIHH 060230Z 12006KT 6000 SCT020 32/23 Q1012 NOSIG=
202311060200 METAR WIHH 060200Z 12004KT 6000 FEW020 32/24 Q1012 NOSIG=
202311060130 METAR WIHH 060130Z 07005KT 5000 HZ FEW020 31/24 Q1012 NOSIG=
202311060100 METAR WIHH 060100Z 10003KT 5000 HZ NSC 30/25 Q1012 NOSIG=
202311060030 METAR WIHH 060030Z 03003KT 4000 HZ FEW022 30/24 Q1011 NOSIG=
202311060000 METAR WIHH 060000Z 16003KT 4000 HZ FEW022 27/24 Q1011 NOSIG=
202311052330 METAR WIHH 052330Z 20003KT 3000 HZ NSC 26/24 Q1011 NOSIG=
202311052300 METAR WIHH 052300Z 20003KT 3000 HZ NSC 25/24 Q1010 NOSIG=
202311052230 METAR WIHH 052230Z 25003KT 3000 HZ NSC 25/24 Q1010 NOSIG=
202311052200 METAR WIHH 052200Z 28003KT 3000 HZ NSC 25/24 Q1010 NOSIG=
202311052130 METAR WIHH 052130Z 24004KT 3000 HZ FEW022 25/24 Q1010 NOSIG=
202311052100 METAR WIHH 052100Z 23004KT 3000 HZ FEW022 26/24 Q1009 NOSIG=
202311052030 METAR WIHH NIL=
202311052000 METAR WIHH NIL=
202311051930 METAR WIHH NIL=
202311051900 METAR WIHH NIL=
202311051830 METAR WIHH NIL=
202311051800 METAR WIHH NIL=
202311051730 METAR WIHH NIL=
202311051700 METAR WIHH 051700Z 22003KT 4000 HZ FEW020 26/24 Q1010 NOSIG=
202311051630 METAR WIHH 051630Z 25003KT 4000 HZ FEW020 26/24 Q1010 NOSIG=
202311051600 METAR WIHH 051600Z 22003KT 4000 HZ FEW020 26/24 Q1011 NOSIG=
202311051530 METAR WIHH 051530Z 21003KT 4000 HZ FEW020 26/24 Q1011 NOSIG=
202311051500 METAR WIHH 051500Z 21003KT 4000 HZ FEW020 26/24 Q1011 NOSIG=
202311051430 METAR WIHH 051430Z 24003KT 5000 HZ SCT020 26/24 Q1011 NOSIG=
202311051400 METAR WIHH 051400Z 28003KT 5000 HZ SCT020 27/24 Q1011 NOSIG=
202311051330 METAR WIHH 051330Z 26004KT 5000 HZ SCT020 27/24 Q1011 NOSIG=
202311051300 METAR WIHH 051300Z 24004KT 5000 HZ SCT020 26/24 Q1010 RMK RA TO N=
202311051230 METAR WIHH 051230Z 21005KT 5000 HZ SCT018 27/25 Q1010 RMK RA TO NE=
202311051200 METAR WIHH 051200Z 24006KT 5000 HZ SCT018 27/25 Q1010 RMK RA TO NE=
202311051130 METAR WIHH 051130Z 24008KT 5000 HZ SCT020 27/25 Q1009 NOSIG=
202311051100 METAR WIHH 051100Z 24008KT 5000 HZ SCT020 27/25 Q1009 NOSIG=
202311051030 METAR WIHH 051030Z 21008KT 5000 HZ SCT020 28/25 Q1009 NOSIG=
202311051000 METAR WIHH 051000Z 17008KT 5000 HZ FEW018CB SCT019 28/25 Q1008 RMK CB AND RA TO SW=
202311050930 METAR WIHH 050930Z 21008KT 5000 HZ FEW018CB SCT019 28/25 Q1008 RMK CB AND RA TO W=
202311050900 METAR WIHH 050900Z 21008KT 5000 HZ FEW018CB SCT019 29/25 Q1008 RMK CB AND RA TO W=
202311050830 METAR WIHH 050830Z 21008KT 4000 HZ FEW018CB SCT019 28/25 Q1008 RMK CB AND RA TO W=
202311050800 METAR WIHH 050800Z 33008KT 3000 -TSRA FEW018CB SCT019 30/25 Q1008 RMK CB TO S-SW=
202311050730 METAR WIHH 050730Z 03009KT 2500 -TSRA FEW018CB SCT019 30/25 Q1007 RMK CB TO S-SW=
202311050700 METAR WIHH 050700Z 01009KT 5000 -TSRA FEW018CB SCT019 31/25 Q1007 RMK CB TO N AND SE=
202311050630 METAR WIHH 050630Z 03008KT 5000 -RA FEW018CB SCT019 33/23 Q1008 TEMPO FM0645 4000 -TSRA BKN017 RMK CB TO SE=
202311050600 METAR WIHH 050600Z 09010KT 5000 RA FEW018CB SCT020 32/25 Q1008 RMK CB TO SE-S=
202311050530 METAR WIHH 050530Z 06012KT 6000 FEW018CB SCT020 34/24 Q1009 RMK CB AND RA TO W=
202311050500 METAR WIHH 050500Z 06012KT 6000 SCT020 34/24 Q1009 RMK RA TO W=
202311050430 METAR WIHH 050430Z 03012KT 6000 SCT019 32/23 Q1010 RMK RA TO NW=
202311050400 METAR WIHH 050400Z 03008KT 6000 SCT020 33/23 Q1010 RMK RA TO NW=
202311050330 METAR WIHH NIL=
202311050300 METAR WIHH NIL=
202311050230 METAR WIHH NIL=
202311050200 METAR WIHH NIL=
202311050130 METAR WIHH 050130Z 16003KT 4000 HZ SCT020 28/25 Q1011 NOSIG=
202311050100 METAR WIHH 050100Z 22003KT 4000 HZ SCT018 26/24 Q1011 RMK RA TO NW=
202311050030 METAR WIHH 050030Z 09002KT 4000 HZ BKN018 26/24 Q1011 RMK RA TO NW=
202311050000 METAR WIHH 050000Z 10002KT 4000 HZ BKN018 25/24 Q1011 NOSIG=
202311042330 METAR WIHH 042330Z 23002KT 4000 BR FEW020 25/24 Q1010 NOSIG=
202311042300 METAR WIHH 042300Z 24003KT 4000 BR FEW020 24/23 Q1009 NOSIG=
202311042230 METAR WIHH 042230Z 23004KT 5000 BR FEW020 24/23 Q1009 NOSIG=
202311042200 METAR WIHH 042200Z 16003KT 5000 BR FEW020 24/23 Q1009 NOSIG=
202311042130 METAR WIHH 042130Z 07003KT 5000 BR FEW020 24/23 Q1009 NOSIG=
202311042100 METAR WIHH NIL=
202311042030 METAR WIHH NIL=
202311042000 METAR WIHH NIL=
202311041930 METAR WIHH NIL=
202311041900 METAR WIHH NIL=
202311041830 METAR WIHH NIL=
202311041800 METAR WIHH NIL=
202311041730 METAR WIHH NIL=
202311041700 METAR WIHH 041700Z 10003KT 4000 - TSRA FEW017CB BKN018 24/24 Q1011 RMK CB TO NE=
202311041630 METAR WIHH 041630Z 14003KT 4000 -TSRA FEW015CB BKN016 24/24 Q1011 RMK CB TO NE=
202311041600 METAR WIHH 041600Z 13003KT 4000 -TSRA FEW015CB BKN016 24/23 Q1011 RMK CB TO NE=
202311041530 METAR WIHH 041530Z 09004KT 4000 -TSRA FEW015CB BKN016 24/23 Q1011 RMK CB TO NE=
202311041500 METAR WIHH 041500Z 15006KT 2000 -TSRA FEW015CB BKN016 24/23 Q1011 RMK CB TO NE=
202311041430 METAR WIHH 041430Z 15010KT 1800 -TSRA FEW015CB BKN016 25/24 Q1011 RMK CB TO SE AND NW=
202311041400 METAR WIHH 041400Z 25013KT 3000 -TSRA FEW015CB BKN016 24/23 Q1010 RMK CB TO S AND NW=
202311041330 METAR WIHH 041330Z 22017KT 1000 -TSRA FEW015CB SCT016 24/24 Q1011 RMK CB TO NE AND SE=
202311041300 METAR WIHH 041300Z 19015KT 5000 -TSRA FEW017CB SCT018 26/24 Q1010 TEMPO FM1315 3000 TSRA BKN015 RMK CB TO SE AND W=
202311041230 METAR WIHH 041230Z 24012KT 5000 TS FEW017CB SCT018 27/24 Q1010 TEMPO FM1240 3000 TSRA BKN015 RMK CB AND RA TO W=
202311041200 METAR WIHH 041200Z 25013KT 5000 TS FEW017CB SCT018 28/23 Q1009 RMK CB AND RA TO W=
202311041130 METAR WIHH 041130Z 02006KT 5000 HZ FEW017CB SCT018 31/25 Q1008 RMK CB AND RA TO W=
202311041100 METAR WIHH 041100Z 03007KT 5000 HZ SCT018 31/25 Q1008 RMK RA TO SW=
202311041030 METAR WIHH 041030Z 03010KT 5000 HZ BKN018 31/24 Q1007 RMK RA TO SW=
202311041000 METAR WIHH 041000Z 02010KT 5000 HZ SCT020 32/24 Q1006 RMK RA TO SW=
202311040930 METAR WIHH 040930Z 30004KT 5000 HZ SCT020 32/24 Q1006 RMK RA TO W=
202311040900 METAR WIHH 040900Z 01008KT 5000 HZ SCT020 32/25 Q1005 NOSIG=
202311040830 METAR WIHH 040830Z 04005KT 5000 HZ SCT020 32/24 Q1005 NOSIG=
202311040800 METAR WIHH 040800Z 04005KT 5000 HZ SCT020 31/23 Q1005 NOSIG=
202311040730 METAR WIHH 040730Z 04012KT 5000 HZ SCT018 30/23 Q1006 NOSIG=
202311040700 METAR WIHH 040700Z 04012KT 5000 -TSRA FEW015CB SCT018 32/25 Q1006 RMK CB TO NE AND SE=
202311040630 METAR WIHH NIL=
202311040600 METAR WIHH 040600Z 35008KT 5000 HZ FEW018CB SCT020 34/24 Q1007 RMK CB AND RA TO E AND SE=
202311040530 METAR WIHH 040530Z 32005KT 5000 HZ SCT020 34/24 Q1007 RMK RA TO E=
202311040500 METAR WIHH 040500Z 36004KT 5000 HZ SCT020 35/24 Q1008 NOSIG=
202311040430 METAR WIHH 040430Z 14004KT 5000 HZ SCT020 35/22 Q1009 NOSIG=
202311040400 METAR WIHH 040400Z 18007KT 5000 HZ SCT020 34/23 Q1009 NOSIG=
202311040330 METAR WIHH 040330Z 06004KT 5000 HZ SCT020 34/23 Q1009 NOSIG=
202311040300 METAR WIHH 040300Z 00000KT 4000 HZ SCT020 32/24 Q1009 NOSIG=
202311040230 METAR WIHH 040230Z 00000KT 4000 HZ SCT020 32/24 Q1010 NOSIG=
202311040200 METAR WIHH 040200Z 09003KT 4000 HZ SCT020 31/24 Q1010 NOSIG=
202311040130 METAR WIHH 040130Z 12004KT 4000 HZ SCT020 30/24 Q1010 NOSIG=
202311040100 METAR WIHH 040100Z 05003KT 4000 HZ SCT020 29/24 Q1011 NOSIG=
202311040030 METAR WIHH 040030Z 11004KT 4000 HZ SCT020 29/24 Q1010 NOSIG=
202311040000 METAR WIHH 040000Z 15003KT 4000 HZ SCT020 27/24 Q1010 NOSIG=
202311032330 METAR WIHH 032330Z 19003KT 4000 HZ SCT020 27/24 Q1009 RMK RA TO NE=
202311032300 METAR WIHH 032300Z 06003KT 4000 HZ SCT020 26/24 Q1009 RMK RA TO NE=
202311032230 METAR WIHH 032230Z 00000KT 4000 HZ FEW020 27/24 Q1009 NOSIG=
202311032200 METAR WIHH 032200Z 20003KT 5000 HZ FEW020 27/24 Q1009 NOSIG=
202311032130 METAR WIHH 032130Z 20003KT 5000 HZ FEW020 26/24 Q1009 NOSIG=
202311032100 METAR WIHH 032100Z 24003KT 5000 HZ FEW020 26/24 Q1009 NOSIG=
202311032030 METAR WIHH NIL=
202311032000 METAR WIHH NIL=
202311031930 METAR WIHH NIL=
202311031900 METAR WIHH NIL=
202311031830 METAR WIHH NIL=
202311031800 METAR WIHH NIL=
202311031730 METAR WIHH NIL=
202311031700 METAR WIHH 031700Z 22003KT 6000 FEW020 27/24 Q1010 NOSIG=
202311031630 METAR WIHH 031630Z 20003KT 6000 FEW020 27/24 Q1010 NOSIG=
202311031600 METAR WIHH 031600Z 22003KT 6000 FEW020 27/24 Q1010 NOSIG=
202311031530 METAR WIHH 031530Z 18003KT 6000 FEW020 28/23 Q1010 NOSIG=
202311031500 METAR WIHH 031500Z 16004KT 6000 FEW020 28/23 Q1010 NOSIG=
202311031430 METAR WIHH 031430Z 14003KT 6000 SCT020 27/23 Q1010 NOSIG=
202311031400 METAR WIHH 031400Z 18005KT 6000 SCT020 27/23 Q1010 NOSIG=
202311031330 METAR WIHH 031330Z 26005KT 6000 SCT018 27/23 Q1010 NOSIG=
202311031300 METAR WIHH 031300Z 25004KT 6000 SCT018 27/23 Q1009 NOSIG=
202311031230 METAR WIHH 031230Z 24008KT 6000 SCT018 27/23 Q1009 NOSIG=
202311031200 METAR WIHH 031200Z 22007KT 6000 SCT018 28/24 Q1009 NOSIG=
202311031130 METAR WIHH 031130Z 22010KT 6000 SCT018 28/24 Q1009 RMK RA TO SW=
202311031100 METAR WIHH 031100Z 22008KT 5000 HZ FEW017CB SCT018 29/23 Q1008 RMK CB AND RA TO W=
202311031030 METAR WIHH 031030Z 21010KT 5000 HZ FEW017CB SCT018 30/23 Q1008 TEMPO FM1100 23015KT 3000 TSRA BKN018 RMK CB AND RA TO SW=
202311031000 METAR WIHH 031000Z 29006KT 5000 HZ FEW017CB SCT018 32/24 Q1007 TEMPO FM1100 23015KT 3000 TSRA BKN018 RMK CB AND RA TO S=
202311030930 METAR WIHH 030930Z 01009KT 6000 SCT018 33/23 Q1006 NOSIG=
202311030900 METAR WIHH 030900Z 03010KT 6000 SCT018 33/23 Q1005 NOSIG=
202311030830 METAR WIHH 030830Z 35007KT 6000 SCT018 35/23 Q1005 RMK RA TO SE=
202311030800 METAR WIHH 030800Z 31006KT 5000 HZ SCT018 36/23 Q1005 RMK RA TO SE=
202311030730 METAR WIHH 030730Z 01011KT 5000 TS FEW017CB SCT018 36/23 Q1006 RMK CB AND RA TO SE=
202311030700 METAR WIHH 030700Z 02007KT 5000 HZ FEW017CB SCT018 35/22 Q1006 RMK CB AND RA TO SE=
202311030630 METAR WIHH 030630Z 05009KT 5000 HZ FEW017CB BKN018 35/23 Q1006 TEMPO FM0700 TL0710 3000 SHRA RMK CB AND RA TO SE-S=
202311030600 METAR WIHH 030600Z 02008KT 5000 HZ FEW017CB BKN018 35/23 Q1007 TEMPO FM0615 TL0640 3000 SHRA RMK CB AND RA TO E-S=
202311030530 METAR WIHH 030530Z 33010KT 5000 HZ SCT020 34/22 Q1008 RMK RA TO SW=
202311030500 METAR WIHH 030500Z 06010KT 5000 HZ SCT020 35/22 Q1008 RMK RA TO W=
202311030430 METAR WIHH 030430Z 32004KT 5000 HZ SCT020 35/23 Q1009 NOSIG=
202311030400 METAR WIHH 030400Z 33005KT 6000 SCT020 34/23 Q1009 NOSIG=
202311030330 METAR WIHH 030330Z 25004KT 6000 SCT020 34/23 Q1010 NOSIG=
202311030300 METAR WIHH 030300Z 02004KT 6000 SCT020 33/23 Q1010 NOSIG=
202311030230 METAR WIHH 030230Z 16003KT 6000 SCT020 32/23 Q1010 NOSIG=
202311030200 METAR WIHH 030200Z 11004KT 5000 HZ FEW020 32/23 Q1011 NOSIG=
202311030130 METAR WIHH 030130Z 19003KT 5000 HZ FEW020 31/24 Q1011 NOSIG=
202311030100 METAR WIHH 030100Z 17003KT 5000 HZ FEW020 30/24 Q1011 NOSIG=
202311030030 METAR WIHH 030030Z 00000KT 4000 HZ FEW020 29/24 Q1011 NOSIG=
202311030000 METAR WIHH 030000Z 25003KT 4000 HZ FEW020 27/24 Q1010 NOSIG=
202311022330 METAR WIHH 022330Z 00000KT 4000 HZ FEW020 26/24 Q1010 NOSIG=
202311022300 METAR WIHH 022300Z 22003KT 4000 HZ FEW020 25/24 Q1010 NOSIG=
202311022230 METAR WIHH 022230Z 00000KT 4000 HZ FEW020 26/23 Q1010 NOSIG=
202311022200 METAR WIHH 022200Z 00000KT 4000 HZ NSC 26/24 Q1009 NOSIG=
202311022130 METAR WIHH 022130Z 00000KT 4000 HZ NSC 25/24 Q1009 NOSIG=
202311022100 METAR WIHH NIL=
202311022030 METAR WIHH NIL=
202311022000 METAR WIHH NIL=
202311021930 METAR WIHH NIL=
202311021900 METAR WIHH NIL=
202311021830 METAR WIHH NIL=
202311021800 METAR WIHH NIL=
202311021730 METAR WIHH 021730Z 23003KT 5000 HZ SCT020 27/24 Q1009 NOSIG=
202311021700 METAR WIHH 021700Z 00000KT 5000 HZ SCT020 27/24 Q1010 NOSIG=
202311021630 METAR WIHH 021630Z 00000KT 5000 HZ SCT020 27/24 Q1010 NOSIG=
202311021600 METAR WIHH 021600Z 15003KT 5000 HZ FEW020 27/24 Q1010 NOSIG=
202311021530 METAR WIHH 021530Z 00000KT 5000 HZ FEW020 27/23 Q1010 NOSIG=
202311021500 METAR WIHH 021500Z 16003KT 5000 HZ FEW020 27/24 Q1010 NOSIG=
202311021430 METAR WIHH 021430Z 00000KT 6000 SCT020 28/24 Q1010 NOSIG=
202311021400 METAR WIHH 021400Z 00000KT 6000 SCT020 28/23 Q1010 NOSIG=
202311021330 METAR WIHH 021330Z 18003KT 6000 SCT020 27/24 Q1010 NOSIG=
202311021300 METAR WIHH 021300Z 19003KT 6000 SCT020 27/24 Q1009 NOSIG=
202311021230 METAR WIHH 021230Z 19004KT 6000 SCT020 28/24 Q1009 NOSIG=
202311021200 METAR WIHH 021200Z 19006KT 5000 HZ SCT018 28/23 Q1009 NOSIG=
202311021130 METAR WIHH 021130Z 20006KT 5000 HZ FEW018CB SCT018 28/24 Q1008 RMK CB AND RA TO SE=
202311021100 METAR WIHH 021100Z 23006KT 5000 HZ FEW018CB SCT018 28/23 Q1008 RMK CB AND RA TO S-SW=
202311021030 METAR WIHH 021030Z 19005KT 5000 HZ FEW018CB SCT018 29/22 Q1007 RMK CB AND RA TO S=
202311021000 METAR WIHH 021000Z 32004KT 5000 HZ FEW018CB SCT018 31/23 Q1007 RMK CB AND RA TO SE-SW=
202311020930 METAR WIHH 020930Z 33005KT 6000 FEW018CB SCT020 32/24 Q1007 RMK CB AND RA TO SE-SW=
202311020900 METAR WIHH 020900Z 35012KT 6000 FEW018CB SCT020 33/24 Q1006 RMK CB AND RA TO S=
202311020830 METAR WIHH 020830Z 36012KT 6000 FEW018CB SCT020 34/23 Q1006 RMK CB TO S=
202311020800 METAR WIHH 020800Z 03007KT 6000 SCT020 34/23 Q1006 NOSIG=
202311020730 METAR WIHH 020730Z 36007KT 6000 SCT020 34/24 Q1006 NOSIG=
202311020700 METAR WIHH 020700Z 04003KT 5000 HZ SCT020 34/24 Q1007 NOSIG=
202311020630 METAR WIHH 020630Z 04003KT 5000 HZ SCT020 34/24 Q1007 NOSIG=
202311020600 METAR WIHH 020600Z 05004KT 5000 HZ SCT020 35/23 Q1007 NOSIG=
202311020530 METAR WIHH 020530Z 02007KT 6000 SCT020 35/24 Q1008 NOSIG=
202311020500 METAR WIHH 020500Z 03005KT 5000 HZ SCT020 34/24 Q1009 RMK RA TO W=
202311020430 METAR WIHH 020430Z 01006KT 5000 HZ SCT020 33/24 Q1009 RMK RA TO W=
202311020400 METAR WIHH 020400Z 03006KT 5000 HZ SCT020 33/23 Q1010 RMK RA TO N=
202311020330 METAR WIHH 020330Z 01005KT 5000 HZ SCT020 33/23 Q1010 RMK RA TO NE=
202311020300 METAR WIHH 020300Z 12005KT 5000 HZ SCT020 32/23 Q1011 RMK RA TO NE=
202311020230 METAR WIHH 020230Z 13004KT 5000 HZ SCT020 33/23 Q1011 NOSIG=
202311020200 METAR WIHH 020200Z 25003KT 5000 HZ FEW020 32/23 Q1011 NOSIG=
202311020130 METAR WIHH 020130Z 35003KT 5000 HZ FEW020 31/23 Q1011 NOSIG=
202311020100 METAR WIHH 020100Z 12003KT 5000 HZ NSC 30/24 Q1011 NOSIG=
202311020030 METAR WIHH 020030Z 18004KT 5000 HZ NSC 29/23 Q1011 NOSIG=
202311020000 METAR WIHH 020000Z 23004KT 6000 NSC 28/23 Q1011 NOSIG=
202311012330 METAR WIHH 012330Z 22003KT 6000 NSC 27/23 Q1011 NOSIG=
202311012300 METAR WIHH 012300Z 22003KT 6000 NSC 25/23 Q1010 NOSIG=
202311012230 METAR WIHH 012230Z 23003KT 6000 NSC 25/23 Q1010 NOSIG=
202311012200 METAR WIHH 012200Z 00000KT 6000 NSC 26/23 Q1010 NOSIG=
202311012130 METAR WIHH 012130Z 21003KT 6000 NSC 26/23 Q1010 NOSIG=
202311012100 METAR WIHH 012100Z 24003KT 6000 NSC 26/23 Q1009 NOSIG=
202311012030 METAR WIHH NIL=
202311012000 METAR WIHH NIL=
202311011930 METAR WIHH NIL=
202311011900 METAR WIHH NIL=
202311011830 METAR WIHH NIL=
202311011800 METAR WIHH NIL=
202311011730 METAR WIHH NIL=
202311011700 METAR WIHH 011700Z 00000KT 6000 FEW020 27/24 Q1010 NOSIG=
202311011630 METAR WIHH 011630Z 25003KT 6000 FEW020 27/23 Q1011 NOSIG=
202311011600 METAR WIHH NIL=
202311011530 METAR WIHH NIL=
202311011500 METAR WIHH 011500Z 23003KT 6000 FEW020 27/23 Q1011 NOSIG=
202311011430 METAR WIHH 011430Z 29003KT 6000 FEW020 27/23 Q1011 NOSIG=
202311011400 METAR WIHH 011400Z 18003KT 6000 FEW020 27/23 Q1010 NOSIG=
202311011330 METAR WIHH 011330Z 18003KT 6000 SCT020 27/23 Q1010 NOSIG=
202311011300 METAR WIHH 011300Z 19003KT 6000 SCT020 27/23 Q1010 NOSIG=
202311011230 METAR WIHH 011230Z 26003KT 5000 HZ SCT020 26/23 Q1010 NOSIG=
202311011200 METAR WIHH 011200Z 22008KT 5000 HZ SCT020 26/23 Q1010 NOSIG=
202311011130 METAR WIHH 011130Z 24008KT 5000 HZ SCT019 26/23 Q1009 RMK RA TO E AND SE=
202311011100 METAR WIHH 011100Z 24008KT 5000 -RA FEW018CB SCT019 27/23 Q1009 BECMG AT1120 6000 RMK CB TO SE=
202311011030 METAR WIHH 011030Z 24010KT 5000 HZ FEW018CB SCT019 27/23 Q1009 TEMPO FM1100 4000 RA BKN015 RMK CB AND RA TO S=
202311011000 METAR WIHH NIL=
202311010930 METAR WIHH 010930Z 33005KT 5000 HZ FEW018CB SCT020 32/24 Q1008 RMK CB AND RA TO S=
202311010900 METAR WIHH 010900Z 34011KT 5000 HZ FEW018CB SCT020 32/24 Q1007 RMK CB AND RA TO S=
202311010830 METAR WIHH 010830Z 01008KT 5000 HZ FEW018CB SCT020 34/23 Q1007 RMK CB AND RA TO S=
202311010800 METAR WIHH 010800Z 01010KT 5000 HZ SCT020 35/24 Q1007 NOSIG=
202311010730 METAR WIHH 010730Z 03010KT 5000 HZ SCT020 35/24 Q1007 NOSIG=
202311010700 METAR WIHH 010700Z 03010KT 5000 HZ SCT020 35/24 Q1008 RMK RA TO SW=
202311010630 METAR WIHH 010630Z 36010KT 5000 HZ SCT020 34/25 Q1008 NOSIG=
202311010600 METAR WIHH 010600Z 33010KT 6000 SCT020 35/25 Q1009 NOSIG=
202311010530 METAR WIHH 010530Z 36010KT 6000 SCT020 34/25 Q1009 NOSIG=
202311010500 METAR WIHH 010500Z 36010KT 6000 SCT020 35/24 Q1010 NOSIG=
202311010430 METAR WIHH 010430Z 01010KT 6000 SCT020 35/24 Q1011 NOSIG=
202311010400 METAR WIHH 010400Z 03010KT 6000 SCT020 35/23 Q1011 NOSIG=
202311010330 METAR WIHH 010330Z 33005KT 6000 SCT020 34/23 Q1011 NOSIG=
202311010300 METAR WIHH 010300Z 33004KT 6000 SCT020 33/23 Q1011 NOSIG=
202311010230 METAR WIHH 010230Z 05005KT 6000 SCT020 32/23 Q1012 NOSIG=
202311010200 METAR WIHH 010200Z 08003KT 6000 SCT020 32/23 Q1012 NOSIG=
202311010130 METAR WIHH 010130Z 14004KT 6000 NSC 32/24 Q1012 NOSIG=
202311010100 METAR WIHH 010100Z 20004KT 6000 NSC 31/24 Q1012 NOSIG=
202311010030 METAR WIHH 010030Z 21003KT 5000 HZ NSC 30/24 Q1012 NOSIG=
202311010000 METAR WIHH NIL=

# No short TAF reports from WIHH in databse.

###################################
#  large TAF from WIHH
###################################
202311302300 TAF WIHH 302300Z 0100/0200 12006KT 5000 HZ SCT018
                      TEMPO 0100/0103 4000 -RA
                      TEMPO 0109/0112 06012G18KT 3000 TSRA FEW016CB
                       BKN017
                      BECMG 0113/0115 31003KT 6000
                      TEMPO 0120/0123 4000 -RA BKN018=
202311301700 TAF WIHH 301700Z 3018/0118 21005KT 6000 SCT020
                      TEMPO 3020/3023 09012KT 4000 -RA BKN018
                      BECMG 0101/0103 5000 HZ=
202311301100 TAF WIHH 301100Z 3012/0112 12008KT 5000 HZ SCT020
                      TEMPO 3012/3015 24014KT 3000 -TSRA FEW017CB
                       BKN018
                      BECMG 3016/3018 00000KT 6000=
202311300500 TAF WIHH 300500Z 3006/0106 15008KT 5000 HZ SCT020
                      TEMPO 3008/3011 3000 -TSRA BKN017 FEW018CB
                       BECMG 3013/3015 06004KT 6000 NSW=
202311292300 TAF WIHH 292300Z 3000/0100 16007KT 6000 SCT020
                      TEMPO 3007/3011 02013KT 4000 -TSRA FEW017CB
                       BKN018
                      BECMG 3012/3014 4000 HZ=
202311291700 TAF WIHH 291700Z 2918/3018 23005KT 5000 HZ SCT020
                      BECMG 3001/3003 06010KT 7000 NSW
                      TEMPO 3006/3009 4000 -TSRA FEW017CB BKN018=
202311291100 TAF WIHH 291100Z 2912/3012 04008KT 7000 SCT020
                      BECMG 2920/2922 22003KT 5000 HZ=
202311290500 TAF WIHH 290500Z 2906/3006 11007KT 6000 SCT020
                      TEMPO 2908/2912 22013KT 4000 -TSRA FEW017CB
                       BKN018
                      BECMG 2913/2915 24005KT 5000 HZ=
202311282300 TAF WIHH 282300Z 2900/3000 15006KT 6000 SCT020
                      TEMPO 2908/2911 03012KT 4000 -RA BKN018
                      BECMG 2913/2915 5000 HZ=
202311281700 TAF WIHH 281700Z 2818/2918 12006KT 5000 HZ SCT020
                      BECMG 2901/2903 6000
                      TEMPO 2907/2910 06014KT 3000 -TSRA FEW017CB
                       BKN018=
202311281100 TAF WIHH 281100Z 2812/2912 06008KT 5000 HZ SCT020
                      BECMG 2818/2820 00000KT 6000 FEW020=
202311280500 TAF WIHH 280500Z 2806/2906 15008KT 5000 HZ SCT020
                      TEMPO 2808/2811 03012KT 4000 -RA FEW017CB
                       BECMG 2813/2815 24004KT 6000=
202311272300 TAF WIHH 272300Z 2800/2900 03008KT 7000 SCT020
                      TEMPO 2807/2810 12012KT 3000 -TSRA FEW017CB
                       BKN018
                      BECMG 2811/2813 24005KT 5000 HZ=
202311271700 TAF WIHH 271700Z 2718/2818 21003KT 4000 HZ FEW020
                      BECMG 2801/2803 03010KT 6000=
202311271100 TAF WIHH 271100Z 2712/2812 24008KT 5000 HZ SCT020
                      BECMG 2717/2719 18003KT 3000 BR=
202311270500 TAF WIHH 270500Z 2706/2806 35010KT 6000 SCT018
                      TEMPO 2707/2711 29014KT 3000 -TSRA FEW017CB
                       BKN018
                      BECMG 2713/2715 04005KT 4000 HZ=
202311262300 TAF WIHH 262300Z 2700/2800 14008KT 7000 SCT020
                      TEMPO 2707/2711 3000 -TSRA FEW018CB BKN019
                       BECMG 2712/2714 25005KT 4000 HZ=
202311261700 TAF WIHH 261700Z 2618/2718 24005KT 5000 HZ SCT020
                      TEMPO 2618/2621 3000 RA FEW018CB BKN019
                      BECMG 2701/2703 10010KT 6000
                      TEMPO 2705/2709 3000 -TSRA FEW017CB BKN018=
202311261100 TAF WIHH 261100Z 2612/2712 34006KT 6000 SCT020
                      TEMPO 2617/2620 3000 -TSRA FEW017CB BKN018
                       BECMG 2621/2623 00000KT 3000 BR=
202311260500 TAF WIHH 260500Z 2606/2706 02007KT 6000 SCT020
                      TEMPO 2609/2613 20013KT 3000 -TSRA FEW017CB
                       BKN018
                      BECMG 2615/2617 18005KT 4000 HZ=
202311252300 TAF WIHH 252300Z 2600/2700 12008KT 6000 SCT020
                      TEMPO 2606/2610 24012KT 3000 -TSRA FEW017CB
                       BKN018
                      BECMG 2612/2614 5000 HZ=
202311251700 TAF WIHH 251700Z 2518/2618 21005KT 5000 HZ FEW020
                      BECMG 2602/2604 6000 SCT020
                      TEMPO 2606/2609 03012KT 4000 RA BKN018=
202311251100 TAF WIHH 251100Z 2512/2612 03008KT 4000 -RA SCT020
                      BECMG 2513/2515 31003KT 5000 HZ
                      BECMG 2520/2522 00000KT 3000 BR=
202311250600 TAF AMD WIHH 250600Z 2506/2606 03008KT 5000 HZ SCT020
                      TEMPO 2509/2512 4000 RA BKN018
                      BECMG 2514/2516 31003KT=
202311250500 TAF WIHH 250500Z 2506/2606 03008KT 4000 RA SCT018
                      BECMG 2510/2512 15003KT 5000 HZ
                      BECMG 2518/2520 00000KT 3000 BR FEW020=
202311242300 TAF WIHH 242300Z 2500/2600 36008KT 5000 HZ FEW020
                      BECMG 2502/2504 6000 SCT020
                      TEMPO 2507/2511 33014KT 3000 -TSRA FEW017CB
                       BKN018
                      BECMG 2512/2514 18003KT=
202311241700 TAF WIHH 241700Z 2418/2518 15003KT 3000 BR FEW020
                      BECMG 2502/2504 01005KT 5000 HZ SCT020=
202311241100 TAF WIHH 241100Z 2412/2512 12008KT 4000 HZ SCT018
                      TEMPO 2412/2415 2000 -TSRA FEW017CB BKN018
                       BECMG 2416/2418 09004KT=
202311240500 TAF WIHH 240500Z 2406/2506 03010KT 5000 HZ SCT018
                      TEMPO 2407/2411 21014KT 3000 -TSRA FEW017CB
                       BECMG 2412/2414 18005KT=
202311232300 TAF WIHH 232300Z 2400/2500 15006KT 6000 SCT020
                      TEMPO 2407/2411 03014KT 3000 -TSRA FEW017CB
                       BKN018
                      BECMG 2413/2415 5000 HZ=
202311231700 TAF WIHH 231700Z 2318/2418 18005KT 6000 FEW020
                      BECMG 2402/2404 06008KT SCT020
                      TEMPO 2406/2410 34014KT 3000 -TSRA FEW017CB
                       BKN018=
202311231100 TAF WIHH 231100Z 2312/2412 15006KT 5000 HZ SCT020
                      TEMPO 2317/2320 03010KT 4000 RA BKN018
                      BECMG 2321/2323 00000KT 3000 BR=
202311230500 TAF WIHH 230500Z 2306/2406 12008KT 5000 HZ SCT020
                      TEMPO 2308/2312 34015KT 3000 -TSRA FEW017CB
                       BKN018
                      BECMG 2313/2315 03003KT
                      TEMPO 2318/2321 4000 RA=
202311222300 TAF WIHH 222300Z 2300/2400 15006KT 6000 FEW022
                      BECMG 2302/2304 03010KT SCT020
                      TEMPO 2308/2311 18014KT 4000 -RA FEW018CB
                       BECMG 2313/2315 21004KT 5000 HZ=
202311221700 TAF WIHH 221700Z 2218/2318 20003KT 5000 HZ SCT020
                      BECMG 2301/2303 15006KT 7000=
202311221100 TAF WIHH 221100Z 2212/2312 33008KT 6000 SCT018
                      BECMG 2215/2217 23003KT 4000 HZ=
202311220500 TAF WIHH 220500Z 2206/2306 34008KT 7000 SCT020
                      TEMPO 2208/2212 22014G20KT 3000 -TSRA FEW017CB
                       BKN018
                      BECMG 2214/2216 20005KT 5000 HZ=
202311212300 TAF WIHH 212300Z 2200/2300 21008KT 6000 SCT020
                      TEMPO 2206/2209 4000 RA
                      TEMPO 2212/2215 34014G20KT 3000 TSRA FEW017CB
                       BKN108
                      BECMG 2217/2219 00000KT 5000 HZ=
202311211700 TAF WIHH 211700Z 2118/2218 18005KT 6000 SCT020
                      BECMG 2202/2204 03008KT
                      TEMPO 2207/2210 24012KT 4000 RA BKN018=
202311211100 TAF WIHH 211100Z 2112/2212 15006KT 5000 HZ SCT020
                      BECMG 2116/2118 00000KT 6000 FEW020=
202311210500 TAF WIHH 210500Z 2106/2206 12008KT 5000 HZ SCT020
                      TEMPO 2108/2111 21012G18KT 4000 RA BKN018
                       BECMG 2113/2115 34003KT=
202311202300 TAF WIHH 202300Z 2100/2200 04008KT 7000 FEW020
                      TEMPO 2107/2111 15012KT 4000 -TSRA FEW017CB
                       SCT018
                      BECMG 2112/2114 21005KT 5000 HZ=
202311201700 TAF WIHH 201700Z 2018/2118 VRB03KT 5000 HZ FEW022
                      BECMG 2102/2104 02008KT 7000 SCT020=
202311201100 TAF WIHH 201100Z 2012/2112 32005KT 7000 SCT020
                      BECMG 2014/2016 VRB03KT 5000 HZ FEW022=
202311200500 TAF WIHH 200500Z 2006/2106 36010KT 7000 SCT020
                      TEMPO 2009/2012 24015KT 4000 -TSRA FEW017CB
                       BKN018
                      BECMG 2013/2015 16005KT 5000 HZ=
202311192300 TAF WIHH 192300Z 2000/2100 15008KT 6000 SCT020
                      TEMPO 2008/2011 24014KT 3000 TSRA FEW017CB
                       BKN018
                      BECMG 2013/2015 5000 HZ=
202311191700 TAF WIHH 191700Z 1918/2018 21005KT 5000 HZ SCT020
                      BECMG 2003/2005 03010KT 6000=
202311191100 TAF WIHH 191100Z 1912/2012 15006KT 6000 SCT020
                      TEMPO 1912/1915 24014KT 3000 RA BKN018
                      BECMG 1916/1918 5000 HZ=
202311190500 TAF WIHH 190500Z 1906/2006 12008KT 6000 SCT020
                      TEMPO 1910/1913 21012KT 4000 RA BKN018
                      BECMG 1915/1917 00000KT 5000 HZ=
202311182300 TAF WIHH 182300Z 1900/2000 15005KT 7000 FEW022
                      BECMG 1902/1904 03010KT SCT020
                      TEMPO 1909/1912 30015KT 3000 -TSRA FEW017CB
                       BKN018
                      BECMG 1914/1916 23004KT 5000 HZ=
202311181700 TAF WIHH 181700Z 1818/1918 VRB03KT 4000 HZ FEW022
                      BECMG 1902/1904 04008KT 6000 SCT020=
202311181100 TAF WIHH 181100Z 1812/1912 24008KT 4000 -RA FEW017CB SCT018
                      BECMG 1814/1816 18005KT 5000 HZ SCT020=
202311180500 TAF WIHH 180500Z 1806/1906 01010KT 7000 SCT018
                      TEMPO 1809/1812 24014KT 3000 -TSRA FEW017CB
                       BECMG 1814/1816 18005KT 5000 HZ=
202311172300 TAF WIHH 172300Z 1800/1900 15008KT 6000 SCT020
                      TEMPO 1807/1811 21014KT 4000 -TSRA FEW017CB
                       BKN018
                      BECMG 1813/1815 32004KT 5000 HZ=
202311171700 TAF WIHH 171700Z 1718/1818 21005KT 5000 HZ SCT020
                      TEMPO 1719/1722 06010KT 4000 RA BKN018
                      BECMG 1800/1802 00000KT
                      TEMPO 1807/1810 21014KT 3000 TSRA FEW017CB
                       BKN018=
202311171100 TAF WIHH 171100Z 1712/1812 18006KT 5000 HZ SCT020
                      TEMPO 1712/1715 3000 RA BKN018
                      BECMG 1716/1718 00000KT
                      BECMG 1723/1801 03003KT 4000 BR FEW020=
202311170600 TAF AMD WIHH 170600Z 1706/1806 15008KT 5000 HZ SCT020
                      TEMPO 1706/1709 24012KT 4000 RA FEW017CB
                       BKN018
                      BECMG 1712/1714 32004KT
                      BECMG 1719/1721 00000KT 3000 BR FEW020=
202311170500 TAF WIHH 170500Z 1706/1806 15008KT 5000 HZ SCT020
                      TEMPO 1708/1711 24014KT 3000 TSRA FEW016CB
                       BKN017
                      BECMG 1713/1715 34004KT=
202311162300 TAF WIHH 162300Z 1700/1800 23005KT 7000 FEW022
                      BECMG 1702/1704 03008KT SCT020
                      TEMPO 1709/1712 30014KT 3000 TSRA FEW017CB
                       BKN018
                      BECMG 1714/1716 21003KT 5000 HZ=
202311161700 TAF WIHH 161700Z 1618/1718 24003KT 5000 HZ FEW022
                      BECMG 1701/1703 03008KT 7000=
202311161100 TAF WIHH 161100Z 1612/1712 15014KT 3000 -TSRA FEW017CB BKN018
                      BECMG 1614/1616 20005KT 5000 HZ SCT020=
202311160500 TAF WIHH 160500Z 1606/1706 02010KT 7000 SCT020
                      TEMPO 1608/1612 22014KT 4000 -TSRA FEW016CB
                       SCT018
                      BECMG 1614/1616 10005KT 5000 HZ=
202311152300 TAF WIHH 152300Z 1600/1700 13005KT 6000 SCT020
                      TEMPO 1607/1611 25012G20KT 3000 TSRA FEW017CB
                       BKN018
                      BECMG 1613/1615 25004KT 5000 HZ=
202311151700 TAF WIHH 151700Z 1518/1618 12005KT 5000 HZ SCT020
                      BECMG 1602/1605 34010KT 6000
                      TEMPO 1607/1611 25012KT 3000 TSRA FEW018CB
                       BKN019=
202311151100 TAF WIHH 151100Z 1512/1612 14007KT 5000 HZ SCT020
                      TEMPO 1512/1515 4000 -TSRA FEW017CB BKN018
                       TEMPO 1519/1521 24005KT RA FEW018CB BKN019
                       BECMG 1522/1600 00000KT 3000 BR FEW020=
202311150500 TAF WIHH 150500Z 1506/1606 03010KT 6000 SCT020
                      TEMPO 1509/1513 21012KT 3000 TSRA FEW017CB
                       BKN018
                      BECMG 1515/1517 29005KT 5000 HZ
                      TEMPO 1518/1521 4000 RA FEW018CB BKN019=
202311142300 TAF WIHH 142300Z 1500/1600 10008KT 5000 HZ SCT020
                      TEMPO 1507/1511 24014KT 3000 TSRA BKN016
                       FEW017CB
                      BECMG 1513/1515 32004KT=
202311141700 TAF WIHH 141700Z 1418/1518 18005KT 5000 HZ SCT020
                      TEMPO 1418/1420 10010KT 4000 RA BKN018
                      BECMG 1421/1423 00000KT 3000 BR
                      TEMPO 1507/1510 24014KT 3000 TSRA BKN016
                       FEW017CB=
202311141100 TAF WIHH 141100Z 1412/1512 21008KT 4000 RA SCT018
                      BECMG 1414/1416 00000KT 5000 HZ
                      BECMG 1422/1500 03004KT 3000 BR FEW020=
202311140500 TAF WIHH 140500Z 1406/1506 12008KT 5000 HZ SCT020
                      TEMPO 1407/1411 21014KT 3000 TSRA FEW016CB
                       BKN017
                      BECMG 1413/1415 03004KT
                      BECMG 1420/1422 00000KT 4000 BR FEW020=
202311132300 TAF WIHH 132300Z 1400/1500 35010KT 5000 HZ FEW022
                      BECMG 1402/1404 7000 SCT020
                      TEMPO 1408/1412 23014KT 3000 -TSRA FEW017CB
                       BKN018
                      BECMG 1414/1416 18005KT 4000 HZ=
202311131700 TAF WIHH 131700Z 1318/1418 25003KT 5000 HZ FEW020
                      BECMG 1400/1402 33008KT 7000 SCT020=
202311131100 TAF WIHH 131100Z 1312/1412 17005KT 5000 HZ FEW018CB SCT020
                      BECMG 1316/1318 12003KT FEW022=
202311130500 TAF WIHH 130500Z 1306/1406 03012KT 6000 SCT020
                      TEMPO 1308/1311 20014KT 3000 TSRA FEW017CB
                       BKN018
                      BECMG 1314/1316 15005KT 5000 HZ=
202311122300 TAF WIHH 122300Z 1300/1400 12008KT 6000 SCT020
                      TEMPO 1308/1311 21013G18KT 3000 TSRA FEW017CB
                       BKN018
                      BECMG 1313/1315 34004KT 5000 HZ=
202311121700 TAF WIHH 121700Z 1218/1318 15005KT 5000 HZ FEW020
                      BECMG 1303/1305 03010KT 6000 SCT020=
202311121100 TAF WIHH 121100Z 1212/1312 12006KT 5000 HZ SCT020
                      BECMG 1216/1218 06003KT FEW020
                      BECMG 1223/1301 00000KT=
202311120500 TAF WIHH 120500Z 1206/1306 10008KT 5000 HZ SCT020
                      TEMPO 1207/1211 24014KT 3000 TSRA FEW016CB
                       BKN017
                      BECMG 1214/1216 02004KT
                      BECMG 1220/1220 00000KT 4000 BR FEW020=
202311112300 TAF WIHH 112300Z 1200/1300 04009KT 6000 SCT020
                      TEMPO 1208/1211 4000 -TSRA FEW017CB BKN018
                       BECMG 1213/1215 16005KT 5000 HZ=
202311111700 TAF WIHH 111700Z 1118/1218 20005KT 5000 SCT020
                      BECMG 1202/1204 03010KT 7000 NSW=
202311111100 TAF WIHH 111100Z 1112/1212 36007KT 6000 SCT020
                      TEMPO 1112/1115 4000 -TSRA FEW017CB BKN018
                       BECMG 1117/1119 25004KT 4000 HZ=
202311110500 TAF WIHH 110500Z 1106/1206 02008KT 6000 SCT020
                      TEMPO 1107/1111 3000 TSRA FEW017CB BKN018
                       BECMG 1114/1116 20005KT 5000 HZ=
202311102300 TAF WIHH 102300Z 1100/1200 26005KT 3000 BR SCT020
                      BECMG 1102/1104 03010KT 5000 HZ
                      TEMPO 1107/1111 30012KT 3000 TSRA FEW017CB
                       BKN018
                      BECMG 1112/1114 15005KT 4000 HZ=
202311101700 TAF WIHH 101700Z 1018/1118 23004KT 5000 HZ SCT020
                      BECMG 1101/1103 01008KT 7000=
202311101125 TAF COR WIHH 101125Z 1012/1112 35006KT 4000 -RA FEW018CB BKN018
                       BECMG 1014/1016 22003KT 5000 HZ SCT020=
202311101100 TAF COR WIHH 101100Z 1012/1112 35006KT 4000 -RA FEW018CB BKN020
                       BECMG 1014/1016 22003KT 5000 HZ=
202311100500 TAF WIHH 100500Z 1006/1106 36010KT 5000 HZ SCT020
                      TEMPO 1008/1011 22012KT 4000 -RA FEW017CB
                       BKN018
                      BECMG 1014/1016 15005KT=
202311092300 TAF WIHH 092300Z 1000/1100 16005KT 6000 SCT020
                      BECMG 1003/1005 03012KT
                      TEMPO 1008/1011 16009KT 4000 SHRA FEW017CB
                       BKN018
                      BECMG 1014/1016 22005KT 5000 HZ=
202311091700 TAF WIHH 091700Z 0918/1018 21004KT 5000 HZ FEW020
                      BECMG 1002/1004 03012KT 6000 SCT020=
202311091100 TAF WIHH 091100Z 0912/1012 32007KT 6000 SCT020
                      TEMPO 0913/0915 24005KT 5000 -RA
                      BECMG 0917/0919 00000KT 5000 HZ=
202311090500 TAF WIHH 090500Z 0906/1006 35008KT 5000 HZ SCT020
                      TEMPO 0908/0911 4000 -TSRA FEW018CB BKN019
                       BECMG 0913/0915 22004KT=
202311082300 TAF WIHH 082300Z 0900/1000 11005KT 5000 HZ FEW022
                      BECMG 0902/0904 03010KT 7000 SCT020
                      TEMPO 0908/0911 24012KT 4000 -TSRA FEW018CB
                       BECMG 0913/0915 17005KT=
202311081700 TAF WIHH 081700Z 0818/0918 21003KT 5000 HZ FEW022
                      BECMG 0902/0904 03008KT 7000 SCT020=
202311081100 TAF WIHH 081100Z 0812/0912 24006KT 7000 FEW020
                      BECMG 0816/0818 VRB04KT 5000 HZ=
202311080500 TAF WIHH 080500Z 0806/0906 36010KT 7000 SCT020
                      TEMPO 0809/0812 30012KT 4000 -RA
                      BECMG 0816/0818 VRB04KT 5000 HZ=
202311072300 TAF WIHH 072300Z 0800/0900 02007KT 7000 SCT020
                      TEMPO 0809/0812 16012KT 4000 -RA
                      BECMG 0814/0816 24005KT 5000 HZ=
202311071700 TAF WIHH 071700Z 0718/0818 22003KT 5000 HZ FEW020
                      BECMG 0800/0802 03008KT 7000=
202311071100 TAF WIHH 071100Z 0712/0812 34007KT 7000 FEW021
                      BECMG 0718/0720 00000KT 5000 HZ=
202311070500 TAF WIHH 070500Z 0706/0806 03010KT 6000 SCT020
                      TEMPO 0710/0713 4000 -RA
                      BECMG 0715/0717 20003KT 5000 HZ=
202311062300 TAF WIHH 062300Z 0700/0800 22005KT 5000 HZ FEW022
                      BECMG 0702/0704 03012KT 7000 SCT020
                      TEMPO 0712/0715 18014KT 4000 -TSRA FEW018CB
                       BECMG 0716/0718 VRB03KT=
202311061700 TAF WIHH 061700Z 0618/0718 17003KT 5000 HZ FEW022
                      BECMG 0701/0703 05010KT 7000 SCT020=
202311061100 TAF WIHH 061100Z 0612/0712 16005KT 7000 SCT020
                      BECMG 0615/0617 5000 HZ FEW022=
202311060500 TAF WIHH 060500Z 0606/0706 03010KT 7000 SCT020
                      TEMPO 0609/0612 21012KT 3000 -TSRA FEW017CB
                       BECMG 0614/0616 16005KT 5000 HZ=
202311052300 TAF WIHH 052300Z 0600/0700 24003KT 5000 HZ SCT020
                      BECMG 0602/0604 04010KT 7000
                      TEMPO 0609/0612 4000 -TSRA FEW017CB BKN018
                       BECMG 0613/0615 30005KT 5000 HZ=
202311051700 TAF WIHH 051700Z 0518/0618 24003KT 5000 HZ FEW020
                      BECMG 0520/0522 3000 BR
                      TEMPO 0606/0609 02014KT 4000 -TSRA FEW017CB
                       BKN018=
202311051100 TAF WIHH 051100Z 0512/0612 12006KT 5000 HZ SCT020
                      TEMPO 0513/0516 4000 RA FEW018CB
                      BECMG 0518/0520 26003KT 3000 BR=
202311050500 TAF WIHH 050500Z 0506/0606 15007KT 6000 SCT020
                      TEMPO 0506/0510 04012KT 4000 -TSRA FEW017CB
                       BKN018
                      BECMG 0514/0516 25003KT 4000 HZ=
202311042300 TAF WIHH 042300Z 0500/0600 10008KT 5000 HZ SCT020
                      TEMPO 0506/0510 24015KT 3000 TSRA FEW016CB
                       BKN017
                      BECMG 0513/0515 02004KT=
202311041700 TAF WIHH 041700Z 0418/0518 06006KT 4000 RA SCT020
                      BECMG 0420/0422 00000KT 3000 BR
                      BECMG 0503/0505 12010KT 5000 HZ
                      TEMPO 0507/0510 24015KT 3000 TSRA BKN016
                       FEW017CB=
202311041100 TAF WIHH 041100Z 0412/0512 10006KT 5000 HZ SCT020
                      TEMPO 0412/0415 15012KT 4000 RA FEW017CB
                       BKN018
                      BECMG 0416/0418 34003KT
                      BECMG 0421/0423 00000KT 3000 BR FEW020=
202311040500 TAF WIHH 040500Z 0406/0506 12008KT 5000 HZ SCT020
                      TEMPO 0408/0411 21015KT 3000 TSRA FEW017CB
                       BKN018
                      BECMG 0414/0416 00000KT FEW020=
202311032300 TAF WIHH 032300Z 0400/0500 15008KT 6000 SCT020
                      TEMPO 0406/0410 24014KT 3000 TSRA FEW017CB
                       BKN018
                      BECMG 0412/0414 34004KT 5000 HZ=
202311031700 TAF WIHH 031700Z 0318/0418 24003KT 6000 FEW020
                      BECMG 0402/0404 02012KT
                      TEMPO 0407/0410 4000 -TSRA FEW017CB BKN018
                       BECMG 0412/0414 16005KT 5000 HZ=
202311031100 TAF WIHH 031100Z 0312/0412 24008KT 5000 HZ SCT20
                      TEMPO 0312/0314 4000 SHRA FEW017CB
                      BECMG 0318/0320 00000KT FEW020
                      BECMG 0401/0403 22004KT 6000=
202311030500 TAF WIHH 030500Z 0306/0406 04008KT 6000 SCT020
                      TEMPO 0308/0311 22012KT 4000 TSRA FEW017CB
                       BKN018
                      BECMG 0317/0319 00000KT 4000 HZ FEW020
                      BECMG 0400/0402 24005KT 6000=
202311022300 TAF WIHH 022300Z 0300/0400 23005KT 5000 HZ FEW020
                      BECMG 0302/0304 03010KT 7000 SCT020
                      TEMPO 0308/0311 18012KT 3000 -TSRA FEW017CB
                       BKN018
                      BECMG 0312/0214 10005KT=
202311021700 TAF WIHH 021700Z 0218/0318 18003KT 5000 HZ FEW022
                      BECMG 0301/0303 05008KT 7000 SCT020=
202311021100 TAF WIHH 021100Z 0212/0312 12006KT 5000 HZ SCT020
                      BECMG 0216/0218 18003KT FEW020=
202311020500 TAF WIHH 020500Z 0206/0306 01010KT 6000 SCT020
                      TEMPO 0208/0211 26012KT 4000 -RA FEW017CB
                       BECMG 0212/0214 12005KT=
202311012300 TAF WIHH 012300Z 0200/0300 21010KT 6000 SCT020
                      TEMPO 0207/0211 12014KT 3000 TSRA FEW017CB
                       BKN018
                      BECMG 0213/0215 34004KT 5000 HZ=
202311011700 TAF WIHH 011700Z 0118/0218 21005KT 6000 FEW020
                      BECMG 0203/0205 06010KT SCT020=
202311011100 TAF WIHH 011100Z 0112/0212 15008KT 5000 HZ SCT020
                      TEMPO 0112/0114 15014KT 4000 RA BKN018
                      BECMG 0116/0118 00000KT=
202311010500 TAF WIHH 010500Z 0106/0206 06010KT 6000 SCT020
                      TEMPO 0109/0112 15014KT 4000 RA BKN018
                      BECMG 0114/0116 34004KT 5000 HZ=
