##########################################################
# Query made at 05/05/2026 03:35:21 UTC
# Time interval: from 12/01/2023 00:00  to 12/31/2023 23:59  UTC
##########################################################

##########################################################
# WIHH, Jakarta Halim Perdanakusuma (Indonesia)
# WMO index: 96747. WIGOS ID: Unknown
# Latitude 06-15S. Longitude 106-54E. Altitude 30 m.
##########################################################

###################################
#  METAR/SPECI from WIHH
###################################
202312312330 METAR WIHH 312330Z 24004KT 3000 BR SCT020 25/24 Q1009 NOSIG=
202312312300 METAR WIHH 312300Z 24003KT 3000 BR SCT020 25/24 Q1009 NOSIG=
202312312230 METAR WIHH 312230Z 24003KT 2000 BR SCT020 25/24 Q1009 NOSIG=
202312312200 METAR WIHH 312200Z 22003KT 2000 BR SCT020 25/24 Q1009 NOSIG=
202312312130 METAR WIHH NIL=
202312312100 METAR WIHH NIL=
202312312030 METAR WIHH NIL=
202312312000 METAR WIHH NIL=
202312311930 METAR WIHH NIL=
202312311900 METAR WIHH NIL=
202312311830 METAR WIHH NIL=
202312311800 METAR WIHH NIL=
202312311730 METAR WIHH NIL=
202312311700 METAR WIHH NIL=
202312311630 METAR WIHH 311630Z 00000KT 6000 SCT020 25/24 Q1011 NOSIG=
202312311600 METAR WIHH 311600Z 00000KT 6000 SCT018 25/24 Q1011 NOSIG=
202312311530 METAR WIHH 311530Z 02003KT 6000 SCT018 25/24 Q1011 NOSIG=
202312311500 METAR WIHH 311500Z 02003KT 6000 SCT018 25/24 Q1011 NOSIG=
202312311430 METAR WIHH 311430Z 26002KT 6000 SCT020 25/24 Q1011 NOSIG=
202312311400 METAR WIHH 311400Z 16002KT 6000 SCT020 25/24 Q1011 NOSIG=
202312311330 METAR WIHH 311330Z 12003KT 6000 SCT020 25/23 Q1010 RMK RA TO N=
202312311300 METAR WIHH 311300Z 13003KT 6000 SCT018 25/23 Q1010 RMK RA TO N=
202312311230 METAR WIHH 311230Z 13003KT 6000 -RA SCT018 25/23 Q1010 NOSIG=
202312311200 METAR WIHH 311200Z 13003KT 6000 SCT018 25/23 Q1010 RMK RA TO E=
202312311130 METAR WIHH 311130Z 11005KT 5000 -RA FEW016CB SCT018 25/23 Q1010 RMK CB TO SE=
202312311100 METAR WIHH 311100Z 11005KT 5000 -RA FEW016CB SCT018 25/23 Q1010 RMK CB TO SE=
202312311030 METAR WIHH 311030Z 13005KT 5000 -RA FEW016CB SCT018 26/23 Q1010 RMK CB TO SE=
202312311000 METAR WIHH 311000Z 24015KT 5000 HZ FEW016CB SCT018 26/23 Q1009 RMK CB AND RA TO SE=
202312310930 METAR WIHH 310930Z 22015KT 5000 HZ FEW016CB SCT018 27/23 Q1009 RMK CB AND RA TO SW=
202312310900 METAR WIHH 310900Z 22015KT 5000 HZ FEW016CB SCT018 33/25 Q1009 RMK CB AND RA TO SW=
202312310830 METAR WIHH 310830Z 31005KT 6000 FEW016CB SCT018 33/25 Q1007 RMK CB AND RA TO SW=
202312310800 METAR WIHH 310800Z 33010KT 6000 SCT018 33/25 Q1007 NOSIG=
202312310730 METAR WIHH 310730Z 32005KT 6000 SCT018 33/25 Q1007 NOSIG=
202312310700 METAR WIHH 310700Z 34010KT 6000 SCT018 33/25 Q1007 NOSIG=
202312310630 METAR WIHH 310630Z 35010KT 6000 SCT018 33/26 Q1008 NOSIG=
202312310600 METAR WIHH 310600Z 35006KT 6000 SCT018 31/27 Q1008 RMK RA NE=
202312310530 METAR WIHH 310530Z 33006KT 6000 -RA SCT018 32/25 Q1009 NOSIG=
202312310500 METAR WIHH 310500Z 34006KT 6000 SCT020 34/25 Q1009 RMK RA TO E=
202312310430 METAR WIHH 310430Z 31006KT 6000 SCT020 35/24 Q1010 NOSIG=
202312310400 METAR WIHH 310400Z 27006KT 6000 SCT020 34/25 Q1010 NOSIG=
202312310330 METAR WIHH 310330Z 25003KT 6000 SCT020 33/25 Q1010 NOSIG=
202312310300 METAR WIHH 310300Z 34003KT 6000 SCT020 32/25 Q1011 NOSIG=
202312310230 METAR WIHH 310230Z 31003KT 6000 FEW020 31/25 Q1011 NOSIG=
202312310200 METAR WIHH 310200Z 29003KT 6000 NSC 30/25 Q1011 NOSIG=
202312310130 METAR WIHH 310130Z 24003KT 6000 NSC 30/25 Q1010 NOSIG=
202312310100 METAR WIHH 310100Z 25003KT 6000 NSC 29/25 Q1010 NOSIG=
202312310030 METAR WIHH 310030Z 22003KT 6000 NSC 28/25 Q1010 NOSIG=
202312310000 METAR WIHH 310000Z 19002KT 6000 NSC 27/25 Q1010 NOSIG=
202312302330 METAR WIHH 302330Z 22003KT 6000 NSC 26/25 Q1009 NOSIG=
202312302300 METAR WIHH 302300Z 25003KT 5000 HZ FEW020 25/24 Q1009 NOSIG=
202312302230 METAR WIHH 302230Z 00000KT 4000 HZ FEW020 25/24 Q1009 NOSIG=
202312302200 METAR WIHH 302200Z 22002KT 4000 HZ FEW020 25/24 Q1009 NOSIG=
202312302130 METAR WIHH NIL=
202312302100 METAR WIHH NIL=
202312302030 METAR WIHH NIL=
202312302000 METAR WIHH NIL=
202312301930 METAR WIHH NIL=
202312301900 METAR WIHH NIL=
202312301830 METAR WIHH NIL=
202312301800 METAR WIHH NIL=
202312301730 METAR WIHH NIL=
202312301700 METAR WIHH NIL=
202312301630 METAR WIHH NIL=
202312301600 METAR WIHH NIL=
202312301530 METAR WIHH NIL=
202312301500 METAR WIHH 301500Z 00000KT 6000 FEW020 26/25 Q1011 NOSIG=
202312301430 METAR WIHH 301430Z 00000KT 6000 FEW020 26/25 Q1010 NOSIG=
202312301400 METAR WIHH 301400Z 00000KT 6000 FEW020 26/25 Q1010 NOSIG=
202312301330 METAR WIHH 301330Z 00000KT 6000 FEW020 27/25 Q1010 NOSIG=
202312301300 METAR WIHH 301300Z 18002KT 6000 FEW020 27/24 Q1010 NOSIG=
202312301230 METAR WIHH 301230Z 24003KT 6000 FEW020 27/25 Q1009 NOSIG=
202312301200 METAR WIHH 301200Z 23002KT 6000 FEW020 27/25 Q1009 NOSIG=
202312301130 METAR WIHH 301130Z 27003KT 6000 SCT020 27/24 Q1009 NOSIG=
202312301100 METAR WIHH 301100Z TAF WIHH 301100Z 3012/3112 21005KT 6000 SCT018 BECMG 3015/3017 16003KT 4000 HZ=
202312301030 METAR WIHH 301030Z 21004KT 6000 SCT018 27/24 Q1009 NOSIG=
202312301000 METAR WIHH 301000Z 21007KT 6000 SCT018 27/25 Q1007 NOSIG=
202312300930 METAR WIHH 300930Z 14007KT 6000 SCT018 28/25 Q1007 RMK RA TO S=
202312300900 METAR WIHH 300900Z 25003KT 6000 BKN018 29/27 Q1007 RMK RA TO S=
202312300830 METAR WIHH 300830Z 36005KT 5000 TS FEW017CB SCT018 30/26 Q1007 RMK CB AND RA TO S=
202312300800 METAR WIHH NIL=
202312300700 METAR WIHH 300700Z 32004KT 5000 HZ SCT018 28/26 Q1007 RMK RA TO SE=
202312300630 METAR WIHH 300630Z 35006KT 5000 -RA FEW017CB BKN018 27/25 Q1008 RMK CB TO W=
202312300600 METAR WIHH 300600Z 29012KT 5000 -TSRA FEW017CB BKN018 28/26 Q1008 RMK CB TO N=
202312300530 METAR WIHH 300530Z 04012KT 3000 FEW017CB SCT018 32/25 Q1008 RMK CB TO N=
202312300500 METAR WIHH 300500Z 06003KT 6000 SCT018 32/25 Q1008 RMK RA TO E=
202312300430 METAR WIHH 300430Z 21003KT 6000 SCT018 33/24 Q1009 NOSIG=
202312300400 METAR WIHH 300400Z 16003KT 6000 SCT018 33/25 Q1010 NOSIG=
202312300330 METAR WIHH 300330Z 04004KT 5000 HZ SCT018 31/26 Q1010 NOSIG=
202312300300 METAR WIHH 300300Z 09004KT 5000 HZ SCT018 31/26 Q1011 NOSIG=
202312300230 METAR WIHH 300230Z 21005KT 4000 HZ SCT020 30/26 Q1011 NOSIG=
202312300200 METAR WIHH 300200Z 24005KT 3000 HZ FEW019CB SCT020 29/26 Q1011 RMK CB TO NE=
202312300130 METAR WIHH 300130Z 25003KT 3000 HZ FEW020 29/25 Q1011 NOSIG=
202312300100 METAR WIHH 300100Z 21003KT 3000 HZ FEW020 28/25 Q1011 NOSIG=
202312300030 METAR WIHH 300030Z 24003KT 3000 HZ FEW020 27/25 Q1011 NOSIG=
202312300000 METAR WIHH 300000Z 23003KT 3000 HZ FEW020 26/25 Q1010 NOSIG=
202312292330 METAR WIHH 292330Z 27003KT 3000 HZ SCT020 26/25 Q1010 NOSIG=
202312292300 METAR WIHH 292300Z 26003KT 3000 HZ SCT020 26/24 Q1009 NOSIG=
202312292230 METAR WIHH 292230Z 00000KT 3000 HZ SCT020 25/24 Q1009 RMK RA TO NE=
202312292200 METAR WIHH 292200Z 18003KT 3000 HZ SCT020 26/24 Q1009 NOSIG=
202312292130 METAR WIHH 292130Z 21003KT 3000 HZ FEW020 26/24 Q1009 NOSIG=
202312292100 METAR WIHH 292100Z 21003KT 3000 HZ FEW020 26/24 Q1009 NOSIG=
202312292030 METAR WIHH NIL=
202312292000 METAR WIHH NIL=
202312291930 METAR WIHH NIL=
202312291900 METAR WIHH NIL=
202312291830 METAR WIHH NIL=
202312291800 METAR WIHH NIL=
202312291730 METAR WIHH NIL=
202312291700 METAR WIHH 291700Z 21003KT 3000 HZ SCT020 26/25 Q1010 NOSIG=
202312291630 METAR WIHH 291630Z 00000KT 3000 HZ SCT020 26/25 Q1010 NOSIG=
202312291600 METAR WIHH 291600Z 00000KT 3000 HZ SCT020 26/25 Q1010 NOSIG=
202312291530 METAR WIHH 291530Z 25003KT 3000 HZ SCT020 26/25 Q1011 NOSIG=
202312291500 METAR WIHH 291500Z 00000KT 3000 HZ SCT020 26/25 Q1011 NOSIG=
202312291430 METAR WIHH 291430Z 00000KT 4000 HZ SCT020 26/25 Q1010 NOSIG=
202312291400 METAR WIHH 291400Z 13003KT 5000 HZ SCT020 26/25 Q1010 NOSIG=
202312291330 METAR WIHH 291330Z 30003KT 5000 HZ SCT020 26/25 Q1010 NOSIG=
202312291300 METAR WIHH 291300Z 00000KT 5000 HZ SCT020 26/25 Q1009 NOSIG=
202312291230 METAR WIHH 291230Z 24003KT 5000 HZ SCT020 26/25 Q1009 NOSIG=
202312291200 METAR WIHH 291200Z 24003KT 5000 HZ SCT020 26/25 Q1008 NOSIG=
202312291130 METAR WIHH 291130Z 24003KT 5000 HZ FEW020 26/25 Q1008 NOSIG=
202312291100 METAR WIHH 291100Z 24008KT 4000 HZ SCT019 26/25 Q1008 RMK RA TO W=
202312291030 METAR WIHH 291030Z 24008KT 4000 HZ FEW018CB SCT019 26/25 Q1008 RMK CB AND RA TO W=
202312291000 METAR WIHH 291000Z 24015KT 5000 -TSRA BKN017 FEW018CB 26/25 Q1008 TEMPO FM1020 3000 TSRA RMK CB TO S=
202312290930 METAR WIHH 290930Z 27005KT 5000 -TSRA FEW018CB SCT019 31/25 Q1007 RMK CB TO S=
202312290900 METAR WIHH 290900Z 36005KT 5000 HZ FEW018CB SCT020 32/25 Q1007 RMK CB AND RA TO SW=
202312290830 METAR WIHH 290830Z 32005KT 5000 HZ SCT020 32/25 Q1007 RMK RA TO SW=
202312290800 METAR WIHH 290800Z 36008KT 5000 HZ SCT020 33/25 Q1007 RMK RA TO SW=
202312290730 METAR WIHH 290730Z 33010KT 5000 HZ SCT020 33/25 Q1007 RMK RA TO SW=
202312290700 METAR WIHH 290700Z 33005KT 5000 HZ SCT020 34/24 Q1008 NOSIG=
202312290630 METAR WIHH 290630Z 36010KT 5000 HZ SCT020 34/25 Q1008 NOSIG=
202312290600 METAR WIHH 290600Z 36008KT 5000 HZ SCT020 33/25 Q1009 NOSIG=
202312290530 METAR WIHH 290530Z 03008KT 5000 HZ SCT020 35/23 Q1009 NOSIG=
202312290500 METAR WIHH 290500Z 05006KT 5000 HZ SCT020 33/23 Q1009 NOSIG=
202312290430 METAR WIHH 290430Z 06006KT 5000 HZ SCT020 33/23 Q1010 NOSIG=
202312290400 METAR WIHH 290400Z 03003KT 5000 HZ SCT020 32/24 Q1010 NOSIG=
202312290330 METAR WIHH 290330Z 29003KT 5000 HZ SCT020 31/25 Q1011 NOSIG=
202312290300 METAR WIHH 290300Z 02003KT 5000 HZ SCT020 31/25 Q1011 NOSIG=
202312290230 METAR WIHH 290230Z 03002KT 4000 HZ SCT020 31/25 Q1011 NOSIG=
202312290200 METAR WIHH 290200Z 03003KT 4000 HZ SCT020 30/26 Q1011 NOSIG=
202312290130 METAR WIHH 290130Z 06003KT 4000 HZ SCT020 29/25 Q1011 NOSIG=
202312290100 METAR WIHH 290100Z 14003KT 4000 HZ FEW020 29/25 Q1011 NOSIG=
202312290030 METAR WIHH 290030Z 00000KT 4000 HZ FEW020 28/26 Q1011 NOSIG=
202312290000 METAR WIHH 290000Z 00000KT 4000 HZ FEW020 27/26 Q1010 NOSIG=
202312282330 METAR WIHH 282330Z 00000KT 4000 HZ FEW020 26/25 Q1010 NOSIG=
202312282300 METAR WIHH 282300Z 00000KT 4000 HZ FEW020 26/25 Q1009 NOSIG=
202312282230 METAR WIHH 282230Z 00000KT 4000 HZ SCT020 26/25 Q1009 NOSIG=
202312282200 METAR WIHH 282200Z 36003KT 4000 HZ SCT020 26/25 Q1009 NOSIG=
202312282130 METAR WIHH 282130Z 10002KT 4000 HZ SCT020 26/25 Q1009 NOSIG=
202312282100 METAR WIHH NIL=
202312282030 METAR WIHH NIL=
202312282000 METAR WIHH NIL=
202312281930 METAR WIHH NIL=
202312281900 METAR WIHH NIL=
202312281830 METAR WIHH NIL=
202312281800 METAR WIHH NIL=
202312281730 METAR WIHH NIL=
202312281700 METAR WIHH NIL=
202312281630 METAR WIHH NIL=
202312281600 METAR WIHH 281600Z 19003KT 6000 SCT020 27/25 Q1011 NOSIG=
202312281530 METAR WIHH NIL=
202312281500 METAR WIHH 281500Z 20005KT 6000 SCT020 27/25 Q1011 NOSIG=
202312281430 METAR WIHH 281430Z 20004KT 6000 SCT020 28/25 Q1011 NOSIG=
202312281400 METAR WIHH 281400Z 22005KT 6000 SCT020 28/25 Q1011 NOSIG=
202312281330 METAR WIHH 281330Z 23005KT 6000 SCT020 28/25 Q1011 NOSIG=
202312281300 METAR WIHH 281300Z 24003KT 6000 SCT020 28/26 Q1010 RMK RA TO SW=
202312281230 METAR WIHH 281230Z 30003KT 6000 SCT020 29/26 Q1010 RMK RA TO SW=
202312281200 METAR WIHH 281200Z 29003KT 6000 SCT020 29/25 Q1010 RMK RA TO SW=
202312281130 METAR WIHH 281130Z 03005KT 5000 HZ SCT020 30/25 Q1009 RMK RA TO S=
202312281100 METAR WIHH NIL=
202312281030 METAR WIHH 281030Z 33004KT 5000 HZ FEW017CB SCT018 31/25 Q1008 RMK CB AND RA TO SW=
202312281000 METAR WIHH 281000Z 33008KT 5000 HZ FEW017CB SCT018 31/25 Q1008 RMK CB AND RA TO SW=
202312280930 METAR WIHH 280930Z 32010KT 5000 HZ FEW017CB SCT018 31/25 Q1008 RMK CB AND RA TO S=
202312280900 METAR WIHH 280900Z 02010KT 5000 HZ SCT018 32/25 Q1007 RMK RA TO S=
202312280830 METAR WIHH 280830Z 02010KT 5000 HZ SCT018 32/26 Q1008 NOSIG=
202312280800 METAR WIHH 280800Z 04004KT 5000 HZ SCT018 32/26 Q1008 NOSIG=
202312280730 METAR WIHH 280730Z 33004KT 5000 HZ SCT018 31/27 Q1008 RMK RA TO NW=
202312280700 METAR WIHH 280700Z 35006KT 5000 HZ SCT018 29/25 Q1009 RMK RA TO E=
202312280630 METAR WIHH 280630Z 02015KT 5000 -RA SCT018 31/25 Q1010 NOSIG=
202312280600 METAR WIHH 280600Z 03010KT 5000 HZ SCT020 34/24 Q1010 NOSIG=
202312280530 METAR WIHH 280530Z 05010KT 5000 HZ SCT020 34/24 Q1010 NOSIG=
202312280500 METAR WIHH 280500Z 07010KT 5000 HZ SCT020 34/24 Q1011 NOSIG=
202312280430 METAR WIHH 280430Z 06010KT 5000 HZ SCT020 33/24 Q1012 NOSIG=
202312280400 METAR WIHH 280400Z 04005KT 5000 HZ SCT020 33/24 Q1012 NOSIG=
202312280330 METAR WIHH 280330Z 31003KT 5000 HZ SCT020 32/24 Q1012 NOSIG=
202312280300 METAR WIHH 280300Z 30003KT 5000 HZ SCT020 31/24 Q1012 NOSIG=
202312280230 METAR WIHH 280230Z 23003KT 5000 HZ FEW022 31/25 Q1012 NOSIG=
202312280200 METAR WIHH 280200Z 27003KT 5000 HZ FEW022 30/25 Q1012 NOSIG=
202312280130 METAR WIHH 280130Z 00000KT 4000 HZ NSC 30/25 Q1012 NOSIG=
202312280100 METAR WIHH 280100Z 00000KT 4000 HZ NSC 29/24 Q1011 NOSIG=
202312280030 METAR WIHH 280030Z 00000KT 4000 HZ NSC 28/25 Q1011 NOSIG=
202312280000 METAR WIHH 280000Z 00000KT 4000 BR NSC 26/25 Q1011 NOSIG=
202312272330 METAR WIHH 272330Z 00000KT 3000 BR NSC 26/25 Q1011 NOSIG=
202312272300 METAR WIHH 272300Z 00000KT 3000 BR FEW020 25/25 Q1011 NOSIG=
202312272230 METAR WIHH 272230Z 00000KT 3000 BR FEW020 25/25 Q1011 NOSIG=
202312272200 METAR WIHH 272200Z 00000KT 3000 BR FEW020 25/25 Q1010 NOSIG=
202312272130 METAR WIHH 272130Z 00000KT 3000 BR FEW020 26/25 Q1010 NOSIG=
202312272100 METAR WIHH 272100Z 00000KT 3000 BR FEW020 26/25 Q1010 NOSIG=
202312272030 METAR WIHH NIL=
202312272000 METAR WIHH NIL=
202312271930 METAR WIHH NIL=
202312271900 METAR WIHH NIL=
202312271830 METAR WIHH NIL=
202312271800 METAR WIHH NIL=
202312271730 METAR WIHH NIL=
202312271700 METAR WIHH 271700Z 00000KT 5000 BR SCT020 26/25 Q1013 NOSIG=
202312271630 METAR WIHH 271630Z 24003KT 5000 BR SCT020 26/25 Q1013 NOSIG=
202312271600 METAR WIHH 271600Z 21003KT 5000 BR SCT018 26/25 Q1013=
202312271530 METAR WIHH 271530Z 18003KT 5000 BR SCT018 26/25 Q1013=
202312271500 METAR WIHH 271500Z 26002KT 5000 -RA BKN018 26/25 Q1013=
202312271430 METAR WIHH 271430Z 24003KT 4000 -RA BKN018 25/25 Q1013=
202312271400 METAR WIHH 271400Z 24004KT 4000 -RA BKN018 25/25 Q1013=
202312271330 METAR WIHH 271330Z 22005KT 4000 -RA BKN017 25/25 Q1013=
202312271300 METAR WIHH 271300Z 18006KT 3000 -RA FEW016CB BKN017 25/25 Q1012 RMK CB TO SE=
202312271230 METAR WIHH 271230Z 18006KT 3000 -TSRA FEW016CB BKN017 25/25 Q1012 TEMPO TL1300 4000 -RA RMK CB TO SE=
202312271200 METAR WIHH 271200Z 21007KT 2500 -TSRA FEW016CB BKN017 25/24 Q1012 TEMPO TL1230 3000 -TSRA RMK CB TO SE=
202312271130 METAR WIHH 271130Z 20005KT 3000 -TSRA FEW015CB BKN016 26/25 Q1012 RMK CB TO SE=
202312271100 METAR WIHH 271100Z 16007KT 2500 TSRA FEW015CB BKN016 26/25 Q1011 TEMPO TL1145 5000 RA RMK CB TO SE=
202312271030 METAR WIHH 271030Z 25006KT 4000 -TSRA FEW015CB BKN018 27/25 Q1010 RMK CB TO S-SW=
202312271000 METAR WIHH 271000Z 25006KT 5000 TS FEW017CB BKN018 27/25 Q1010 TEMPO FM1020 3000 -TSRA RMK CB AND RA TO SW=
202312270930 METAR WIHH 270930Z 24003KT 5000 HZ FEW017CB BKN018 30/25 Q1010 TEMPO FM0945 3000 -TSRA RMK CB AND RA TO SW=
202312270900 METAR WIHH 270900Z 31008KT 5000 HZ FEW017CB SCT018 31/25 Q1009 RMK CB AND RA TO W=
202312270830 METAR WIHH 270830Z 36010KT 5000 TS FEW017CB SCT018 31/25 Q1009 TEMPO FM0850 3000 -TSRA RMK CB AND RA TO SW=
202312270800 METAR WIHH 270800Z 36006KT 5000 TS FEW017CB BKN018 32/26 Q1009 TEMPO FM0845 3000 -TSRA RMK CB AND RA TO SW=
202312270730 METAR WIHH 270730Z 02007KT 5000 TS FEW017CB BKN018 32/24 Q1009 TEMPO FM0740 3000 -TSRA RMK CB AND RA TO E=
202312270700 METAR WIHH 270700Z 02007KT 5000 TS FEW017CB SCT018 33/25 Q1010 TEMPO FM0650 3000 -TSRA BKN018 RMK CB AND RA TO E=
202312270630 METAR WIHH 270630Z 01008KT 5000 HZ SCT018 33/25 Q1010 RMK RA TO SE=
202312270600 METAR WIHH 270600Z 33004KT 6000 SCT020 33/24 Q1011 NOSIG=
202312270530 METAR WIHH 270530Z 25005KT 6000 SCT020 33/24 Q1011 NOSIG=
202312270500 METAR WIHH 270500Z 32005KT 6000 SCT020 33/25 Q1011 NOSIG=
202312270430 METAR WIHH 270430Z 35005KT 7000 SCT020 33/23 Q1012 NOSIG=
202312270400 METAR WIHH 270400Z 33004KT 7000 SCT020 34/23 Q1012 NOSIG=
202312270330 METAR WIHH 270330Z 33003KT 6000 SCT020 33/24 Q1013 NOSIG=
202312270300 METAR WIHH 270300Z 23003KT 6000 SCT020 32/24 Q1013 NOSIG=
202312270230 METAR WIHH 270230Z 24004KT 5000 HZ FEW020 31/24 Q1013 NOSIG=
202312270200 METAR WIHH 270200Z 23003KT 5000 HZ FEW022 30/23 Q1013 NOSIG=
202312270130 METAR WIHH 270130Z 24005KT 5000 HZ FEW022 29/24 Q1013 NOSIG=
202312270100 METAR WIHH 270100Z 24003KT 4000 HZ FEW022 28/24 Q1013 NOSIG=
202312270030 METAR WIHH 270030Z 24003KT 4000 HZ FEW022 28/24 Q1013 NOSIG=
202312270000 METAR WIHH 270000Z 26003KT 4000 HZ FEW022 27/24 Q1013 NOSIG=
202312262330 METAR WIHH 262330Z 24003KT 3000 HZ FEW020 26/24 Q1013 NOSIG=
202312262300 METAR WIHH 262300Z 21003KT 3000 HZ FEW020 25/24 Q1012 NOSIG=
202312262230 METAR WIHH 262230Z 21003KT 4000 HZ FEW020 25/24 Q1012 NOSIG=
202312262200 METAR WIHH 262200Z 21003KT 4000 HZ FEW020 25/24 Q1011 NOSIG=
202312262130 METAR WIHH 262130Z 28003KT 4000 HZ FEW020 25/24 Q1012 NOSIG=
202312262100 METAR WIHH NIL=
202312262030 METAR WIHH NIL=
202312262000 METAR WIHH NIL=
202312261930 METAR WIHH NIL=
202312261900 METAR WIHH NIL=
202312261830 METAR WIHH NIL=
202312261800 METAR WIHH NIL=
202312261730 METAR WIHH NIL=
202312261700 METAR WIHH NIL=
202312261630 METAR WIHH NIL=
202312261600 METAR WIHH 261600Z 14003KT 5000 HZ FEW020 26/24 Q1013 NOSIG=
202312261530 METAR WIHH 261530Z 12003KT 5000 HZ FEW020 26/24 Q1013 NOSIG=
202312261500 METAR WIHH 261500Z 15003KT 5000 HZ SCT020 26/24 Q1013 RMK RA TO S=
202312261430 METAR WIHH 261430Z 14005KT 5000 HZ SCT020 26/24 Q1013 RMK RA TO S=
202312261400 METAR WIHH 261400Z 17005KT 5000 HZ SCT020 26/24 Q1013 RMK RA TO S=
202312261330 METAR WIHH 261330Z 18005KT 5000 HZ FEW018CB SCT020 26/24 Q1013 RMK CB AND RA TO S=
202312261300 METAR WIHH 261300Z 18008KT 5000 TS FEW018CB SCT020 27/24 Q1013 RMK CB AND RA TO S=
202312261230 METAR WIHH 261230Z 18012KT 5000 TS FEW018CB SCT020 27/24 Q1013 RMK CB AND RA TO S=
202312261200 METAR WIHH 261200Z 32003KT 6000 FEW018CB SCT020 29/25 Q1012 RMK CB AND RA TO S=
202312261130 METAR WIHH 261130Z 36003KT 6000 FEW018CB SCT020 29/24 Q1011 RMK CB AND RA TO S=
202312261100 METAR WIHH 261100Z 4003KT 6000 FEW018CB SCT020 30/24 Q1011 RMK CB AND RA TO S=
202312261030 METAR WIHH 261030Z 03003KT 6000 FEW020 30/24 Q1010 NOSIG=
202312261000 METAR WIHH 261000Z 33003KT 6000 FEW020 30/24 Q1010 NOSIG=
202312260930 METAR WIHH 260930Z 33006KT 5000 HZ SCT018 31/24 Q1009 NOSIG=
202312260900 METAR WIHH 260900Z 33005KT 5000 HZ SCT018 31/24 Q1010 NOSIG=
202312260830 METAR WIHH 260830Z 34005KT 5000 HZ SCT018 31/24 Q1010 NOSIG=
202312260800 METAR WIHH 260800Z 36005KT 5000 HZ SCT018 31/24 Q1010 NOSIG=
202312260730 METAR WIHH 260730Z 30004KT 5000 HZ SCT018 31/24 Q1010 NOSIG=
202312260700 METAR WIHH 260700Z 36003KT 5000 HZ SCT018 31/24 Q1010 NOSIG=
202312260630 METAR WIHH 260630Z 36005KT 5000 HZ SCT018 31/24 Q1011 RMK RA TO N=
202312260600 METAR WIHH 260600Z 33005KT 5000 HZ SCT018 30/24 Q1012 RMK RA TO N=
202312260530 METAR WIHH 260530Z 36005KT 4000 HZ SCT018 30/24 Q1012 RMK RA TO N=
202312260500 METAR WIHH 260500Z 36005KT 4000 HZ SCT018 30/24 Q1012 RMK RA TO N=
202312260430 METAR WIHH 260430Z 33003KT 3000 HZ SCT018 29/25 Q1012 RMK RA TO N=
202312260400 METAR WIHH 260400Z 00000KT 3000 HZ SCT018 29/25 Q1012 RMK RA TO N=
202312260330 METAR WIHH 260330Z 25003KT 3000 HZ SCT018 28/24 Q1013 RMK RA TO N=
202312260300 METAR WIHH 260300Z 25003KT 3000 HZ SCT018 28/24 Q1013 RMK RA TO N=
202312260230 METAR WIHH NIL=
202312260200 METAR WIHH 260200Z 28003KT 3000 HZ SCT018 29/24 Q1013 RMK RA TO N=
202312260130 METAR WIHH 260130Z 22003KT 4000 HZ SCT020 27/24 Q1012 RMK RA TO N=
202312260100 METAR WIHH 260100Z 25003KT 4000 HZ SCT020 28/24 Q1012 RMK RA TO N=
202312260030 METAR WIHH 260030Z 00000KT 3000 HZ FEW020 28/24 Q1012 NOSIG=
202312260000 METAR WIHH 260000Z 00000KT 3000 BR FEW020 27/25 Q1012 NOSIG=
202312252330 METAR WIHH 252330Z 00000KT 3000 BR FEW020 25/25 Q1011 NOSIG=
202312252300 METAR WIHH 252300Z 00000KT 2000 BR FEW020 25/24 Q1011 NOSIG=
202312252230 METAR WIHH 252230Z 00000KT 3000 BR FEW020 25/24 Q1011 NOSIG=
202312252200 METAR WIHH 252200Z 00000KT 4000 HZ SCT020 25/24 Q1010 NOSIG=
202312252130 METAR WIHH NIL=
202312252100 METAR WIHH NIL=
202312252030 METAR WIHH NIL=
202312252000 METAR WIHH NIL=
202312251930 METAR WIHH NIL=
202312251900 METAR WIHH NIL=
202312251830 METAR WIHH NIL=
202312251800 METAR WIHH NIL=
202312251730 METAR WIHH NIL=
202312251700 METAR WIHH 251700Z 21003KT 5000 HZ SCT018 25/24 Q1013 NOSIG=
202312251630 METAR WIHH 251630Z 22003KT 5000 HZ SCT018 25/24 Q1013 NOSIG=
202312251600 METAR WIHH 251600Z 20003KT 5000 HZ SCT018 25/24 Q1013 NOSIG=
202312251530 METAR WIHH 251530Z 22003KT 5000 HZ SCT018 25/24 Q1013 NOSIG=
202312251500 METAR WIHH 251500Z 20003KT 5000 HZ SCT018 25/24 Q1013 RMK RA TO W=
202312251430 METAR WIHH 251430Z 21004KT 5000 -RA BKN018 25/24 Q1013 NOSIG=
202312251400 METAR WIHH 251400Z 24004KT 5000 -RA FEW017CB BKN018 25/24 Q1013 RMK CB TO NW=
202312251330 METAR WIHH 251330Z 01004KT 5000 TS FEW017CB BKN018 25/24 Q1013 RMK CB AND RA TO N=
202312251300 METAR WIHH 251300Z 10008KT 5000 -TSRA FEW017CB BKN018 25/24 Q1013 RMK CB TO NW=
202312251230 METAR WIHH 251230Z 13010KT 5000 TSRA FEW017CB BKN018 25/24 Q1012 TEMPO TL1300 3000 -RA RMK CB TO N=
202312251200 METAR WIHH 251200Z 18010KT 3000 TSRA FEW017CB BKN018 24/24 Q1012 TEMPO TL1230 3000 -RA RMK CB TO W=
202312251130 METAR WIHH 251130Z 20007KT 800 +TSRA FEW017CB BKN018 24/23 Q1011 TEMPO TL1140 3000 -RA RMK CB OTF=
202312251100 METAR WIHH 251100Z 09010KT 4000 -RA FEW017CB BKN018 30/23 Q1010 TEMPO FM1105 3000 -TSRA RMK CB TO SE=
202312251030 METAR WIHH 251030Z 06003KT 6000 SCT018 31/23 Q1009 RMK RA TO E=
202312251000 METAR WIHH 251000Z 04003KT 6000 SCT018 32/24 Q1009 RMK RA TO E=
202312250930 METAR WIHH 250930Z 30004KT 6000 SCT018 32/24 Q1009 RMK RA TO E=
202312250900 METAR WIHH 250900Z 33004KT 6000 SCT018 30/24 Q1009 RMK RA TO E=
202312250830 METAR WIHH 250830Z 31005KT 6000 SCT018 30/24 Q1009 NOSIG=
202312250800 METAR WIHH 250800Z 27004KT 5000 HZ SCT018 30/23 Q1009 RMK RA TO NW=
202312250730 METAR WIHH 250730Z 30005KT 4000 -RA SCT018 28/24 Q1009 TEMPO TL0800 3000 -RA=
202312250700 METAR WIHH 250700Z 27012KT 4000 -RA SCT018 31/24 Q1009 TEMPO FM0730 3000 -RA=
202312250630 METAR WIHH 250630Z 22012KT 5000 TS FEW017CB SCT018 32/23 Q1010 TEMPO FM0645 4000 -TSRA RMK CB AND RA TO S=
202312250600 METAR WIHH 250600Z 26004KT 5000 HZ FEW017CB SCT018 32/24 Q1010 RMK CB AND RA TO SW=
202312250530 METAR WIHH 250530Z 34006KT 5000 HZ SCT018 33/24 Q1011 RMK RA TO W=
202312250500 METAR WIHH 250500Z 04006KT 5000 HZ SCT018 32/24 Q1011 NOSIG=
202312250430 METAR WIHH 250430Z 06006KT 5000 HZ SCT020 33/24 Q1011 NOSIG=
202312250400 METAR WIHH 250400Z 27005KT 5000 HZ FEW020 32/24 Q1012 NOSIG=
202312250330 METAR WIHH 250330Z 33007KT 5000 HZ FEW020 31/24 Q1012 NOSIG=
202312250300 METAR WIHH 250300Z 28003KT 5000 HZ FEW020 30/24 Q1012 NOSIG=
202312250230 METAR WIHH 250230Z 27003KT 5000 HZ FEW020 30/23 Q1012 NOSIG=
202312250200 METAR WIHH 250200Z 25003KT 5000 HZ FEW020 29/24 Q1012 NOSIG=
202312250130 METAR WIHH 250130Z 28003KT 5000 HZ FEW020 29/24 Q1012 NOSIG=
202312250100 METAR WIHH 250100Z 30003KT 5000 HZ FEW020 28/24 Q1012 NOSIG=
202312250030 METAR WIHH 250030Z 21003KT 5000 HZ FEW020 27/24 Q1012 NOSIG=
202312250000 METAR WIHH 250000Z 01003KT 5000 HZ FEW020 26/24 Q1012 NOSIG=
202312242330 METAR WIHH 242330Z 00000KT 5000 HZ SCT020 25/24 Q1011 NOSIG=
202312242300 METAR WIHH 242300Z 22005KT 5000 HZ SCT020 25/24 Q1011 NOSIG=
202312242230 METAR WIHH 242230Z 22005KT 4000 HZ SCT018 25/24 Q1011 RMK RA TO NE=
202312242200 METAR WIHH NIL=
202312242130 METAR WIHH NIL=
202312242100 METAR WIHH NIL=
202312242030 METAR WIHH NIL=
202312242000 METAR WIHH NIL=
202312241930 METAR WIHH NIL=
202312241900 METAR WIHH NIL=
202312241830 METAR WIHH NIL=
202312241800 METAR WIHH NIL=
202312241730 METAR WIHH NIL=
202312241700 METAR WIHH NIL=
202312241630 METAR WIHH NIL=
202312241600 METAR WIHH 241600Z 15003KT 5000 HZ SCT020 28/24 Q1012 NOSIG=
202312241530 METAR WIHH 241530Z 19003KT 5000 HZ SCT020 28/24 Q1012 NOSIG=
202312241500 METAR WIHH 241500Z 21004KT 5000 HZ SCT020 28/24 Q1012 NOSIG=
202312241430 METAR WIHH 241430Z 15006KT 5000 HZ SCT020 28/24 Q1011 NOSIG=
202312241400 METAR WIHH 241400Z 19004KT 5000 HZ SCT020 28/24 Q1011 NOSIG=
202312241330 METAR WIHH 241330Z 21003KT 6000 SCT020 29/24 Q1011 RMK RA TO S=
202312241300 METAR WIHH 241300Z 23006KT 6000 SCT020 29/24 Q1011 NOSIG=
202312241230 METAR WIHH 241230Z 22010KT 5000 HZ SCT020 29/24 Q1011 NOSIG=
202312241200 METAR WIHH 241200Z 21005KT 5000 HZ SCT020 29/24 Q1010 NOSIG=
202312241130 METAR WIHH 241130Z 23006KT 5000 HZ BKN018 29/24 Q1010 RMK RA TO S=
202312241100 METAR WIHH 241100Z 22007KT 5000 HZ BKN018 30/24 Q1009 RMK RA TO S=
202312241030 METAR WIHH 241030Z 00000KT 6000 BKN018 32/23 Q1009 RMK RA TO S=
202312241000 METAR WIHH 241000Z 34004KT 6000 SCT020 32/23 Q1008 RMK RA TO S=
202312240930 METAR WIHH 240930Z 30003KT 6000 SCT020 32/23 Q1007 RMK RA TO S=
202312240900 METAR WIHH NIL=
202312240830 METAR WIHH NIL=
202312240800 METAR WIHH 240800Z 35008KT 6000 SCT018 33/23 Q1007 NOSIG=
202312240730 METAR WIHH 240730Z 34007KT 5000 -RA FEW017CB SCT018 34/23 Q1008 RMK CB TO E=
202312240700 METAR WIHH 240700Z 34004KT 5000 HZ FEW017CB SCT018 34/23 Q1009 RMK CB AND RA TO E=
202312240630 METAR WIHH 240630Z 02003KT 5000 HZ SCT018 34/23 Q1009 NOSIG=
202312240600 METAR WIHH 240600Z 02005KT 5000 HZ SCT018 34/23 Q1010 NOSIG=
202312240530 METAR WIHH 240530Z 03005KT 5000 HZ SCT018 35/23 Q1010 RMK RA TO SE=
202312240500 METAR WIHH 240500Z 03007KT 5000 HZ SCT020 34/23 Q1011 NOSIG=
202312240430 METAR WIHH 240430Z 32003KT 5000 HZ SCT020 33/23 Q1011 NOSIG=
202312240400 METAR WIHH 240400Z 33003KT 5000 HZ SCT020 33/23 Q1011 NOSIG=
202312240330 METAR WIHH 240330Z 33003KT 4000 HZ SCT020 33/23 Q1012 NOSIG=
202312240300 METAR WIHH 240300Z 19003KT 4000 HZ SCT020 33/24 Q1012 NOSIG=
202312240230 METAR WIHH 240230Z 31003KT 4000 HZ SCT020 33/23 Q1012 NOSIG=
202312240200 METAR WIHH 240200Z 05003KT 4000 HZ SCT020 32/24 Q1012 NOSIG=
202312240130 METAR WIHH 240130Z 13004KT 4000 HZ FEW020 31/24 Q1012 NOSIG=
202312240100 METAR WIHH 240100Z 12003KT 4000 HZ FEW020 31/24 Q1012 NOSIG=
202312240030 METAR WIHH 240030Z 09003KT 3000 HZ FEW020 30/24 Q1012 NOSIG=
202312240000 METAR WIHH 240000Z 12003KT 4000 HZ FEW020 29/24 Q1011 NOSIG=
202312232330 METAR WIHH 232330Z 12003KT 3000 HZ FEW020 28/24 Q1011 NOSIG=
202312232300 METAR WIHH 232300Z 00000KT 4000 HZ FEW020 28/23 Q1010 NOSIG=
202312232230 METAR WIHH 232230Z 00000KT 4000 HZ FEW020 28/23 Q1010 NOSIG=
202312232200 METAR WIHH 232200Z 00000KT 5000 HZ FEW020 28/23 Q1010 NOSIG=
202312232130 METAR WIHH 232130Z 00000KT 5000 HZ FEW020 28/23 Q1010 NOSIG=
202312232100 METAR WIHH 232100Z 16003KT 6000 FEW020 28/23 Q1009 NOSIG=
202312232030 METAR WIHH NIL=
202312232000 METAR WIHH NIL=
202312231930 METAR WIHH NIL=
202312231900 METAR WIHH NIL=
202312231830 METAR WIHH NIL=
202312231800 METAR WIHH NIL=
202312231730 METAR WIHH NIL=
202312231700 METAR WIHH 231700Z 00000KT 6000 FEW020 29/24 Q1012 NOSIG=
202312231630 METAR WIHH 231630Z 00000KT 6000 FEW020 29/24 Q1012 NOSIG=
202312231600 METAR WIHH 231600Z 10003KT 6000 FEW020 29/24 Q1012 NOSIG=
202312231530 METAR WIHH 231530Z 13003KT 6000 FEW020 29/24 Q1012 NOSIG=
202312231500 METAR WIHH 231500Z 12003KT 6000 FEW020 30/24 Q1012 NOSIG=
202312231430 METAR WIHH 231430Z 00000KT 6000 SCT018 30/23 Q1012 NOSIG=
202312231400 METAR WIHH 231400Z 00000KT 6000 SCT018 30/23 Q1011 NOSIG=
202312231330 METAR WIHH 231330Z 00000KT 6000 SCT018 30/24 Q1011 NOSIG=
202312231300 METAR WIHH 231300Z 32003KT 6000 SCT018 30/24 Q1011 RMK RA TO NW=
202312231230 METAR WIHH 231230Z 33004KT 6000 SCT018 30/24 Q1011 RMK RA TO S=
202312231200 METAR WIHH 231200Z 33004KT 6000 SCT018 31/24 Q1010 RMK RA TO S=
202312231130 METAR WIHH 231130Z 01006KT 6000 FEW018CB SCT019 31/23 Q1010 RMK CB AND RA TO S=
202312231100 METAR WIHH 231100Z 35007KT 6000 FEW018CB SCT019 31/23 Q1008 RMK CB AND RA TO S=
202312231030 METAR WIHH 231030Z 33007KT 6000 SCT020 32/23 Q1008 NOSIG=
202312231000 METAR WIHH 231000Z 36004KT 6000 SCT020 33/22 Q1008 NOSIG=
202312230930 METAR WIHH 230930Z 35007KT 6000 SCT020 33/21 Q1008 NOSIG=
202312230900 METAR WIHH 230900Z 02009KT 6000 SCT020 34/21 Q1008 NOSIG=
202312230830 METAR WIHH 230830Z 34006KT 6000 SCT020 34/22 Q1008 NOSIG=
202312230800 METAR WIHH 230800Z 32007KT 6000 SCT018 35/22 Q1008 NOSIG=
202312230730 METAR WIHH 230730Z 33006KT 6000 SCT018 34/22 Q1009 NOSIG=
202312230700 METAR WIHH 230700Z 34006KT 6000 SCT018 35/21 Q1009 NOSIG=
202312230630 METAR WIHH 230630Z 03005KT 6000 SCT018 35/22 Q1009 NOSIG=
202312230600 METAR WIHH 230600Z 05007KT 5000 HZ SCT018 34/22 Q1010 NOSIG=
202312230530 METAR WIHH 230530Z 36006KT 5000 HZ SCT018 34/21 Q1011 NOSIG=
202312230500 METAR WIHH 230500Z 02006KT 6000 SCT018 35/23 Q1011 NOSIG=
202312230430 METAR WIHH 230430Z 03006KT 6000 SCT020 35/21 Q1011 NOSIG=
202312230400 METAR WIHH 230400Z 02005KT 6000 FEW020 34/21 Q1011 NOSIG=
202312230330 METAR WIHH 230330Z 09006KT 6000 FEW022 34/21 Q1011 NOSIG=
202312230300 METAR WIHH 230300Z 18003KT 6000 FEW022 34/21 Q1012 NOSIG=
202312230230 METAR WIHH 230230Z 13005KT 6000 FEW022 33/21 Q1012 NOSIG=
202312230200 METAR WIHH 230200Z 27003KT 5000 HZ FEW022 32/21 Q1012 NOSIG=
202312230130 METAR WIHH 230130Z 05003KT 4000 HZ FEW022 31/22 Q1012 NOSIG=
202312230100 METAR WIHH 230100Z 00000KT 6000 FEW022 30/21 Q1012 NOSIG=
202312230030 METAR WIHH 230030Z 15003KT 6000 FEW022 30/21 Q1012 NOSIG=
202312230000 METAR WIHH 230000Z 28003KT 6000 FEW022 27/21 Q1012 NOSIG=
202312222330 METAR WIHH 222330Z 18003KT 6000 FEW020 27/22 Q1011 NOSIG=
202312222300 METAR WIHH 222300Z 14003KT 6000 FEW020 26/22 Q1011 NOSIG=
202312222230 METAR WIHH 222230Z 18003KT 6000 FEW020 26/22 Q1011 NOSIG=
202312222200 METAR WIHH 222200Z 26003KT 6000 FEW020 26/22 Q1010 NOSIG=
202312222130 METAR WIHH 222130Z 23003KT 6000 FEW020 26/22 Q1010 NOSIG=
202312222100 METAR WIHH NIL=
202312222030 METAR WIHH NIL=
202312222000 METAR WIHH NIL=
202312221930 METAR WIHH NIL=
202312221900 METAR WIHH NIL=
202312221830 METAR WIHH NIL=
202312221800 METAR WIHH NIL=
202312221730 METAR WIHH NIL=
202312221700 METAR WIHH NIL=
202312221630 METAR WIHH NIL=
202312221600 METAR WIHH 221600Z 21003KT 6000 FEW022 28/21 Q1012 NOSIG=
202312221530 METAR WIHH 221530Z 03003KT 6000 FEW022 28/21 Q1012 NOSIG=
202312221500 METAR WIHH 221500Z 03003KT 6000 FEW022 29/21 Q1012 NOSIG=
202312221430 METAR WIHH 221430Z 18003KT 6000 FEW022 29/21 Q1012 NOSIG=
202312221400 METAR WIHH 221400Z 12003KT 6000 FEW020 29/22 Q1011 NOSIG=
202312221330 METAR WIHH 221330Z 06003KT 6000 FEW020 30/22 Q1011 NOSIG=
202312221300 METAR WIHH 221300Z 04005KT 6000 FEW020 29/21 Q1010 NOSIG=
202312221230 METAR WIHH 221230Z 04005KT 6000 FEW020 29/21 Q1010 NOSIG=
202312221200 METAR WIHH 221200Z 05004KT 6000 FEW020 31/21 Q1009 NOSIG=
202312221130 METAR WIHH 221130Z 03008KT 6000 FEW020 31/20 Q1009 NOSIG=
202312221100 METAR WIHH 221100Z 36008KT 6000 SCT020 32/20 Q1009 NOSIG=
202312221030 METAR WIHH 221030Z 36008KT 6000 SCT020 33/20 Q1009 NOSIG=
202312221000 METAR WIHH 221000Z 36008KT 6000 SCT020 33/20 Q1008 NOSIG=
202312220930 METAR WIHH 220930Z 36010KT 6000 SCT020 33/19 Q1008 NOSIG=
202312220900 METAR WIHH 220900Z 36008KT 6000 SCT020 33/19 Q1008 NOSIG=
202312220830 METAR WIHH 220830Z 03008KT 6000 SCT020 33/19 Q1008 NOSIG=
202312220800 METAR WIHH 220800Z 36010KT 6000 SCT020 33/19 Q1008 RMK RA TO SE=
202312220730 METAR WIHH 220730Z 01008KT 6000 SCT020 33/21 Q1008 NOSIG=
202312220700 METAR WIHH 220700Z 28008KT 6000 SCT020 34/21 Q1009 NOSIG=
202312220630 METAR WIHH 220630Z 33010KT 6000 SCT020 34/21 Q1009 NOSIG=
202312220600 METAR WIHH 220600Z 36010KT 6000 SCT020 34/21 Q1009 NOSIG=
202312220530 METAR WIHH 220530Z 33008KT 6000 SCT020 34/20 Q1010 NOSIG=
202312220500 METAR WIHH NIL=
202312220430 METAR WIHH 220430Z 33006KT 6000 SCT020 34/19 Q1010 NOSIG=
202312220400 METAR WIHH 220400Z 03004KT 5000 HZ SCT020 32/21 Q1011 NOSIG=
202312220330 METAR WIHH 220330Z 03005KT 5000 HZ SCT020 32/21 Q1011 NOSIG=
202312220300 METAR WIHH 220300Z 35003KT 5000 HZ SCT020 31/20 Q1012 NOSIG=
202312220230 METAR WIHH 220230Z 29003KT 5000 HZ SCT020 30/21 Q1012 NOSIG=
202312220200 METAR WIHH 220200Z 06003KT 5000 HZ SCT020 30/22 Q1012 NOSIG=
202312220130 METAR WIHH 220130Z 15003KT 5000 HZ SCT020 29/22 Q1012 NOSIG=
202312220100 METAR WIHH 220100Z 03003KT 5000 HZ SCT020 29/22 Q1012 NOSIG=
202312220030 METAR WIHH NIL=
202312220000 METAR WIHH 220000Z 00000KT 5000 HZ FEW020 27/23 Q1011 NOSIG=
202312212330 METAR WIHH 212330Z 00000KT 7000 FEW020 26/23 Q1010 NOSIG=
202312212300 METAR WIHH 212300Z 00000KT 7000 FEW020 25/22 Q1010 NOSIG=
202312212230 METAR WIHH 212230Z 16003KT 8000 NSC 25/22 Q1010 NOSIG=
202312212200 METAR WIHH 212200Z 20003KT 8000 NSC 24/22 Q1010 NOSIG=
202312212130 METAR WIHH 212130Z 23003KT 8000 NSC 25/22 Q1010 NOSIG=
202312212100 METAR WIHH 212100Z 28003KT 8000 NSC 25/22 Q1009 NOSIG=
202312212030 METAR WIHH NIL=
202312212000 METAR WIHH NIL=
202312211930 METAR WIHH NIL=
202312211900 METAR WIHH NIL=
202312211830 METAR WIHH NIL=
202312211800 METAR WIHH NIL=
202312211730 METAR WIHH NIL=
202312211700 METAR WIHH 211700Z 29002KT 8000 NSC 27/22 Q1010 NOSIG=
202312211630 METAR WIHH 211630Z 27002KT 8000 NSC 27/22 Q1010 NOSIG=
202312211600 METAR WIHH 211600Z 26003KT 8000 NSC 28/22 Q1010 NOSIG=
202312211530 METAR WIHH 211530Z 29003KT 8000 NSC 28/22 Q1010 NOSIG=
202312211500 METAR WIHH 211500Z 27002KT 8000 NSC 28/22 Q1011 NOSIG=
202312211430 METAR WIHH 211430Z 30003KT 8000 NSC 28/21 Q1010 NOSIG=
202312211400 METAR WIHH 211400Z 30003KT 8000 NSC 29/21 Q1011 NOSIG=
202312211330 METAR WIHH 211330Z 27003KT 8000 NSC 29/21 Q1010 NOSIG=
202312211300 METAR WIHH 211300Z 27004KT 8000 NSC 29/21 Q1010 NOSIG=
202312211230 METAR WIHH 211230Z 30004KT 8000 NSC 29/21 Q1010 NOSIG=
202312211200 METAR WIHH 211200Z 33007KT 8000 NSC 30/21 Q1009 NOSIG=
202312211130 METAR WIHH 211130Z 34002KT 8000 NSC 30/21 Q1009 NOSIG=
202312211100 METAR WIHH 211100Z 30002KT 8000 FEW020 31/20 Q1009 NOSIG=
202312211030 METAR WIHH 211030Z 30005KT 8000 FEW020 31/19 Q1008 NOSIG=
202312211000 METAR WIHH 211000Z 03005KT 8000 FEW020 33/19 Q1008 NOSIG=
202312210930 METAR WIHH 210930Z 36006KT 8000 SCT020 34/20 Q1008 NOSIG=
202312210900 METAR WIHH 210900Z 02006KT 7000 SCT020 34/21 Q1007 NOSIG=
202312210830 METAR WIHH 210830Z 02008KT 7000 SCT020 34/22 Q1008 NOSIG=
202312210800 METAR WIHH 210800Z 35010KT 7000 SCT020 34/21 Q1008 NOSIG=
202312210730 METAR WIHH 210730Z 26008KT 7000 SCT020 35/21 Q1008 NOSIG=
202312210700 METAR WIHH 210700Z 34005KT 7000 SCT020 35/21 Q1008 NOSIG=
202312210630 METAR WIHH 210630Z 32006KT 7000 SCT020 35/21 Q1008 NOSIG=
202312210600 METAR WIHH 210600Z 01010KT 7000 SCT020 36/20 Q1009 NOSIG=
202312210530 METAR WIHH 210530Z 24003KT 7000 SCT020 36/16 Q1009 NOSIG=
202312210500 METAR WIHH 210500Z 24007KT 8000 FEW020 35/16 Q1009 NOSIG=
202312210430 METAR WIHH 210430Z 25005KT 8000 FEW020 35/17 Q1010 NOSIG=
202312210400 METAR WIHH 210400Z 29005KT 8000 NSC 34/15 Q1010 NOSIG=
202312210330 METAR WIHH 210330Z 28004KT 8000 FEW022 34/17 Q1011 NOSIG=
202312210300 METAR WIHH 210300Z 18004KT 8000 NSC 34/18 Q1011 NOSIG=
202312210230 METAR WIHH 210230Z 24003KT 8000 NSC 32/17 Q1011 NOSIG=
202312210200 METAR WIHH 210200Z 25005KT 8000 NSC 31/18 Q1011 NOSIG=
202312210130 METAR WIHH 210130Z 25007KT 8000 NSC 30/18 Q1011 NOSIG=
202312210100 METAR WIHH 210100Z 24005KT 8000 NSC 29/18 Q1011 NOSIG=
202312210030 METAR WIHH 210030Z 21006KT 7000 NSC 27/18 Q1010 NOSIG=
202312210000 METAR WIHH 210000Z 24008KT 7000 NSC 25/18 Q1010 NOSIG=
202312202330 METAR WIHH 202330Z 24008KT 7000 NSC 25/18 Q1010 NOSIG=
202312202300 METAR WIHH 202300Z 24006KT 7000 NSC 24/18 Q1009 NOSIG=
202312202230 METAR WIHH 202230Z 26009KT 7000 NSC 25/19 Q1009 NOSIG=
202312202200 METAR WIHH 202200Z 25007KT 8000 NSC 24/19 Q1009 NOSIG=
202312202130 METAR WIHH 202130Z 26005KT 8000 NSC 25/19 Q1008 NOSIG=
202312202100 METAR WIHH NIL=
202312202030 METAR WIHH NIL=
202312202000 METAR WIHH NIL=
202312201930 METAR WIHH NIL=
202312201900 METAR WIHH NIL=
202312201830 METAR WIHH NIL=
202312201800 METAR WIHH NIL=
202312201730 METAR WIHH NIL=
202312201700 METAR WIHH NIL=
202312201630 METAR WIHH NIL=
202312201600 METAR WIHH 201600Z 21004KT 8000 NSC 27/20 Q1009 NOSIG=
202312201530 METAR WIHH 201530Z 21006KT 8000 NSC 28/20 Q1009 NOSIG=
202312201500 METAR WIHH 201500Z 19005KT 8000 NSC 28/20 Q1009 NOSIG=
202312201430 METAR WIHH 201430Z 18006KT 8000 NSC 29/19 Q1009 NOSIG=
202312201400 METAR WIHH 201400Z 19007KT 8000 NSC 29/19 Q1009 NOSIG=
202312201330 METAR WIHH 201330Z 22008KT 8000 NSC 30/20 Q1009 NOSIG=
202312201300 METAR WIHH 201300Z 23008KT 8000 NSC 30/20 Q1008 NOSIG=
202312201230 METAR WIHH 201230Z 24010KT 8000 NSC 30/18 Q1008 NOSIG=
202312201200 METAR WIHH 201200Z 27010KT 8000 NSC 31/18 Q1008 NOSIG=
202312201130 METAR WIHH 201130Z 26008KT 9999 FEW020 32/17 Q1007 NOSIG=
202312201100 METAR WIHH 201100Z 26010KT 9999 FEW020 33/16 Q1007 NOSIG=
202312201030 METAR WIHH 201030Z 25011KT 9999 FEW020 34/16 Q1006 NOSIG=
202312201000 METAR WIHH 201000Z 26011KT 9999 FEW020 35/17 Q1006 NOSIG=
202312200930 METAR WIHH 200930Z 32009KT 9999 FEW020 35/17 Q1005 NOSIG=
202312200900 METAR WIHH 200900Z 36010KT 9999 FEW020 35/22 Q1005 NOSIG=
202312200830 METAR WIHH 200830Z 02011KT 9999 FEW020 35/21 Q1005 NOSIG=
202312200800 METAR WIHH 200800Z 34011KT 9999 FEW020 35/20 Q1006 NOSIG=
202312200730 METAR WIHH 200730Z 32011KT CAVOK 35/20 Q1006 NOSIG=
202312200700 METAR WIHH 200700Z 32011KT CAVOK 36/19 Q1006 NOSIG=
202312200630 METAR WIHH 200630Z 31005KT CAVOK 37/14 Q1007 NOSIG=
202312200600 METAR WIHH 200600Z 27006KT CAVOK 37/14 Q1007 NOSIG=
202312200530 METAR WIHH 200530Z 02006KT CAVOK 36/15 Q1008 NOSIG=
202312200500 METAR WIHH 200500Z 24005KT CAVOK 36/16 Q1009 NOSIG=
202312200430 METAR WIHH 200430Z 22007KT CAVOK 35/16 Q1009 NOSIG=
202312200400 METAR WIHH 200400Z 23007KT CAVOK 34/16 Q1009 NOSIG=
202312200330 METAR WIHH 200330Z 26007KT CAVOK 34/17 Q1010 NOSIG=
202312200300 METAR WIHH 200300Z 34005KT CAVOK 33/17 Q1011 NOSIG=
202312200230 METAR WIHH 200230Z 20006KT CAVOK 33/18 Q1011 NOSIG=
202312200200 METAR WIHH 200200Z 25007KT CAVOK 31/19 Q1011 NOSIG=
202312200130 METAR WIHH 200130Z 24008KT CAVOK 30/19 Q1011 NOSIG=
202312200100 METAR WIHH 200100Z 21008KT CAVOK 29/19 Q1011 NOSIG=
202312200030 METAR WIHH 200030Z 22007KT 8000 NSC 28/19 Q1011 NOSIG=
202312200000 METAR WIHH 200000Z 23010KT 8000 NSC 27/19 Q1010 NOSIG=
202312192330 METAR WIHH 192330Z 24010KT 6000 NSC 26/19 Q1010 NOSIG=
202312192300 METAR WIHH 192300Z 24010KT 6000 NSC 25/19 Q1010 NOSIG=
202312192230 METAR WIHH 192230Z 24010KT 6000 NSC 24/19 Q1009 NOSIG=
202312192200 METAR WIHH 192200Z 24010KT 6000 NSC 25/19 Q1009 NOSIG=
202312192130 METAR WIHH 192130Z 24010KT 6000 NSC 25/19 Q1009 NOSIG=
202312192100 METAR WIHH 192100Z 24010KT 6000 NSC 26/20 Q1009 NOSIG=
202312192030 METAR WIHH NIL=
202312192000 METAR WIHH NIL=
202312191930 METAR WIHH NIL=
202312191900 METAR WIHH NIL=
202312191830 METAR WIHH NIL=
202312191800 METAR WIHH NIL=
202312191730 METAR WIHH NIL=
202312191700 METAR WIHH 191700Z 19006KT 6000 NSC 28/20 Q1011 NOSIG=
202312191630 METAR WIHH 191630Z 20005KT 6000 NSC 28/20 Q1011 NOSIG=
202312191600 METAR WIHH 191600Z 21007KT 6000 NSC 29/20 Q1011 NOSIG=
202312191530 METAR WIHH 191530Z 20008KT 6000 NSC 29/20 Q1011 NOSIG=
202312191500 METAR WIHH 191500Z 19010KT 6000 NSC 29/21 Q1011 NOSIG=
202312191430 METAR WIHH 191430Z 22010KT 6000 NSC 29/21 Q1011 NOSIG=
202312191400 METAR WIHH 191400Z 22010KT 6000 NSC 29/21 Q1010 NOSIG=
202312191330 METAR WIHH 191330Z 21010KT 6000 NSC 30/21 Q1010 NOSIG=
202312191300 METAR WIHH 191300Z 23010KT 6000 NSC 30/21 Q1010 NOSIG=
202312191230 METAR WIHH 191230Z 24012KT 6000 NSC 30/21 Q1009 NOSIG=
202312191200 METAR WIHH 191200Z 27010KT 6000 SCT020 31/21 Q1009 NOSIG=
202312191130 METAR WIHH 191130Z 26012KT 6000 SCT020 31/21 Q1008 NOSIG=
202312191100 METAR WIHH 191100Z 25010KT 6000 SCT020 32/21 Q1008 NOSIG=
202312191030 METAR WIHH 191030Z 25008KT 6000 SCT020 33/21 Q1007 NOSIG=
202312191000 METAR WIHH 191000Z 33008KT 6000 SCT020 33/22 Q1007 NOSIG=
202312190930 METAR WIHH 190930Z 33008KT 6000 SCT020 34/23 Q1006 NOSIG=
202312190900 METAR WIHH 190900Z 35010KT 6000 SCT020 34/23 Q1006 NOSIG=
202312190830 METAR WIHH 190830Z 36010KT 6000 SCT020 35/22 Q1006 NOSIG=
202312190800 METAR WIHH 190800Z 01010KT 6000 SCT020 35/22 Q1006 NOSIG=
202312190730 METAR WIHH 190730Z 28008KT 6000 SCT020 36/19 Q1007 NOSIG=
202312190700 METAR WIHH 190700Z 30008KT 6000 SCT020 37/20 Q1007 NOSIG=
202312190630 METAR WIHH 190630Z 33008KT 6000 SCT020 35/20 Q1008 NOSIG=
202312190600 METAR WIHH 190600Z 33008KT 6000 SCT020 36/20 Q1008 NOSIG=
202312190530 METAR WIHH 190530Z 15010KT 7000 FEW020 36/20 Q1009 NOSIG=
202312190500 METAR WIHH 190500Z 26012KT 7000 FEW020 35/19 Q1009 NOSIG=
202312190430 METAR WIHH 190430Z 25010KT 8000 FEW022 36/20 Q1010 NOSIG=
202312190400 METAR WIHH 190400Z 23010KT 8000 NSC 34/20 Q1010 NOSIG=
202312190330 METAR WIHH 190330Z 23010KT 8000 NSC 34/20 Q1010 NOSIG=
202312190300 METAR WIHH 190300Z 20010KT 8000 NSC 33/20 Q1011 NOSIG=
202312190230 METAR WIHH 190230Z 19012KT 8000 NSC 32/21 Q1011 NOSIG=
202312190200 METAR WIHH 190200Z 18012KT 8000 NSC 32/21 Q1011 NOSIG=
202312190130 METAR WIHH 190130Z 20012KT 8000 NSC 30/21 Q1011 NOSIG=
202312190100 METAR WIHH 190100Z 24015KT 8000 NSC 29/21 Q1011 NOSIG=
202312190030 METAR WIHH 190030Z 21012KT 8000 NSC 28/22 Q1011 NOSIG=
202312190000 METAR WIHH 190000Z 24008KT 8000 NSC 27/22 Q1011 NOSIG=
202312182330 METAR WIHH 182330Z 24006KT 8000 NSC 26/22 Q1010 NOSIG=
202312182300 METAR WIHH 182300Z 25005KT 8000 FEW020 26/22 Q1010 NOSIG=
202312182230 METAR WIHH 182230Z 25004KT 8000 FEW020 26/22 Q1010 NOSIG=
202312182200 METAR WIHH 182200Z 24004KT 6000 NSC 26/22 Q1009 NOSIG=
202312182130 METAR WIHH 182130Z 24006KT 6000 NSC 26/22 Q1009 NOSIG=
202312182100 METAR WIHH 182100Z 24006KT 6000 NSC 26/22 Q1009 NOSIG=
202312182030 METAR WIHH NIL=
202312182000 METAR WIHH NIL=
202312181930 METAR WIHH NIL=
202312181900 METAR WIHH NIL=
202312181830 METAR WIHH NIL=
202312181800 METAR WIHH 181800Z 24006KT 7000 NSC 28/21 Q1009 NOSIG=
202312181730 METAR WIHH 181730Z 21003KT 7000 FEW020 28/23 Q1010 NOSIG=
202312181700 METAR WIHH 181700Z 24003KT 7000 FEW020 29/23 Q1010 NOSIG=
202312181630 METAR WIHH 181630Z 18003KT 7000 FEW020 29/24 Q1010 NOSIG=
202312181600 METAR WIHH 181600Z 18003KT 7000 NSC 29/24 Q1010 NOSIG=
202312181530 METAR WIHH 181530Z 18007KT 7000 NSC 29/24 Q1010 NOSIG=
202312181500 METAR WIHH 181500Z 20007KT 6000 NSC 30/24 Q1010 NOSIG=
202312181430 METAR WIHH 181430Z 21010KT 6000 NSC 30/23 Q1010 NOSIG=
202312181400 METAR WIHH 181400Z 21012KT 6000 FEW020 30/23 Q1010 NOSIG=
202312181330 METAR WIHH 181330Z 23006KT 6000 FEW020 30/23 Q1010 NOSIG=
202312181300 METAR WIHH 181300Z 25005KT 6000 FEW020 31/23 Q1009 NOSIG=
202312181230 METAR WIHH 181230Z 30004KT 6000 FEW020 31/23 Q1009 NOSIG=
202312181200 METAR WIHH 181200Z 25007KT 6000 BKN018 32/23 Q1008 NOSIG=
202312181130 METAR WIHH 181130Z 27006KT 6000 BKN018 32/23 Q1008 RMK RA TO SE=
202312181100 METAR WIHH 181100Z 29005KT 6000 BKN018 33/23 Q1007 NOSIG=
202312181030 METAR WIHH 181030Z 26003KT 6000 SCT020 33/23 Q1007 NOSIG=
202312181000 METAR WIHH 181000Z 34010KT 6000 SCT020 33/24 Q1006 NOSIG=
202312180930 METAR WIHH 180930Z 36010KT 6000 SCT020 34/24 Q1006 NOSIG=
202312180900 METAR WIHH 180900Z 34005KT 6000 SCT020 35/23 Q1006 NOSIG=
202312180830 METAR WIHH 180830Z 34006KT 6000 SCT020 35/23 Q1006 NOSIG=
202312180800 METAR WIHH 180800Z 34003KT 6000 SCT020 35/23 Q1006 NOSIG=
202312180730 METAR WIHH 180730Z 36007KT 6000 SCT020 35/23 Q1006 NOSIG=
202312180700 METAR WIHH NIL=
202312180630 METAR WIHH 180630Z 25004KT 6000 SCT020 35/22 Q1007 NOSIG=
202312180600 METAR WIHH 180600Z 31004KT 6000 SCT020 36/20 Q1008 NOSIG=
202312180530 METAR WIHH 180530Z 28004KT 6000 SCT020 35/21 Q1008 NOSIG=
202312180500 METAR WIHH 180500Z 15006KT 6000 SCT020 34/22 Q1009 NOSIG=
202312180430 METAR WIHH 180430Z 26008KT 6000 SCT020 35/22 Q1009 NOSIG=
202312180400 METAR WIHH 180400Z 26005KT 6000 SCT018 34/22 Q1010 NOSIG=
202312180330 METAR WIHH 180330Z 24008KT 6000 SCT020 33/23 Q1010 NOSIG=
202312180300 METAR WIHH 180300Z 30003KT 6000 SCT020 33/23 Q1011 NOSIG=
202312180230 METAR WIHH 180230Z 22003KT 6000 FEW020 32/22 Q1011 NOSIG=
202312180200 METAR WIHH 180200Z 29006KT 7000 FEW020 31/23 Q1011 NOSIG=
202312180130 METAR WIHH 180130Z 23005KT 7000 FEW020 31/23 Q1011 NOSIG=
202312180100 METAR WIHH 180100Z 22006KT 6000 NSC 29/23 Q1011 NOSIG=
202312180030 METAR WIHH 180030Z 22008KT 6000 NSC 28/23 Q1011 NOSIG=
202312180000 METAR WIHH 180000Z 24007KT 6000 NSC 27/23 Q1010 NOSIG=
202312172330 METAR WIHH 172330Z 25004KT 6000 NSC 26/23 Q1010 NOSIG=
202312172300 METAR WIHH 172300Z 24003KT 6000 FEW020 26/23 Q1010 NOSIG=
202312172230 METAR WIHH 172230Z 24005KT 6000 FEW020 26/23 Q1009 NOSIG=
202312172200 METAR WIHH 172200Z 24005KT 6000 FEW020 26/23 Q1009 NOSIG=
202312172130 METAR WIHH NIL=
202312172100 METAR WIHH NIL=
202312172030 METAR WIHH NIL=
202312172000 METAR WIHH NIL=
202312171930 METAR WIHH NIL=
202312171900 METAR WIHH NIL=
202312171830 METAR WIHH NIL=
202312171800 METAR WIHH NIL=
202312171730 METAR WIHH NIL=
202312171700 METAR WIHH NIL=
202312171630 METAR WIHH NIL=
202312171600 METAR WIHH 171600Z 19003KT 8000 NSC 28/24 Q1010 NOSIG=
202312171530 METAR WIHH 171530Z 19005KT 7000 NSC 28/23 Q1010 NOSIG=
202312171500 METAR WIHH NIL=
202312171430 METAR WIHH 171430Z 24005KT 8000 NSC 29/23 Q1010 NOSIG=
202312171400 METAR WIHH 171400Z 24007KT 7000 FEW020 29/23 Q1010 NOSIG=
202312171330 METAR WIHH 171330Z 24005KT 7000 FEW020 30/23 Q1010 NOSIG=
202312171300 METAR WIHH NIL=
202312171230 METAR WIHH 171230Z 28004KT 7000 FEW020 31/23 Q1009 NOSIG=
202312171200 METAR WIHH 171200Z 32004KT 7000 FEW020 31/23 Q1008 NOSIG=
202312171130 METAR WIHH 171130Z 31005KT 8000 FEW020 31/24 Q1008 NOSIG=
202312171100 METAR WIHH 171100Z 33008KT 8000 FEW020 32/24 Q1007 NOSIG=
202312171030 METAR WIHH 171030Z 35007KT 8000 FEW020 32/24 Q1007 NOSIG=
202312171000 METAR WIHH 171000Z 34006KT 8000 FEW020 33/23 Q1006 NOSIG=
202312170930 METAR WIHH NIL=
202312170900 METAR WIHH 170900Z 34008KT 8000 FEW020 34/24 Q1006 NOSIG=
202312170830 METAR WIHH 170830Z 36007KT 8000 FEW020 34/23 Q1006 NOSIG=
202312170800 METAR WIHH 170800Z 31008KT 8000 FEW020 35/23 Q1006 NOSIG=
202312170730 METAR WIHH 170730Z 33006KT 8000 FEW020 36/23 Q1007 NOSIG=
202312170700 METAR WIHH 170700Z 35006KT 8000 SCT020 35/21 Q1007 NOSIG=
202312170630 METAR WIHH 170630Z 24004KT 8000 SCT020 36/19 Q1007 NOSIG=
202312170600 METAR WIHH 170600Z 12004KT 8000 SCT020 35/19 Q1008 NOSIG=
202312170530 METAR WIHH 170530Z 25008KT 8000 SCT020 34/19 Q1008 NOSIG=
202312170500 METAR WIHH 170500Z 27012KT 8000 SCT020 35/20 Q1009 NOSIG=
202312170430 METAR WIHH 170430Z 30005KT 8000 FEW020 34/20 Q1009 NOSIG=
202312170400 METAR WIHH 170400Z 25006KT 8000 FEW020 34/21 Q1009 NOSIG=
202312170330 METAR WIHH 170330Z 22007KT 8000 FEW020 33/22 Q1010 NOSIG=
202312170300 METAR WIHH 170300Z 23007KT 8000 FEW020 32/23 Q1010 NOSIG=
202312170230 METAR WIHH 170230Z 24008KT 8000 NSC 32/23 Q1010 NOSIG=
202312170200 METAR WIHH 170200Z 24007KT 8000 NSC 31/23 Q1010 NOSIG=
202312170130 METAR WIHH 170130Z 26007KT 8000 NSC 30/23 Q1011 NOSIG=
202312170100 METAR WIHH 170100Z 25008KT 8000 NSC 29/23 Q1010 NOSIG=
202312170030 METAR WIHH 170030Z 24008KT 7000 NSC 28/23 Q1010 NOSIG=
202312170000 METAR WIHH 170000Z 25005KT 7000 NSC 27/23 Q1010 NOSIG=
202312162330 METAR WIHH 162330Z 26006KT 6000 FEW022 26/23 Q1010 NOSIG=
202312162300 METAR WIHH 162300Z 24006KT 6000 FEW020 25/23 Q1009 NOSIG=
202312162230 METAR WIHH 162230Z 27005KT 6000 FEW020 25/22 Q1009 NOSIG=
202312162200 METAR WIHH 162200Z 24004KT 6000 FEW020 26/23 Q1009 NOSIG=
202312162130 METAR WIHH 162130Z 26003KT 6000 FEW020 26/23 Q1009 NOSIG=
202312162100 METAR WIHH 162100Z 29003KT 6000 FEW020 26/23 Q1009 NOSIG=
202312162030 METAR WIHH NIL=
202312162000 METAR WIHH NIL=
202312161930 METAR WIHH NIL=
202312161900 METAR WIHH NIL=
202312161830 METAR WIHH NIL=
202312161800 METAR WIHH NIL=
202312161730 METAR WIHH NIL=
202312161700 METAR WIHH 161700Z 20005KT 7000 FEW022 27/23 Q1010 NOSIG=
202312161630 METAR WIHH 161630Z 21010KT 7000 FEW022 28/23 Q1010 NOSIG=
202312161600 METAR WIHH 161600Z 20005KT 8000 FEW022 28/23 Q1010 NOSIG=
202312161530 METAR WIHH 161530Z 21010KT 9000 FEW022 29/23 Q1010 NOSIG=
202312161500 METAR WIHH 161500Z 23010KT 9999 FEW022 29/23 Q1010 NOSIG=
202312161430 METAR WIHH 161430Z 21008KT 9999 FEW022 29/23 Q1010 NOSIG=
202312161400 METAR WIHH 161400Z 24010KT 9999 FEW022 29/23 Q1010 NOSIG=
202312161330 METAR WIHH 161330Z 24006KT 9999 FEW022 30/23 Q1010 NOSIG=
202312161300 METAR WIHH 161300Z 24010KT 9999 FEW022 30/23 Q1009 NOSIG=
202312161230 METAR WIHH 161230Z 24005KT 7000 FEW020 30/21 Q1008 NOSIG=
202312161200 METAR WIHH 161200Z 26005KT 7000 FEW020 31/21 Q1008 NOSIG=
202312161130 METAR WIHH 161130Z 34005KT 7000 FEW020 31/23 Q1007 NOSIG=
202312161100 METAR WIHH 161100Z 33005KT 7000 FEW020 32/23 Q1007 NOSIG=
202312161030 METAR WIHH 161030Z 31008KT 7000 FEW020 33/22 Q1006 NOSIG=
202312161000 METAR WIHH 161000Z 31008KT 7000 FEW020 33/21 Q1006 NOSIG=
202312160930 METAR WIHH 160930Z 36008KT 7000 FEW020 33/21 Q1006 NOSIG=
202312160900 METAR WIHH 160900Z 35008KT 7000 FEW020 34/21 Q1006 NOSIG=
202312160830 METAR WIHH 160830Z 03005KT 7000 FEW020 35/22 Q1006 NOSIG=
202312160800 METAR WIHH 160800Z 02005KT 7000 SCT020 35/22 Q1006 NOSIG=
202312160730 METAR WIHH 160730Z 33005KT 7000 SCT020 35/23 Q1006 NOSIG=
202312160700 METAR WIHH 160700Z 35008KT 7000 SCT020 35/22 Q1007 NOSIG=
202312160630 METAR WIHH 160630Z 31008KT 7000 SCT020 35/22 Q1007 NOSIG=
202312160600 METAR WIHH 160600Z 04008KT 7000 SCT020 34/22 Q1007 NOSIG=
202312160530 METAR WIHH 160530Z 03008KT 7000 SCT020 34/21 Q1009 NOSIG=
202312160500 METAR WIHH 160500Z 31008KT 7000 FEW022 34/21 Q1009 NOSIG=
202312160430 METAR WIHH 160430Z 24008KT 7000 FEW022 34/21 Q1009 NOSIG=
202312160400 METAR WIHH 160400Z 25004KT 7000 FEW022 34/21 Q1010 NOSIG=
202312160330 METAR WIHH 160330Z 20003KT 7000 NSC 32/23 Q1010 NOSIG=
202312160300 METAR WIHH 160300Z 22003KT 7000 NSC 32/21 Q1010 NOSIG=
202312160230 METAR WIHH 160230Z 24005KT 7000 NSC 31/23 Q1010 NOSIG=
202312160200 METAR WIHH 160200Z 24005KT 7000 NSC 31/23 Q1010 NOSIG=
202312160130 METAR WIHH 160130Z 24005KT 7000 NSC 30/23 Q1010 NOSIG=
202312160100 METAR WIHH 160100Z 23007KT 7000 NSC 29/23 Q1010 NOSIG=
202312160030 METAR WIHH 160030Z 22007KT 7000 NSC 28/23 Q1010 NOSIG=
202312160000 METAR WIHH 160000Z 23007KT 7000 NSC 27/23 Q1010 NOSIG=
202312152330 METAR WIHH 152330Z 25007KT 7000 NSC 26/22 Q1009 NOSIG=
202312152300 METAR WIHH 152300Z 24007KT 7000 NSC 26/22 Q1009 NOSIG=
202312152230 METAR WIHH 152230Z 25008KT 7000 NSC 26/22 Q1009 NOSIG=
202312152200 METAR WIHH 152200Z 24006KT 7000 NSC 26/22 Q1008 NOSIG=
202312152130 METAR WIHH 152130Z 24005KT 7000 NSC 26/22 Q1008 NOSIG=
202312152100 METAR WIHH 152100Z 24008KT 7000 NSC 26/23 Q1008 NOSIG=
202312152030 METAR WIHH NIL=
202312152000 METAR WIHH NIL=
202312151930 METAR WIHH NIL=
202312151900 METAR WIHH NIL=
202312151830 METAR WIHH NIL=
202312151800 METAR WIHH NIL=
202312151730 METAR WIHH NIL=
202312151700 METAR WIHH 151700Z 14003KT 6000 NSC 28/24 Q1010 NOSIG=
202312151630 METAR WIHH 151630Z 17004KT 6000 NSC 29/24 Q1010 NOSIG=
202312151600 METAR WIHH 151600Z 15003KT CAVOK 29/24 Q1010 NOSIG=
202312151530 METAR WIHH 151530Z 16004KT CAVOK 29/24 Q1010 NOSIG=
202312151500 METAR WIHH 151500Z 17008KT CAVOK 28/24 Q1010 NOSIG=
202312151430 METAR WIHH 151430Z 24004KT CAVOK 29/25 Q1009 NOSIG=
202312151400 METAR WIHH 151400Z 24005KT CAVOK 29/24 Q1009 NOSIG=
202312151330 METAR WIHH 151330Z 23006KT 8000 FEW020 29/24 Q1009 NOSIG=
202312151300 METAR WIHH 151300Z 24003KT 8000 FEW020 30/24 Q1008 NOSIG=
202312151230 METAR WIHH 151230Z 25003KT 8000 FEW020 31/24 Q1008 NOSIG=
202312151200 METAR WIHH 151200Z 33003KT 8000 FEW020 31/24 Q1008 NOSIG=
202312151130 METAR WIHH 151130Z 03005KT 6000 SCT020 31/23 Q1008 NOSIG=
202312151100 METAR WIHH 151100Z 02008KT 6000 SCT020 32/23 Q1007 NOSIG=
202312151030 METAR WIHH 151030Z 03005KT 6000 SCT020 33/21 Q1007 NOSIG=
202312151000 METAR WIHH 151000Z 02010KT 6000 SCT020 33/21 Q1006 NOSIG=
202312150900 METAR WIHH 150900Z 01006KT 6000 SCT020 33/23 Q1006 NOSIG=
202312150830 METAR WIHH NIL=
202312150800 METAR WIHH 150800Z 02010KT 6000 SCT020 35/23 Q1006 RMK RA TO E=
202312150730 METAR WIHH 150730Z 30008KT 7000 SCT020 35/23 Q1007 NOSIG=
202312150700 METAR WIHH 150700Z 33003KT 7000 SCT020 35/22 Q1007 NOSIG=
202312150630 METAR WIHH 150630Z 32005KT 8000 SCT020 35/22 Q1007 NOSIG=
202312150600 METAR WIHH 150600Z 04004KT 8000 SCT020 35/19 Q1008 NOSIG=
202312150530 METAR WIHH 150530Z 02003KT 8000 FEW020 35/18 Q1009 NOSIG=
202312150500 METAR WIHH 150500Z 14004KT 8000 FEW020 34/18 Q1009 NOSIG=
202312150430 METAR WIHH 150430Z 03004KT 8000 FEW020 34/19 Q1009 NOSIG=
202312150400 METAR WIHH 150400Z 29004KT 8000 FEW020 34/20 Q1009 NOSIG=
202312150330 METAR WIHH 150330Z 21006KT 8000 FEW020 33/21 Q1010 NOSIG=
202312150300 METAR WIHH 150300Z 22007KT 8000 FEW020 33/21 Q1010 NOSIG=
202312150230 METAR WIHH 150230Z 20007KT 8000 FEW020 32/22 Q1011 NOSIG=
202312150200 METAR WIHH 150200Z 22006KT 8000 FEW020 31/22 Q1011 NOSIG=
202312150130 METAR WIHH 150130Z 18005KT 8000 FEW020 30/22 Q1011 NOSIG=
202312150100 METAR WIHH 150100Z 17005KT 8000 FEW020 30/21 Q1011 NOSIG=
202312150030 METAR WIHH 150030Z 21005KT 7000 FEW020 28/21 Q1011 NOSIG=
202312150000 METAR WIHH 150000Z 23003KT 7000 NSC 27/22 Q1010 NOSIG=
202312142330 METAR WIHH 142330Z 22003KT 7000 NSC 27/21 Q1010 NOSIG=
202312142300 METAR WIHH 142300Z 24005KT 7000 FEW020 26/21 Q1010 NOSIG=
202312142230 METAR WIHH 142230Z 23007KT 7000 NSC 27/22 Q1009 NOSIG=
202312142200 METAR WIHH 142200Z 23007KT 7000 NSC 27/22 Q1009 NOSIG=
202312142130 METAR WIHH 142130Z 21008KT 6000 FEW020 27/22 Q1009 NOSIG=
202312142100 METAR WIHH NIL=
202312142030 METAR WIHH NIL=
202312142000 METAR WIHH NIL=
202312141930 METAR WIHH NIL=
202312141900 METAR WIHH NIL=
202312141830 METAR WIHH NIL=
202312141800 METAR WIHH NIL=
202312141730 METAR WIHH NIL=
202312141700 METAR WIHH NIL=
202312141630 METAR WIHH NIL=
202312141600 METAR WIHH 141600Z 15003KT 5000 HZ FEW020 28/24 Q1011 NOSIG=
202312141530 METAR WIHH 141530Z 16003KT 5000 HZ FEW020 29/25 Q1011 NOSIG=
202312141500 METAR WIHH 141500Z 18003KT 5000 HZ FEW020 29/25 Q1011 NOSIG=
202312141430 METAR WIHH 141430Z 18004KT 6000 FEW020 29/25 Q1011 NOSIG=
202312141400 METAR WIHH 141400Z 16004KT 6000 FEW020 29/25 Q1010 NOSIG=
202312141330 METAR WIHH 141330Z 16005KT 6000 FEW020 30/25 Q1010 NOSIG=
202312141300 METAR WIHH 141300Z 13004KT 6000 FEW020 30/25 Q1009 NOSIG=
202312141230 METAR WIHH 141230Z 22003KT 6000 SCT020 30/24 Q1007 RMK RA TO S=
202312141200 METAR WIHH 141200Z 22003KT 6000 SCT020 30/24 Q1007 RMK RA TO S=
202312141130 METAR WIHH 141130Z 26003KT 6000 SCT020 31/24 Q1007 RMK RA TO S=
202312141100 METAR WIHH 141100Z 03007KT 6000 FEW017CB SCT020 31/24 Q1007 RMK CB AND RA TO SW=
202312141030 METAR WIHH 141030Z 01007KT 6000 FEW017CB SCT020 31/24 Q1007 RMK CB AND RA TO SW=
202312141000 METAR WIHH 141000Z 36011KT 7000 SCT020 32/24 Q1007 NOSIG=
202312140930 METAR WIHH 140930Z 36011KT 7000 FEW020 33/24 Q1007 NOSIG=
202312140900 METAR WIHH NIL=
202312140830 METAR WIHH 140830Z 35007KT 7000 SCT018 33/23 Q1007 NOSIG=
202312140800 METAR WIHH 140800Z 01007KT 7000 SCT018 34/23 Q1007 NOSIG=
202312140730 METAR WIHH 140730Z 36007KT 7000 SCT018 34/23 Q1007 NOSIG=
202312140700 METAR WIHH 140700Z 36007KT 7000 SCT018 34/23 Q1008 NOSIG=
202312140630 METAR WIHH 140630Z 35008KT 7000 SCT018 34/23 Q1008 NOSIG=
202312140600 METAR WIHH 140600Z 35010KT 8000 SCT018 35/22 Q1008 NOSIG=
202312140530 METAR WIHH 140530Z 03003KT 8000 SCT018 35/22 Q1009 NOSIG=
202312140500 METAR WIHH 140500Z 12005KT 8000 SCT018 35/21 Q1010 NOSIG=
202312140430 METAR WIHH 140430Z 09003KT 7000 SCT018 35/21 Q1010 NOSIG=
202312140400 METAR WIHH 140400Z 09005KT 7000 SCT018 34/22 Q1010 NOSIG=
202312140330 METAR WIHH 140330Z 00000KT 7000 FEW018 33/22 Q1010 NOSIG=
202312140300 METAR WIHH 140300Z 18005KT 7000 FEW020 33/23 Q1011 NOSIG=
202312140230 METAR WIHH 140230Z 00000KT 7000 FEW020 32/24 Q1011 NOSIG=
202312140200 METAR WIHH 140200Z 21003KT 6000 FEW020 31/23 Q1011 NOSIG=
202312140130 METAR WIHH 140130Z 18003KT 6000 FEW020 30/23 Q1011 NOSIG=
202312140100 METAR WIHH 140100Z 25004KT 6000 FEW020 29/23 Q1010 NOSIG=
202312140030 METAR WIHH 140030Z 19004KT 6000 FEW020 28/23 Q1011 NOSIG=
202312140000 METAR WIHH 140000Z 24006KT 6000 FEW020 27/23 Q1010 NOSIG=
202312132330 METAR WIHH 132330Z 25004KT 6000 FEW020 26/23 Q1010 NOSIG=
202312132300 METAR WIHH 132300Z 23006KT 6000 FEW020 26/24 Q1010 NOSIG=
202312132230 METAR WIHH 132230Z 25005KT 6000 FEW020 26/24 Q1009 NOSIG=
202312132200 METAR WIHH 132200Z 25004KT 6000 FEW020 26/24 Q1009 NOSIG=
202312132130 METAR WIHH 132130Z 25004KT 6000 FEW020 26/24 Q1009 NOSIG=
202312132100 METAR WIHH 132100Z 25005KT 6000 FEW020 26/24 Q1009 NOSIG=
202312132030 METAR WIHH NIL=
202312132000 METAR WIHH NIL=
202312131930 METAR WIHH NIL=
202312131900 METAR WIHH NIL=
202312131830 METAR WIHH NIL=
202312131800 METAR WIHH NIL=
202312131730 METAR WIHH NIL=
202312131700 METAR WIHH 131700Z 20003KT 6000 SCT020 27/24 Q1011 NOSIG=
202312131630 METAR WIHH 131630Z 18003KT 6000 SCT020 27/24 Q1011 NOSIG=
202312131600 METAR WIHH 131600Z 18003KT 6000 SCT020 28/24 Q1011 NOSIG=
202312131530 METAR WIHH 131530Z 10003KT 6000 SCT020 28/24 Q1010 NOSIG=
202312131500 METAR WIHH 131500Z 15005KT 6000 SCT020 29/24 Q1010 NOSIG=
202312131430 METAR WIHH 131430Z 12004KT 6000 SCT020 29/24 Q1010 NOSIG=
202312131400 METAR WIHH 131400Z 14004KT 6000 SCT020 29/24 Q1010 NOSIG=
202312131330 METAR WIHH 131330Z 08003KT 6000 SCT020 29/24 Q1009 NOSIG=
202312131300 METAR WIHH 131300Z 20003KT 6000 SCT020 29/24 Q1009 NOSIG=
202312131230 METAR WIHH 131230Z 15005KT 6000 SCT020 30/24 Q1009 NOSIG=
202312131200 METAR WIHH 131200Z 01005KT 6000 SCT020 30/24 Q1007 NOSIG=
202312131130 METAR WIHH 131130Z 01005KT 6000 SCT020 31/24 Q1007 NOSIG=
202312131100 METAR WIHH 131100Z 04008KT 6000 SCT020 31/23 Q1007 NOSIG=
202312131030 METAR WIHH 131030Z 34008KT 6000 SCT020 31/24 Q1006 NOSIG=
202312131000 METAR WIHH 131000Z 33010KT 6000 SCT020 32/24 Q1006 RMK RA TO E=
202312130930 METAR WIHH 130930Z 02008KT 6000 SCT020 32/24 Q1006 NOSIG=
202312130900 METAR WIHH 130900Z 34008KT 6000 SCT020 32/24 Q1006 RMK RA TO S=
202312130830 METAR WIHH 130830Z 30611KT 6000 SCT020 33/24 Q1006 NOSIG=
202312130800 METAR WIHH 130800Z 01010KT 6000 SCT020 33/24 Q1006 NOSIG=
202312130730 METAR WIHH 130730Z 34010KT 6000 SCT020 34/24 Q1006 NOSIG=
202312130700 METAR WIHH 130700Z 01010KT 6000 SCT020 34/24 Q1007 NOSIG=
202312130630 METAR WIHH 130630Z 36010KT 6000 SCT020 34/24 Q1007 NOSIG=
202312130600 METAR WIHH 130600Z 01008KT 6000 SCT020 35/25 Q1007 NOSIG=
202312130530 METAR WIHH 130530Z 33008KT 6000 SCT020 35/24 Q1008 NOSIG=
202312130500 METAR WIHH 130500Z 35006KT 6000 SCT020 33/24 Q1009 NOSIG=
202312130430 METAR WIHH 130430Z 30003KT 6000 SCT020 34/24 Q1009 NOSIG=
202312130400 METAR WIHH 130400Z 15003KT 6000 SCT020 33/23 Q1009 NOSIG=
202312130330 METAR WIHH 130330Z 25003KT 6000 SCT020 33/24 Q1010 NOSIG=
202312130300 METAR WIHH 130300Z 25003KT 6000 SCT020 32/24 Q1010 NOSIG=
202312130230 METAR WIHH 130230Z 20003KT 6000 FEW020 31/25 Q1010 NOSIG=
202312130200 METAR WIHH 130200Z 20003KT 6000 NSC 30/25 Q1010 NOSIG=
202312130130 METAR WIHH 130130Z 16005KT 6000 NSC 28/23 Q1010 NOSIG=
202312130100 METAR WIHH 130100Z 21007KT 6000 NSC 28/23 Q1010 NOSIG=
202312130030 METAR WIHH 130030Z 24006KT 6000 NSC 27/22 Q1010 NOSIG=
202312130000 METAR WIHH 130000Z 24010KT 6000 NSC 26/22 Q1009 NOSIG=
202312122330 METAR WIHH 122330Z 24006KT 6000 NSC 26/22 Q1009 NOSIG=
202312122300 METAR WIHH 122300Z 25006KT 6000 FEW020 25/22 Q1009 NOSIG=
202312122230 METAR WIHH 122230Z 25006KT 6000 SCT020 26/22 Q1008 NOSIG=
202312122200 METAR WIHH 122200Z 25005KT 6000 SCT020 26/22 Q1008 NOSIG=
202312122130 METAR WIHH 122130Z 26003KT 6000 FEW020 26/22 Q1008 NOSIG=
202312122100 METAR WIHH NIL=
202312122030 METAR WIHH NIL=
202312122000 METAR WIHH NIL=
202312121930 METAR WIHH NIL=
202312121900 METAR WIHH NIL=
202312121830 METAR WIHH NIL=
202312121800 METAR WIHH NIL=
202312121730 METAR WIHH NIL=
202312121700 METAR WIHH NIL=
202312121630 METAR WIHH NIL=
202312121600 METAR WIHH NIL=
202312121530 METAR WIHH NIL=
202312121500 METAR WIHH 121500Z 18004KT 6000 SCT020 28/26 Q1009 NOSIG=
202312121430 METAR WIHH 121430Z 16003KT 8000 SCT020 30/25 Q1009 NOSIG=
202312121400 METAR WIHH 121400Z 06003KT 8000 SCT020 30/24 Q1009 NOSIG=
202312121330 METAR WIHH 121330Z 09003KT 8000 SCT020 30/24 Q1008 NOSIG=
202312121300 METAR WIHH 121300Z 07003KT 8000 SCT020 30/24 Q1008 NOSIG=
202312121230 METAR WIHH 121230Z 03004KT 7000 SCT020 30/24 Q1007 NOSIG=
202312121200 METAR WIHH 121200Z 03004KT 6000 SCT020 30/24 Q1007 NOSIG=
202312121130 METAR WIHH 121130Z 33005KT 4000 HZ SCT018 30/25 Q1006 RMK RA TO SW=
202312121100 METAR WIHH 121100Z 01004KT 4000 HZ SCT018 30/25 Q1006 RMK RA TO SW=
202312121030 METAR WIHH 121030Z 35003KT 4000 HZ SCT018 30/25 Q1006 RMK RA TO SW=
202312121000 METAR WIHH 121000Z 33003KT 4000 HZ SCT018 30/25 Q1006 RMK RA TO SE=
202312120930 METAR WIHH 120930Z 33010KT 4000 TS FEW016CB SCT018 31/25 Q1006 RMK CB AND RA TO SW=
202312120900 METAR WIHH 120900Z 31012KT 4000 TS FEW016CB SCT018 31/25 Q1006 RMK CB AND RA TO SE AND SW=
202312120830 METAR WIHH 120830Z 03012KT 5000 HZ FEW016CB SCT018 32/25 Q1005 RMK RA TO SE AND SW=
202312120800 METAR WIHH 120800Z 01010KT 5000 HZ SCT018 33/25 Q1006 RMK RA TO E AND S=
202312120730 METAR WIHH 120730Z 36006KT 5000 HZ SCT018 33/25 Q1006 RMK RA TO E AND S=
202312120700 METAR WIHH 120700Z 32004KT 5000 HZ SCT018 32/24 Q1007 RMK RA TO S=
202312120630 METAR WIHH 120630Z 35007KT 5000 HZ SCT020 33/23 Q1007 NOSIG=
202312120600 METAR WIHH 120600Z 07004KT 5000 HZ SCT020 34/23 Q1007 NOSIG=
202312120530 METAR WIHH 120530Z 120500Z 10003KT 5000 HZ SCT020 34/24 Q1007 NOSIG=
202312120500 METAR WIHH NIL=
202312120430 METAR WIHH NIL=
202312120400 METAR WIHH 120400Z 18002KT 6000 SCT020 32/24 Q1008 NOSIG=
202312120330 METAR WIHH 120330Z 18003KT 6000 SCT020 32/24 Q1008 NOSIG=
202312120300 METAR WIHH 120300Z 22003KT 6000 SCT020 32/24 Q1009 NOSIG=
202312120230 METAR WIHH 120230Z 23004KT 6000 SCT020 33/24 Q1010 NOSIG=
202312120200 METAR WIHH 120200Z 08006KT 6000 FEW020 33/24 Q1011 NOSIG=
202312120130 METAR WIHH 120130Z 15003KT 6000 FEW020 30/24 Q1010 NOSIG=
202312120100 METAR WIHH 120100Z 21003KT 6000 FEW020 29/24 Q1009 NOSIG=
202312120030 METAR WIHH 120030Z 21003KT 6000 FEW020 29/24 Q1009 NOSIG=
202312120000 METAR WIHH 120000Z 29003KT 6000 FEW020 28/24 Q1009 NOSIG=
202312112330 METAR WIHH 112330Z 21004KT 6000 FEW020 26/24 Q1009 NOSIG=
202312112300 METAR WIHH 112300Z 23003KT 5000 HZ FEW020 26/23 Q1009 NOSIG=
202312112230 METAR WIHH 112230Z 27005KT 5000 HZ FEW020 26/24 Q1008 NOSIG=
202312112200 METAR WIHH 112200Z 25004KT 5000 HZ FEW020 26/24 Q1008 NOSIG=
202312112130 METAR WIHH 112130Z 24005KT 5000 HZ FEW020 27/23 Q1008 NOSIG=
202312112100 METAR WIHH NIL=
202312112030 METAR WIHH NIL=
202312112000 METAR WIHH NIL=
202312111930 METAR WIHH NIL=
202312111900 METAR WIHH NIL=
202312111830 METAR WIHH NIL=
202312111800 METAR WIHH NIL=
202312111730 METAR WIHH NIL=
202312111700 METAR WIHH 111700Z 12003KT 6000 FEW020 27/24 Q1009 NOSIG=
202312111630 METAR WIHH 111630Z 14004KT 6000 FEW020 27/24 Q1009 NOSIG=
202312111600 METAR WIHH 111600Z 12005KT 6000 FEW020 27/24 Q1009 NOSIG=
202312111530 METAR WIHH 111530Z 12006KT 6000 FEW020 27/24 Q1009 NOSIG=
202312111500 METAR WIHH 111500Z 13006KT 6000 FEW020 27/24 Q1009 NOSIG=
202312111430 METAR WIHH 111430Z 13005KT 6000 FEW020 27/24 Q1009 NOSIG=
202312111400 METAR WIHH 111400Z 12006KT 6000 SCT019 27/24 Q1009 RMK RA TO E=
202312111330 METAR WIHH 111330Z 10005KT 6000 SCT019 28/23 Q1009 NOSIG=
202312111300 METAR WIHH 111300Z 16003KT 6000 SCT019 27/22 Q1008 NOSIG=
202312111230 METAR WIHH 111230Z 20004KT 6000 SCT019 27/23 Q1008 NOSIG=
202312111200 METAR WIHH 111200Z 18005KT 6000 SCT019 29/23 Q1007 RMK RA TO SW=
202312111130 METAR WIHH 111130Z 27003KT 6000 FEW018CB SCT019 30/25 Q1007 RMK CB AND RA TO SE=
202312111100 METAR WIHH 111100Z 35005KT 6000 TS FEW018CB SCT019 30/24 Q1007 RMK CB AND RA TO S=
202312111030 METAR WIHH 111030Z 33006KT 6000 TS FEW018CB SCT020 30/25 Q1006 RMK CB AND RA TO S=
202312111000 METAR WIHH 111000Z 34003KT 6000 FEW018CB SCT020 31/25 Q1006 RMK CB AND RA TO SW=
202312110930 METAR WIHH 110930Z 34005KT 6000 TS FEW018CB SCT020 32/24 Q1005 RMK CB AND RA TO SW=
202312110900 METAR WIHH 110900Z 34005KT 6000 FEW018CB SCT020 32/24 Q1005 RMK CB AND RA TO SW=
202312110830 METAR WIHH 110830Z 35010KT 6000 SCT020 32/24 Q1005 RMK RA TO SW=
202312110800 METAR WIHH 110800Z 03010KT 6000 SCT020 33/24 Q1005 NOSIG=
202312110730 METAR WIHH 110730Z 01010KT 6000 SCT018 33/24 Q1006 NOSIG=
202312110700 METAR WIHH 110700Z 36010KT 6000 SCT018 33/24 Q1006 NOSIG=
202312110630 METAR WIHH 110630Z 35006KT 6000 SCT018 34/24 Q1006 NOSIG=
202312110600 METAR WIHH 110600Z 35006KT 5000 HZ SCT018 34/24 Q1007 NOSIG=
202312110530 METAR WIHH 110530Z 15003KT 5000 HZ SCT020 34/24 Q1007 NOSIG=
202312110500 METAR WIHH 110500Z 31003KT 6000 SCT020 33/24 Q1008 NOSIG=
202312110430 METAR WIHH 110430Z 03003KT 6000 SCT020 34/24 Q1008 NOSIG=
202312110400 METAR WIHH 110400Z 34004KT 6000 SCT020 34/23 Q1008 NOSIG=
202312110330 METAR WIHH 110330Z 09003KT 5000 HZ SCT020 33/23 Q1009 NOSIG=
202312110300 METAR WIHH 110300Z 21003KT 5000 HZ SCT020 33/24 Q1009 NOSIG=
202312110230 METAR WIHH 110230Z 03004KT 5000 HZ SCT020 32/24 Q1009 NOSIG=
202312110200 METAR WIHH 110200Z 04005KT 5000 HZ FEW020 31/24 Q1010 NOSIG=
202312110130 METAR WIHH 110130Z 07005KT 5000 HZ NSC 30/24 Q1009 NOSIG=
202312110100 METAR WIHH 110100Z 09002KT 5000 HZ NSC 30/25 Q1009 NOSIG=
202312110030 METAR WIHH 110030Z 15003KT 5000 HZ NSC 29/25 Q1009 NOSIG=
202312110000 METAR WIHH 110000Z 11003KT 5000 HZ NSC 28/25 Q1009 NOSIG=
202312102330 METAR WIHH 102330Z 00000KT 5000 HZ NSC 26/24 Q1008 NOSIG=
202312102300 METAR WIHH 102300Z 00000KT 5000 HZ FEW020 25/24 Q1008 NOSIG=
202312102230 METAR WIHH 102230Z 0000KT 5000 HZ FEW020 25/24 Q1008 NOSIG=
202312102200 METAR WIHH 102200Z 00000KT 7000 NSC 25/24 Q1007 NOSIG=
202312102130 METAR WIHH 102130Z 25002KT 7000 NSC 25/24 Q1008 NOSIG=
202312102100 METAR WIHH NIL=
202312102030 METAR WIHH NIL=
202312102000 METAR WIHH NIL=
202312101930 METAR WIHH NIL=
202312101900 METAR WIHH NIL=
202312101830 METAR WIHH NIL=
202312101800 METAR WIHH NIL=
202312101730 METAR WIHH NIL=
202312101700 METAR WIHH NIL=
202312101630 METAR WIHH NIL=
202312101600 METAR WIHH 101600Z 17003KT 6000 SCT018 27/25 Q1009 NOSIG=
202312101530 METAR WIHH 101530Z 15003KT 6000 SCT018 27/25 Q1009 NOSIG=
202312101500 METAR WIHH 101500Z 16003KT 6000 SCT018 27/25 Q1010 NOSIG=
202312101430 METAR WIHH 101430Z 17003KT 6000 SCT018 27/23 Q1009 NOSIG=
202312101400 METAR WIHH 101400Z 12003KT 6000 SCT018 27/23 Q1009 NOSIG=
202312101330 METAR WIHH 101330Z 10002KT 6000 SCT018 27/24 Q1009 NOSIG=
202312101300 METAR WIHH 101300Z 13005KT 6000 SCT017 27/24 Q1009 RMK RA TO S=
202312101230 METAR WIHH 101230Z 15004KT 6000 SCT017 27/24 Q1009 RMK RA TO E=
202312101200 METAR WIHH 101200Z 10004KT 5000 HZ BKN017 27/24 Q1008 RMK RA TO E=
202312101130 METAR WIHH 101130Z 12005KT 4000 HZ BKN017 28/24 Q1008 RMK RA TO SE=
202312101100 METAR WIHH 101100Z 03006KT 4000 TS FEW016CB BKN016 30/24 Q1008 RMK CB AND RA TO E-SE=
202312101030 METAR WIHH 101030Z 02006KT 4000 TS FEW016CB BKN016 30/24 Q1007 RMK CB AND RA TO E-SE=
202312101000 METAR WIHH 101000Z 03006KT 5000 TS FEW016CB SCT018 31/24 Q1007 RMK CB AND RA TO SE=
202312100930 METAR WIHH 100930Z 04006KT 5000 HZ FEW018CB SCT020 31/24 Q1006 RMK CB AND RA TO SE=
202312100900 METAR WIHH 100900Z 02005KT 5000 HZ FEW018CB SCT020 31/24 Q1005 RMK CB AND RA TO S=
202312100830 METAR WIHH 100830Z 03007KT 5000 HZ SCT020 31/24 Q1005 NOSIG=
202312100800 METAR WIHH 100800Z 03005KT 5000 HZ SCT020 31/24 Q1006 NOSIG=
202312100730 METAR WIHH 100730Z 02006KT 5000 HZ SCT020 31/25 Q1007 NOSIG=
202312100700 METAR WIHH 100700Z 02006KT 5000 HZ SCT020 31/25 Q1007 NOSIG=
202312100630 METAR WIHH 100630Z 06006KT 5000 HZ SCT020 31/25 Q1007 NOSIG=
202312100600 METAR WIHH 100600Z 04006KT 5000 HZ SCT020 31/24 Q1008 NOSIG=
202312100530 METAR WIHH 100530Z 02005KT 5000 HZ SCT020 31/24 Q1008 NOSIG=
202312100500 METAR WIHH 100500Z 11008KT 5000 HZ SCT020 31/24 Q1008 NOSIG=
202312100430 METAR WIHH 100430Z 04007KT 5000 HZ SCT020 31/24 Q1009 NOSIG=
202312100400 METAR WIHH NIL=
202312100330 METAR WIHH 100330Z 05006KT 5000 HZ SCT020 30/24 Q1010 NOSIG=
202312100300 METAR WIHH 100300Z 07003KT 5000 HZ SCT020 30/24 Q1010 NOSIG=
202312100230 METAR WIHH 100230Z 14003KT 6000 SCT020 30/24 Q1010 NOSIG=
202312100200 METAR WIHH 100200Z 18002KT 6000 SCT020 29/24 Q1010 NOSIG=
202312100130 METAR WIHH 100130Z 20002KT 6000 SCT020 29/24 Q1010 NOSIG=
202312100100 METAR WIHH 100100Z 21002KT 6000 SCT020 28/24 Q1010 NOSIG=
202312100030 METAR WIHH 100030Z 15004KT 6000 SCT020 28/24 Q1009 NOSIG=
202312100000 METAR WIHH 100000Z 22004KT 6000 SCT020 27/23 Q1009 NOSIG=
202312092330 METAR WIHH 092330Z 23003KT 5000 HZ SCT020 26/24 Q1009 NOSIG=
202312092300 METAR WIHH 092300Z 29003KT 5000 HZ SCT020 26/24 Q1009 NOSIG=
202312092230 METAR WIHH 092230Z 24004KT 5000 HZ SCT020 26/24 Q1008 NOSIG=
202312092200 METAR WIHH 092200Z 26003KT 5000 HZ SCT020 26/24 Q1008 NOSIG=
202312092130 METAR WIHH 092130Z 22003KT 5000 HZ SCT020 26/24 Q1008 NOSIG=
202312092100 METAR WIHH 092100Z 27003KT 5000 HZ SCT020 26/24 Q1008 NOSIG=
202312092030 METAR WIHH NIL=
202312092000 METAR WIHH NIL=
202312091930 METAR WIHH NIL=
202312091900 METAR WIHH NIL=
202312091830 METAR WIHH NIL=
202312091800 METAR WIHH NIL=
202312091730 METAR WIHH NIL=
202312091700 METAR WIHH 091700Z 21003KT 6000 FEW020 26/24 Q1009 NOSIG=
202312091630 METAR WIHH 091630Z 24004KT 6000 FEW018 26/24 Q1009 NOSIG=
202312091600 METAR WIHH 091600Z 00000KT 6000 FEW018 27/24 Q1009 NOSIG=
202312091530 METAR WIHH 091530Z 23003KT 6000 SCT018 27/24 Q1009 NOSIG=
202312091500 METAR WIHH 091500Z 21003KT 6000 SCT018 27/24 Q1009 NOSIG=
202312091430 METAR WIHH 091430Z 24003KT 6000 SCT018 27/24 Q1009 NOSIG=
202312091400 METAR WIHH 091400Z 25003KT 6000 SCT018 27/23 Q1009 NOSIG=
202312091330 METAR WIHH 091330Z 23004KT 6000 SCT018 27/24 Q1009 NOSIG=
202312091300 METAR WIHH 091300Z 19004KT 6000 SCT018 27/24 Q1008 RMK RA TO SW=
202312091230 METAR WIHH 091230Z 22006KT 6000 SCT018 26/24 Q1008 RMK RA TO SW=
202312091200 METAR WIHH 091200Z 22006KT 6000 SCT018 26/23 Q1008 RMK RA TO W=
202312091130 METAR WIHH 091130Z 22008KT 5000 HZ SCT016 FEW017CB 27/23 Q1009 RMK CB AND RA TO SW AND W=
202312091100 METAR WIHH 091100Z 18008KT 5000 HZ SCT016 FEW017CB 28/23 Q1009 TEMPO FM1130 4000 -RA RMK CB AND RA TO S AND W=
202312091030 METAR WIHH 091030Z 34006KT 5000 HZ FEW017CB SCT018 30/25 Q1008 RMK CB AND RA TO S=
202312091000 METAR WIHH 091000Z 34010KT 5000 HZ FEW017CB SCT018 31/24 Q1008 RMK CB AND RA TO S=
202312090930 METAR WIHH 090930Z 36010KT 5000 HZ SCT017 FEW018CB 32/24 Q1007 RMK CB AND RA TO SW=
202312090900 METAR WIHH 090900Z 03010KT 5000 HZ SCT017 FEW018CB 32/24 Q1007 RMK CB AND RA TO S=
202312090830 METAR WIHH 090830Z 03010KT 5000 HZ SCT018 33/24 Q1007 RMK RA TO SE=
202312090800 METAR WIHH 090800Z 03011KT 5000 HZ SCT020 33/24 Q1006 NOSIG=
202312090730 METAR WIHH 090730Z 03008KT 5000 HZ SCT020 34/24 Q1007 NOSIG=
202312090700 METAR WIHH 090700Z 33007KT 5000 HZ SCT020 33/24 Q1007 NOSIG=
202312090630 METAR WIHH 090630Z 31005KT 5000 HZ SCT020 33/24 Q1007 NOSIG=
202312090600 METAR WIHH 090600Z 01008KT 5000 HZ SCT020 33/24 Q1008 NOSIG=
202312090530 METAR WIHH 090530Z 03008KT 5000 HZ SCT020 32/24 Q1009 NOSIG=
202312090500 METAR WIHH 090500Z 04004KT 5000 HZ SCT020 32/23 Q1009 NOSIG=
202312090430 METAR WIHH 090430Z 07004KT 5000 HZ SCT020 32/25 Q1009 NOSIG=
202312090400 METAR WIHH 090400Z 11003KT 5000 HZ SCT020 31/24 Q1010 NOSIG=
202312090330 METAR WIHH 090330Z 03005KT 5000 HZ SCT020 30/24 Q1010 NOSIG=
202312090300 METAR WIHH 090300Z 11003KT 5000 HZ SCT020 30/24 Q1011 NOSIG=
202312090230 METAR WIHH 090230Z 00000KT 5000 HZ SCT020 29/24 Q1011 NOSIG=
202312090200 METAR WIHH 090200Z 15003KT 5000 HZ FEW020 29/24 Q1011 NOSIG=
202312090130 METAR WIHH 090130Z 15003KT 6000 FEW020 29/24 Q1011 NOSIG=
202312090100 METAR WIHH 090100Z 22003KT 6000 NSC 28/24 Q1011 NOSIG=
202312090030 METAR WIHH 090030Z 23004KT 6000 NSC 27/24 Q1010 NOSIG=
202312090000 METAR WIHH 090000Z 24003KT 6000 NSC 26/24 Q1010 NOSIG=
202312082330 METAR WIHH 082330Z 19003KT 6000 NSC 26/24 Q1010 NOSIG=
202312082300 METAR WIHH 082300Z 26003KT 6000 NSC 25/24 Q1010 NOSIG=
202312082230 METAR WIHH 082230Z 28003KT 6000 NSC 25/24 Q1009 NOSIG=
202312082200 METAR WIHH NIL=
202312082130 METAR WIHH NIL=
202312082100 METAR WIHH NIL=
202312082030 METAR WIHH NIL=
202312082000 METAR WIHH NIL=
202312081930 METAR WIHH NIL=
202312081900 METAR WIHH NIL=
202312081830 METAR WIHH NIL=
202312081800 METAR WIHH NIL=
202312081730 METAR WIHH NIL=
202312081700 METAR WIHH NIL=
202312081630 METAR WIHH NIL=
202312081600 METAR WIHH NIL=
202312081530 METAR WIHH 081530Z 13002KT 5000 HZ FEW020 27/25 Q1010 NOSIG=
202312081500 METAR WIHH 081500Z 16004KT 7000 FEW020 27/25 Q1010 NOSIG=
202312081430 METAR WIHH 081430Z 18004KT 7000 FEW020 27/25 Q1010 NOSIG=
202312081400 METAR WIHH 081400Z 20005KT 7000 FEW020 27/25 Q1010 NOSIG=
202312081330 METAR WIHH 081330Z 00000KT 5000 HZ SCT017 27/25 Q1010 NOSIG=
202312081300 METAR WIHH 081300Z 00000KT 5000 HZ SCT017 27/25 Q1009 NOSIG=
202312081230 METAR WIHH 081230Z 00000KT 5000 HZ SCT018 27/25 Q1009 NOSIG=
202312081200 METAR WIHH 081200Z 00000KT 5000 HZ SCT018 27/26 Q1009 NOSIG=
202312081130 METAR WIHH 081130Z 22002KT 5000 HZ SCT018 27/25 Q1008 NOSIG=
202312081100 METAR WIHH 081100Z 20003KT 5000 HZ SCT018 27/26 Q1008 NOSIG=
202312081030 METAR WIHH 081030Z 21006KT 5000 HZ SCT018 28/26 Q1008 RMK RA TO SW=
202312081000 METAR WIHH 081000Z 21006KT 5000 HZ SCT018 28/26 Q1008 RMK RA TO SW=
202312080930 METAR WIHH 080930Z 07003KT 5000 HZ SCT018 28/26 Q1008 RMK RA TO S=
202312080900 METAR WIHH NIL=
202312080830 METAR WIHH 080830Z 09003KT 5000 HZ SCT018 28/25 Q1007 RMK RA TO E=
202312080800 METAR WIHH 080800Z 24004KT 5000 HZ FEW016CB BKN018 28/25 Q1007 RMK CB AND RA TO NW=
202312080730 METAR WIHH 080730Z 0006KT 5000 -TSRA FEW016CB BKN018 27/25 Q1007 RMK CB TO SW=
202312080700 METAR WIHH 080700Z 27006KT 5000 -TSRA FEW016CB BKN018 26/25 Q1007 RMK CB TO SW=
202312080630 METAR WIHH 080630Z 21013KT 2000 TSRA FEW016CB BKN018 27/25 Q1008 RMK CB TO SW=
202312080600 METAR WIHH 080600Z 02010KT 5000 -RA FEW018CB SCT020 31/25 Q1008 RMK CB TO SE=
202312080530 METAR WIHH 080530Z 33005KT 5000 HZ FEW018CB SCT020 33/24 Q1008 RMK CB AND RA TO SE=
202312080500 METAR WIHH 080500Z 30004KT 5000 HZ FEW018CB SCT020 33/24 Q1009 RMK CB AND RA TO E=
202312080430 METAR WIHH 080430Z 30007KT 7000 SCT020 34/23 Q1009 RMK RA TO E=
202312080400 METAR WIHH 080400Z 13005KT 7000 SCT020 34/23 Q1009 NOSIG=
202312080330 METAR WIHH 080330Z 18006KT 7000 SCT020 33/23 Q1010 NOSIG=
202312080300 METAR WIHH 080300Z 22006KT 7000 FEW020 33/23 Q1010 NOSIG=
202312080230 METAR WIHH 080230Z 23008KT 7000 FEW020 33/24 Q1010 NOSIG=
202312080200 METAR WIHH 080200Z 21006KT 7000 NSC 32/24 Q1010 NOSIG=
202312080130 METAR WIHH 080130Z 19004KT 7000 NSC 31/24 Q1010 NOSIG=
202312080100 METAR WIHH 080100Z 22008KT 7000 NSC 30/24 Q1010 NOSIG=
202312080030 METAR WIHH 080030Z 22004KT 7000 NSC 29/24 Q1010 NOSIG=
202312080000 METAR WIHH 080000Z 22003KT 6000 NSC 28/25 Q1010 NOSIG=
202312072330 METAR WIHH 072330Z 22007KT 6000 FEW020 27/25 Q1009 NOSIG=
202312072300 METAR WIHH 072300Z 23007KT 6000 FEW020 26/24 Q1009 NOSIG=
202312072230 METAR WIHH 072230Z 23003KT 6000 FEW020 26/24 Q1009 NOSIG=
202312072200 METAR WIHH 072200Z 28003KT 6000 FEW020 26/24 Q1009 NOSIG=
202312072130 METAR WIHH 072130Z 26004KT 6000 SCT020 26/24 Q1009 NOSIG=
202312072100 METAR WIHH NIL=
202312072030 METAR WIHH NIL=
202312072000 METAR WIHH NIL=
202312071930 METAR WIHH NIL=
202312071900 METAR WIHH NIL=
202312071830 METAR WIHH NIL=
202312071800 METAR WIHH NIL=
202312071730 METAR WIHH NIL=
202312071700 METAR WIHH 071700Z 24003KT 6000 FEW020 26/23 Q1011 NOSIG=
202312071630 METAR WIHH 071630Z 20004KT 6000 SCT020 26/23 Q1011 NOSIG=
202312071600 METAR WIHH 071600Z 20004KT 6000 SCT020 27/23 Q1011 NOSIG=
202312071530 METAR WIHH 071530Z 22005KT 6000 SCT020 27/24 Q1011 NOSIG=
202312071500 METAR WIHH 071500Z 24005KT 6000 SCT020 27/24 Q1011 NOSIG=
202312071430 METAR WIHH 071430Z 19004KT 6000 SCT020 28/23 Q1011 NOSIG=
202312071400 METAR WIHH 071400Z 00000KT 6000 FEW020 29/25 Q1010 NOSIG=
202312071330 METAR WIHH 071330Z 00000KT 6000 SCT019 29/25 Q1011 NOSIG=
202312071300 METAR WIHH 071300Z 36003KT 6000 FEW018CB SCT019 30/25 Q1010 RMK CB TO S=
202312071230 METAR WIHH 071230Z 32003KT 6000 FEW018CB SCT019 30/25 Q1009 RMK CB TO S=
202312071200 METAR WIHH 071200Z 36006KT 6000 FEW020 30/25 Q1009 NOSIG=
202312071130 METAR WIHH 071130Z 02005KT 6000 FEW020 30/25 Q1009 NOSIG=
202312071100 METAR WIHH 071100Z 02008KT 6000 FEW020 30/25 Q1008 NOSIG=
202312071030 METAR WIHH 071030Z 03005KT 6000 SCT020 31/25 Q1008 NOSIG=
202312071000 METAR WIHH 071000Z 36006KT 6000 SCT020 31/26 Q1007 NOSIG=
202312070930 METAR WIHH 070930Z 36008KT 6000 SCT020 32/26 Q1007 NOSIG=
202312070900 METAR WIHH 070900Z 35006KT 5000 HZ SCT020 32/26 Q1007 NOSIG=
202312070830 METAR WIHH 070830Z 34006KT 5000 HZ SCT020 33/26 Q1006 NOSIG=
202312070800 METAR WIHH 070800Z 10004KT 5000 HZ SCT020 34/24 Q1006 NOSIG=
202312070730 METAR WIHH 070730Z 06004KT 4000 HZ SCT020 33/24 Q1007 NOSIG=
202312070700 METAR WIHH 070700Z 03007KT 4000 HZ SCT020 33/25 Q1007 NOSIG=
202312070630 METAR WIHH 070630Z 01005KT 4000 HZ SCT020 32/25 Q1008 NOSIG=
202312070600 METAR WIHH 070600Z 33003KT 4000 HZ SCT020 31/25 Q1009 NOSIG=
202312070530 METAR WIHH 070530Z 04004KT 4000 HZ SCT018 31/25 Q1009 NOSIG=
202312070500 METAR WIHH 070500Z 00000KT 4000 HZ SCT018 31/25 Q1010 NOSIG=
202312070430 METAR WIHH 070430Z 29003KT 4000 HZ SCT018 31/24 Q1010 NOSIG=
202312070400 METAR WIHH 070400Z 21003KT 4000 HZ SCT018 30/24 Q1011 NOSIG=
202312070330 METAR WIHH 070330Z 18004KT 4000 HZ SCT018 30/24 Q1011 NOSIG=
202312070300 METAR WIHH 070300Z 18004KT 4000 HZ SCT018 29/25 Q1011 NOSIG=
202312070230 METAR WIHH 070230Z 17004KT 4000 HZ SCT018 29/25 Q1012 NOSIG=
202312070200 METAR WIHH 070200Z 14003KT 5000 HZ SCT018 28/24 Q1011 NOSIG=
202312070130 METAR WIHH 070130Z 22005KT 5000 HZ SCT020 28/25 Q1011 NOSIG=
202312070100 METAR WIHH 070100Z 21005KT 6000 SCT020 28/24 Q1011 NOSIG=
202312070030 METAR WIHH 070030Z 24003KT 6000 SCT020 28/24 Q1011 NOSIG=
202312070000 METAR WIHH 070000Z 24004KT 6000 SCT020 27/24 Q1011 NOSIG=
202312062330 METAR WIHH 062330Z 00000KT 5000 HZ SCT020 27/24 Q1010 NOSIG=
202312062300 METAR WIHH 062300Z 28003KT 5000 HZ SCT020 26/24 Q1009 NOSIG=
202312062230 METAR WIHH 062230Z 29003KT 4000 HZ SCT020 26/24 Q1009 NOSIG=
202312062200 METAR WIHH 062200Z 21003KT 5000 HZ FEW020 26/24 Q1008 NOSIG=
202312062130 METAR WIHH 062130Z 00000KT 4000 HZ SCT018 26/24 Q1008 NOSIG=
202312062100 METAR WIHH 062100Z 00000KT 4000 HZ SCT018 26/24 Q1008 NOSIG=
202312062030 METAR WIHH NIL=
202312062000 METAR WIHH NIL=
202312061930 METAR WIHH NIL=
202312061900 METAR WIHH NIL=
202312061830 METAR WIHH NIL=
202312061800 METAR WIHH NIL=
202312061730 METAR WIHH NIL=
202312061700 METAR WIHH NIL=
202312061630 METAR WIHH NIL=
202312061600 METAR WIHH NIL=
202312061530 METAR WIHH NIL=
202312061500 METAR WIHH 061500Z 00000KT 5000 HZ FEW020 26/24 Q1011 NOSIG=
202312061430 METAR WIHH 061430Z 00000KT 6000 SCT020 26/24 Q1011 NOSIG=
202312061400 METAR WIHH 061400Z 00000KT 6000 FEW020 25/24 Q1011 NOSIG=
202312061330 METAR WIHH 061330Z 00000KT 6000 FEW020 26/23 Q1010 NOSIG=
202312061300 METAR WIHH 061300Z 33003KT 6000 FEW020 26/24 Q1010 NOSIG=
202312061230 METAR WIHH 061230Z 29003KT 7000 SCT016 26/24 Q1010 NOSIG=
202312061200 METAR WIHH 061200Z 15003KT 6000 -RA SCT016 25/24 Q1010 NOSIG=
202312061130 METAR WIHH 061130Z 21006KT 6000 TS SCT016 FEW017CB 26/23 Q1009 RMK CB AND RA TO E=
202312061100 METAR WIHH 061100Z 21007KT 5000 -TSRA BKN015 FEW017CB 26/23 Q1009 RMK CB TO E=
202312061030 METAR WIHH 061030Z 22011KT 5000 -TSRA BKN015 FEW017CB 26/23 Q1008 RMK CB TO SE=
202312061000 METAR WIHH 061000Z 25015KT 5000 -TSRA BKN015 FEW017CB 26/22 Q1008 RMK CB TO SE AND W=
202312060930 METAR WIHH 060930Z 23016KT 5000 TS BKN015 FEW017CB 30/24 Q1008 RMK CB AND RA TO S-SW=
202312060900 METAR WIHH 060900Z 35006KT 5000 TS FEW017CB SCT020 31/24 Q1007 RMK CB AND RA TO S-SW=
202312060830 METAR WIHH 060830Z 30007KT 6000 TS FEW017CB SCT020 32/24 Q1007 RMK CB AND RA TO S-SW=
202312060800 METAR WIHH 060800Z 01010KT 6000 SCT020 33/24 Q1007 RMK RA TO S=
202312060730 METAR WIHH 060730Z 30010KT 5000 HZ SCT020 34/23 Q1007 RMK RA TO SE AND S=
202312060700 METAR WIHH 060700Z 03005KT 5000 HZ SCT020 33/23 Q1007 RMK RA TO S=
202312060630 METAR WIHH 060630Z 03006KT 5000 HZ SCT020 34/24 Q1008 RMK RA TO S=
202312060600 METAR WIHH 060600Z 33003KT 5000 HZ SCT020 33/23 Q1009 NOSIG=
202312060530 METAR WIHH 060530Z 36004KT 5000 HZ SCT020 33/23 Q1009 NOSIG=
202312060500 METAR WIHH 060500Z 36004KT 5000 HZ SCT020 34/24 Q1010 NOSIG=
202312060430 METAR WIHH 060430Z 20004KT 5000 HZ SCT020 34/23 Q1010 NOSIG=
202312060400 METAR WIHH 060400Z 11005KT 5000 HZ SCT020 33/24 Q1011 NOSIG=
202312060330 METAR WIHH 060330Z 17004KT 5000 HZ SCT020 32/23 Q1011 NOSIG=
202312060300 METAR WIHH 060300Z 14004KT 6000 SCT020 32/24 Q1012 NOSIG=
202312060230 METAR WIHH 060230Z 15003KT 6000 SCT020 31/24 Q1012 NOSIG=
202312060200 METAR WIHH 060200Z 19003KT 6000 FEW020 30/24 Q1012 NOSIG=
202312060130 METAR WIHH 060130Z 17003KT 5000 HZ NSC 30/24 Q1012 NOSIG=
202312060100 METAR WIHH 060100Z 21004KT 5000 HZ NSC 29/24 Q1012 NOSIG=
202312060030 METAR WIHH 060030Z 00000KT 5000 HZ NSC 28/24 Q1011 NOSIG=
202312060000 METAR WIHH 060000Z 00000KT 5000 HZ NSC 27/24 Q1011 NOSIG=
202312052330 METAR WIHH 052330Z 00000KT 5000 HZ NSC 26/24 Q1011 NOSIG=
202312052300 METAR WIHH 052300Z 00000KT 5000 HZ NSC 25/24 Q1010 NOSIG=
202312052230 METAR WIHH 052230Z 00000KT 5000 HZ NSC 25/24 Q1010 NOSIG=
202312052200 METAR WIHH 052200Z 00000KT 5000 HZ NSC 25/24 Q1009 NOSIG=
202312052130 METAR WIHH NIL=
202312052100 METAR WIHH 052100Z 00000KT 6000 NSC 26/24 Q1009 NOSIG=
202312052030 METAR WIHH NIL=
202312052000 METAR WIHH NIL=
202312051930 METAR WIHH NIL=
202312051900 METAR WIHH NIL=
202312051830 METAR WIHH NIL=
202312051800 METAR WIHH NIL=
202312051730 METAR WIHH NIL=
202312051700 METAR WIHH 051700Z 12004KT 6000 NSC 26/23 Q1011 NOSIG=
202312051630 METAR WIHH 051630Z 14003KT 6000 NSC 26/23 Q1011 NOSIG=
202312051600 METAR WIHH 051600Z VRB03KT 6000 NSC 26/22 Q1011 NOSIG=
202312051530 METAR WIHH 051530Z 11003KT 6000 NSC 26/22 Q1011 NOSIG=
202312051500 METAR WIHH 051500Z 13003KT 6000 NSC 27/22 Q1011 NOSIG=
202312051430 METAR WIHH 051430Z 13006KT 6000 FEW020 28/22 Q1010 NOSIG=
202312051400 METAR WIHH 051400Z 14004KT 6000 FEW020 29/25 Q1010 NOSIG=
202312051330 METAR WIHH 051330Z 04008KT 6000 SCT020 29/24 Q1010 NOSIG=
202312051300 METAR WIHH 051300Z 10008KT 6000 SCT020 29/24 Q1010 NOSIG=
202312051230 METAR WIHH 051230Z 14003KT 6000 FEW018CB SCT020 29/24 Q1010 RMK CB TO S=
202312051200 METAR WIHH 051200Z 05003KT 6000 FEW018CB SCT020 30/24 Q1009 RMK CB TO S=
202312051130 METAR WIHH 051130Z 04006KT 7000 FEW018CB SCT020 30/24 Q1008 RMK CB TO S=
202312051100 METAR WIHH 051100Z 05006KT 7000 FEW020 30/24 Q1008 NOSIG=
202312051030 METAR WIHH 051030Z 03012KT 7000 FEW020 31/24 Q1008 NOSIG=
202312051000 METAR WIHH 051000Z 35008KT 7000 FEW020 32/24 Q1007 NOSIG=
202312050930 METAR WIHH 050930Z 03008KT 7000 FEW020 33/23 Q1007 NOSIG=
202312050900 METAR WIHH 050900Z 35006KT 7000 FEW020 33/24 Q1007 NOSIG=
202312050830 METAR WIHH 050830Z 05008KT 6000 SCT020 33/23 Q1007 NOSIG=
202312050800 METAR WIHH 050800Z 02005KT 6000 SCT020 33/23 Q1006 NOSIG=
202312050730 METAR WIHH 050730Z 04007KT 6000 SCT018 33/23 Q1006 NOSIG=
202312050700 METAR WIHH 050700Z 03005KT 6000 SCT018 34/23 Q1007 NOSIG=
202312050630 METAR WIHH 050630Z 05008KT 6000 SCT018 34/23 Q1007 NOSIG=
202312050600 METAR WIHH 050600Z 08008KT 6000 SCT018 33/22 Q1008 NOSIG=
202312050530 METAR WIHH 050530Z 09005KT 6000 SCT018 33/22 Q1008 NOSIG=
202312050500 METAR WIHH 050500Z 12003KT 6000 SCT018 33/22 Q1009 NOSIG=
202312050430 METAR WIHH 050430Z 07003KT 6000 SCT020 33/23 Q1009 NOSIG=
202312050400 METAR WIHH 050400Z 01006KT 6000 FEW020 33/23 Q1010 NOSIG=
202312050330 METAR WIHH 050330Z 08005KT 5000 HZ FEW020 32/23 Q1010 NOSIG=
202312050300 METAR WIHH 050300Z 00000KT 5000 HZ FEW020 31/23 Q1010 NOSIG=
202312050230 METAR WIHH 050230Z 07004KT 5000 HZ FEW020 31/23 Q1011 NOSIG=
202312050200 METAR WIHH 050200Z 10003KT 5000 HZ FEW020 30/24 Q1011 NOSIG=
202312050130 METAR WIHH 050130Z 19003KT 5000 HZ FEW020 29/24 Q1011 NOSIG=
202312050100 METAR WIHH 050100Z 21003KT 4000 HZ FEW020 27/24 Q1011 NOSIG=
202312050030 METAR WIHH 050030Z 19003KT 4000 HZ FEW020 26/23 Q1011 NOSIG=
202312050000 METAR WIHH 050000Z 21003KT 4000 HZ FEW020 25/23 Q1011 NOSIG=
202312042330 METAR WIHH 042330Z 00000KT 3000 HZ FEW020 24/23 Q1011 NOSIG=
202312042300 METAR WIHH 042300Z 00000KT 3000 BR FEW020 24/23 Q1010 NOSIG=
202312042230 METAR WIHH 042230Z 00000KT 3000 BR FEW020 24/24 Q1010 NOSIG=
202312042200 METAR WIHH 042200Z 00000KT 4000 HZ FEW020 24/23 Q1009 NOSIG=
202312042130 METAR WIHH 042130Z 00000KT 5000 HZ FEW020 24/23 Q1009 NOSIG=
202312042100 METAR WIHH NIL=
202312042030 METAR WIHH NIL=
202312042000 METAR WIHH NIL=
202312041930 METAR WIHH NIL=
202312041900 METAR WIHH NIL=
202312041830 METAR WIHH NIL=
202312041800 METAR WIHH NIL=
202312041730 METAR WIHH NIL=
202312041700 METAR WIHH NIL=
202312041630 METAR WIHH NIL=
202312041600 METAR WIHH NIL=
202312041530 METAR WIHH 041530Z 20003KT 6000 SCT020 24/23 Q1011 NOSIG=
202312041500 METAR WIHH 041500Z 23003KT 6000 SCT020 24/23 Q1011 NOSIG=
202312041430 METAR WIHH 041430Z 18003KT 6000 SCT020 24/23 Q1011 NOSIG=
202312041400 METAR WIHH 041400Z 20002KT 6000 SCT020 24/23 Q1011 NOSIG=
202312041330 METAR WIHH 041330Z 10003KT 7000 SCT020 26/23 Q1011 NOSIG=
202312041300 METAR WIHH 041300Z 11003KT 6000 SCT020 26/23 Q1010 NOSIG=
202312041230 METAR WIHH 041230Z 12003KT 6000 SCT018 26/23 Q1010 NOSIG=
202312041200 METAR WIHH 041200Z 11003KT 6000 SCT018 26/23 Q1010 NOSIG=
202312041130 METAR WIHH 041130Z 11003KT 6000 SCT018 26/23 Q1010 NOSIG=
202312041100 METAR WIHH 041100Z 09005KT 4000 HZ SCT018 26/24 Q1010 NOSIG=
202312041030 METAR WIHH 041030Z 12004KT 3000 HZ BKN018 26/24 Q1009 NOSIG=
202312041000 METAR WIHH 041000Z 11004KT 3000 HZ BKN018 26/24 Q1009 NOSIG=
202312040930 METAR WIHH 040930Z 14004KT 3000 HZ BKN018 27/24 Q1009 NOSIG=
202312040900 METAR WIHH 040900Z 11004KT 3000 HZ BKN018 27/25 Q1009 RMK RA TO SE=
202312040830 METAR WIHH 040830Z 11003KT 3000 HZ BKN018 27/25 Q1009 RMK RA TO E=
202312040800 METAR WIHH 040800Z 07003KT 3000 -RA BKN018 27/25 Q1009 NOSIG=
202312040730 METAR WIHH 040730Z 27003KT 3000 -RA FEW017CB SCT018 26/25 Q1009 RMK CB TO W=
202312040700 METAR WIHH 040700Z 20003KT 3000 HZ FEW017CB SCT018 29/25 Q1010 RMK CB AND RA TO N=
202312040630 METAR WIHH 040630Z 24004KT 3000 HZ SCT018 29/25 Q1010 RMK RA TO NE=
202312040600 METAR WIHH 040600Z 23003KT 3000 HZ SCT018 28/25 Q1010 NOSIG=
202312040530 METAR WIHH 040530Z 20003KT 3000 HZ SCT018 28/25 Q1011 NOSIG=
202312040500 METAR WIHH 040500Z 20004KT 3000 HZ SCT018 28/25 Q1011 NOSIG=
202312040430 METAR WIHH 040430Z 20004KT 4000 HZ SCT018 28/25 Q1011 NOSIG=
202312040400 METAR WIHH 040400Z 26003KT 4000 HZ SCT018 28/25 Q1012 NOSIG=
202312040330 METAR WIHH 040330Z 29003KT 4000 HZ SCT018 28/25 Q1012 RMK RA TO SW=
202312040300 METAR WIHH 040300Z 24003KT 4000 HZ SCT018 28/25 Q1012 NOSIG=
202312040230 METAR WIHH 040230Z 30003KT 4000 HZ SCT018 27/25 Q1012 NOSIG=
202312040200 METAR WIHH 040200Z 25003KT 4000 HZ SCT018 27/25 Q1012 RMK RA TO NW=
202312040130 METAR WIHH 040130Z 24004KT 4000 HZ SCT018 27/25 Q1012 RMK RA TO NW=
202312040100 METAR WIHH 040100Z 26003KT 4000 HZ SCT018 26/25 Q1012 RMK RERA=
202312040030 METAR WIHH 040030Z 28003KT 4000 -RA SCT018 25/24 Q1012 NOSIG=
202312040000 METAR WIHH 040000Z 26003KT 4000 -RA SCT018 25/24 Q10011 NOSIG=
202312032330 METAR WIHH 032330Z 26004KT 4000 -RA SCT018 25/24 Q1011 NOSIG=
202312032300 METAR WIHH 032300Z 27003KT 3000 HZ SCT018 25/24 Q1011 RMK RA TO NE=
202312032230 METAR WIHH 032230Z 25002KT 3000 HZ SCT018 25/24 Q1010 RMK RA TO W=
202312032200 METAR WIHH 032200Z 24002KT 4000 -RA BKN018 25/24 Q1009 NOSIG=
202312032130 METAR WIHH 032130Z 32002KT 4000 -RA BKN018 25/25 Q1010 NOSIG=
202312032100 METAR WIHH NIL=
202312032030 METAR WIHH NIL=
202312032000 METAR WIHH NIL=
202312031930 METAR WIHH NIL=
202312031900 METAR WIHH NIL=
202312031830 METAR WIHH NIL=
202312031800 METAR WIHH NIL=
202312031730 METAR WIHH NIL=
202312031700 METAR WIHH NIL=
202312031630 METAR WIHH 031630Z 20004KT 5000 -TSRA FEW017CB SCT018 25/24 Q1011 RMK CB TO E=
202312031600 METAR WIHH 031600Z 09002KT 5000 HZ FEW017CB SCT018 25/24 Q1011 RMK CB TO E UNTIL SE=
202312031530 METAR WIHH 031530Z 09002KT 5000 HZ FEW017CB SCT018 25/24 Q1011 RMK CB TO E UNTIL SE=
202312031500 METAR WIHH 031500Z 09002KT 4000 -RA FEW017CB SCT015 26/24 Q1011 RMK CB TO SE=
202312031430 METAR WIHH 031430Z 21003KT 6000 FEW017CB SCT018 26/24 Q1011 RMK CB TO E=
202312031400 METAR WIHH 031400Z 20003KT 6000 SCT018 26/24 Q1011 NOSIG=
202312031330 METAR WIHH 031330Z 19003KT 6000 SCT018 26/24 Q1011 NOSIG=
202312031300 METAR WIHH NIL=
202312031230 METAR WIHH 031230Z 20005KT 6000 SCT018 26/23 Q1010 NOSIG=
202312031200 METAR WIHH 031200Z 20006KT 6000 FEWCB018 SCT018 26/24 Q1010 RMK CB AND RA TO W=
202312031130 METAR WIHH 031130Z 21012KT 6000 FEW017CB SCT017 26/24 Q1009 RMK CB AND RA TO SW UNTIL W=
202312031100 METAR WIHH 031100Z 20011KT 4000 TS FEW017CB BKN017 26/23 Q1009 RMK CB AND RA TO S UNTIL W=
202312031030 METAR WIHH 031030Z 02005KT 6000 TS FEW017CB SCT017 30/25 Q1008 RMK CB AND RA TO SE=
202312031000 METAR WIHH 031000Z 01007KT 6000 TS FEW017CB SCT017 30/25 Q1007 RMK CB AND RA TO SE=
202312030930 METAR WIHH 030930Z 36007KT 6000 FEW017CB SCT018 30/25 Q1007 RMK CB AND RA TO SE=
202312030900 METAR WIHH 030900Z 35006KT 6000 SCT018 30/25 Q1007 RMK RA TO S=
202312030830 METAR WIHH NIL=
202312030800 METAR WIHH NIL=
202312030700 METAR WIHH NIL=
202312030600 METAR WIHH NIL=
202312030500 METAR WIHH 030500Z 18003KT 6000 SCT020 32/23 Q1009 NOSIG=
202312030430 METAR WIHH 030430Z 07004KT 7000 SCT020 32/23 Q1009 NOSIG=
202312030400 METAR WIHH 030400Z 33003KT 7000 SCT020 31/23 Q1009 NOSIG=
202312030330 METAR WIHH 030330Z 27003KT 7000 SCT020 31/23 Q1010 NOSIG=
202312030300 METAR WIHH 030300Z 20006KT 7000 SCT020 31/24 Q1010 NOSIG=
202312030230 METAR WIHH 030230Z 21005KT 7000 FEW020 31/24 Q1010 NOSIG=
202312030200 METAR WIHH 030200Z 17003KT 7000 FEW022 31/24 Q1010 NOSIG=
202312030130 METAR WIHH 030130Z 22005KT 7000 FEW022 31/24 Q1010 NOSIG=
202312030100 METAR WIHH 030100Z 22005KT 7000 FEW022 29/24 Q1010 NOSIG=
202312030030 METAR WIHH 030030Z 22008KT 7000 FEW022 29/24 Q1010 NOSIG=
202312030000 METAR WIHH 030000Z 21005KT 7000 FEW022 27/24 Q1009 NOSIG=
202312022330 METAR WIHH 022330Z 25005KT 6000 FEW022 27/24 Q1009 NOSIG=
202312022300 METAR WIHH 022300Z 21005KT 6000 FEW022 25/23 Q1008 NOSIG=
202312022230 METAR WIHH 022230Z 21004KT 6000 FEW022 25/23 Q1008 NOSIG=
202312022200 METAR WIHH 022200Z 24004KT 6000 FEW022 25/23 Q1008 NOSIG=
202312022130 METAR WIHH 022130Z 24003KT 6000 FEW022 25/23 Q1008 NOSIG=
202312022100 METAR WIHH 022100Z 24003KT 6000 FEW022 25/23 Q1008 NOSIG=
202312022030 METAR WIHH NIL=
202312022000 METAR WIHH NIL=
202312021930 METAR WIHH NIL=
202312021900 METAR WIHH NIL=
202312021830 METAR WIHH NIL=
202312021800 METAR WIHH NIL=
202312021730 METAR WIHH NIL=
202312021700 METAR WIHH NIL=
202312021630 METAR WIHH NIL=
202312021600 METAR WIHH 021600Z 25006KT 5000 HZ SCT020 26/24 Q1010 NOSIG=
202312021530 METAR WIHH 021530Z 21006KT 5000 HZ SCT020 25/24 Q1010 NOSIG=
202312021500 METAR WIHH 021500Z 22004KT 5000 HZ SCT020 25/24 Q1010 NOSIG=
202312021430 METAR WIHH 021430Z 23004KT 5000 HZ SCT019 26/24 Q1010 NOSIG=
202312021400 METAR WIHH 021400Z 19004KT 5000 HZ SCT019 26/24 Q1010 RMK RA TO W=
202312021330 METAR WIHH 021330Z 23008KT 5000 HZ FEW018CB SCT019 26/24 Q1010 RMK CB AND RA TO SW=
202312021300 METAR WIHH 021300Z 19004KT 5000 HZ FEW018CB SCT019 27/24 Q1009 RMK CB AND RA TO SW=
202312021230 METAR WIHH 021230Z 18004KT 5000 TS FEW018CB SCT019 27/24 Q1009 TEMPO FM1300 4000 -TSRA BKN017 RMK CB AND RA TO E AND S=
202312021200 METAR WIHH 021200Z 17010KT 5000 TS FEW018CB SCT019 30/24 Q1008 RMK CB AND RA TO S=
202312021130 METAR WIHH 021130Z 03010KT 5000 HZ FEW018CB SCT019 30/24 Q1008 RMK CB AND RA TO S=
202312021100 METAR WIHH 021100Z 03010KT 5000 HZ FEW018CB SCT019 30/24 Q1007 RMK CB AND RA TO S=
202312021030 METAR WIHH 021030Z 34006KT 5000 HZ FEW018CB SCT019 31/24 Q1007 RMK CB AND RA TO SE AND SW=
202312021000 METAR WIHH 021000Z 36005KT 6000 SCT018 31/24 Q1006 RMK RA TO SE AND S=
202312020930 METAR WIHH 020930Z 33008KT 6000 SCT019 31/24 Q1006 RMK RA TO SE AND S=
202312020900 METAR WIHH 020900Z 33010KT 6000 FEW018CB SCT019 32/24 Q1006 RMK CB AND RA TO SW=
202312020830 METAR WIHH 020830Z 03012KT 6000 FEW018CB SCT019 33/23 Q1006 RMK CB AND RA TO SW=
202312020800 METAR WIHH 020800Z 03012KT 7000 SCT020 34/23 Q1006 NOSIG=
202312020730 METAR WIHH 020730Z 02012KT 7000 SCT020 34/23 Q1006 NOSIG=
202312020700 METAR WIHH NIL=
202312020630 METAR WIHH 020630Z 03012KT 7000 SCT020 34/24 Q1007 NOSIG=
202312020600 METAR WIHH 020600Z 06012KT 7000 SCT020 34/23 Q1007 NOSIG=
202312020530 METAR WIHH 020530Z 09010KT 6000 SCT020 34/22 Q1008 NOSIG=
202312020500 METAR WIHH 020500Z 06008KT 6000 SCT020 34/23 Q1008 NOSIG=
202312020430 METAR WIHH 020430Z 04006KT 6000 SCT020 33/22 Q1008 NOSIG=
202312020400 METAR WIHH 020400Z 13003KT 6000 SCT020 33/23 Q1009 NOSIG=
202312020330 METAR WIHH 020330Z 12003KT 5000 HZ SCT020 32/25 Q1009 NOSIG=
202312020300 METAR WIHH 020300Z 07005KT 5000 HZ SCT020 31/25 Q1010 NOSIG=
202312020230 METAR WIHH 020230Z 13004KT 5000 HZ FEW020 31/25 Q1010 NOSIG=
202312020200 METAR WIHH 020200Z 13004KT 5000 HZ SCT020 29/24 Q1010 NOSIG=
202312020130 METAR WIHH 020130Z 15005KT 3000 HZ SCT020 28/24 Q1010 NOSIG=
202312020100 METAR WIHH 020100Z 15003KT 3000 HZ SCT020 27/24 Q1010 NOSIG=
202312020030 METAR WIHH 020030Z 19003KT 3000 HZ SCT020 26/24 Q1010 NOSIG=
202312020000 METAR WIHH 020000Z 16003KT 4000 HZ FEW020 26/24 Q1009 NOSIG=
202312012330 METAR WIHH 012330Z 13004KT 4000 HZ SCT020 25/24 Q1008 NOSIG=
202312012300 METAR WIHH 012300Z 12002KT 4000 HZ SCT020 25/24 Q1008 NOSIG=
202312012230 METAR WIHH 012230Z 15004KT 3000 HZ SCT020 25/24 Q1008 NOSIG=
202312012200 METAR WIHH 012200Z 16004KT 4000 HZ FEW020 25/24 Q1007 NOSIG=
202312012130 METAR WIHH 012130Z 16004KT 4000 HZ FEW020 25/24 Q1007 NOSIG=
202312012100 METAR WIHH NIL=
202312012030 METAR WIHH NIL=
202312012000 METAR WIHH NIL=
202312011930 METAR WIHH NIL=
202312011900 METAR WIHH NIL=
202312011830 METAR WIHH NIL=
202312011800 METAR WIHH NIL=
202312011730 METAR WIHH NIL=
202312011700 METAR WIHH NIL=
202312011630 METAR WIHH NIL=
202312011600 METAR WIHH NIL=
202312011530 METAR WIHH 011530Z 24004KT 6000 FEW020 25/24 Q1008 NOSIG=
202312011500 METAR WIHH 011500Z 27002KT 6000 FEW020 25/23 Q1008 NOSIG=
202312011430 METAR WIHH 011430Z 27004KT 6000 FEW020 25/23 Q1008 NOSIG=
202312011400 METAR WIHH 011400Z 27002KT 6000 FEW020 25/23 Q1008 NOSIG=
202312011330 METAR WIHH 011330Z 25003KT 6000 FEW020 25/22 Q1008 NOSIG=
202312011300 METAR WIHH 011300Z 13003KT 6000 FEW020 25/22 Q1008 NOSIG=
202312011230 METAR WIHH 011230Z 10003KT 6000 FEW020 25/22 Q1008 NOSIG=
202312011200 METAR WIHH 011200Z 10004KT 6000 SCT020 25/22 Q1008 NOSIG=
202312011130 METAR WIHH 011130Z 14005KT 6000 -RA SCT018 25/22 Q1008 NOSIG=
202312011100 METAR WIHH 011100Z 12012KT 5000 -RA SCT018 25/23 Q1008 NOSIG=
202312011030 METAR WIHH 011030Z 12012KT 5000 -RA SCT018 26/23 Q1008 NOSIG=
202312011000 METAR WIHH 011000Z 13012KT 2500 -RA SCT018 27/26 Q1008 NOSIG=
202312010930 METAR WIHH 010930Z 10007KT 2000 -RA SCT018 28/26 Q1008 NOSIG=
202312010900 METAR WIHH NIL=
202312010830 METAR WIHH 010830Z 05004KT 5000 -RA SCT020 28/25 Q1008 NOSIG=
202312010800 METAR WIHH NIL=
202312010730 METAR WIHH 010730Z 04003KT 5000 HZ SCT020 29/24 Q1008 NOSIG=
202312010700 METAR WIHH 010700Z 0000KT 5000 HZ SCT020 28/24 Q1008 NOSIG=
202312010630 METAR WIHH 010630Z 15004KT 5000 -RA SCT020 28/25 Q1008 NOSIG=
202312010600 METAR WIHH 010600Z 21004KT 5000 -RA SCT020 28/25 Q1008 NOSIG=
202312010530 METAR WIHH 010530Z 24003KT 5000 -RA SCT018 28/25 Q1009 NOSIG=
202312010500 METAR WIHH 010500Z 24003KT 5000 -RA SCT018 28/25 Q1010 NOSIG=
202312010430 METAR WIHH 010430Z 28008KT 5000 HZ SCT018 28/25 Q1010 RMK RA TO NE=
202312010400 METAR WIHH 010400Z 23010KT 5000 HZ SCT018 28/25 Q1011 RMK RA TO N=
202312010330 METAR WIHH 010330Z 26006KT 5000 HZ SCT018 27/25 Q1011 NOSIG=
202312010300 METAR WIHH 010300Z 25008KT 5000 HZ SCT018 27/25 Q1011 NOSIG=
202312010230 METAR WIHH 010230Z 27004KT 5000 HZ SCT018 27/25 Q1011 RMK RA TO SE=
202312010200 METAR WIHH 010200Z 32002KT 5000 HZ SCT018 27/25 Q1011 RMK RA TO NE=
202312010130 METAR WIHH 010130Z 34003KT 5000 HZ BKN018 27/25 Q1012 RMK RA TO NE=
202312010100 METAR WIHH 010100Z 00000KT 5000 HZ BKN020 27/25 Q1011 RMK RA TO NW=
202312010030 METAR WIHH 010030Z 00000KT 4000 HZ SCT020 26/26 Q1011 RMK RA TO N=
202312010000 METAR WIHH NIL=

# No short TAF reports from WIHH in databse.

###################################
#  large TAF from WIHH
###################################
202312312300 TAF WIHH 312300Z 0100/0200 12006KT 6000 SCT020
                      TEMPO 0107/0111 27015KT 3000 -TSRA FEW016CB
                       BKN017
                      BECMG 0113/0115 31004KT 5000 HZ
                      BECMG 0120/0122 00000KT 4000 BR FEW020=
202312311700 TAF WIHH 311700Z NIL=
202312311100 TAF WIHH 311100Z 3112/0112 15006KT 4000 -RA SCT018
                      BECMG 3115/3117 23004KT 5000 HZ
                      BECMG 3121/3123 00000KT 3000 BR FEW020=
202312310500 TAF WIHH 310500Z 3106/0106 12006KT 6000 SCT020
                      TEMPO 3108/3112 24014KT 3000 -TSRA FEW017CB
                       BKN018
                      BECMG 3114/3116 31003KT 5000 HZ=
202312302300 TAF WIHH 302300Z 3100/0100 24005KT 5000 HZ FEW022
                      BECMG 3102/3104 34008KT 7000 SCT020
                      TEMPO 3107/3111 23014KT 3000 -TSRA FEW017CB
                       BKN018
                      BECMG 3112/3114 18004KT=
202312301700 TAF WIHH 301700Z 3018/3118 22003KT 4000 HZ FEW022
                      BECMG 3102/3104 30008KT 7000 SCT020=
202312301100 TAF WIHH 301100Z 3012/3112 21005KT 6000 SCT018
                      BECMG 3015/3017 16003KT 4000 HZ=
202312300550 TAF AMD WIHH 300550Z 3006/3106 02010KT 6000 SCT018
                      TEMPO 3006/3010 16015KT 3000 -TSRA FEW017CB
                       BKN018
                      BECMG 3012/3016 18005KT 5000 HZ=
202312300500 TAF WIHH 300500Z 3006/3106 02010KT 7000 SCT018
                      BECMG 3008/3012 16015KT 4000 -TSRA FEW017CB
                       BECMG 3014/3016 18005KT 5000 HZ=
202312292300 TAF WIHH 292300Z 3000/3100 12006KT 6000 SCT020
                      TEMPO 3007/3011 22015KT 3000 -TSRA FEW016CB
                       BKN017
                      BECMG 3013/3015 31003KT 5000 HZ=
202312291700 TAF WIHH 291700Z 2918/3018 18005KT 5000 HZ SCT020
                      BECMG 3003/3005 12008KT 6000
                      TEMPO 3007/3011 24013KT 3000 -TSRA FEW017CB
                       BKN018=
202312291100 TAF WIHH 291100Z 2912/3012 24006KT 5000 HZ SCT020
                      TEMPO 2917/2920 4000 -RA BKN018
                      BECMG 2921/2923 00000KT 3000 BR=
202312290500 TAF WIHH 290500Z 2906/3006 15006KT 5000 HZ SCT020
                      TEMPO 2908/2911 21014KT 3000 -TSRA FEW017CB
                       BKN018
                      BECMG 2913/2915 34004KT=
202312282300 TAF WIHH 282300Z 2900/3000 12005KT 5000 HZ SCT020
                      BECMG 2902/2904 03010KT 7000
                      TEMPO 2907/2911 22012KT 3000 -TSRA FEW017CB
                       BECMG 2912/2914 09005KT=
202312281700 TAF WIHH 281700Z 2818/2918 17003KT 5000 HZ FEW022
                      BECMG 2901/2903 08008KT 7000 SCT020=
202312281100 TAF WIHH 281100Z 2812/2912 22004KT 7000 SCT020
                      BECMG 2817/2819 03005KT 5000 HZ=
202312280500 TAF WIHH 280500Z 2806/2906 01012KT 7000 SCT020
                      TEMPO 2808/2812 3000 -TSRA FEW017CB
                      BECMG 2813/2815 16005KT 5000 HZ=
202312272300 TAF WIHH 272300Z 2800/2900 18006KT 6000 SCT020
                      TEMPO 2807/2811 22014KT 3000 -TSRA FEW016CB
                       BKN017
                      BECMG 2813/2815 5000 HZ=
202312271700 TAF WIHH 271700Z 2718/2818 15005KT 5000 HZ SCT020
                      BECMG 2801/2803 6000 FEW020
                      TEMPO 2807/2810 24012KT 3000 -TSRA FEW017CB
                       BKN018=
202312271100 TAF WIHH 271100Z 2712/2812 21008KT 4000 -RA SCT018
                      BECMG 2714/2716 VRB03KT 5000 HZ
                      BECMG 2720/2722 00000KT 3000 BR FEW020=
202312270500 TAF WIHH 270500Z 2706/2806 24006KT 6000 SCT020
                      TEMPO 2708/2711 15014KT 3000 -TSRA FEW017CB
                       BKN018
                      BECMG 2713/2715 33004KT 5000 HZ=
202312262300 TAF WIHH 262300Z 2700/2800 02010KT 4000 HZ FEW022
                      BECMG 2702/2704 7000 SCT020
                      TEMPO 2708/2712 22012KT 3000 -TSRA FEW017CB
                       BECMG 2714/2716 18005KT=
202312261700 TAF WIHH 261700Z 2618/2718 23003KT 5000 HZ FEW022
                      BECMG 2702/2704 32008KT SCT020=
202312261100 TAF WIHH 261100Z 2612/2712 30005KT 6000 SCT020
                      BECMG 2616/2618 23003KT=
202312260500 TAF WIHH 260500Z 2606/2706 33010KT 5000 HZ SCT020
                      TEMPO 2608/2612 24012KT 3000 -TSRA FEW017CB
                       BKN018
                      BECMG 2614/2616 VRB03KT=
202312252300 TAF WIHH 252300Z 2600/2700 35008KT 3000 BR FEW020
                      BECMG 2601/2603 6000 NSW
                      TEMPO 2607/2611 23012KT 3000 -TSRA FEW017CB
                       BKN019
                      BECMG 2612/2614 14005KT 4000 HZ=
202312251700 TAF WIHH 251700Z 2518/2618 22004KT 5000 HZ FEW020
                      BECMG 2602/2604 34008KT 7000 NSW=
202312251100 TAF WIHH 251100Z 2512/2612 01005KT 5000 HZ SCT018
                      TEMPO 2512/2515 14012KT 3000 -TSRA FEW017CB
                       BKN018
                      BECMG 2516/2518 20004KT=
202312250500 TAF WIHH 250500Z 2506/2606 36007KT 5000 HZ SCT018
                      TEMPO 2509/2512 26013KT 3000 -RA FEW017CB
                       BKN018
                      BECMG 2514/2516 13004KT=
202312242300 TAF WIHH 242300Z 2500/2600 33008KT 6000 SCT018
                      TEMPO 2500/2502 4000 -RA
                      TEMPO 2508/2511 01012KT 3000 -RA FEW017CB
                       BECMG 2512/2514 16005KT 5000 HZ=
202312241700 TAF WIHH 241700Z 2418/2518 25004KT 5000 HZ FEW022
                      BECMG 2502/2504 32008KT 7000=
202312241100 TAF WIHH 241100Z 2412/2512 14006KT 6000 SCT020
                      BECMG 2416/2418 24003KT 4000 HZ=
202312240500 TAF WIHH 240500Z 2406/2506 35010KT 6000 SCT020
                      TEMPO 2410/2413 14012KT 3000 -RA FEW017CB
                       BECMG 2414/2416 23003KT 4000 HZ=
202312232300 TAF WIHH 232300Z 2400/2500 13005KT 6000 FEW021
                      BECMG 2404/2406 35010KT
                      TEMPO 2409/2412 23013KT 3000 -TSRA FEW017CB
                       BKN018
                      BECMG 2413/2415 10006KT 5000 HZ=
202312231700 TAF WIHH 231700Z 2318/2418 12004KT 6000 FEW021
                      BECMG 2403/2405 36008KT
                      TEMPO 2409/2412 24012KT 3000 -TSRA FEW017CB
                       BKN018=
202312231100 TAF WIHH 231100Z 2312/2412 04007KT 7000 SCT020
                      BECMG 2316/2318 18004KT 5000 HZ=
202312230500 TAF WIHH 230500Z 2306/2406 34008KT 7000 SCT020
                      TEMPO 2308/2311 22012KT 4000 -RA
                      BECMG 2313/2315 12006KT 5000 HZ=
202312222300 TAF WIHH 222300Z 2300/2400 14006KT 5000 HZ FEW022
                      BECMG 2302/2304 35012KT 7000 SCT020
                      BECMG 2312/2314 08005KT=
202312221700 TAF WIHH 221700Z 2218/2318 14004KT 6000 FEW022
                      BECMG 2303/2305 03012KT=
202312221100 TAF WIHH 221100Z 2212/2312 03006KT 7000 FEW022
                      BECMG 2216/2218 17005KT=
202312220500 TAF WIHH 220500Z 2206/2306 34012KT 7000 SCT020
                      BECMG 2214/2216 17005KT 5000 HZ FEW022=
202312212300 TAF WIHH 212300Z 2200/2300 23005KT 8000 FEW022
                      BECMG 2205/2207 31010KT
                      BECMG 2213/2215 17006KT=
202312211700 TAF WIHH 211700Z 2118/2218 25005KT 7000 FEW021
                      BECMG 2204/2206 32010KT=
202312211100 TAF WIHH 211100Z 2112/2212 23006KT 8000 FEW021
                      BECMG 2203/2205 34010KT=
202312210500 TAF WIHH 210500Z 2106/2206 36009KT 8000 FEW020
                      BECMG 2113/2115 24006KT=
202312202300 TAF WIHH 202300Z 2100/2200 25010KT 9000 FEW020
                      BECMG 2104/2106 34012KT
                      BECMG 2115/2117 26005KT=
202312201700 TAF WIHH 201700Z 2018/2118 24003KT 6000 FEW022
                      BECMG 2101/2103 35010KT=
202312201100 TAF WIHH 201100Z 2012/2112 23005KT 9000 FEW022
                      BECMG 2014/2016 15003KT=
202312200500 TAF WIHH 200500Z 2006/2106 34012KT 9000 FEW021
                      BECMG 2014/2016 22005KT=
202312192300 TAF WIHH 192300Z 2000/2100 20008KT 7000 FEW021
                      BECMG 2005/2007 34012KT
                      BECMG 2013/2015 14006KT=
202312191700 TAF WIHH 191700Z 1918/2018 18006KT 7000 FEW021
                      BECMG 2003/2005 35010KT=
202312191100 TAF WIHH 191100Z 1912/2012 23007KT 7000 FEW020
                      BECMG 2001/2003 32010KT=
202312190500 TAF WIHH 190500Z 1906/2006 33010KT 8000 FEW022
                      BECMG 1913/1915 14006KT=
202312182300 TAF WIHH 182300Z 1900/2000 25007KT 8000 FEW022
                      BECMG 1904/1906 34010KT SCT020
                      BECMG 1912/1914 04005KT=
202312181700 TAF WIHH 181700Z 1818/1918 23005KT 6000 FEW022
                      BECMG 1904/1906 34010KT SCT020=
202312181100 TAF WIHH 181100Z 1812/1912 24005KT 7000 SCT020
                      BECMG 1816/1818 5000 HZ FEW022=
202312180500 TAF WIHH 180500Z 1806/1906 34012KT 7000 SCT018
                      BECMG 1812/1814 24005KT FEW020=
202312172300 TAF WIHH 172300Z 1800/1900 26008KT 7000 FEW022
                      BECMG 1804/1806 35012KT SCT020
                      BECMG 1812/1814 05006KT=
202312171700 TAF WIHH 171700Z 1718/1818 21003KT 6000 FEW022
                      BECMG 1803/1805 35010KT SCT020=
202312171100 TAF WIHH 171100Z 1712/1812 36005KT 7000 FEW022
                      BECMG 1716/1718 14003KT 5000 HZ=
202312170500 TAF WIHH 170500Z 1706/1806 33012KT 7000 SCT020
                      BECMG 1712/1714 06005KT FEW022=
202312162300 TAF WIHH 162300Z 1700/1800 24004KT 7000 FEW020
                      BECMG 1703/1705 32010KT
                      BECMG 1710/1712 20006KT=
202312161700 TAF WIHH 161700Z 1618/1718 23005KT 7000 FEW021
                      BECMG 1701/1703 34010KT=
202312161100 TAF WIHH 161100Z 1612/1712 34008KT 7000 FEW021
                      BECMG 1617/1619 22005KT 5000 HZ=
202312160500 TAF WIHH 160500Z 1606/1706 03010KT 7000 FEW021
                      TEMPO 1609/1612 31012KT 5000 -RA SCT018
                      BECMG 1614/1616 20006KT=
202312152300 TAF WIHH 152300Z 1600/1700 22005KT 7000 FEW020
                      BECMG 1603/1605 35010KT
                      BECMG 1613/1615 16006KT=
202312151700 TAF WIHH 151700Z 1518/1618 18005KT 6000 FEW020
                      BECMG 1601/1603 03008KT=
202312151100 TAF WIHH 151100Z 1512/1612 12006KT 6000 FEW020
                      BECMG 1519/1521 24003KT=
202312150500 TAF WIHH 150500Z 1506/1606 01010KT 7000 FEW020
                      BECMG 1514/1516 16005KT=
202312142300 TAF WIHH 142300Z 1500/1600 24008KT 7000 FEW022
                      BECMG 1504/1506 35012KT SCT020
                      BECMG 1515/1517 14003KT 5000 HZ=
202312141700 TAF WIHH 141700Z 1418/1518 21004KT 5000 HZ FEW022
                      BECMG 1500/1502 18006KT 7000=
202312141100 TAF WIHH 141100Z 1412/1512 12006KT 7000 SCT020
                      TEMPO 1415/1418 22010KT 5000 -RA FEW018CB
                       BECMG 1420/1422 VRB03KT 5000 HZ=
202312140500 TAF WIHH 140500Z 1406/1506 35010KT 7000 SCT020
                      TEMPO 1415/1418 23010KT 4000 -RA FEW018CB
                       BECMG 1419/1421 VRB03KT 5000 HZ=
202312132300 TAF WIHH 132300Z 1400/1500 20005KT 7000 SCT020
                      BECMG 1403/1405 33010KT
                      TEMPO 1408/1412 5000 -RA FEW018CB
                      BECMG 1413/1415 18004KT=
202312131700 TAF WIHH 131700Z 1318/1418 18004KT 6000 FEW020
                      BECMG 1319/1321 4000 HZ
                      BECMG 1401/1403 34008KT 7000 NSW=
202312131100 TAF WIHH 131100Z 1312/1412 33007KT 7000 SCT020
                      BECMG 1314/1316 12004KT=
202312130500 TAF WIHH 130500Z 1306/1406 02010KT 7000 SCT020
                      TEMPO 1308/1311 5000 -RA FEW018CB
                      BECMG 1313/1315 14006KT=
202312122300 TAF WIHH 122300Z 1300/1400 01010KT 7000 SCT020
                      TEMPO 1308/1311 33012KT 4000 -RA FEW018CB
                       BECMG 1312/1314 12005KT 5000 HZ=
202312121700 TAF WIHH 121700Z 1218/1318 21003KT 5000 HZ FEW022
                      BECMG 1301/1303 33008KT 7000 SCT020=
202312121100 TAF WIHH 121100Z 1212/1312 06005KT 6000 SCT018
                      BECMG 1216/1218 21003KT 4000 HZ FEW022=
202312120500 TAF WIHH 120500Z 1206/1306 33012KT 6000 SCT020
                      TEMPO 1208/1211 4000 -RA FEW017CB
                      BECMG 1213/1215 21005KT=
202312112300 TAF WIHH 112300Z 1200/1300 02010KT 7000 SCT020
                      TEMPO 1208/1212 3000 -TSRA FEW017CB BKN018
                       BECMG 1213/1215 21005KT 5000 HZ=
202312111700 TAF WIHH 111700Z 1118/1218 18005KT 6000 FEW020
                      BECMG 1200/1202 34010KT
                      TEMPO 1208/1212 24012KT 3000 -TSRA FEW017CB
                       BKN018=
202312111100 TAF WIHH 111100Z 1112/1212 35006KT 6000 SCT020
                      BECMG 1116/1118 16004KT 5000 HZ=
202312110500 TAF WIHH 110500Z 1106/1206 34007KT 7000 SCT020
                      TEMPO 1109/1113 25013KT 4000 -TSRA FEW017CB
                       BECMG 1114/1116 20005KT 5000 HZ=
202312102300 TAF WIHH 102300Z 1100/1200 03010KT 6000 FEW020
                      TEMPO 1107/1111 30014KT 4000 -TSRA FEW016CB
                       BKN017
                      BECMG 1112/1114 12005KT 5000 HZ SCT020=
202312101700 TAF WIHH 101700Z 1018/1118 33004KT 5000 HZ FEW022
                      BECMG 1023/1101 14006KT SCT020=
202312101100 TAF WIHH 101100Z 1012/1112 02008KT 5000 HZ SCT020
                      TEMPO 1012/1014 3000 -TSRA FEW016CB BKN017
                       BECMG 1015/1017 20005KT=
202312100500 TAF WIHH 100500Z 1006/1106 06010KT 7000 SCT020
                      TEMPO 1008/1012 20012KT 3000 -TSRA FEW017CB
                       BKN018
                      BECMG 1012/1014 23005KT 5000 HZ FEW020=
202312092300 TAF WIHH 092300Z 1000/1100 16005KT 7000 SCT020
                      BECMG 1003/1005 33010KT
                      TEMPO 1007/1011 23012KT 3000 -TSRA FEW017CB
                       BKN018
                      BECMG 1013/1015 20005KT 5000 HZ=
202312091700 TAF WIHH 091700Z 0918/1018 19004KT 5000 HZ FEW020
                      BECMG 1002/1004 34010KT 7000 NSW
                      TEMPO 1007/1011 22014KT 3000 -TSRA FEW017CB
                       BKN018=
202312091100 TAF WIHH 091100Z 0912/1012 24007KT 6000 SCT020
                      TEMPO 0912/0915 4000 -TSRA FEW017CB BKN018
                       BECMG 0916/0918 15004KT 5000 HZ=
202312090500 TAF WIHH 090500Z 0906/1006 34007KT 6000 SCT020
                      TEMPO 0908/0912 24014KT 3000 -TSRA FEW017CB
                       BKN018
                      BECMG 0913/0915 20005KT 5000 HZ=
202312082300 TAF WIHH 082300Z 0900/1000 04008KT 7000 SCT020
                      TEMPO 0906/0910 34012KT 3000 -TSRA FEW017CB
                       BKN018
                      BECMG 0912/0914 30005KT 5000 HZ=
202312081700 TAF WIHH 081700Z 0818/0918 VRB03KT 4000 BR FEW020
                      BECMG 0902/0904 04008KT 6000 SCT020=
202312081100 TAF WIHH 081100Z 0812/0912 14006KT 5000 HZ SCT018
                      BECMG 0817/0819 25004KT 4000 BR FEW020=
202312080500 TAF WIHH 080500Z 0806/0906 03010KT 7000 SCT020
                      TEMPO 0807/0811 24012KT 3000 -TSRA FEW016CB
                       BKN017
                      BECMG 0814/0816 15004KT 5000 HZ=
202312072300 TAF WIHH 072300Z 0800/0900 23010KT 6000 SCT020
                      TEMPO 0808/0812 4000 -TSRA FEW017CB BKN018
                       BECMG 0814/0816 12004KT 5000 HZ=
202312071700 TAF WIHH 071700Z 0718/0818 24003KT 5000 HZ FEW020
                      BECMG 0801/0803 12010KT 7000 NSW
                      TEMPO 0809/0813 04014KT 4000 -TSRA FEW017CB
                       BKN018=
202312071100 TAF WIHH 071100Z 0712/0812 13006KT 6000 SCT020
                      BECMG 0716/0718 25003KT 5000 HZ=
202312070500 TAF WIHH 070500Z 0706/0806 11007KT 6000 SCT020
                      TEMPO 0708/0712 24013KT 4000 -TSRA FEW017CB
                       BKN018
                      BECMG 0713/0715 21004KT 4000 HZ=
202312062315 TAF COR WIHH 062315Z 0700/0800 12005KT 6000 SCT020
                      TEMPO 0701/0703 04005KT 4000 -RA BKN018
                      BECMG 0704/0706 5000 HZ SCT020
                      TEMPO 0708/0712 17014KT 3000 -TSRA FEW017CB
                       BECMG 0714/0716 20004KT=
202312062300 TAF WIHH 062300Z 0700/0800 12005KT 6000 FEW022
                      BECMG 0702/0704 03008KT SCT020
                      TEMPO 0708/0712 08014KT 3000 -TSRA FEW017CB
                       BECMG 0714/0716 20004KT=
202312061700 TAF WIHH 061700Z 0618/0718 21003KT 4000 HZ FEW022
                      BECMG 0702/0704 06008KT 7000 SCT020=
202312061100 TAF WIHH 061100Z 0612/0712 30010KT 4000 -TSRA BKN015 FEW017CB
                      BECMG 0615/0617 16004KT 5000 HZ SCT020=
202312060500 TAF WIHH 060500Z 0606/0706 26008KT 6000 SCT018
                      TEMPO 0607/0611 17012KT 3000 -TSRA FEW017CB
                       BKN018
                      BECMG 0613/0615 5000 HZ=
202312052300 TAF WIHH 052300Z 0600/0700 05010KT 7000 SCT020
                      TEMPO 0608/0612 32014KT 3000 -TSRA FEW017CB
                       BKN018
                      BECMG 0613/0615 15004KT 5000 HZ=
202312051700 TAF WIHH 051700Z 0518/0618 24004KT 5000 HZ FEW020
                      BECMG 0601/0603 03010KT 7000 NSW
                      TEMPO 0608/0611 3000 -TSRA FEW017CB BKN018=
202312051100 TAF WIHH 051100Z 0512/0612 12006KT 7000 FEW020
                      TEMPO 0518/0521 24010KT 4000 RA FEW018CB
                       BKN019
                      BECMG 0522/0600 00000KT 3000 BR=
202312050500 TAF WIHH 050500Z 0506/0606 35008KT 7000 SCT020
                      TEMPO 0508/0512 10014KT 4000 -TSRA FEW018CB
                       BKN019
                      BECMG 0514/0516 21004KT 5000 HZ=
202312042300 TAF WIHH 042300Z 0500/0600 16005KT 4000 HZ FEW022
                      BECMG 0502/0504 03010KT 6000 SCT020
                      TEMPO 0508/0512 09012KT 3000 -TSRA FEW017CB
                       BKN018
                      BECMG 0513/0515 12005KT 5000 HZ=
202312041700 TAF WIHH 041700Z 0418/0518 16003KT 4000 HZ FEW020
                      BECMG 0502/0504 06008KT 6000 SCT020=
202312041100 TAF WIHH 041100Z 0412/0512 12005KT 5000 HZ SCT018
                      BECMG 0415/0417 21003KT=
202312040500 TAF WIHH 040500Z 0406/0506 03012KT 5000 HZ SCT018
                      TEMPO 0407/0411 3000 -TSRA FEW016CB BKN017
                       BECMG 0412/0414 21005KT=
202312032300 TAF WIHH 032300Z 0400/0500 VRB05KT 6000 SCT018
                      TEMPO 0406/0410 03012KT 3000 -TSRA FEW016CB
                       BKN017=
202312031700 TAF WIHH 031700Z 0318/0418 15006KT 4000 RA BKN018
                      BECMG 0320/0322 00000KT 3000 BR
                      TEMPO 0404/0408 03012KT 3000 -TSRA FEW016CB
                       BKN017=
202312031100 TAF WIHH 031100Z 0312/0412 12010KT 6000 SCT018
                      TEMPO 0312/0315 3000 -TSRA FEW017CB BKN018
                       BECMG 0316/0318 24003KT=
202312030500 TAF WIHH 030500Z 0306/0406 VRB05KT 6000 SCT018
                      TEMPO 0309/0312 12013KT 3000 -TSRA FEW017CB
                       BKN018
                      BECMG 0314/0316 24003KT=
202312022300 TAF WIHH 022300Z 0300/0400 05010KT 7000 SCT020
                      TEMPO 0308/0312 20013KT 3000 -TSRA FEW017CB
                       BKN018
                      BECMG 0315/0317 00000KT 5000 HZ=
202312021700 TAF WIHH 021700Z 0218/0318 21003KT 5000 HZ SCT020
                      BECMG 0301/0303 03010KT 7000 NSW
                      TEMPO 0305/0309 15013KT 3000 -TSRA FEW018CB
                       BKN019=
202312021100 TAF WIHH 021100Z 0212/0312 02006KT 6000 SCT020
                      TEMPO 0212/0215 22013KT 4000 -TSRA FEW018CB
                       BKN019
                      BECMG 0217/0219 20004KT 4000 HZ=
202312020500 TAF WIHH 020500Z 0206/0306 12008KT 7000 SCT020
                      TEMPO 0209/0212 24012KT 3000 -TSRA FEW017CB
                       BKN018
                      BECMG 0214/0216 23004KT 5000 HZ=
202312012300 TAF WIHH 012300Z 0200/0300 16006KT 4000 HZ FEW022
                      BECMG 0202/0204 33010KT 6000 SCT020
                      TEMPO 0208/0211 22014KT 3000 -TSRA FEW017CB
                       BKN018
                      BECMG 0212/0214 12005KT 5000 HZ=
202312011700 TAF WIHH 011700Z 0118/0218 23003KT 3000 BR SCT020
                      BECMG 0200/0202 16005KT 5000 HZ FEW022=
202312011100 TAF WIHH 011100Z 0112/0212 24006KT 4000 -RA SCT018
                      BECMG 0115/0117 VRB03KT 5000 HZ=
202312010500 TAF WIHH 010500Z 0106/0206 12008KT 4000 -RA SCT018
                      TEMPO 0109/0112 33008KT 3000 -TSRA FEW017CB
                       BKN018
                      BECMG 0113/0115 00000KT 5000 HZ=
