##########################################################
# Query made at 05/05/2026 03:14:05 UTC
# Time interval: from 02/01/2025 00:00  to 02/28/2025 23:59  UTC
##########################################################

##########################################################
# WIHH, Jakarta Halim Perdanakusuma (Indonesia)
# WMO index: 96747. WIGOS ID: Unknown
# Latitude 06-15S. Longitude 106-54E. Altitude 30 m.
##########################################################

###################################
#  METAR/SPECI from WIHH
###################################
202502282330 METAR WIHH 282330Z 14004KT 5000 FEW020 24/23 Q1010 NOSIG=
202502282300 METAR WIHH 282300Z 14003KT 5000 HZ FEW020 24/24 Q1010 NOSIG=
202502282230 METAR WIHH 282230Z 22003KT 5000 HZ FEW020 24/24 Q1009 NOSIG=
202502282200 METAR WIHH 282200Z 00000KT 5000 HZ FEW020 24/24 Q1009 NOSIG=
202502282130 METAR WIHH 282130Z 00000KT 5000 HZ FEW020 24/24 Q1009 NOSIG=
202502282100 METAR WIHH 282100Z 20003KT 5000 HZ FEW018 24/24 Q1009 NOSIG=
202502282030 METAR WIHH 282030Z 00000KT 5000 HZ SCT020 25/24 Q1010 NOSIG=
202502282000 METAR WIHH 282000Z 00000KT 5000 HZ SCT020 25/24 Q1011 NOSIG=
202502281930 METAR WIHH 281930Z 00000KT 5000 HZ SCT020 25/24 Q1011 NOSIG=
202502281900 METAR WIHH 281900Z 00000KT 5000 HZ SCT020 25/24 Q1011 NOSIG=
202502281830 METAR WIHH 281830Z 00000KT 5000 HZ FEW020 25/24 Q1011=
202502281800 METAR WIHH 281800Z 00000KT 5000 HZ FEW020 25/24 Q1011 NOSIG=
202502281730 METAR WIHH 281730Z 00000KT 5000 HZ FEW020 25/24 Q1011 NOSIG=
202502281700 METAR WIHH 281700Z 26003KT 5000 HZ FEW018 25/24 Q1011 NOSIG=
202502281630 METAR WIHH 281630Z 28003KT 5000 HZ FEW017 25/24 Q1011 NOSIG=
202502281600 METAR WIHH 281600Z 07003KT 5000 HZ SCT017 25/24 Q1011 NOSIG=
202502281530 METAR WIHH 281530Z 00000KT 6000 SCT017 25/24 Q1011 NOSIG=
202502281500 METAR WIHH 281500Z 00000KT 6000 SCT017 25/24 Q1011 NOSIG=
202502281430 METAR WIHH 281430Z 12003KT 6000 SCT015 25/24 Q1012 RMK RA TO S=
202502281400 METAR WIHH 281400Z 19007KT 5000 -RA SCT015 24/24 Q1011 NOSIG=
202502281330 METAR WIHH 281330Z 17005KT 5000 -TSRA BKN013 FEW017CB 24/24 Q1011 RMK CB TO S=
202502281300 METAR WIHH 281300Z 21003KT 3000 -TSRA BKN013 FEW017CB 24/24 Q1011 RMK CB OTF=
202502281230 METAR WIHH 281230Z 20013KT 3000 -TSRA BKN013 FEW016CB 25/24 Q1011 RMK CB OTF=
202502281200 METAR WIHH 281200Z 21014KT 3000 -TSRA BKN013 FEW017CB 27/23 Q1011 RMK CB TO S-W=
202502281130 METAR WIHH 281130Z 21015KT 3000 TS BKN015 FEW017CB 28/24 Q1008 RMK CB AND RA TO SE-SW=
202502281100 METAR WIHH 281100Z 15005KT 3000 TS SCT015 FEW017CB 30/24 Q1008 RMK CB AND RA TO S=
202502281030 METAR WIHH 281030Z 36007KT 8000 FEW017CB SCT2000 32/22 Q1008 RM CB AND RA TO S=
202502281000 METAR WIHH 281000Z 36007KT 8000 FEW017CB SCT2000 32/22 Q1008 RM CB AND RA TO S=
202502280930 METAR WIHH 280930Z 35007KT 8000 FEW020 32/22 Q1007 NOSIG=
202502280900 METAR WIHH 280900Z 35009KT 8000 SCT020 32/23 Q1007 NOSIG=
202502280830 METAR WIHH 280830Z 01010KT 8000 SCT020 32/24 Q1007 NOSIG=
202502280800 METAR WIHH 280800Z 36007KT 7000 SCT018 32/24 Q1007 RMK RA TO S=
202502280730 METAR WIHH 280730Z 31005KT 6000 SCT018 32/23 Q1008 RMK RA TO SE=
202502280700 METAR WIHH 280700Z 33006KT 6000 SCT018 32/24 Q1008 NOSIG=
202502280630 METAR WIHH 280630Z 34008KT 6000 SCT018 33/24 Q1009 NOSIG=
202502280600 METAR WIHH 280600Z 35003KT 6000 SCT018 33/24 Q1009 NOSIG=
202502280530 METAR WIHH 280530Z 31006KT 6000 SCT018 31/24 Q1009 NOSIG=
202502280500 METAR WIHH 280500Z 36007KT 6000 SCT018 31/24 Q1010 TEMPO FM0545 3000 -RA RMK RA TO SW=
202502280430 METAR WIHH 280430Z 36004KT 6000 SCT018 31/24 Q1010 TEMPO FM0515 3000 -RA RMK RA TO NE AND W=
202502280400 METAR WIHH 280400Z 31004KT 6000 SCT018 31/24 Q1011 TEMPO FM0430 3000 -RA RMK RA TO W-NW=
202502280330 METAR WIHH 280330Z 36004KT 6000 SCT018 30/24 Q1011 TEMPO FM0430 3000 -RA RMK RA TO W-NW=
202502280300 METAR WIHH 280300Z 24003KT 6000 SCT018 29/24 Q1012 NOSIG=
202502280230 METAR WIHH 280230Z 28005KT 6000 SCT020 29/24 Q1012 NOSIG=
202502280200 METAR WIHH 280200Z 26005KT 6000 SCT020 29/24 Q1012 NOSIG=
202502280130 METAR WIHH 280130Z 22006KT 6000 SCT020 28/24 Q1012 NOSIG=
202502280100 METAR WIHH 280100Z 23004KT 5000 HZ SCT020 28/25 Q1012 NOSIG=
202502280030 METAR WIHH 280030Z 21003KT 5000 HZ SCT020 27/24 Q1011 NOSIG=
202502280000 METAR WIHH 280000Z 25003KT 4000 BR SCT018 25/24 Q1011 NOSIG=
202502272330 METAR WIHH 272330Z 24003KT 4000 BR SCT017 25/24 Q1010 NOSIG=
202502272300 METAR WIHH 272300Z 24003KT 4000 BR SCT017 25/24 Q1010 NOSIG=
202502272230 METAR WIHH 272230Z 20003KT 5000 HZ SCT017 25/24 Q1010 NOSIG=
202502272200 METAR WIHH 272200Z 23003KT 5000 SCT017 24/24 Q1010 NOSIG=
202502272130 METAR WIHH 272130Z 00000KT 6000 SCT017 24/24 Q1010 NOSIG=
202502272100 METAR WIHH 272100Z 00000KT 6000 SCT017 24/24 Q1010 NOSIG=
202502272030 METAR WIHH 272030Z 00000KT 5000 HZ SCT017 25/24 Q1010 NOSIG=
202502272000 METAR WIHH 272000Z 21003KT 5000 HZ SCT017 24/24 Q1010 NOSIG=
202502271930 METAR WIHH 271930Z 25003KT 5000 HZ SCT017 24/24 Q1010 NOSIG=
202502271900 METAR WIHH 271900Z 27003KT 5000 HZ SCT017 24/24 Q1010 NOSIG=
202502271830 METAR WIHH 271830Z 00000KT 5000 HZ SCT018 25/24 Q1010 NOSIG=
202502271800 METAR WIHH 271800Z 00000KT 5000 HZ SCT020 26/24 Q1010=
202502271730 METAR WIHH 271730Z 00000KT 5000 HZ SCT018 25/24 Q1011 NOSIG=
202502271700 METAR WIHH 271700Z 00000KT 6000 SCT017 25/24 Q1012 NOSIG=
202502271630 METAR WIHH 271630Z 30003KT 6000 SCT017 25/24 Q1012 RMK RA TO SW=
202502271600 METAR WIHH 271600Z 32003KT 6000 BKN017 25/24 Q1012 RMK RA TO S=
202502271530 METAR WIHH 271530Z 16003KT 6000 BKN017 24/24 Q1012 RMK RA TO S=
202502271500 METAR WIHH 271500Z 21005KT 6000 -RA BKN017 24/24 Q1012 NOSIG=
202502271430 METAR WIHH 271430Z 21005KT 4000 -RA BKN017 24/24 Q1012 NOSIG=
202502271400 METAR WIHH 271400Z 22005KT 4000 -TSRA FEW015CB BKN017 25/24 Q1012 RMK CB TO NE=
202502271330 METAR WIHH 271330Z 23005KT 4000 -TSRA FEW015CB BKN017 25/24 Q1012 RMK CB TO NE=
202502271300 METAR WIHH 271300Z 27004KT 4000 -TSRA FEW015CB BKN017 25/24 Q1011 RMK CB TO N=
202502271230 METAR WIHH 271230Z 27007KT 4000 -TSRA FEW015 BKN017 25/24 Q1011 RMK CB TO NE=
202502271200 METAR WIHH 271200Z 27007KT 4000 -TSRA FEW015CB BKN017 25/25 Q1010 RMK CB TO NW=
202502271130 METAR WIHH 271130Z 20009KT 4000 -TSRA FEW015CB BKN016 25/24 Q1010 RMK CB TO NW=
202502271100 METAR WIHH 271100Z 18008KT 2000 -TSRA FEW015CB BKN016 25/24 Q1009 TEMPO TL1120 3000 -RA RMK CB TO W=
202502271030 METAR WIHH 271030Z 20008KT 1700 TSRA FEW014CB OVC015 25/24 Q1009 TEMPO TL1120 3000 -RA RMK CB OVER THE FIELD=
202502271000 METAR WIHH 271000Z 24010KT 1000 TSRA FEW014CB OVC015 25/24 Q1009 RMK CB OVER THE FIELD=
202502270930 METAR WIHH 270930Z 21010KT 2000 -TSRA FEW015CB BKN016 26/24 Q1008 RMK CB TO SW-W=
202502270900 METAR WIHH 270900Z 35008KT 6000 TS FEW016CB SCT017 29/23 Q1008 TEMPO FM0910 3000 -TSRA FEW015CB BKN017 RMK CB TO S AND RA TO SE-W=
202502270830 METAR WIHH 270830Z 33010KT 6000 TS FEW017CB SCT018 30/23 Q1008 TEMPO FM0850 3000 -TSRA RMK CB TO S AND RA TO SE-SW=
202502270800 METAR WIHH 270800Z 34009KT 6000 TS FEW017CB SCT018 31/24 Q1007 RMK CB AND RA TO S-SW=
202502270730 METAR WIHH 270730Z 32010KT 6000 TS FEW017CB SCT018 31/23 Q1008 RMK CB AND RA TO S-SW=
202502270700 METAR WIHH 270700Z 36012KT 6000 FEW017CB SCT018 31/24 Q1008 RMK CB AND RA TO SW=
202502270630 METAR WIHH 270630Z 01012KT 6000 SCT018 31/24 Q1008 RMK RA TO SW=
202502270600 METAR WIHH 270600Z 36010KT 6000 SCT018 32/24 Q1009 RMK RA TO W=
202502270530 METAR WIHH 270530Z 02011KT 5000 HZ SCT018 33/24 Q1010 RMK RA TO SE AND W=
202502270500 METAR WIHH 270500Z 01010KT 5000 HZ SCT018 33/24 Q1010 RMK RA TO E AND W=
202502270430 METAR WIHH 270430Z 01008KT 5000 HZ SCT018 32/24 Q1011 RMK RA TO NE-E=
202502270400 METAR WIHH 270400Z 02008KT 5000 HZ SCT020 31/24 Q1012 TEMPO FM0420 3000 -RA RMK RA TO NW-N=
202502270330 METAR WIHH 270330Z 28004KT 5000 HZ SCT020 32/24 Q1012 NOSIG=
202502270300 METAR WIHH 270300Z 18005KT 5000 HZ SCT020 31/24 Q1012 NOSIG=
202502270230 METAR WIHH 270230Z 12004KT 4000 HZ SCT020 30/25 Q1012 NOSIG=
202502270200 METAR WIHH 270200Z 15005KT 4000 HZ FEW020 29/25 Q1012 NOSIG=
202502270130 METAR WIHH 270130Z 15004KT 3000 HZ SCT020 28/25 Q1012 NOSIG=
202502270100 METAR WIHH 270100Z 13003KT 4000 HZ SCT019 26/25 Q1012 NOSIG=
202502270030 METAR WIHH 270030Z 12003KT 4000 BR SCT019 26/25 Q1012 NOSIG=
202502270000 METAR WIHH 270000Z 13003KT 3000 BR SCT019 25/25 Q1011 NOSIG=
202502262330 METAR WIHH 262330Z 18003KT 3000 BR SCT018 25/25 Q1011 NOSIG=
202502262300 METAR WIHH 262300Z 13003KT 3000 BR SCT018 25/24 Q1011 NOSIG=
202502262230 METAR WIHH 262230Z 12003KT 4000 BR SCT018 25/24 Q1010 NOSIG=
202502262200 METAR WIHH 262200Z 00000KT 4000 BR SCT018 25/24 Q1010 NOSIG=
202502262130 METAR WIHH 262130Z 00000KT 3000 BR SCT018 25/25 Q1010 NOSIG=
202502262100 METAR WIHH 262100Z 00000KT 3000 BR SCT018 25/25 Q1010 NOSIG=
202502262030 METAR WIHH 262030Z 00000KT 3000 BR SCT018 25/25 Q1010 NOSIG=
202502262000 METAR WIHH 262000Z 00000KT 3000 BR SCT018 25/25 Q1011 NOSIG=
202502261930 METAR WIHH 261930Z 14003KT 4000 BR SCT018 25/25 Q1011 NOSIG=
202502261900 METAR WIHH 261900Z 00000KT 4000 HZ SCT018 25/25 Q1011 NOSIG=
202502261830 METAR WIHH 261830Z 00000KT 4000 HZ SCT018 25/24 Q1011 NOSIG=
202502261800 METAR WIHH 261800Z 00000KT 4000 HZ SCT018 25/24 Q1011 NOSIG=
202502261730 METAR WIHH 261730Z 00000KT 4000 HZ SCT018 25/24 Q1012 NOSIG=
202502261700 METAR WIHH 261700Z 00000KT 4000 HZ SCT018 25/25 Q1012 NOSIG=
202502261630 METAR WIHH 261630Z 00000KT 4000 HZ SCT018 26/25 Q1012 NOSIG=
202502261600 METAR WIHH 261600Z 14003KT 5000 HZ SCT018 26/25 Q1012 NOSIG=
202502261530 METAR WIHH 261530Z 00000KT 5000 HZ SCT018 26/25 Q1012 NOSIG=
202502261500 METAR WIHH 261500Z 16003KT 5000 HZ SCT018 26/25 Q1012 NOSIG=
202502261430 METAR WIHH 261430Z 17003KT 6000 SCT018 26/24 Q1012 NOSIG=
202502261400 METAR WIHH 261400Z 12003KT 7000 SCT018 26/24 Q1011 NOSIG=
202502261330 METAR WIHH 261330Z 15003KT 7000 SCT018 27/24 Q1011 NOSIG=
202502261300 METAR WIHH 261300Z 00000KT 7000 SCT018 27/24 Q1011 NOSIG=
202502261230 METAR WIHH 261230Z 35003KT 7000 SCT018 28/24 Q1011 NOSIG=
202502261200 METAR WIHH 261200Z 35003KT 7000 SCT018 28/24 Q1011 NOSIG=
202502261130 METAR WIHH 261130Z 36003KT 6000 SCT018 28/23 Q1010 NOSIG=
202502261100 METAR WIHH 261100Z 00000KT 6000 SCT018 29/24 Q1010 NOSIG=
202502261030 METAR WIHH 261030Z 27003KT 6000 SCT018 29/24 Q1010 NOSIG=
202502261000 METAR WIHH 261000Z 31003KT 6000 SCT018 29/23 Q1009 NOSIG=
202502260930 METAR WIHH 260930Z 31003KT 6000 SCT018 29/24 Q1009 NOSIG=
202502260900 METAR WIHH 260900Z 33003KT 6000 SCT018 28/24 Q1009 NOSIG=
202502260830 METAR WIHH 260830Z 27003KT 6000 -RA SCT017 28/24 Q1009=
202502260800 METAR WIHH 260800Z 28003KT 6000 SCT017 29/24 Q1010 TEMPO FM0820 5000 -RA RMK RA TO NW=
202502260730 METAR WIHH 260730Z 33004KT 6000 SCT017 29/24 Q1010 RMK RA TO NW=
202502260700 METAR WIHH 260700Z 33004KT 6000 SCT017 28/24 Q1011 RMK RA TO SE=
202502260630 METAR WIHH 260630Z 34003KT 6000 -RA 28/25 Q1012 NOSIG=
202502260600 METAR WIHH 260600Z 32003KT 6000 -RA SCT017 28/24 Q1012 NOSIG=
202502260530 METAR WIHH 260530Z 31003KT 6000 -RA SCT017 28/24 Q1013 NOSIG=
202502260500 METAR WIHH 260500Z 35004KT 6000 -RA SCT017 28/24 Q1013=
202502260430 METAR WIHH 260430Z 33004KT 6000 SCT017 28/24 Q1014=
202502260400 METAR WIHH 260400Z 01003KT 6000 FEW017CB SCT018 28/24 Q1014 RMK CB AND RA TO SE=
202502260330 METAR WIHH 260330Z 32005KT 6000 TS FEW017CB SCT018 29/24 Q1014 RMK CB AND RA TO SE=
202502260300 METAR WIHH 260300Z 28003KT 5000 HZ SCT018 28/24 Q1014 RMK RA TO SE=
202502260230 METAR WIHH 260230Z 36003KT 5000 HZ SCT018 28/24 Q1014 NOSIG=
202502260200 METAR WIHH 260200Z 33003KT 4000 HZ SCT018 28/25 Q1014 NOSIG=
202502260130 METAR WIHH 260130Z 33005KT 4000 HZ SCT018 26/25 Q1014 RMK RA TO W=
202502260100 METAR WIHH 260100Z 25004KT 4000 HZ SCT018 26/25 Q1013 NOSIG=
202502260030 METAR WIHH 260030Z 25004KT 4000 HZ SCT018 26/25 Q1013 TEMPO FM0040 4000 -RA RMK RA TO N=
202502260000 METAR WIHH 260000Z 00000KT 4000 BR SCT018 25/24 Q1013 NOSIG=
202502252330 METAR WIHH 252330Z 00000KT 4000 BR SCT018 25/24 Q1012 NOSIG=
202502252300 METAR WIHH 252300Z 00000KT 4000 BR SCT018 25/24 Q1012 NOSIG=
202502252230 METAR WIHH 252230Z 00000KT 5000 HZ SCT018 25/24 Q1012 NOSIG=
202502252200 METAR WIHH 252200Z 00000KT 5000 HZ SCT018 25/24 Q1012 NOSIG=
202502252130 METAR WIHH 252130Z 00000KT 6000 FEW018 25/24 Q1012 NOSIG=
202502252100 METAR WIHH 252100Z 00000KT 6000 FEW018 25/24 Q1012 NOSIG=
202502252030 METAR WIHH 252030Z 00000KT 6000 FEW017 25/24 Q1012 NOSIG=
202502252000 METAR WIHH 252000Z 00000KT 5000 HZ SCT017 25/24 Q1012 NOSIG=
202502251930 METAR WIHH 251930Z 00000KT 5000 HZ SCT017 25/24 Q1013 NOSIG=
202502251900 METAR WIHH 251900Z 00000KT 5000 HZ SCT017 25/24 Q1013 NOSIG=
202502251830 METAR WIHH 251830Z 00000KT 5000 SCT017 25/24 Q1013 NOSIG=
202502251800 METAR WIHH 251800Z 00000KT 5000 HZ SCT016 25/24 Q1013 NOSIG=
202502251730 METAR WIHH 251730Z 00000KT 5000 HZ SCT017 25/24 Q1013 NOSIG=
202502251700 METAR WIHH 251700Z 00000KT 5000 HZ SCT015 25/24 Q1014 NOSIG=
202502251630 METAR WIHH 251630Z 00000KT 5000 HZ SCT016 25/24 Q1014 NOSIG=
202502251600 METAR WIHH 251600Z 00000KT 6000 SCT016 25/24 Q1014 NOSIG=
202502251530 METAR WIHH 251530Z 00000KT 6000 SCT016 25/24 Q1014 NOSIG=
202502251500 METAR WIHH 251500Z 00000KT 6000 SCT016 25/24 Q1014 NOSIG=
202502251430 METAR WIHH 251430Z 12003KT 6000 -RA SCT015 25/24 Q1014 NOSIG=
202502251400 METAR WIHH 251400Z 15003KT 4000 -RA SCT015 25/24 Q1014 NOSIG=
202502251330 METAR WIHH 251330Z 15004KT 4000 -RA SCT015 25/24 Q1013 NOSIG=
202502251300 METAR WIHH 251300Z 17003KT 4000 -RA SCT015 24/24 Q1013 NOSIG=
202502251230 METAR WIHH 251230Z 13003KT 5000 -TSRA SCT016 FEW017CB 23/23 Q1012 RMK CB TO N=
202502251200 METAR WIHH 251200Z 35003KT 4000 SCT015 FEW016CB 23/23 Q1012 RMK CB TO N=
202502251130 METAR WIHH 251130Z 25003KT 0800 TSRA BKN012 FEW016CB 25/24 Q1012 RMK CB OTF=
202502251100 METAR WIHH 251100Z 13011KT 1000 -TSRA BKN012 FEW016CB 26/25 Q1011 RMK CB OTF=
202502251030 METAR WIHH 251030Z 15006KT 5000 -TSRA BKN014 FEW017CB 29/24 Q1010 RMK CB OTF=
202502251000 METAR WIHH 251000Z 34007KT 6000 TS SCT015 FEW017CB 30/24 Q1009 RMK CB AND RA TO SW-E=
202502250930 METAR WIHH 250930Z 35009KT 6000 TS FEW017CB SCT018 30/24 Q1009 RMK CB AND RA TO S=
202502250900 METAR WIHH 250900Z 35009KT 6000 TS FEW017CB SCT018 31/24 Q1009 RMK CB AND RA TO S=
202502250830 METAR WIHH 250830Z 02006KT 6000 TS FEW017CB SCT018 30/24 Q1009 RMK CB AND RA TO S=
202502250800 METAR WIHH 250800Z 01006KT 6000 TS FEW017CB SCT018 30/24 Q1009 RMK CB AND RA TO S=
202502250730 METAR WIHH 250730Z 36006KT 6000 TS FEW017CB SCT018 30/24 Q1009 RMK CB AND RA TO S=
202502250700 METAR WIHH 250700Z 02009KT 6000 TS FEW017CB SCT018 31/23 Q1010 RMK CB AND RA TO SE=
202502250630 METAR WIHH 250630Z 36008KT 6000 FEW017CB SCT018 31/24 Q1010 RMK CB AND RA TO E=
202502250600 METAR WIHH 250600Z 36010KT 6000 SCT018 32/24 Q1011 RMK RA TO N AND E=
202502250530 METAR WIHH 250530Z 33004KT 6000 SCT018 32/23 Q1012 NOSIG=
202502250500 METAR WIHH 250500Z 05004KT 6000 SCT018 32/23 Q1013 NOSIG=
202502250430 METAR WIHH 250430Z 05005KT 6000 SCT018 31/23 Q1013 NOSIG=
202502250400 METAR WIHH 250400Z 29003KT 6000 SCT018 30/23 Q1013 NOSIG=
202502250330 METAR WIHH 250330Z 30006KT 6000 FEW020 30/23 Q1013 NOSIG=
202502250300 METAR WIHH 250300Z 24003KT 6000 FEW020 30/24 Q1013 NOSIG=
202502250230 METAR WIHH 250230Z 21004KT 6000 FEW020 29/24 Q1013 NOSIG=
202502250200 METAR WIHH 250200Z 23004KT 6000 FEW020 28/24 Q1013 NOSIG=
202502250130 METAR WIHH 250130Z 23004KT 7000 FEW020 27/24 Q1013 NOSIG=
202502250100 METAR WIHH 250100Z 24003KT 6000 FEW020 27/24 Q1013 NOSIG=
202502250030 METAR WIHH 250030Z 27004KT 5000 HZ SCT020 26/23 Q1013 NOSIG=
202502250000 METAR WIHH 250000Z 29004KT 5000 HZ SCT018 25/23 Q1013 NOSIG=
202502242330 METAR WIHH 242330Z 29003KT 5000 HZ SCT018 25/24 Q1012 NOSIG=
202502242300 METAR WIHH 242300Z 21004KT 5000 HZ SCT018 25/23 Q1012 NOSIG=
202502242230 METAR WIHH 242230Z 25003KT 6000 SCT018 24/23 Q1012 NOSIG=
202502242200 METAR WIHH 242200Z 24003KT 6000 SCT018 24/23 Q1012 NOSIG=
202502242130 METAR WIHH 242130Z 23003KT 6000 SCT018 24/23 Q1012 NOSIG=
202502242100 METAR WIHH 242100Z 23003KT 6000 SCT018 24/23 Q1012 NOSIG=
202502242030 METAR WIHH 242030Z 18003KT 6000 SCT018 24/23 Q1012 NOSIG=
202502242000 METAR WIHH 242000Z 21003KT 7000 SCT018 24/23 Q1012 NOSIG=
202502241930 METAR WIHH 241930Z 18004KT 7000 SCT018 24/23 Q1012 NOSIG=
202502241900 METAR WIHH 241900Z 21004KT 8000 SCT018 24/23 Q1012 NOSIG=
202502241830 METAR WIHH 241830Z 24002KT 8000 SCT018 24/23 Q1013 NOSIG=
202502241800 METAR WIHH 241800Z 22003KT 8000 SCT018 24/23 Q1013 NOSIG=
202502241730 METAR WIHH 241730Z 21003KT 7000 SCT018 24/23 Q1013 NOSIG=
202502241700 METAR WIHH 241700Z 21003KT 7000 24/23 Q1013 NOSIG=
202502241630 METAR WIHH 241630Z 18003KT 7000 SCT018 25/24 Q1014 NOSIG=
202502241600 METAR WIHH 241600Z 21003KT 7000 SCT018 25/23 Q1014 NOSIG=
202502241530 METAR WIHH 241530Z 21003KT 7000 SCT018 25/23 Q1014 NOSIG=
202502241500 METAR WIHH 241500Z 25003KT 7000 SCT018 24/23 Q1014 NOSIG=
202502241430 METAR WIHH 241430Z 24003KT 7000 SCT018 24/23 Q1013 NOSIG=
202502241400 METAR WIHH 241400Z 22003KT 7000 SCT018 25/23 Q1013 NOSIG=
202502241330 METAR WIHH 241330Z 17003KT 7000 SCT018 25/23 Q1013 NOSIG=
202502241300 METAR WIHH 241300Z 18003KT 7000 SCT018 24/23 Q1012 NOSIG=
202502241230 METAR WIHH 241230Z 18004KT 7000 -RA SCT017 24/23 Q1012=
202502241200 METAR WIHH 241200Z 15004KT 6000 -RA SCT017 24/23 Q1012=
202502241130 METAR WIHH 241130Z 19005KT 5000 -RA BKN017 24/23 Q1011 TEMPO TL1200 4000 -RA=
202502241100 METAR WIHH 241100Z 21006KT 4000 -RA BKN017 24/23 Q1011 TEMPO TL1200 3000 -RA=
202502241030 METAR WIHH 241030Z 17009KT 4000 -RA FEW015CB SCT017 24/23 Q1011 TEMPO TL1130 3000 -RA RMK CB TO SE=
202502241000 METAR WIHH 241000Z 20012KT 4000 -TSRA FEW015CB BKN017 25/23 Q1010 TEMPO TL1030 3000 -RA RMK CB TO SE=
202502240930 METAR WIHH 240930Z 19010KT 4000 -TSRA FEW015CB BKN017 25/23 Q1010 TEMPO TL1030 3000 -RA RMK CB TO SE-SW=
202502240900 METAR WIHH 240900Z 20015KT 4000 -TSRA FEW015CB BKN017 26/23 Q1010 TEMPO TL1000 3000 -TSRA RMK CB TO S-W=
202502240830 METAR WIHH 240830Z 31006KT 7000 TS FEW018CB SCT019 29/23 Q1009 RMK CB TO SW AND RA TO S-W=
202502240800 METAR WIHH 240800Z 33008KT 7000 TS FEW018CB SCT019 30/24 Q1009 RMK CB AND RA TO SW=
202502240730 METAR WIHH 240730Z 010007KT 7000 TS FEW017CB SCT018 30/23 Q1009 RMK CB TO S AND RA TO S-SW=
202502240700 METAR WIHH 240700Z 01011KT 6000 TS FEW017CB SCT018 31/24 Q1010 TEMPO FM0730 4000 -TSRA RMK CB TO S AND RA TO S-SW=
202502240630 METAR WIHH 240630Z 36011KT 6000 SCT018 FEW019CB 31/24 Q1010 TEMPO FM0700 3000 -TSRA FEW016CB BKN018 RMK CB TO S AND RA TO S-SW=
202502240600 METAR WIHH 240600Z 35007KT 6000 SCT018 FEW019CB 31/24 Q1010 RMK CB TO SW AND RA TO SE-SW=
202502240530 METAR WIHH 240530Z 34012KT 6000 SCT018 31/24 Q1011 TEMPO FM0630 3000 -RA BKN018 RMK RA TO E AND W=
202502240500 METAR WIHH 240500Z 36006KT 6000 SCT018 32/26 Q1011 TEMPO FM0630 3000 -RA RMK RA TO NW AND E=
202502240430 METAR WIHH 240430Z 28004KT 6000 SCT018 32/23 Q1012 RMK RA TO NE-E=
202502240400 METAR WIHH 240400Z 24004KT 7000 SCT018 31/24 Q1012 NOSIG=
202502240330 METAR WIHH 240330Z 21004KT 7000 SCT018 31/24 Q1013 NOSIG=
202502240300 METAR WIHH 240300Z 15004KT 6000 SCT017 30/24 Q1013 NOSIG=
202502240230 METAR WIHH 240230Z 21005KT 6000 SCT017 30/25 Q1013 NOSIG=
202502240200 METAR WIHH 240200Z 00000KT 6000 SCT017 29/25 Q1013 NOSIG=
202502240130 METAR WIHH 240130Z 00000KT 6000 SCT017 28/24 Q1012 NOSIG=
202502240100 METAR WIHH 240100Z 00000KT 6000 SCT017 27/24 Q1012 NOSIG=
202502240030 METAR WIHH 240030Z 15004KT 5000 HZ SCT017 26/24 Q1012 NOSIG=
202502240000 METAR WIHH 240000Z 15003KT 5000 HZ SCT017 25/24 Q1012 RMK RA TO NE=
202502232330 METAR WIHH 232330Z 00000KT 5000 HZ SCT016 25/24 Q1011 RMK RA TO N=
202502232300 METAR WIHH 232300Z 00000KT 5000 HZ SCT016 24/24 Q1011 RMK RA TO N=
202502232230 METAR WIHH 232230Z 00000KT 6000 SCT016 24/24 Q1011 RMK RA TO S=
202502232200 METAR WIHH 232200Z 00000KT 5000 -RA SCT016 24/24 Q1011 NOSIG=
202502232130 METAR WIHH 232130Z 29004KT 4000 -RA SCT016 24/24 Q1011 NOSIG=
202502232100 METAR WIHH 232100Z 32004KT 4000 -RA SCT016 25/24 Q1011 NOSIG=
202502232030 METAR WIHH 232030Z 00000KT 4000 -RA SCT016 24/24 Q1008=
202502232000 METAR WIHH 232000Z 00000KT 5000 -RA SCT016 24/24 Q1010 NOSIG=
202502231930 METAR WIHH 231930Z 00000KT 5000 -RA SCT016 25/24 Q1010=
202502231900 METAR WIHH 231900Z 27003KT 5000 -RA SCT016 24/24 Q1009=
202502231830 METAR WIHH 231830Z 00000KT 6000 SCT017 25/24 Q1010=
202502231800 METAR WIHH 231800Z 27003KT 6000 SCT017 25/24 Q1010=
202502231730 METAR WIHH 231730Z 00000KT 6000 SCT017 25/24 Q1012=
202502231700 METAR WIHH 231700Z 00000KT 5000 HZ SCT017 26/25 Q1013 NOSIG=
202502231630 METAR WIHH 231630Z 00000KT 6000 SCT017 26/25 Q1013 NOSIG=
202502231600 METAR WIHH 231600Z 00000KT 6000 SCT017 26/25 Q1013 NOSIG=
202502231530 METAR WIHH 231530Z 00000KT 6000 SCT017 26/25 Q1013 NOSIG=
202502231500 METAR WIHH 231500Z 13003KT 6000 SCT017 26/25 Q1013 NOSIG=
202502231430 METAR WIHH 231430Z 00000KT 6000 SCT017 26/25 Q1013 NOSIG=
202502231400 METAR WIHH 231400Z 00000KT 6000 SCT017 26/25 Q1013 NOSIG=
202502231330 METAR WIHH 231330Z 16003KT 7000 SCT017 26/25 Q1012 NOSIG=
202502231300 METAR WIHH 231300Z 18003KT 7000 SCT017 26/25 Q1012 NOSIG=
202502231230 METAR WIHH 231230Z 16004KT 7000 SCT017 26/25 Q1011 NOSIG=
202502231200 METAR WIHH 231200Z 16003KT 7000 SCT017 26/24 Q1011 NOSIG=
202502231130 METAR WIHH 231130Z 00000KT 7000 SCT017 27/25 Q1011 NOSIG=
202502231100 METAR WIHH 231100Z 27004KT 6000 SCT017 27/25 Q1011 NOSIG=
202502231030 METAR WIHH 231030Z 30004KT 6000 SCT017 27/25 Q1010 RMK RA TO SW=
202502231000 METAR WIHH 231000Z 26004KT 6000 SCT017 27/25 Q1010 RMK RA TO SW AND SE=
202502230930 METAR WIHH 230930Z 27005KT 5000 SCT017 26/25 Q1009 RMK RA TO S=
202502230900 METAR WIHH 230900Z 28006KT 5000 -RA FEW016CB SCT017 27/25 Q1009 TEMPO TL0910 2000 -TSRA FEW016CB BKN017 RMK CB TO NW=
202502230830 METAR WIHH 230830Z 36009KT 6000 SCT016 30/24 Q1009 RMK RA TO NW=
202502230800 METAR WIHH 230800Z 34006KT 7000 SCT016 30/24 Q1009 NOSIG=
202502230730 METAR WIHH 230730Z 32005KT 7000 SCT016 30/24 Q1009 NOSIG=
202502230700 METAR WIHH 230700Z 31006KT 6000 SCT016 30/24 Q1010 NOSIG=
202502230630 METAR WIHH 230630Z 27006KT 6000 SCT017 29/23 Q1010 NOSIG=
202502230600 METAR WIHH 230600Z 30005KT 6000 SCT017 29/24 Q1011 NOSIG=
202502230530 METAR WIHH 230530Z 32006KT 6000 SCT017 29/24 Q1011 NOSIG=
202502230500 METAR WIHH 230500Z 29005KT 6000 -RA SCT017 28/24 Q1012 NOSIG=
202502230430 METAR WIHH 230430Z 25005KT 6000 -RA SCT017 28/24 Q1012 NOSIG=
202502230400 METAR WIHH 230400Z 25004KT 6000 -RA SCT017 27/24 Q1013 NOSIG=
202502230330 METAR WIHH 230330Z 24005KT 6000 SCT017 27/24 Q1013 RMK RA TO NE=
202502230300 METAR WIHH 230300Z 26005KT 6000 SCT017 27/24 Q1013 RMK RA TO NE=
202502230230 METAR WIHH 230230Z 25005KT 5000 HZ SCT017 27/24 Q1014=
202502230200 METAR WIHH 230200Z 23008KT 5000 HZ SCT017 26/24 Q1014 RMK RA TO NE AND E=
202502230130 METAR WIHH 230130Z 25006KT 5000 HZ SCT017 26/24 Q1010 RMK RA TO NW=
202502230100 METAR WIHH 230100Z 23005KT 5000 HZ SCT017 26/24 Q1013 RMK RA TO NW=
202502230030 METAR WIHH 230030Z 27008KT 6000 SCT017 26/24 Q1012 RMK RA TO NW=
202502230000 METAR WIHH 230000Z 24008KT 6000 SCT017 26/23 Q1012 RMK RA TO N=
202502222330 METAR WIHH 222330Z 25007KT 6000 SCT017 26/23 Q1012 RMK RA TO N AND E=
202502222300 METAR WIHH 222300Z 25005KT 6000 SCT016 FEW017CB 26/23 Q1011 RMK CB AND RA TO NW=
202502222230 METAR WIHH 222230Z 28005KT 6000 SCT016 FEW017CB 26/23 Q1011 RMK CB AND RA TO N=
202502222200 METAR WIHH 222200Z 28005KT 6000 SCT016 FEW017CB 26/23 Q1011 CB AND RA TO N=
202502222130 METAR WIHH 222130Z 29003KT 6000 FEW018 26/23 Q1010 NOSIG=
202502222100 METAR WIHH 222100Z 00000KT 6000 FEW018 25/24 Q1010 NOSIG=
202502222030 METAR WIHH 222030Z 00000KT 6000 FEW020 26/25 Q1010 NOSIG=
202502222000 METAR WIHH 222000Z 00000KT 6000 FEW020 26/25 Q1010 NOSIG=
202502221930 METAR WIHH 221930Z 00000KT 6000 FEW020 25/24 Q1011 NOSIG=
202502221900 METAR WIHH 221900Z 00000KT 6000 FEW020 25/24 Q1011 NOSIG=
202502221830 METAR WIHH 221830Z 00000KT 6000 FEW020 25/24 Q1011 NOSIG=
202502221800 METAR WIHH 221800Z 00000KT 6000 FEW020 25/24 Q1011 NOSIG=
202502221730 METAR WIHH 221730Z 00000KT 6000 FEW018 26/24 Q1011 NOSIG=
202502221700 METAR WIHH 221700Z 00000KT 6000 FEW018 26/23 Q1011 NOSIG=
202502221630 METAR WIHH 221630Z 00000KT 7000 FEW018 27/23 Q1011 NOSIG=
202502221600 METAR WIHH 221600Z 00000KT 7000 FEW018 27/23 Q1011 NOSIG=
202502221530 METAR WIHH 221530Z 27003KT 7000 FEW018 27/23 Q1012 NOSIG=
202502221500 METAR WIHH 221500Z 00000KT 7000 FEW018 27/23 Q1011 NOSIG=
202502221430 METAR WIHH 221430Z 00000KT 7000 FEW018 27/23 Q1011 NOSIG=
202502221400 METAR WIHH 221400Z 00000KT 7000 FEW017 27/23 Q1011 NOSIG=
202502221330 METAR WIHH 221330Z 00000KT 7000 FEW018 27/23 Q1011 NOSIG=
202502221300 METAR WIHH 221300Z 00000KT 7000 FEW018 27/23 Q1011 NOSIG=
202502221230 METAR WIHH 221230Z 33003KT 7000 SCT018 28/23 Q1009 RMK RA TO W=
202502221200 METAR WIHH 221200Z 27003KT 6000 SCT018 28/23 Q1009 RMK RA TO SW=
202502221130 METAR WIHH 221130Z 33004KT 7000 SCT018 28/23 Q1009 NOSIG=
202502221100 METAR WIHH 221100Z 30006KT 7000 SCT018 28/23 Q1008 NOSIG=
202502221030 METAR WIHH 221030Z 32005KT 7000 SCT018 28/23 Q1008 NOSIG=
202502221000 METAR WIHH 221000Z 32005KT 7000 SCT018 28/23 Q1007 NOSIG=
202502220930 METAR WIHH 220930Z 32005KT 7000 SCT018 28/24 Q1007 NOSIG=
202502220900 METAR WIHH 220900Z 33005KT 6000 SCT018 29/24 Q1007 RMK RA TO SW=
202502220830 METAR WIHH 220830Z 34008KT 6000 SCT018 29/24 Q1007 NOSIG=
202502220800 METAR WIHH 220800Z 31005KT 7000 SCT018 29/23 Q1008 NOSIG=
202502220730 METAR WIHH 220730Z 24003KT 7000 SCT018 30/24 Q1008 NOSIG=
202502220700 METAR WIHH 220700Z 24003KT 7000 SCT018 30/24 Q1008 NOSIG=
202502220630 METAR WIHH 220630Z 29004KT 7000 SCT017 30/24 Q1009 NOSIG=
202502220600 METAR WIHH 220600Z 23004KT 7000 SCT017 29/24 Q1010 NOSIG=
202502220530 METAR WIHH 220530Z 24003KT 7000 29/24 Q1010 RMK RA TO N=
202502220500 METAR WIHH 220500Z 27005KT 7000 SCT017 28/24 Q1011 RMK RA TO N=
202502220430 METAR WIHH 220430Z 30003KT 6000 SCT017 27/24 Q1011 RMK RA TO NE=
202502220400 METAR WIHH 220400Z 30003KT 6000 -RA SCT017 27/24 Q1012 NOSIG=
202502220330 METAR WIHH 220330Z 28003KT 5000 -RA SCT015 26/24 Q1012 NOSIG=
202502220300 METAR WIHH 220300Z 23005KT 5000 -RA SCT015 FEW017CB 26/24 Q1013 RMK CB TO N=
202502220230 METAR WIHH 220230Z 21005KT 5000 -RA SCT015 25/24 Q1013 NOSIG=
202502220200 METAR WIHH 220200Z 23008KT 4000 -RA SCT015 FEW017CB 25/24 Q1013 RMK CB TO NE=
202502220130 METAR WIHH 220130Z 26006KT 4000 -RA BKN015 FEW017CB 25/24 Q1013 RMK CB TO NE=
202502220100 METAR WIHH 220100Z 25009KT 4000 -RA BKN015 26/24 Q1012=
202502220030 METAR WIHH 220030Z 29005KT 4000 -RA BKN015 26/25 Q1012=
202502220000 METAR WIHH 220000Z 29006KT 6000 SCT017 27/24 Q1011 TEMPO FM0005 3000 RA RMK RA TO W-N=
202502212330 METAR WIHH 212330Z 27005KT 6000 SCT018 26/24 Q1010 NOSIG=
202502212300 METAR WIHH 212300Z 27005KT 6000 SCT018 26/24 Q1010 NOSIG=
202502212230 METAR WIHH 212230Z 26005KT 8000 SCT018 26/24 Q1010 NOSIG=
202502212200 METAR WIHH 212200Z 27003KT 8000 SCT018 26/24 Q1010 NOSIG=
202502212130 METAR WIHH 212130Z 29005KT 8000 SCT018 26/24 Q1010 NOSIG=
202502212100 METAR WIHH 212100Z 29004KT 8000 SCT018 26/24 Q1009 NOSIG=
202502212030 METAR WIHH 212030Z 00000KT 8000 FEW018 26/24 Q1009 NOSIG=
202502212000 METAR WIHH 212000Z 27003KT 8000 FEW020 26/24 Q1010 NOSIG=
202502211930 METAR WIHH 211930Z 24003KT 8000 FEW020 26/24 Q1010 NOSIG=
202502211900 METAR WIHH 211900Z 00000KT 8000 FEW020 26/24 Q1010 NOSIG=
202502211830 METAR WIHH 211830Z 00000KT 8000 FEW020 27/24 Q1010 NOSIG=
202502211800 METAR WIHH 211800Z 00000KT 8000 FEW020 27/24 Q1011 NOSIG=
202502211730 METAR WIHH 211730Z 00000KT 8000 FEW020 27/24 Q1011 NOSIG=
202502211700 METAR WIHH 211700Z 00000KT 8000 FEW020 27/24 Q1011 NOSIG=
202502211630 METAR WIHH 211630Z 31003KT 8000 FEW020 27/24 Q1011 NOSIG=
202502211600 METAR WIHH 211600Z 29003KT 8000 FEW020 27/24 Q1011 NOSIG=
202502211530 METAR WIHH 211530Z 25003KT 8000 FEW020 28/24 Q1012 NOSIG=
202502211500 METAR WIHH 211500Z 27004KT 8000 FEW020 28/23 Q1012 NOSIG=
202502211430 METAR WIHH 211430Z 28004KT 8000 FEW020 28/23 Q1012 NOSIG=
202502211400 METAR WIHH 211400Z 29004KT 8000 SCT020 28/23 Q1012 NOSIG=
202502211330 METAR WIHH 211330Z 30005KT 8000 SCT020 28/23 Q1011 NOSIG=
202502211300 METAR WIHH 211300Z 27005KT 8000 SCT020 29/23 Q1010 NOSIG=
202502211230 METAR WIHH 211230Z 26005KT 8000 SCT020 29/23 Q1010 NOSIG=
202502211200 METAR WIHH 211200Z 30005KT 8000 SCT020 29/23 Q1010 NOSIG=
202502211130 METAR WIHH 211130Z 33006KT 7000 SCT020 29/23 Q1009 NOSIG=
202502211100 METAR WIHH 211100Z 30008KT 7000 SCT020 29/23 Q1008 NOSIG=
202502211030 METAR WIHH 211030Z 30007KT 7000 SCT020 30/24 Q1008 NOSIG=
202502211000 METAR WIHH 211000Z 28010KT 7000 SCT020 30/24 Q1008 NOSIG=
202502210930 METAR WIHH 210930Z 29010KT 6000 SCT018 29/24 Q1008 RMK RA TO N-NE=
202502210900 METAR WIHH 210900Z 28011KT 6000 SCT018 30/25 Q1008 RMK RA TO NW-N=
202502210830 METAR WIHH 210830Z 30009KT 6000 SCT018 31/25 Q1007 TEMPO FM0835 4000 -RA RMK RA TO W-NW=
202502210800 METAR WIHH 210800Z 32007KT 7000 SCT018 32/25 Q1007 TEMPO FM0820 4000 -RA RMK RA TO W=
202502210730 METAR WIHH 210730Z 27010KT 7000 SCT020 32/24 Q1008 NOSIG=
202502210700 METAR WIHH 210700Z 28009KT 7000 SCT020 32/24 Q1008 NOSIG=
202502210630 METAR WIHH 210630Z 29010KT 7000 SCT020 32/24 Q1009 NOSIG=
202502210600 METAR WIHH 210600Z 26009KT 7000 SCT020 32/23 Q1009 NOSIG=
202502210530 METAR WIHH 210530Z 35006KT 7000 SCT020 32/24 Q1009 NOSIG=
202502210500 METAR WIHH 210500Z 24009KT 7000 SCT020 31/24 Q1010 NOSIG=
202502210430 METAR WIHH 210430Z 23010KT 7000 SCT020 31/24 Q1011 NOSIG=
202502210400 METAR WIHH 210400Z 25010KT 7000 SCT020 30/24 Q1011 NOSIG=
202502210330 METAR WIHH 210330Z 25008KT 7000 SCT020 29/23 Q1012 NOSIG=
202502210300 METAR WIHH 210300Z 26010KT 7000 SCT020 29/24 Q1012 NOSIG=
202502210230 METAR WIHH 210230Z 25009KT 7000 SCT020 29/24 Q1012 NOSIG=
202502210200 METAR WIHH 210200Z 24009KT 6000 SCT020 28/23 Q1012 NOSIG=
202502210130 METAR WIHH 210130Z 25008KT 6000 SCT020 28/23 Q1012 NOSIG=
202502210100 METAR WIHH 210100Z 29005KT 5000 SCT020 27/24 Q1012 NOSIG=
202502210030 METAR WIHH 210030Z 24004KT 5000 HZ SCT020 27/24 Q1011 NOSIG=
202502210000 METAR WIHH 210000Z 25004KT 5000 HZ SCT020 26/24 Q1011 NOSIG=
202502202330 METAR WIHH 202330Z 27003KT 5000 HZ SCT020 25/24 Q1011 NOSIG=
202502202300 METAR WIHH 202300Z 24003KT 7000 SCT020 25/24 Q1010 NOSIG=
202502202230 METAR WIHH 202230Z 24003KT 7000 FEW020 25/24 Q1010 NOSIG=
202502202200 METAR WIHH 202200Z 00000KT 7000 FEW020 25/24 Q1010 NOSIG=
202502202130 METAR WIHH 202130Z 00000KT 7000 SCT018 25/23 Q1010=
202502202100 METAR WIHH 202100Z 00000KT 7000 SCT018 25/23 Q1010 NOSIG=
202502202030 METAR WIHH 202030Z 20004KT 7000 SCT018 25/23 Q1010 NOSIG=
202502202000 METAR WIHH 202000Z 23003KT 7000 SCT018 25/23 Q1010 NOSIG=
202502201930 METAR WIHH 201930Z 28004KT 7000 SCT018 25/24 Q1010 NOSIG=
202502201900 METAR WIHH 201900Z 27003KT 7000 SCT018 25/24 Q1010 NOSIG=
202502201830 METAR WIHH 201830Z 24003KT 7000 SCT018 26/25 Q1010 NOSIG=
202502201800 METAR WIHH 201800Z 00000KT 7000 SCT018 26/24 Q1010 NOSIG=
202502201730 METAR WIHH 201730Z 00000KT 7000 SCT018 26/24 Q1010 NOSIG=
202502201700 METAR WIHH 201700Z 21003KT 6000 FEW018 26/23 Q1011 NOSIG=
202502201630 METAR WIHH 201630Z 20003KT 7000 SCT018 26/23 Q1011 NOSIG=
202502201600 METAR WIHH 201600Z 19003KT 7000 SCT018 26/23 Q1011 NOSIG=
202502201530 METAR WIHH 201530Z 22005KT 6000 SCT018 26/24 Q1011 RMK RA TO SE=
202502201500 METAR WIHH 201500Z 21006KT 6000 SCT018 26/23 Q1012 RMK RA TO SE=
202502201430 METAR WIHH 201430Z 21004KT 6000 SCT018 27/23 Q1011 RMK RA TO S=
202502201400 METAR WIHH 201400Z 17004KT 6000 SCT018 27/23 Q1011 RMK RA TO SW=
202502201330 METAR WIHH 201330Z 20003KT 7000 SCT018 28/23 Q1011 RMK RA TO S=
202502201300 METAR WIHH 201300Z 34003KT 7000 SCT018 28/23 Q1010 RMK RA TO S=
202502201230 METAR WIHH 201230Z 32004KT 7000 SCT018 28/23 Q1010 RMK RA TO S=
202502201200 METAR WIHH 201200Z 34003KT 7000 FEW017CB SCT018 29/23 Q1009 RMK CB AND RA TO S=
202502201130 METAR WIHH 201130Z 31003KT 7000 SCT018 29/23 Q1009 RMK RA TO S=
202502201100 METAR WIHH 201100Z 34004KT 7000 SCT018 29/22 Q1008 RMK RA TO S=
202502201030 METAR WIHH 201030Z 28005KT 7000 SCT018 30/23 Q1008 NOSIG=
202502201000 METAR WIHH 201000Z 36006KT 7000 SCT018 31/23 Q1008 NOSIG=
202502200930 METAR WIHH 200930Z 33007KT 7000 SCT018 30/22 Q1007 NOSIG=
202502200900 METAR WIHH 200900Z 31007KT 7000 SCT017 31/22 Q1008 NOSIG=
202502200830 METAR WIHH 200830Z 30005KT 7000 SCT017 31/23 Q1008 NOSIG=
202502200800 METAR WIHH 200800Z 34005KT 7000 SCT017 31/22 Q1008 NOSIG=
202502200730 METAR WIHH 200730Z 24006KT 7000 SCT017 31/22 Q1008 NOSIG=
202502200700 METAR WIHH 200700Z 33006KT 7000 SCT017 31/23 Q1009 RMK RA TO SE=
202502200630 METAR WIHH 200630Z 33006KT 7000 SCT017 31/24 Q1009 NOSIG=
202502200600 METAR WIHH 200600Z 22006KT 7000 SCT017 31/24 Q1010 NOSIG=
202502200530 METAR WIHH 200530Z 34008KT 7000 SCT017 31/23 Q1010 NOSIG=
202502200500 METAR WIHH 200500Z 30005KT 7000 SCT017 31/23 Q1010 NOSIG=
202502200430 METAR WIHH 200430Z 29005KT 7000 SCT019 31/22 Q1011 NOSIG=
202502200400 METAR WIHH 200400Z 35006KT 7000 SCT019 31/22 Q1011 NOSIG=
202502200330 METAR WIHH 200330Z 36005KT 7000 FEW019 30/23 Q1011 NOSIG=
202502200300 METAR WIHH 200300Z 28004KT 7000 FEW019 30/23 Q1012 NOSIG=
202502200230 METAR WIHH 200230Z 31003KT 7000 FEW018 29/23 Q1012 NOSIG=
202502200200 METAR WIHH 200200Z 25005KT 7000 FEW018 28/23 Q1012 NOSIG=
202502200130 METAR WIHH 200130Z 23005KT 7000 FEW018 27/24 Q1011 NOSIG=
202502200100 METAR WIHH 200100Z 22005KT 6000 FEW018 26/24 Q1011 NOSIG=
202502200030 METAR WIHH 200030Z 25003KT 6000 FEW018 25/24 Q1011 NOSIG=
202502200000 METAR WIHH 200000Z 24003KT 6000 FEW018 24/24 Q1010 NOSIG=
202502192330 METAR WIHH 192330Z 22003KT 6000 FEW018 24/23 Q1010 NOSIG=
202502192300 METAR WIHH 192300Z 22004KT 6000 SCT018 24/23 Q1009 NOSIG=
202502192230 METAR WIHH 192230Z 24003KT 6000 FEW018 24/23 Q1009 NOSIG=
202502192200 METAR WIHH 192200Z 00000KT 6000 FEW018 24/23 Q1009 NOSIG=
202502192130 METAR WIHH 192130Z 00000KT 6000 SCT018 24/23 Q1009 NOSIG=
202502192100 METAR WIHH 192100Z 00000KT 6000 SCT018 24/23 Q1009 NOSIG=
202502192030 METAR WIHH 192030Z 00000KT 6000 SCT018 24/23 Q1009 NOSIG=
202502192000 METAR WIHH 192000Z 00000KT 6000 SCT018 24/23 Q1009 NOSIG=
202502191930 METAR WIHH 191930Z 00000KT 6000 24/23 Q1009 NOSIG=
202502191900 METAR WIHH 191900Z 00000KT 6000 SCT016 24/23 Q1009 NOSIG=
202502191830 METAR WIHH 191830Z 00000KT 6000 SCT018 24/23 Q1010 NOSIG=
202502191800 METAR WIHH 191800Z 00000KT 6000 SCT018 24/23 Q1010 NOSIG=
202502191730 METAR WIHH 191730Z 00000KT 6000 SCT016 24/23 Q1011 NOSIG=
202502191700 METAR WIHH 191700Z 00000KT 6000 -RA SCT015 24/23 Q1011 NOSIG=
202502191630 METAR WIHH 191630Z 00000KT 6000 -RA SCT015 24/23 Q1011 NOSIG=
202502191600 METAR WIHH 191600Z 15005KT 6000 -RA SCT015 24/23 Q1011 NOSIG=
202502191530 METAR WIHH 191530Z 18003KT 6000 -RA SCT017 23/23 Q1012 NOSIG=
202502191500 METAR WIHH 191500Z 21006KT 4000 -RA SCT015 23/23 Q1012 NOSIG=
202502191430 METAR WIHH 191430Z 24007KT 4000 -TSRA BKN015 FEW017CB 23/23 Q1012 RMK CB TO E=
202502191400 METAR WIHH 191400Z 28004KT 5000 -TSRA SCT015 FEW017CB 24/23 Q1012 RMK CB TO E=
202502191330 METAR WIHH 191330Z 25010KT 1000 RA BKN012 24/23 Q1012 NOSIG=
202502191300 METAR WIHH 191300Z 28005KT 6000 SCT016 28/24 Q1011 RMK RA TO W-S=
202502191230 METAR WIHH 191230Z 26003KT 7000 SCT018 28/24 Q1010 RMK RA TO SW=
202502191200 METAR WIHH 191200Z 33005KT 7000 SCT018 28/23 Q1010 NOSIG=
202502191130 METAR WIHH 191130Z 35005KT 7000 SCT017 28/24 Q1009 NOSIG=
202502191100 METAR WIHH 191100Z 01006KT 7000 SCT017 29/24 Q1009 NOSIG=
202502191030 METAR WIHH 191030Z 33005KT 7000 SCT017 29/24 Q1008 NOSIG=
202502191000 METAR WIHH 191000Z 34006KT 7000 SCT016 30/23 Q1008 NOSIG=
202502190930 METAR WIHH 190930Z 35006KT 7000 SCT016 30/23 Q1008 NOSIG=
202502190900 METAR WIHH 190900Z 32008KT 7000 SCT018 30/24 Q1008 NOSIG=
202502190830 METAR WIHH 190830Z 31009KT 7000 SCT016 31/23 Q1008 NOSIG=
202502190800 METAR WIHH 190800Z 34010KT 7000 SCT016 31/23 Q1008 RMK RA TO S=
202502190730 METAR WIHH 190730Z 35006KT 7000 SCT016 30/23 Q1008 RMK RA TO S=
202502190700 METAR WIHH 190700Z 34009KT 7000 SCT016 30/23 Q1008 RMK RA TO SW=
202502190630 METAR WIHH 190630Z 32007KT 7000 SCT016 30/24 Q1009 RMK RA TO S=
202502190600 METAR WIHH 190600Z 33004KT 7000 SCT016 30/23 Q1010 RMK RA TO SW=
202502190530 METAR WIHH 190530Z 31005KT 6000 SCT016 30/24 Q1010 RMK RA TO W AND S=
202502190500 METAR WIHH 190500Z 35007KT 6000 SCT016 30/24 Q1010 RMK RA TO SW=
202502190430 METAR WIHH 190430Z 36004KT 6000 SCT016 29/23 Q1011 NOSIG=
202502190400 METAR WIHH 190400Z 02005KT 6000 SCT016 30/23 Q1011 NOSIG=
202502190330 METAR WIHH 190330Z 27004KT 6000 SCT016 29/23 Q1011 NOSIG=
202502190300 METAR WIHH 190300Z 02004KT 6000 SCT016 29/24 Q1011 NOSIG=
202502190230 METAR WIHH 190230Z 00000KT 6000 SCT018 28/24 Q1011 RMK RA TO NW=
202502190200 METAR WIHH 190200Z 23003KT 6000 -RA SCT016 27/24 Q1012 NOSIG=
202502190130 METAR WIHH 190130Z 30003KT 6000 -RA SCT016 26/24 Q1012 NOSIG=
202502190100 METAR WIHH 190100Z 33003KT 5000 -RA FEW016 26/25 Q1012 NOSIG=
202502190030 METAR WIHH 190030Z 28003KT 5000 -RA SCT016 25/24 Q1012=
202502190000 METAR WIHH 190000Z 30003KT 5000 -RA SCT016 24/23 Q1011=
202502182330 METAR WIHH 182330Z 35003KT 6000 -RA SCT018 24/23 Q1011=
202502182300 METAR WIHH 182300Z 00000KT 6000 -RA SCT018 24/23 Q1011=
202502182230 METAR WIHH 182230Z 36004KT 6000 -RA SCT018 24/23 Q1010=
202502182200 METAR WIHH 182200Z 35004KT 5000 -RA SCT018 FEW019CB 24/23 Q1010 NOSIG=
202502182130 METAR WIHH 182130Z 31004KT 3000 BR SCT017 FEW018CB 24/24 Q1010 TEMPO FM2135 3000 TSRA RMK CB AND RA TO NW-N=
202502182100 METAR WIHH 182100Z 27003KT 3000 BR SCT017 FEW019CB 24/24 Q1009 TEMPO FM1230 3000 TSRA RMK CB AND RA TO NW=
202502182030 METAR WIHH 182030Z 27003KT 3000 BR SCT018 24/24 Q1009 RMK RA TO NW=
202502182000 METAR WIHH 182000Z 27003KT 3000 BR SCT018 24/24 Q1009 RMK RA TO NW=
202502181930 METAR WIHH 181930Z 24003KT 3000 BR SCT018 25/24 Q1009 NOSIG=
202502181900 METAR WIHH 181900Z 18003KT 3000 BR SCT018 24/24 Q1010 NOSIG=
202502181830 METAR WIHH 181830Z 15003KT 3000 BR SCT018 25/24 Q1010 NOSIG=
202502181800 METAR WIHH 181800Z 00000KT 3000 BR SCT018 25/24 Q1010 NOSIG=
202502181730 METAR WIHH 181730Z 00000KT 3000 BR SCT018 25/24 Q1010 NOSIG=
202502181700 METAR WIHH 181700Z 12003KT 3000 BR SCT018 25/25 Q1011 NOSIG=
202502181630 METAR WIHH 181630Z 00000KT 3000 BR SCT018 25/25 Q1011 NOSIG=
202502181600 METAR WIHH 181600Z 06003KT 3000 BR SCT018 25/25 Q1011 NOSIG=
202502181530 METAR WIHH 181530Z 00000KT 3000 BR SCT018 26/25 Q1010 NOSIG=
202502181500 METAR WIHH 181500Z 00000KT 3000 BR SCT018 26/25 Q1011 NOSIG=
202502181430 METAR WIHH 181430Z 17003KT 4000 BR SCT020 26/25 Q1011 NOSIG=
202502181400 METAR WIHH 181400Z 17003KT 4000 BR SCT020 26/25 Q1010 NOSIG=
202502181330 METAR WIHH 181330Z 17003KT 4000 HZ SCT020 26/25 Q1010 NOSIG=
202502181300 METAR WIHH 181300Z 18003KT 5000 HZ SCT020 26/25 Q1010=
202502181230 METAR WIHH 181230Z 18003KT 7000 SCT020 26/25 Q1010 NOSIG=
202502181200 METAR WIHH 181200Z 18003KT 7000 SCT020 26/25 Q1009 NOSIG=
202502181130 METAR WIHH 181130Z 20003KT 6000 SCT020 26/25 Q1009 NOSIG=
202502181100 METAR WIHH 181100Z 10003KT 7000 SCT020 27/25 Q1009 NOSIG=
202502181030 METAR WIHH 181030Z 04003KT 7000 SCT018 27/25 Q1009 NOSIG=
202502181000 METAR WIHH 181000Z 18003KT 7000 SCT018 27/25 Q1008 RMK RA TO S=
202502180930 METAR WIHH 180930Z 23004KT 7000 SCT018 26/24 Q1008 TEMPO FM1025 4000 -RA RMK RA TO S AND W=
202502180900 METAR WIHH 180900Z 29005KT 6000 -RA SCT018 25/24 Q1008=
202502180830 METAR WIHH 180830Z 24006KT 5000 -TSRA SCT017 FEW018CB 24/23 Q1008 RMK CB TO E=
202502180800 METAR WIHH 180800Z 28010KT 3000 RA SCT016 FEW018CB 26/25 Q1008 RMK CB TO NW-N=
202502180730 METAR WIHH 180730Z 25010KT 3000 -RA SCT018 FEW019CB 27/25 Q1008 RMK CB TO W=
202502180700 METAR WIHH 180700Z 18008KT 5000 -RA SCT018 FEW019CB 28/26 Q1008 RMK CB TO SW-W=
202502180630 METAR WIHH 180630Z 36006KT 5000 HZ SCT018 FEW019CB 28/25 Q1008 TEMPO FM0640 4000 RA RMK CB TO W AND RA TO SW-W=
202502180600 METAR WIHH 180600Z 34005KT 5000 -RA SCT018 FEW019CB 27/25 Q1009 RMK CB TO W=
202502180530 METAR WIHH 180530Z 35005KT 6000 SCT018 FEW019CB 28/25 Q1010 RMK CB TO W=
202502180500 METAR WIHH 180500Z 36005KT 6000 SCT018 FEW019CB 28/25 Q1010 TEMPO FM0520 4000 -RA RMK CB TO E AND RA TO N-E AND W=
202502180430 METAR WIHH 180430Z 34006KT 5000 -RA FEW017CB SCT018 28/25 Q1011 RMK CB TO E=
202502180400 METAR WIHH 180400Z 30009KT 6000 SCT018 30/23 Q1011 TEMPO FM0405 4000 -RA BKN018 RMK RA TO N-NE=
202502180330 METAR WIHH 180330Z 25003KT 6000 SCT020 30/23 Q1011 RMK RA TO NW=
202502180300 METAR WIHH 180300Z 27003KT 6000 SCT020 30/23 Q1011 NOSIG=
202502180230 METAR WIHH 180230Z 18003KT 6000 SCT020 29/23 Q1011 NOSIG=
202502180200 METAR WIHH 180200Z 17003KT 6000 SCT020 28/24 Q1011 NOSIG=
202502180130 METAR WIHH 180130Z 33003KT 5000 SCT020 27/25 Q1011 NOSIG=
202502180100 METAR WIHH 180100Z 27003KT 5000 HZ SCT018 26/24 Q1011 NOSIG=
202502180030 METAR WIHH 180030Z 27003KT 5000 SCT018 25/24 Q1011 NOSIG=
202502180000 METAR WIHH 180000Z 28003KT 4000 HZ SCT018 25/24 Q1010 NOSIG=
202502172330 METAR WIHH 172330Z 20004KT 4000 HZ SCT018 24/23 Q1010 NOSIG=
202502172300 METAR WIHH 172300Z 22003KT 3000 BR SCT018 24/23 Q1010 NOSIG=
202502172230 METAR WIHH 172230Z 18003KT 4000 HZ SCT017 24/23 Q1010 NOSIG=
202502172200 METAR WIHH 172200Z 23003KT 4000 HZ SCT017 24/23 Q1010 NOSIG=
202502172130 METAR WIHH 172130Z 12003KT 4000 HZ SCT017 24/23 Q1010 NOSIG=
202502172100 METAR WIHH 172100Z 13003KT 4000 HZ SCT017 25/24 Q1010 NOSIG=
202502172030 METAR WIHH 172030Z 13003KT 4000 HZ SCT017 24/23 Q1010 NOSIG=
202502172000 METAR WIHH 172000Z 31004KT 5000 HZ SCT017 24/23 Q1010 NOSIG=
202502171930 METAR WIHH 171930Z 27003KT 5000 HZ SCT017 25/24 Q1010 NOSIG=
202502171900 METAR WIHH 171900Z 32003KT 5000 HZ SCT017 25/24 Q1010 NOSIG=
202502171830 METAR WIHH 171830Z 25003KT 5000 HZ SCT017 25/24 Q1011 NOSIG=
202502171800 METAR WIHH 171800Z 27003KT 5000 HZ SCT017 25/24 Q1011 NOSIG=
202502171730 METAR WIHH 171730Z 26003KT 5000 HZ SCT017 25/24 Q1011 NOSIG=
202502171700 METAR WIHH 171700Z 26003KT 4000 HZ SCT017 25/24 Q1012 RMK RA TO W=
202502171630 METAR WIHH 171630Z 26003KT 4000 HZ SCT017 25/24 Q1012 RMK RA TO W=
202502171600 METAR WIHH 171600Z 32003KT 4000 HZ SCT017 25/24 Q1012 RMK RA TO W=
202502171530 METAR WIHH 171530Z 00000KT 4000 HZ SCT017 25/24 Q1012 RMK RA TO NW=
202502171500 METAR WIHH 171500Z 00000KT 3000 BR SCT017 25/24 Q1012 NOSIG=
202502171430 METAR WIHH 171430Z 20003KT 3000 BR SCT017 25/24 Q1012 NOSIG=
202502171400 METAR WIHH 171400Z 00000KT 5000 HZ SCT017 25/24 Q1012 NOSIG=
202502171330 METAR WIHH 171330Z 15003KT 5000 HZ SCT017 25/24 Q1011 NOSIG=
202502171300 METAR WIHH 171300Z 15004KT 6000 SCT017 25/24 Q1011 NOSIG=
202502171230 METAR WIHH 171230Z 18003KT 6000 SCT017 25/24 Q1010=
202502171200 METAR WIHH 171200Z 00000KT 6000 SCT017 25/24 Q1010 NOSIG=
202502171130 METAR WIHH 171130Z 15004KT 6000 SCT017 26/25 Q1010 NOSIG=
202502171100 METAR WIHH 171100Z 21004KT 6000 SCT017 26/24 Q1010 RMK RA TO SE=
202502171030 METAR WIHH 171030Z 18004KT 6000 -RA SCT017 26/25 Q1010 NOSIG=
202502171000 METAR WIHH 171000Z 21004KT 6000 -RA 26/25 Q1009 NOSIG=
202502170930 METAR WIHH 170930Z 23003KT 6000 -RA SCT017 26/25 Q1009 NOSIG=
202502170900 METAR WIHH 170900Z 28004KT 5000 -RA SCT017 26/25 Q1009 NOSIG=
202502170830 METAR WIHH 170830Z 32005KT 5000 -RA SCT017 26/25 Q1009 NOSIG=
202502170800 METAR WIHH 170800Z 32005KT 5000 -TSRA FEW016CB SCT017 26/25 Q1009 RMK CB TO NE=
202502170730 METAR WIHH 170730Z 27005KT 5000 -TSRA FEW016CB SCT017 25/24 Q1009 RMK CB TO NE=
202502170700 METAR WIHH 170700Z 26005KT 5000 -TSRA FEW016CB SCT017 25/24 Q1010 RMK CB TO E=
202502170630 METAR WIHH 170630Z 31007KT 4000 -TSRA FEW016CB SCT017 25/24 Q1010 TEMPO TL0700 3000 -TSRA FEW016CB SCT017 RMK CB TO NE=
202502170600 METAR WIHH 170600Z 32005KT 5000 -TSRA FEW016CB SCT017 30/25 Q1009 TEMPO FM0610 3000 TSRA FEW016CB BKN017 RMK CB TO N=
202502170530 METAR WIHH 170530Z 30005KT 6000 -RA SCT018 28/24 Q1010 NOSIG=
202502170500 METAR WIHH 170500Z 28007KT 6000 SCT018 31/23 Q1011 RMK RA TO W=
202502170430 METAR WIHH 170430Z 24004KT 6000 SCT018 30/24 Q1011 RMK RA TO SW=
202502170400 METAR WIHH 170400Z 24003KT 6000 SCT018 30/24 Q1011 RMK RA TO SW=
202502170330 METAR WIHH 170330Z 27005KT 6000 SCT018 29/24 Q1012 NOSIG=
202502170300 METAR WIHH 170300Z 24007KT 6000 SCT018 29/24 Q1012 NOSIG=
202502170230 METAR WIHH 170230Z 23006KT 7000 SCT020 28/24 Q1011 NOSIG=
202502170200 METAR WIHH 170200Z 23005KT 7000 FEW020 28/24 Q1011 NOSIG=
202502170130 METAR WIHH 170130Z 22004KT 6000 SCT020 27/24 Q1011 NOSIG=
202502170100 METAR WIHH 170100Z 26004KT 6000 SCT018 27/24 Q1011 NOSIG=
202502170030 METAR WIHH 170030Z 28005KT 6000 SCT018 26/25 Q1011 NOSIG=
202502170000 METAR WIHH 170000Z 25004KT 6000 SCT018 26/24 Q1011 NOSIG=
202502162330 METAR WIHH 162330Z 21003KT 6000 SCT018 26/24 Q1011 TEMPO FM2340 4000 -RA RMK RA TO W=
202502162300 METAR WIHH 162300Z 25004KT 6000 SCT018 25/24 Q1010 TEMPO FM2340 4000 -RA RMK RA TO W=
202502162230 METAR WIHH 162230Z 24003KT 6000 SCT020 26/24 Q1010 TEMPO FM2300 4000 -RA RMK RA TO W=
202502162200 METAR WIHH 162200Z 27006KT 6000 SCT020 26/24 Q1009 NOSIG=
202502162130 METAR WIHH 162130Z 25005KT 6000 SCT020 26/24 Q1009 NOSIG=
202502162100 METAR WIHH 162100Z 25003KT 6000 SCT020 25/24 Q1009 NOSIG=
202502162030 METAR WIHH 162030Z 23003KT 6000 SCT020 25/25 Q1009 NOSIG=
202502162000 METAR WIHH 162000Z 31003KT 6000 SCT020 26/25 Q1009 NOSIG=
202502161930 METAR WIHH 161930Z 00000KT 6000 SCT020 26/25 Q1009 NOSIG=
202502161900 METAR WIHH 161900Z 26003KT 6000 SCT020 26/25 Q1009 NOSIG=
202502161830 METAR WIHH 161830Z 00000KT 7000 SCT020 26/25 Q1009 NOSIG=
202502161800 METAR WIHH 161800Z 00000KT 7000 SCT020 26/25 Q1009 NOSIG=
202502161730 METAR WIHH 161730Z 25003KT 7000 SCT020 26/25 Q1009 NOSIG=
202502161700 METAR WIHH 161700Z 24003KT 8000 SCT020 26/25 Q1010 NOSIG=
202502161630 METAR WIHH 161630Z 28002KT 8000 SCT020 26/25 Q1011 NOSIG=
202502161600 METAR WIHH 161600Z 00000KT 8000 SCT020 26/25 Q1011 NOSIG=
202502161530 METAR WIHH 161530Z 20003KT 7000 SCT020 26/25 Q1011 NOSIG=
202502161500 METAR WIHH 161500Z 21004KT 7000 SCT020 26/24 Q1011 NOSIG=
202502161430 METAR WIHH 161430Z 29003KT 7000 SCT020 26/25 Q1011 NOSIG=
202502161400 METAR WIHH 161400Z 31003KT 7000 SCT020 26/25 Q1011 NOSIG=
202502161330 METAR WIHH 161330Z 00000KT 7000 -RA SCT020 26/25 Q1011 NOSIG=
202502161300 METAR WIHH 161300Z 00000KT 7000 SCT020 26/24 Q1010 NOSIG=
202502161230 METAR WIHH 161230Z 00000KT 6000 SCT018 26/24 Q1009 RMK RA TO E=
202502161200 METAR WIHH 161200Z 00000KT 6000 -TSRA FEW017CB SCT018 27/24 Q1009 RMK CB TO NE=
202502161130 METAR WIHH 161130Z 24003KT 6000 SCT018 27/24 Q1009 RMK RA TO W AND N=
202502161100 METAR WIHH 161100Z 27006KT 6000 SCT020 27/24 Q1009 RMK RA TO W AND N=
202502161030 METAR WIHH 161030Z 24005KT 6000 SCT020 27/24 Q1008 RMK RA TO W=
202502161000 METAR WIHH 161000Z 26006KT 6000 SCT020 27/23 Q1008 NOSIG=
202502160930 METAR WIHH 160930Z 24004KT 6000 SCT020 27/23 Q1007 NOSIG=
202502160900 METAR WIHH 160900Z 26005KT 6000 SCT018 27/23 Q1007 RMK RA TO NE=
202502160830 METAR WIHH NIL=
202502160800 METAR WIHH 160800Z 28005KT 6000 SCT017 FEW018CB 28/25 Q1008 TEMPO FM0830 3000 -TSRA RMK CB AND RA TO NW=
202502160730 METAR WIHH 160730Z 27003KT 6000 TS SCT016 FEW017CB 27/25 Q1008 TEMP0 FM0800 3000 -TSRA RMK CB AND RA TO SE AND W=
202502160700 METAR WIHH 160700Z 33003KT 6000 -TSRA SCT016 FEW017CB 25/24 Q1008 RMK CB TO SE=
202502160630 METAR WIHH 160630Z 30004KT -TSRA 3000 BKN012 FEW017CB 25/24 Q1009 RMK CB OTF=
202502160600 METAR WIHH 160600Z 22015KT 0500 FEW017CB SCT018 32/24 Q1008 RMK CB TO NW=
202502160530 METAR WIHH 160530Z 36012KT 6000 SCT018 32/24 Q1009 TEMPO FM0615 3000 -RA BKN014 RMK RA TO NW AND S=
202502160500 METAR WIHH 160500Z 30005KT 7000 SCT018 33/24 Q1010 RMK RA TO S=
202502160430 METAR WIHH 160430Z 31008KT 7000 SCT018 32/24 Q1010 RMK RA TO NE=
202502160400 METAR WIHH 160400Z 33003KT 7000 SCT018 31/23 Q1010 RMK RA TO N=
202502160330 METAR WIHH 160330Z 27006KT 7000 SCT018 31/23 Q1011 RMK RA TO W=
202502160300 METAR WIHH 160300Z 25005KT 7000 SCT018 31/23 Q1011 NOSIG=
202502160230 METAR WIHH 160230Z 25008KT 7000 SCT020 31/24 Q1011 NOSIG=
202502160200 METAR WIHH 160200Z 23007KT 7000 SCT020 30/24 Q1011 NOSIG=
202502160130 METAR WIHH 160130Z 24006KT 7000 SCT020 28/24 Q1011 NOSIG=
202502160100 METAR WIHH 160100Z 26005KT 7000 SCT020 28/24 Q1011 NOSIG=
202502160030 METAR WIHH 160030Z 22003KT 7000 SCT020 28/24 Q1011 NOSIG=
202502160000 METAR WIHH 160000Z 00000KT 6000 SCT020 27/24 Q1010 NOSIG=
202502152330 METAR WIHH 152330Z 00000KT 6000 SCT020 26/24 Q1010 NOSIG=
202502152300 METAR WIHH 152300Z 00000KT 6000 SCT020 25/24 Q1009 NOSIG=
202502152230 METAR WIHH 152230Z 00000KT 6000 SCT020 25/24 Q1009 NOSIG=
202502152200 METAR WIHH 152200Z 00000KT 6000 FEW020 25/24 Q1008 NOSIG=
202502152130 METAR WIHH 152130Z 00000KT 6000 FEW020 25/24 Q1008 NOSIG=
202502152100 METAR WIHH 152100Z 00000KT 6000 FEW020 25/24 Q1008 NOSIG=
202502152030 METAR WIHH 152030Z 00000KT 7000 FEW020 26/25 Q1008 NOSIG=
202502152000 METAR WIHH 152000Z 00000KT 7000 FEW020 26/25 Q1008 NOSIG=
202502151930 METAR WIHH 151930Z 22002KT 8000 FEW020 26/24 Q1009 NOSIG=
202502151900 METAR WIHH 151900Z 23005KT 8000 FEW020 26/24 Q1009 NOSIG=
202502151830 METAR WIHH 151830Z 24003KT 8000 FEW018 26/24 Q1009 NOSIG=
202502151800 METAR WIHH 151800Z 25003KT 8000 FEW018 26/24 Q1009 NOSIG=
202502151730 METAR WIHH 151730Z 24003KT 8000 FEW020 27/24 Q1009 NOSIG=
202502151700 METAR WIHH 151700Z 25003KT 8000 FEW020 27/24 Q1009 NOSIG=
202502151630 METAR WIHH 151630Z 27003KT 8000 SCT020 26/24 Q1009 NOSIG=
202502151600 METAR WIHH 151600Z 25003KT 8000 SCT020 26/24 Q1010 NOSIG=
202502151530 METAR WIHH 151530Z 27003KT 8000 SCT020 26/24 Q1010=
202502151500 METAR WIHH 151500Z 27003KT 8000 SCT020 27/24 Q1010 NOSIG=
202502151430 METAR WIHH 151430Z 26003KT 8000 SCT020 27/24 Q1010 NOSIG=
202502151400 METAR WIHH 151400Z 22003KT 8000 SCT020 26/25 Q1009 NOSIG=
202502151330 METAR WIHH 151330Z 00000KT 8000 SCT020 27/25 Q1009 NOSIG=
202502151300 METAR WIHH 151300Z 25003KT 7000 SCT020 27/25 Q1009 NOSIG=
202502151230 METAR WIHH 151230Z 27003KT 7000 SCT020 27/25 Q1009 NOSIG=
202502151200 METAR WIHH 151200Z 34003KT 6000 SCT020 27/25 Q1008 RMK RA TO SE=
202502151130 METAR WIHH 151130Z 21004KT 5000 -RA BKN020 27/25 Q1008 NOSIG=
202502151100 METAR WIHH 151100Z 27005KT 5000 -RA SCT020 29/24 Q1008 NOSIG=
202502151030 METAR WIHH 151030Z 22008KT 7000 SCT020 29/24 Q1007 NOSIG=
202502151000 METAR WIHH 151000Z 32005KT 7000 SCT020 30/24 Q1007 NOSIG=
202502150930 METAR WIHH 150930Z 34005KT 7000 SCT020 30/24 Q1006 NOSIG=
202502150900 METAR WIHH 150900Z 36007KT 7000 SCT020 30/24 Q1006 NOSIG=
202502150830 METAR WIHH 150830Z 33008KT 7000 SCT020 30/24 Q1006 NOSIG=
202502150800 METAR WIHH 150800Z 32008KT 7000 SCT020 31/24 Q1007 NOSIG=
202502150730 METAR WIHH 150730Z 34008KT 7000 SCT020 31/24 Q1007 RMK RA TO SE=
202502150700 METAR WIHH 150700Z 32009KT 7000 SCT020 30/24 Q1007 RMK RA TO SE-S=
202502150630 METAR WIHH 150630Z 36010KT 6000 SCT018 30/24 Q1008 RMK RA TO SE-SW=
202502150600 METAR WIHH 150600Z 33007KT 7000 SCT020 30/24 Q1008 TEMPO FM0610 4000 -RA RMK RA TO E AND NW=
202502150530 METAR WIHH 150530Z 30006KT 7000 SCT020 30/23 Q1009 RMK RA TO NE-E=
202502150500 METAR WIHH 150500Z 29007KT 7000 TS FEW018CB SCT020 29/23 Q1009 TEMPO FM0515 4000 -TSRA BKN018 RMK CB TO SE AND RA TO N AND SE=
202502150430 METAR WIHH 150430Z 32007KT 7000 SCT020 30/24 Q1010 TEMPO FM0450 4000 -RA BKN018 RMK RA TO E AND NW=
202502150400 METAR WIHH 150400Z 27007KT 7000 SCT020 31/24 Q1009 TEMPO FM0430 4000 -RA BKN018 RMK RA TO W-NW=
202502150330 METAR WIHH 150330Z 30006KT 7000 SCT020 31/24 Q1009 RMK RA TO NW=
202502150300 METAR WIHH 150300Z 34008KT 7000 SCT020 30/24 Q1010 RMK RA TO NW=
202502150230 METAR WIHH 150230Z 31007KT 8000 SCT020 30/23 Q1010 NOSIG=
202502150200 METAR WIHH 150200Z 30007KT 8000 SCT020 29/24 Q1010 NOSIG=
202502150130 METAR WIHH 150130Z 23008KT 8000 FEW020 29/24 Q1010 NOSIG=
202502150100 METAR WIHH 150100Z 23005KT 8000 FEW020 28/24 Q1009 NOSIG=
202502150030 METAR WIHH 150030Z 23006KT 8000 FEW020 28/24 Q1009 NOSIG=
202502150000 METAR WIHH 150000Z 22005KT 8000 FEW020 27/24 Q1009 NOSIG=
202502142330 METAR WIHH 142330Z 28004KT 8000 FEW020 26/24 Q1009 NOSIG=
202502142300 METAR WIHH 142300Z 24006KT 7000 FEW018 26/24 Q1008 NOSIG=
202502142230 METAR WIHH 142230Z 23005KT 7000 FEW018 26/24 Q1008 NOSIG=
202502142200 METAR WIHH 142200Z 25006KT 8000 FEW018 26/24 Q1008 NOSIG=
202502142130 METAR WIHH 142130Z 25008KT 8000 FEW018 26/24 Q1008 NOSIG=
202502142100 METAR WIHH 142100Z 26004KT 8000 FEW018 26/24 Q1008 NOSIG=
202502142030 METAR WIHH NIL=
202502142000 METAR WIHH NIL=
202502141930 METAR WIHH NIL=
202502141900 METAR WIHH NIL=
202502141830 METAR WIHH NIL=
202502141800 METAR WIHH NIL=
202502141730 METAR WIHH 141730Z 25004KT 8000 FEW018 27/24 Q1009 NOSIG=
202502141700 METAR WIHH 141700Z 10004KT 6000 SCT018 27/23 Q1011 NOSIG=
202502141630 METAR WIHH 141630Z 27004KT 8000 FEW018 27/24 Q1010 NOSIG=
202502141600 METAR WIHH 141600Z 28004KT 8000 FEW018 27/24 Q1010 NOSIG=
202502141530 METAR WIHH 141530Z 00000KT 8000 SCT018 27/24 Q1010 NOSIG=
202502141500 METAR WIHH 141500Z 27004KT 8000 SCT018 27/24 Q1009 NOSIG=
202502141430 METAR WIHH 141430Z 23006KT 8000 SCT018 27/24 Q1009 NOSIG=
202502141400 METAR WIHH 141400Z 27024KT 8000 SCT018 27/24 Q1009 NOSIG=
202502141330 METAR WIHH 141330Z 25007KT 8000 SCT018 28/24 Q1009 NOSIG=
202502141300 METAR WIHH 141300Z 25007KT 8000 SCT018 28/24 Q1008 RMK RA TO SE=
202502141230 METAR WIHH 141230Z 24010KT 8000 SCT018 28/23 Q1008 RMK RA TO SE=
202502141200 METAR WIHH 141200Z 24006KT 8000 SCT018 28/23 Q1008 RMK RA TO SE=
202502141130 METAR WIHH 141130Z 27008KT 7000 FEW017CB SCT018 28/23 Q1008 RMK CB AND RA TO SE=
202502141100 METAR WIHH 141100Z 27008KT 8000 SCT018 29/23 Q1007 NOSIG=
202502141030 METAR WIHH 141030Z 25009KT 8000 SCT018 29/23 Q1006 NOSIG=
202502141000 METAR WIHH 141000Z 25007KT 8000 SCT018 29/23 Q1006 NOSIG=
202502140930 METAR WIHH 140930Z 23015KT 7000 30/24 Q1006 NOSIG=
202502140900 METAR WIHH 140900Z 23024KT 7000 SCT018 30/24 Q1005 NOSIG=
202502140830 METAR WIHH 140830Z 27010KT 7000 SCT018 30/23 Q1006 RMK RA TO SE=
202502140800 METAR WIHH 140800Z 28013KT 7000 FEW017CB SCT018 30/25 Q1006 RMK CB AND RA TO SE=
202502140730 METAR WIHH 140730Z 24010KT 7000 FEW017CB SCT018 31/23 Q1006 RMK CB AND RA TO E=
202502140700 METAR WIHH 140700Z 24013KT 7000 FEW017CB SCT018 32/24 Q1006 RMK CB AND RA TO E=
202502140630 METAR WIHH 140630Z 25010KT 7000 SCT018 32/23 Q1007 RMK RA TO N=
202502140600 METAR WIHH 140600Z 25008KT 8000 SCT020 33/23 Q1007 NOSIG=
202502140530 METAR WIHH 140530Z 31006KT 7000 SCT020 33/24 Q1008 NOSIG=
202502140500 METAR WIHH 140500Z 28005KT 7000 SCT020 32/24 Q1008 NOSIG=
202502140430 METAR WIHH 140430Z 24005KT 6000 SCT020 33/23 Q1009 NOSIG=
202502140400 METAR WIHH 140400Z 24005KT 6000 SCT020 31/23 Q1009 NOSIG=
202502140330 METAR WIHH 140330Z 25006KT 4000 HZ SCT020 31/24 Q1010 NOSIG=
202502140300 METAR WIHH 140300Z 12005KT 4000 HZ SCT020 32/24 Q1010 NOSIG=
202502140230 METAR WIHH 140230Z 24005KT 4000 HZ SCT020 31/24 Q1010 NOSIG=
202502140200 METAR WIHH 140200Z 22003KT 4000 HZ FEW020 30/24 Q1010 NOSIG=
202502140130 METAR WIHH 140130Z 13003KT 4000 HZ 29/24 Q1010 NOSIG=
202502140100 METAR WIHH 140100Z 16004KT 4000 HZ FEW020 28/24 Q1010 NOSIG=
202502140030 METAR WIHH 140030Z 20006KT 4000 HZ FEW018 27/24 Q1010 NOSIG=
202502140000 METAR WIHH 140000Z 00000KT 4000 HZ FEW018 26/24 Q1010 NOSIG=
202502132330 METAR WIHH 132330Z 00000KT 4000 HZ FEW018 25/24 Q1010 NOSIG=
202502132300 METAR WIHH 132300Z 00000KT 5000 HZ FEW018 25/24 Q1009 NOSIG=
202502132230 METAR WIHH 132230Z 29003KT 5000 HZ FEW018 25/24 Q1009 NOSIG=
202502132200 METAR WIHH 132200Z 25003KT 5000 HZ FEW018 25/24 Q1008=
202502132130 METAR WIHH 132130Z 17005KT 5000 HZ FEW018 25/24 Q1009 NOSIG=
202502132100 METAR WIHH 132100Z 0000KT 5000 HZ FEW018 25/24 Q1009 NOSIG=
202502132030 METAR WIHH 132030Z 00000KT 6000 SCT018 25/25 Q1009 NOSIG=
202502132000 METAR WIHH 132000Z 00000KT 6000 SCT018 25/24 Q1009 NOSIG=
202502131930 METAR WIHH 131930Z 00000KT 6000 SCT018 26/24 Q1009 NOSIG=
202502131900 METAR WIHH 131900Z 00000KT 6000 SCT018 26/24 Q1009 NOSIG=
202502131830 METAR WIHH 131830Z 00000KT 6000 FEW020 26/23 Q1010 NOSIG=
202502131800 METAR WIHH 131800Z 00000KT 6000 SCT020 26/23 Q1010 NOSIG=
202502131730 METAR WIHH 131730Z 11003KT 6000 SCT018 27/23 Q1011 NOSIG=
202502131700 METAR WIHH 131700Z 10004KT 6000 SCT018 27/23 Q1011 NOSIG=
202502131630 METAR WIHH 131630Z 10004KT 6000 SCT000 27/23 Q1011 NOSIG=
202502131600 METAR WIHH 131600Z 11005KT 6000 SCT018 27/23 Q1011 NOSIG=
202502131530 METAR WIHH 131530Z 10005KT 6000 SCT018 27/23 Q1011 NOSIG=
202502131500 METAR WIHH 131500Z 14006KT 6000 SCT018 28/23 Q1010 NOSIG=
202502131430 METAR WIHH 131430Z 03005KT 6000 SCT018 28/23 Q1010 NOSIG=
202502131400 METAR WIHH 131400Z 08006KT 6000 SCT018 28/24 Q1010 NOSIG=
202502131330 METAR WIHH 131330Z 10004KT 6000 SCT018 28/25 Q1010 NOSIG=
202502131300 METAR WIHH 131300Z 20003KT 6000 28/23 Q1009 NOSIG=
202502131230 METAR WIHH 131230Z 17006KT 6000 -RA SCT018 27/25 Q1009 NOSIG=
202502131200 METAR WIHH 131200Z 12006KT 6000 -TSRA FEW017CB SCT018 29/22 Q1008 RMK CB TO S AND E=
202502131130 METAR WIHH 131130Z 20018KT 6000 TS FEW017CB SCT018 30/22 Q1008 RMK CB AND RA TO S-E=
202502131100 METAR WIHH 131100Z 21010KT 7000 TS FEW017CB SCT018 31/22 Q1007 RMK CB AND RA TO E=
202502131030 METAR WIHH 131030Z 20008KT 7000 SCT020 31/22 Q1007 RMK RA TO E=
202502131000 METAR WIHH 131000Z 20007KT 6000 SCT020 31/22 Q1006 RMK RA TO NE=
202502130930 METAR WIHH 130930Z 21007KT 7000 SCT020 33/22 Q1006 RMK RA TO NE=
202502130900 METAR WIHH 130900Z 20007KT 7000 SCT020 34/22 Q1006 RMK RA TO N=
202502130830 METAR WIHH 130830Z 20007KT 7000 SCT020 34/23 Q1006 RMK RA TO N=
202502130800 METAR WIHH 130800Z 22007KT 7000 SCT020 34/23 Q1006 NOSIG=
202502130730 METAR WIHH 130730Z 21008KT 7000 SCT020 34/22 Q1007 NOSIG=
202502130700 METAR WIHH 130700Z 27005KT 7000 SCT020 34/22 Q1007 NOSIG=
202502130630 METAR WIHH 130630Z 20006KT 7000 SCT020 34/23 Q1008 NOSIG=
202502130600 METAR WIHH 130600Z 19006KT 7000 SCT020 32/22 Q1009 NOSIG=
202502130530 METAR WIHH 130530Z 14006KT 7000 SCT020 32/22 Q1009 NOSIG=
202502130500 METAR WIHH 130500Z 23008KT 7000 SCT020 32/22 Q1010 NOSIG=
202502130430 METAR WIHH 130430Z 17006KT 7000 SCT020 32/22 Q1010 NOSIG=
202502130400 METAR WIHH 130400Z 26006KT 7000 SCT020 32/22 Q1011 NOSIG=
202502130330 METAR WIHH 130330Z 21011KT 7000 FEW020 32/23 Q1011 NOSIG=
202502130300 METAR WIHH 130300Z 22008KT 7000 SCT020 32/23 Q1011 NOSIG=
202502130230 METAR WIHH 130230Z 28006KT 7000 FEW020 31/22 Q1011 NOSIG=
202502130200 METAR WIHH 130200Z 23009KT 7000 FEW020 31/23 Q1011 NOSIG=
202502130130 METAR WIHH 130130Z 23005KT 7000 FEW020 30/23 Q1011 NOSIG=
202502130100 METAR WIHH 130100Z 24007KT 7000 FEW020 29/23 Q1011 NOSIG=
202502130030 METAR WIHH 130030Z 21007KT 7000 FEW020 28/24 Q1011 NOSIG=
202502130000 METAR WIHH 130000Z 23005KT 6000 FEW020 27/24 Q1011 NOSIG=
202502122330 METAR WIHH 122330Z 21003KT 4000 BR SCT020 26/25 Q1010 NOSIG=
202502122300 METAR WIHH 122300Z 00000KT 3000 -BR SCT020 25/25 Q1010 NOSIG=
202502122230 METAR WIHH 122230Z 00000KT 3000 -BR SCT018 25/25 Q1010 NOSIG=
202502122200 METAR WIHH 122200Z 00000KT 3000 -BR SCT018 25/25 Q1010 NOSIG=
202502122130 METAR WIHH 122130Z 00000KT 3000 BR SCT016 25/25 Q1010 NOSIG=
202502122100 METAR WIHH 122100Z 00000KT 3000 BR SCT016 25/25 Q1010 NOSIG=
202502122030 METAR WIHH 122030Z 00000KT 3000 BR SCT017 25/25 Q1010 NOSIG=
202502122000 METAR WIHH 122000Z 00000KT 3000 HZ SCT018 26/25 Q1010 NOSIG=
202502121930 METAR WIHH 121930Z 00000KT 3000 HZ SCT018 26/25 Q1009=
202502121900 METAR WIHH 121900Z 23003KT 3000 HZ SCT018 26/25 Q1010=
202502121830 METAR WIHH 121830Z 00000KT 3000 HZ 26/25 Q1010 NOSIG=
202502121800 METAR WIHH 121800Z 17003KT 3000 SCT018 27/25 Q1011 NOSIG=
202502121730 METAR WIHH NIL=
202502121700 METAR WIHH 121700Z 11005KT 4000 HZ SCT018 27/25 Q1011 NOSIG=
202502121630 METAR WIHH 121630Z 06005KT 4000 HZ SCT020 27/25 Q1011 NOSIG=
202502121600 METAR WIHH 121600Z 17005KT 5000 HZ SCT020 27/26 Q1011 NOSIG=
202502121530 METAR WIHH 121530Z 12006KT 5000 HZ SCT020 27/26 Q1011 NOSIG=
202502121500 METAR WIHH 121500Z 15004KT 6000 SCT020 27/25 Q1012 NOSIG=
202502121430 METAR WIHH 121430Z 12006KT 6000 SCT020 27/25 Q1011 NOSIG=
202502121400 METAR WIHH 121400Z 14005KT 6000 SCT020 28/25 Q1011 NOSIG=
202502121330 METAR WIHH 121330Z 09006KT 7000 SCT020 28/25 Q1011 NOSIG=
202502121300 METAR WIHH 121300Z 10005KT 7000 SCT020 28/25 Q1010 NOSIG=
202502121230 METAR WIHH 121230Z 06007KT 7000 SCT020 29/25 Q1010 NOSIG=
202502121200 METAR WIHH 121200Z 07012KT 7000 SCT020 29/25 Q1010 NOSIG=
202502121130 METAR WIHH 121130Z 04009KT 7000 SCT020 29/25 Q1009 RMK RA TO SE=
202502121100 METAR WIHH 121100Z 01008KT 7000 SCT020 29/25 Q1009 RMK RA TO SE=
202502121030 METAR WIHH 121030Z 36010KT 7000 SCT020 29/25 Q1008 NOSIG=
202502121000 METAR WIHH 121000Z 01012KT 7000 SCT020 29/25 Q1008 NOSIG=
202502120930 METAR WIHH 120930Z 01010KT 7000 SCT020 30/25 Q1008 NOSIG=
202502120900 METAR WIHH 120900Z 02007KT 7000 SCT020 30/25 Q1008 RMK RA TO NE=
202502120830 METAR WIHH 120830Z 35008KT 7000 SCT020 30/25 Q1008 NOSIG=
202502120800 METAR WIHH 120800Z 36011KT 7000 SCT020 31/25 Q1008 NOSIG=
202502120730 METAR WIHH 120730Z 35013KT 7000 SCT020 32/25 Q1008 NOSIG=
202502120700 METAR WIHH 120700Z 02011KT 7000 SCT020 33/24 Q1009 NOSIG=
202502120630 METAR WIHH 120630Z 36009KT 7000 SCT020 33/23 Q1009 NOSIG=
202502120600 METAR WIHH 120600Z 22004KT 8000 SCT020 34/21 Q1009 NOSIG=
202502120530 METAR WIHH 120530Z 22004KT 8000 SCT020 34/21 Q1010 NOSIG=
202502120500 METAR WIHH 120500Z 17003KT 8000 SCT020 34/21 Q1011 NOSIG=
202502120430 METAR WIHH 120430Z 29005KT 8000 SCT020 34/22 Q1011 NOSIG=
202502120400 METAR WIHH 120400Z 20006KT 8000 FEW020 33/21 Q1011 NOSIG=
202502120330 METAR WIHH 120330Z 22006KT 7000 FEW020 32/20 Q1011 NOSIG=
202502120300 METAR WIHH 120300Z 17005KT 7000 FEW020 32/21 Q1012 NOSIG=
202502120230 METAR WIHH 120230Z 23006KT 7000 FEW020 31/21 Q1012 NOSIG=
202502120200 METAR WIHH 120200Z 23006KT 7000 FEW020 30/22 Q1012 NOSIG=
202502120130 METAR WIHH 120130Z 25004KT 5000 HZ FEW020 29/24 Q1012 NOSIG=
202502120100 METAR WIHH 120100Z 24006KT 4000 HZ FEW020 27/24 Q1012 NOSIG=
202502120030 METAR WIHH 120030Z 29003KT 3000 BR FEW020 25/24 Q1011 NOSIG=
202502120000 METAR WIHH 120000Z 17003KT 2000 BR FEW020 25/24 Q1011 NOSIG=
202502112330 METAR WIHH 112330Z 00000KT 3000 BR FEW017 25/24 Q1011 NOSIG=
202502112300 METAR WIHH 112300Z 00000KT 2000 BR FEW017 25/24 Q1011 NOSIG=
202502112230 METAR WIHH 112230Z 20003KT 3000 BR SCT017 25/24 Q1010 NOSIG=
202502112200 METAR WIHH 112200Z 00000KT 3000 BR SCT017 25/24 Q1010 NOSIG=
202502112130 METAR WIHH 112130Z 00000KT 3000 BR SCT017 25/25 Q1010 NOSIG=
202502112100 METAR WIHH 112100Z 24003KT 4000 BR SCT017 25/24 Q1010 NOSIG=
202502112030 METAR WIHH 112030Z 00000KT 4000 BR SCT017 25/25 Q1010=
202502112000 METAR WIHH 112000Z 00000KT 5000 HZ SCT017 26/25 Q1010=
202502111930 METAR WIHH 111930Z 21003KT 5000 HZ SCT017 26/25 Q1010 NOSIG=
202502111900 METAR WIHH 111900Z 28003KT 5000 HZ SCT017 26/25 Q1010 NOSIG=
202502111830 METAR WIHH 111830Z 21003KT 4000 HZ SCT017 26/25 Q1011 NOSIG=
202502111800 METAR WIHH 111800Z 25003KT 5000 HZ SCT017 26/25 Q1011 NOSIG=
202502111730 METAR WIHH 111730Z 00000KT 5000 HZ SCT017 26/24 Q1010 NOSIG=
202502111700 METAR WIHH 111700Z 00000KT 3000 BR SCT017 26/25 Q1012 NOSIG=
202502111630 METAR WIHH 111630Z 00000KT 3000 BR SCT017 26/25 Q1012 NOSIG=
202502111600 METAR WIHH 111600Z 00000KT 4000 HZ SCT017 27/25 Q1012 NOSIG=
202502111530 METAR WIHH 111530Z 16003KT 5000 HZ SCT017 27/25 Q1012 NOSIG=
202502111500 METAR WIHH 111500Z 12003KT 5000 HZ SCT017 27/25 Q1012 NOSIG=
202502111430 METAR WIHH 111430Z 30003KT 5000 HZ SCT017 28/25 Q1012 RMK RA TO S=
202502111400 METAR WIHH 111400Z 24003KT 5000 HZ SCT017 28/25 Q1012 RMK RA TO NW AND S=
202502111330 METAR WIHH 111330Z 32004KT 5000 -RA SCT017 28/25 Q1011 NOSIG=
202502111300 METAR WIHH 111300Z 32004KT 5000 -RA SCT017 28/25 Q1011 NOSIG=
202502111230 METAR WIHH 111230Z 03002KT 5000 -RA FEW016CB BKN017 28/25 Q1011 RMK CB TO NW=
202502111200 METAR WIHH 111200Z 36005KT 5000 -TSRA FEW016CB BKN017 28/25 Q1010 RMK CB TO W=
202502111130 METAR WIHH 111130Z 01008KT 5000 -TSRA FEW016CB BKN017 28/24 Q1010 TEMPO TL1140 4000 -TSRA FEW016CB BKN017 RMK CB TO S=
202502111100 METAR WIHH 111100Z 33007KT 5000 TS FEW016CB SCT017 29/24 Q1009 TEMPO FM1120 4000 -TSRA FEW016CB BKN017 RMK CB AND RA TO S=
202502111030 METAR WIHH 111030Z 35009KT 6000 SCT018 30/24 Q1009 NOSIG=
202502111000 METAR WIHH 111000Z 29004KT 5000 HZ SCT017 29/24 Q1012 RMK RA TO N=
202502110930 METAR WIHH 110930Z 36009KT 7000 SCT017 30/24 Q1008 NOSIG=
202502110900 METAR WIHH 110900Z 36008KT 7000 SCT018 30/24 Q1008 NOSIG=
202502110830 METAR WIHH 110830Z 01008KT 7000 SCT017 30/24 Q1008 RMK RA TO S=
202502110800 METAR WIHH 110800Z 35006KT 7000 SCT017 31/24 Q1008 NOSIG=
202502110730 METAR WIHH 110730Z 35007KT 6000 SCT017 31/24 Q1008 NOSIG=
202502110700 METAR WIHH 110700Z 02009KT 6000 SCT017 31/24 Q1009 NOSIG=
202502110630 METAR WIHH 110630Z 31007KT 6000 SCT017 31/24 Q1009 NOSIG=
202502110600 METAR WIHH 110600Z 28005KT 6000 SCT017 30/25 Q1010 NOSIG=
202502110530 METAR WIHH 110530Z 35008KT 6000 SCT018 31/25 Q1010 NOSIG=
202502110500 METAR WIHH 110500Z 30006KT 6000 SCT018 31/24 Q1011 NOSIG=
202502110430 METAR WIHH 110430Z 32010KT 6000 SCT018 30/24 Q1011 NOSIG=
202502110400 METAR WIHH 110400Z 31006KT 6000 SCT017 30/24 Q1012 NOSIG=
202502110330 METAR WIHH 110330Z 27003KT 6000 SCT017 29/25 Q1012 RMK RA TO NE=
202502110300 METAR WIHH 110300Z 29004KT 5000 HZ SCT017 29/24 Q1012 RMK RA TO N=
202502110230 METAR WIHH 110230Z 36005KT 5000 HZ SCT017 29/25 Q1012 RMK RA TO NW=
202502110200 METAR WIHH 110200Z 30005KT 5000 HZ SCT017 28/25 Q1012 RMK RA TO NW=
202502110130 METAR WIHH 110130Z 25006KT 5000 HZ SCT017 28/24 Q1012 RMK RA TO NE=
202502110100 METAR WIHH 110100Z 27003KT 4000 HZ SCT017 27/25 Q1012 NOSIG=
202502110030 METAR WIHH 110030Z 00000KT 4000 HZ SCT018 26/25 Q1011 NOSIG=
202502110000 METAR WIHH 110000Z 00000KT 4000 HZ SCT017 25/24 Q1011 NOSIG=
202502102330 METAR WIHH 102330Z 00000KT 3000 BR SCT015 25/24 Q1010 NOSIG=
202502102300 METAR WIHH 102300Z 00000KT 3000 BR SCT015 25/24 Q1010 NOSIG=
202502102230 METAR WIHH 102230Z 00000KT 4000 HZ SCT018 25/24 Q1010 NOSIG=
202502102200 METAR WIHH 102200Z 00000KT 4000 HZ SCT018 25/24 Q1010 RMK RA TO NW=
202502102130 METAR WIHH 102130Z 00000KT 4000 HZ SCT018 25/24 Q1010 RMK RA TO NW=
202502102100 METAR WIHH 102100Z 00000KT 5000 HZ SCT018 25/24 Q1010 RMK RA TO NW=
202502102030 METAR WIHH 102030Z 18003KT 5000 HZ SCT018 25/24 Q1010 RMK RA TO NW=
202502102000 METAR WIHH 102000Z 18003KT 5000 HZ SCT018 25/24 Q1010 RMK RA TO N=
202502101930 METAR WIHH 101930Z 17003KT 5000 HZ FEW016CB SCT018 25/24 Q1010 RMK CB AND RA TO N=
202502101900 METAR WIHH 101900Z 19003KT 5000 HZ FEW016CB SCT018 25/24 Q1009 RMK CB AND RA TO N=
202502101830 METAR WIHH 101830Z 17003KT 5000 HZ FEW016CB SCT018 25/24 Q1010 RMK CB AND RA TO N=
202502101800 METAR WIHH 101800Z 18003KT 5000 HZ FEW016CB SCT018 25/24 Q1010 RMK CB AND RA TO N=
202502101730 METAR WIHH 101730Z 16003KT 5000 HZ SCT015 FEW016CB 25/24 Q1010 RMK CB AND RA TO NE=
202502101700 METAR WIHH 101700Z 18004KT 5000 HZ SCT015 FEW015CB 25/24 Q1011 RMK CB AND RA TO N=
202502101630 METAR WIHH 101630Z 00000KT 4000 -RA SCT016 FEW017CB 27/25 Q1011 RMK CB TO NE=
202502101600 METAR WIHH 101600Z 00000KT 4000 -TSRA SCT016 FEW017CB 28/25 Q1011 RMK CB TO E=
202502101530 METAR WIHH 101530Z 15003KT 6000 TS SCT016 FEW017CB 28/25 Q1011 RMK CB AND RA TO E AND SW=
202502101500 METAR WIHH 101500Z 06003KT 6000 TS SCT016 FEW017CB 28/25 Q1011 RMK CB AND RA TO SE=
202502101430 METAR WIHH 101430Z 00000KT 6000 TS SCT016 FEW017CB 28/25 Q1011 RMK CB AND RA TO S=
202502101400 METAR WIHH 101400Z 34003KT 6000 TS SCT016 FEW017CB 28/24 Q1010 RMK CB AND RA TO S=
202502101330 METAR WIHH 101330Z 34003KT 6000 FEW017CB SCT018 28/24 Q1009 RMK CB AND RA TO S=
202502101300 METAR WIHH 101300Z 33004KT 6000 28/24 Q1009 RMK RA TO S=
202502101230 METAR WIHH 101230Z 34003KT 6000 28/24 Q1008 RMK RA TO S=
202502101200 METAR WIHH 101200Z 03004KT 6000 SCT018 28/24 Q1008 NOSIG=
202502101130 METAR WIHH 101130Z 35004KT 6000 SCT018 28/24 Q1008 NOSIG=
202502101100 METAR WIHH 101100Z 34003KT 6000 SCT018 29/24 Q1007 RMK RA TO S=
202502101030 METAR WIHH 101030Z 01003KT 6000 SCT018 29/24 Q1007 RMK RA TO S=
202502101000 METAR WIHH 101000Z 02004KT 7000 SCT018 30/24 Q1007 NOSIG=
202502100930 METAR WIHH 100930Z 36005KT 7000 SCT018 30/24 Q1006 NOSIG=
202502100900 METAR WIHH 100900Z 35004KT 6000 SCT018 30/24 Q1007 NOSIG=
202502100830 METAR WIHH 100830Z 35004KT 6000 SCT018 30/24 Q1007 NOSIG=
202502100800 METAR WIHH 100800Z 32006KT 6000 SCT018 30/24 Q1007 NOSIG=
202502100730 METAR WIHH 100730Z 35005KT 6000 SCT018 29/24 Q1007 NOSIG=
202502100700 METAR WIHH 100700Z 36006KT 6000 SCT018 29/24 Q1008 NOSIG=
202502100630 METAR WIHH 100630Z 36005KT 6000 SCT018 29/24 Q1008 RMK RA TO E=
202502100600 METAR WIHH 100600Z 33004KT 6000 28/25 Q1009 RMK RA TO E=
202502100530 METAR WIHH 100530Z 28003KT 6000 SCT016 26/25 Q1009 RMK RA TO NE=
202502100500 METAR WIHH 100500Z 26003KT 5000 -RA SCT014 25/24 Q1010 NOSIG=
202502100430 METAR WIHH 100430Z 27003KT 4000 -RA BK012 25/24 Q1011 NOSIG=
202502100400 METAR WIHH 100400Z 229003KT 2000 -RA BK012 25/24 Q1011 TEMPO TL0430 4000 -RA BKN014=
202502100330 METAR WIHH 100330Z 27007KT 1000 RA BK012 25/24 Q1011 TEMPO TL0340 4000 -RA BKN014=
202502100300 METAR WIHH 100300Z 00000KT 5000 -RA SCT016 27/25 Q1011 TEMPO FM0310 2000 RA BKN012=
202502100230 METAR WIHH 100230Z 32003KT 5000 -RA SCT016 27/24 Q1012 NOSIG=
202502100200 METAR WIHH 100200Z 00000KT 5000 -RA SCT016 27/25 Q1011 NOSIG=
202502100130 METAR WIHH 100130Z 25003KT 5000 HZ SCT017 27/25 Q1011 TEMPO FM0220 4000 -RA RMK RA TO W=
202502100100 METAR WIHH 100100Z 23005KT 5000 HZ SCT017 26/25 Q1011 TEMPO FM0110 4000 -RA RMK RA TO NE AND W-NW=
202502100030 METAR WIHH 100030Z 23003KT 4000 HZ SCT018 26/25 Q1011 RMK RA TO NW-NE=
202502100000 METAR WIHH 100000Z 27006KT 4000 HZ SCT018 26/25 Q1010 RMK RA TO NW-NE=
202502092330 METAR WIHH 092330Z 26006KT 4000 HZ SCT018 25/24 Q1010 RMK RA TO N-NE=
202502092300 METAR WIHH 092300Z 26008KT 4000 -RA BKN017 25/24 Q1010=
202502092230 METAR WIHH 092230Z 26003KT 6000 SCT018 25/24 Q1009 RMK RA TO W-NW=
202502092200 METAR WIHH 092200Z 27003KT 6000 SCT018 25/24 Q1009 NOSIG RMK RA TO NW=
202502092130 METAR WIHH 092130Z 33003KT 7000 SCT018 25/24 Q1009 RMK RA TO NW=
202502092100 METAR WIHH 092100Z 29003KT 6000 SCT018 FEW019CB 25/24 Q1009 RMK CB AND RA TO NW-N=
202502092030 METAR WIHH NIL=
202502092000 METAR WIHH 092000Z 33003KT 6000 -RA FEW018CB SCT020 25/24 Q1009 RMK CB TO N=
202502091930 METAR WIHH 091930Z 31005KT 3000 RA FEW018CB BKN019 25/24 Q1009 RMK CB TO N=
202502091900 METAR WIHH 091900Z 33003KT 5000 HZ FEW018CB SCT019 26/24 Q1009 TEMPO FM1910 2000 -TSRA RMK CB AND RA TO NW-NE=
202502091830 METAR WIHH 091830Z 24003KT 6000 FEW019CB SCT020 26/24 Q1009 RMK CB AND RA TO NW-N=
202502091800 METAR WIHH 091800Z 34003KT 6000 FEW018CB SCT020 26/25 Q1009 RMK CB TO N AND RA TO SW AND E=
202502091730 METAR WIHH 091730Z 00000KT 6000 FEW018CB SCT020 26/24 Q1010 RMK CB TO N AND RA TO SW AND E=
202502091700 METAR WIHH 091700Z 00000KT 7000 SCT020 27/24 Q1010 RMK RA TO SW=
202502091630 METAR WIHH 091630Z 00000KT 7000 SCT020 27/25 Q1011 NOSIG=
202502091600 METAR WIHH 091600Z 00000KT 7000 SCT020 27/25 Q1011 NOSIG=
202502091530 METAR WIHH 091530Z 00000KT 7000 SCT020 27/25 Q1011 NOSIG=
202502091500 METAR WIHH 091500Z 33003KT 7000 SCT020 27/24 Q1010 NOSIG=
202502091430 METAR WIHH 091430Z 35003KT 8000 SCT020 27/24 Q1010 NOSIG=
202502091400 METAR WIHH 091400Z 33003KT 8000 SCT020 27/24 Q1010 NOSIG=
202502091330 METAR WIHH 091330Z 34004KT 8000 SCT020 27/24 Q1010 NOSIG=
202502091300 METAR WIHH 091300Z 36004KT 8000 FEW020 28/24 Q1009 NOSIG=
202502091230 METAR WIHH 091230Z 30004KT 8000 FEW020 28/24 Q1008 NOSIG=
202502091200 METAR WIHH 091200Z 34005KT 7000 FEW020 28/24 Q1008 NOSIG=
202502091130 METAR WIHH 091130Z 33005KT 7000 FEW020 28/23 Q1007 NOSIG=
202502091100 METAR WIHH 091100Z 35004KT 7000 FEW020 29/23 Q1007 NOSIG=
202502091030 METAR WIHH 091030Z 34005KT 7000 FEW020 29/23 Q1006 NOSIG=
202502091000 METAR WIHH 091000Z 33007KT 7000 FEW020 30/23 Q1006 NOSIG=
202502090930 METAR WIHH 090930Z 33010KT 7000 FEW020 30/23 Q1006 NOSIG=
202502090900 METAR WIHH 090900Z 34006KT 7000 FEW020 30/23 Q1006 NOSIG=
202502090830 METAR WIHH 090830Z 30010KT 7000 FEW020 30/23 Q1006 NOSIG=
202502090800 METAR WIHH 090800Z 33010KT 7000 SCT020 30/23 Q1006 NOSIG=
202502090730 METAR WIHH 090730Z 35012KT 7000 SCT020 30/23 Q1007 NOSIG=
202502090700 METAR WIHH 090700Z 33008KT 6000 SCT018 30/23 Q1007 NOSIG=
202502090630 METAR WIHH 090630Z 27006KT 6000 SCT018 30/23 Q1008 RMK RA TO SE=
202502090600 METAR WIHH 090600Z 34008KT 7000 SCT018 30/23 Q1008 RMK RA TO SE=
202502090530 METAR WIHH 090530Z 31007KT 7000 SCT018 30/24 Q1009 RMK RA TO SE=
202502090500 METAR WIHH 090500Z 33009KT 7000 SCT018 30/24 Q1009 NOSIG=
202502090430 METAR WIHH 090430Z 27006KT 6000 SCT017 29/23 Q1010 NOSIG=
202502090400 METAR WIHH 090400Z 31006KT 6000 SCT017 27/24 Q1010 RMK RA TO E-SE=
202502090330 METAR WIHH 090330Z 30004KT 6000 SCT017 27/24 Q1010 RMK RA TO E-SE AND NW=
202502090300 METAR WIHH 090300Z 33003KT 5000 HZ SCT016 27/25 Q1011 RMK RA TO N-NE AND SW=
202502090230 METAR WIHH 090230Z 26004KT 4000 -RA SCT016 27/25 Q1011=
202502090200 METAR WIHH 090200Z 23004KT 5000 HZ SCT016 27/24 Q1011 RMK RA TO E AND NW-N=
202502090130 METAR WIHH 090130Z 24004KT 2000 -RA BKN015 25/24 Q1011=
202502090100 METAR WIHH 090100Z 27004KT 5000 -RA SCT017 26/24 Q1010=
202502090030 METAR WIHH 090030Z 29003KT 5000 HZ SCT017 26/23 Q1010 TEMPO FM0040 5000 -RA RMK RA TO S AND W=
202502090000 METAR WIHH 090000Z 32004KT 5000 HZ SCT017 26/23 Q1010 NOSIG=
202502082330 METAR WIHH 082330Z 27005KT 5000 HZ SCT017 26/23 Q1009 NOSIG=
202502082300 METAR WIHH 082300Z 31005KT 5000 HZ SCT017 25/23 Q1009 NOSIG=
202502082230 METAR WIHH 082230Z 25003KT 6000 SCT017 25/23 Q1009 NOSIG=
202502082200 METAR WIHH 082200Z 24003KT 6000 SCT017 25/23 Q1009 NOSIG=
202502082130 METAR WIHH 082130Z 28006KT 6000 SCT017 25/23 Q1009 NOSIG=
202502082100 METAR WIHH 082100Z 24003KT 6000 SCT017 25/23 Q1008 NOSIG=
202502082030 METAR WIHH 082030Z 23003KT 6000 SCT018 26/24 Q1009=
202502082000 METAR WIHH 082000Z 23004KT 6000 SCT018 26/25 Q1009=
202502081930 METAR WIHH 081930Z 00000KT 6000 FEW017CB SCT018 26/25 Q1009 RMK CB TO E=
202502081900 METAR WIHH 081900Z 23003KT 6000 FEW017CB SCT018 26/25 Q1009 RMK CB TO E=
202502081830 METAR WIHH 081830Z 00000KT 6000 FEW017CB SCT018 26/25 Q1009 RMK CB TO E=
202502081800 METAR WIHH 081800Z 21003KT 6000 FEW016CB SCT017 26/25 Q1010 RMK CB TO NE=
202502081730 METAR WIHH NIL=
202502081700 METAR WIHH 081700Z 20003KT 6000 FEW016CB SCT017 26/25 Q1010 RMK CB TO NE=
202502081630 METAR WIHH 081630Z 19003KT 6000 -RA FEW016CB SCT017 26/25 Q1010 RMK CB TO SW=
202502081600 METAR WIHH 081600Z 18003KT 6000 -RA FEW016CB SCT017 26/25 Q1010 RMK CB TO SW=
202502081530 METAR WIHH 081530Z 00000KT 6000 -RA FEW016CB SCT017 26/25 Q1010 RMK CB TO SW=
202502081500 METAR WIHH 081500Z 00000KT 6000 FEW016CB SCT017 27/25 Q1010 TEMPO FM1530 2000 RA RMK CB AND RA TO NW=
202502081430 METAR WIHH 081430Z 00000KT 6000 FEW016 SCT017 27/25 Q1009 TEMPO FM1445 2000 RA RMK CB AND RA TO W=
202502081400 METAR WIHH 081400Z 00000KT 6000 FEW016CB SCT017 26/24 Q1009 TEMPO FM1430 2000 TSRA RMK CB AND RA TO W=
202502081330 METAR WIHH 081330Z 30003KT 6000 SCT017 27/24 Q1009 NOSIG=
202502081300 METAR WIHH 081300Z 31003KT 6000 SCT017 28/24 Q1008 NOSIG=
202502081230 METAR WIHH 081230Z 03003KT 6000 SCT017 27/24 Q1008 NOSIG=
202502081200 METAR WIHH 081200Z 35004KT 6000 FEW017 28/24 Q1007 NOSIG=
202502081130 METAR WIHH 081130Z 36005KT 6000 SCT017 28/24 Q1007 NOSIG=
202502081100 METAR WIHH 081100Z 32005KT 6000 SCT017 29/24 Q1007 NOSIG=
202502081030 METAR WIHH 081030Z 02003KT 6000 SCT017 29/24 Q1006 NOSIG=
202502081000 METAR WIHH 081000Z 36004KT 6000 SCT015 30/24 Q1006 RMK RA TO S=
202502080930 METAR WIHH 080930Z 02008KT 6000 SCT015 30/24 Q1006 RMK RA TO S=
202502080900 METAR WIHH 080900Z 35003KT 6000 SCT015 30/24 Q1006 NOSIG=
202502080830 METAR WIHH 080830Z 30005KT 6000 SCT015 29/24 Q1006 RMK RA TO W=
202502080800 METAR WIHH 080800Z 33006KT 6000 SCT015 29/24 Q1007 RMK RA TO SW=
202502080730 METAR WIHH 080730Z 31004KT 5000 HZ SCT015 28/24 Q1007 RMK RA TO S=
202502080700 METAR WIHH 080700Z 27003KT 5000 HZ SCT015 28/25 Q1007 RMK RA TO E-SE=
202502080630 METAR WIHH 080630Z 27007KT 2000 RA BKN014 28/23 Q1008 TEMPO TL0645 4000 -RA=
202502080600 METAR WIHH 080600Z 02004KT 5000 HZ BKN015 28/23 Q1008 TEMPO TL0700 4000 -RA RMK RA TO NW=
202502080530 METAR WIHH 080530Z 29005KT 5000 -RA 28/24 Q1009 TEMPO TL0600 4000 -RA=
202502080500 METAR WIHH 080500Z 26003KT 5000 -RA BKN015 28/23 Q1009 TEMPO TL0600 4000 -RA=
202502080430 METAR WIHH 080430Z 25003KT 4000 -RA BKN015 27/24 Q1010 TEMPO FM0530 4000 -RA=
202502080400 METAR WIHH 080400Z 26006KT 6000 BKN015 28/24 Q1010 TEMPO FM0415 4000 -RA RMK RA TO W=
202502080330 METAR WIHH 080330Z 26005KT 6000 BKN015 28/24 Q1010 TEMPO0415 4000 -RA RMK RA TO W=
202502080300 METAR WIHH 080300Z 24005KT 6000 SCT018 28/24 Q1010 NOSIG=
202502080230 METAR WIHH 080230Z 24005KT 6000 SCT018 27/24 Q1007 NOSIG=
202502080200 METAR WIHH 080200Z 25007KT 6000 SCT018 26/24 Q1010 NOSIG=
202502080130 METAR WIHH 080130Z 21006KT 6000 SCT018 25/23 Q1010 RMK RA TO E=
202502080100 METAR WIHH 080100Z 23006KT 6000 SCT018 25/23 Q1009 NOSIG RMK RA TO NE=
202502080030 METAR WIHH 080030Z 080030Z 26005KT 6000 SCT018 24/23 Q1009 RA TO NE=
202502080000 METAR WIHH 080000Z 23007KT 5000 -RA SCT018 24/23 Q1009 NOSIG=
202502072330 METAR WIHH 072330Z 24005KT 6000 -RA SCT016 24/23 Q1008 NOSIG=
202502072300 METAR WIHH 072300Z 23005KT 6000 -RA SCT016 24/23 Q1008 NOSIG=
202502072230 METAR WIHH 072230Z 23005KT 5000 -RA SCT016 24/23 Q1009 NOSIG=
202502072200 METAR WIHH 072200Z 00000KT 5000 -RA SCT016 23/22 Q1009 NOSIG=
202502072130 METAR WIHH 072130Z 28004KT 5000 -RA SCT015 23/23 Q1009 NOSIG=
202502072100 METAR WIHH 072100Z 00000KT 4000 -TSRA SCT015 FEW017CB 23/23 Q1008 RMK CB TO SE AND NW=
202502072030 METAR WIHH 072030Z 32003KT 5000 -TSRA SCT015 FEW017CB 23/22 Q1009 NOSIG=
202502072000 METAR WIHH 072000Z 14004KT 5000 -TSRA BKN015 FEW017CB 23/22 Q1005 RMK CB OVER THE FIELD=
202502071930 METAR WIHH 071930Z 14004KT 2000 -TSRA SCT016 FEW017CB 23/22 Q1009 RMK CB OVER THE FIELD=
202502071900 METAR WIHH 071900Z 27006KT 2000 -TSRA BKN015 FEW017CB 25/23 Q1010 RMK CB OVER THE FIELD=
202502071830 METAR WIHH 071830Z 15005KT 5000 HZ SCT016 FEW017CB 24/22 Q1009 RMK CB TO SW=
202502071800 METAR WIHH 071800Z 16005KT 5000 HZ FEW017CB SCT018 27/25 Q1009 RMK CB TO SW=
202502071730 METAR WIHH 071730Z 14005KT 7000 SCT016 27/24 Q1010=
202502071700 METAR WIHH 071700Z 14004KT 6000 SCT018 26/24 Q1010 NOSIG=
202502071630 METAR WIHH 071630Z 00000KT 6000 SCT018 26/24 Q1010 NOSIG=
202502071600 METAR WIHH 071600Z 06003KT 7000 FEW020 27/24 Q1010 NOSIG=
202502071530 METAR WIHH 071530Z 15003KT 7000 SCT018 27/24 Q1010 NOSIG=
202502071500 METAR WIHH 071500Z 10005KT 7000 SCT018 27/24 Q1010 NOSIG=
202502071430 METAR WIHH 071430Z 08004KT 7000 SCT018 28/24 Q1009 RMK RA TO SW=
202502071400 METAR WIHH 071400Z 06004KT 7000 SCT018 28/24 Q1010 RMK RA TO SW=
202502071330 METAR WIHH 071330Z 04005KT 7000 FEW017CB SCT018 28/24 Q1009 RMK CB AND RA TO SW=
202502071300 METAR WIHH 071300Z 05006KT 7000 FEW017CB SCT018 28/24 Q1009 RMK CB TO SW=
202502071230 METAR WIHH 071230Z 06003KT 7000 SCT020 28/24 Q1009 NOSIG=
202502071200 METAR WIHH 071200Z 01005KT 7000 SCT020 28/24 Q1008 NOSIG=
202502071130 METAR WIHH 071130Z 36004KT 7000 SCT018 29/24 Q1008 NOSIG=
202502071100 METAR WIHH 071100Z 30005KT 7000 SCT018 29/23 Q1007 NOSIG=
202502071030 METAR WIHH 071030Z 36006KT 7000 SCT018 29/23 Q1007 NOSIG=
202502071000 METAR WIHH 071000Z 35006KT 7000 BKN018 29/23 Q1006 NOSIG=
202502070930 METAR WIHH 070930Z 35007KT 7000 SCT018 30/23 Q1006 NOSIG=
202502070900 METAR WIHH 070900Z 02007KT 7000 SCT018 30/23 Q1006 NOSIG=
202502070830 METAR WIHH 070830Z 02008KT 7000 SCT018 30/23 Q1007 NOSIG=
202502070800 METAR WIHH 070800Z 01008KT 7000 SCT016 30/23 Q1007 NOSIG=
202502070730 METAR WIHH 070730Z 36008KT 7000 SCT016 30/23 Q1008 NOSIG=
202502070700 METAR WIHH 070700Z 02006KT 6000 31/24 Q1007 NOSIG=
202502070630 METAR WIHH 070630Z 33006KT 6000 SCT016 31/24 Q1008 NOSIG=
202502070600 METAR WIHH 070600Z 34006KT 6000 SCT016 31/23 Q1008 NOSIG=
202502070530 METAR WIHH 070530Z 34009KT 6000 SCT016 31/23 Q1008 NOSIG=
202502070500 METAR WIHH 070500Z 35005KT 5000 HZ SCT016 29/25 Q1009 NOSIG=
202502070430 METAR WIHH 070430Z 33005KT 5000 -RA SCT015 28/24 Q1009 NOSIG=
202502070400 METAR WIHH 070400Z 35008KT 5000 -RA SCT015 28/24 Q1010 NOSIG=
202502070330 METAR WIHH 070233Z0Z 33005KT 5000 HZ SCT018 28/24 Q1010 NOSIG=
202502070300 METAR WIHH 070300Z 33005KT 5000 HZ 28/24 Q1010 NOSIG=
202502070230 METAR WIHH 070230Z 29004KT 5000 HZ SCT018 28/24 Q1010 NOSIG=
202502070200 METAR WIHH 070200Z 30005KT 5000 HZ SCT018 27/25 Q1010 NOSIG=
202502070130 METAR WIHH 070130Z 24004KT 4000 HZ SCT018 26/25 Q1010 RMK RA TO W=
202502070100 METAR WIHH 070100Z 23004KT 4000 HZ SCT018 26/25 Q1010 RMK RA TO NW=
202502070030 METAR WIHH 070030Z 24005KT 4000 HZ SCT017 25/24 Q1010 RMK RA TO NW=
202502070000 METAR WIHH 070000Z 22003KT 4000 HZ SCT017 25/24 Q1009 NOSIG RMK RA TO NW=
202502062330 METAR WIHH 062330Z 24003KT 3000 BR SCT017 25/24 Q1009 RMK RA TO W=
202502062300 METAR WIHH 062300Z 23003KT 3000 BR SCT017 24/23 Q1008 RMK RA TO SE=
202502062230 METAR WIHH 062230Z 20003KT 4000 HZ BKN017 24/24 Q1008 RMK RA TO E=
202502062200 METAR WIHH 062200Z 26003KT 4000 HZ BKN017 24/23 Q1008 RMK RA TO SW=
202502062130 METAR WIHH 062130Z 20004KT 4000 -RA BKN017 25/24 Q1008=
202502062100 METAR WIHH 062100Z 21004KT 4000 -RA BKN017 26/25 Q1008=
202502062030 METAR WIHH 062030Z 00000KT 5000 -RA BKN018 24/23 Q1008=
202502062000 METAR WIHH 062000Z 00000KT 4000 -RA BKN017 24/23 Q1008 NOSIG=
202502061930 METAR WIHH 061930Z 00000KT 4000 -RA BKN018 24/22 Q1008 NOSIG=
202502061900 METAR WIHH 061900Z 27003KT 3000 -TSRA FEW015CB BKN018 25/24 Q1008 RMK CB OVER THE FIELD=
202502061830 METAR WIHH 061830Z 33003KT 2000 -TSRA FEW016CB BKN017 25/24 Q1008 RMK CB TO SE-SW=
202502061800 METAR WIHH 061800Z 33005KT 3000 -TSRA FEW016CB BKN017 25/24 Q1008 RMK CB OVER THE FIELD=
202502061730 METAR WIHH 061730Z 36003KT 3000 -RA FEW017CB SCT018 26/24 Q1008 RMK CB TO N-E=
202502061700 METAR WIHH 061700Z 02005KT 2000 RA FEW017CB SCT018 26/25 Q1008 NOSIG RMK CB TO NE-E=
202502061630 METAR WIHH 061630Z 06004KT 5000 HZ SCT018 FEW019CB 26/25 Q1008 TEMPO FM1650 3000 -RA RMK CB AND RA TO NW-NE=
202502061600 METAR WIHH 061600Z 00000KT 6000 -TS SCT018 FEW019CB 26/25 Q1008 NOSIG RMK CB AND RA TO NW-NE=
202502061530 METAR WIHH 061530Z 27003KT 7000 TS SCT018 FEW019CB 26/24 Q1008 RMK CB AND RA TO NW-NE=
202502061500 METAR WIHH 061500Z 24003KT 7000 SCT018 FEW019CB 26/24 Q1008 NOSIG RMK CB AND RA TO N=
202502061430 METAR WIHH 061430Z 00000KT 7000 SCT018 28/24 Q1008 RMK RA TO W=
202502061400 METAR WIHH 061400Z 04003KT 7000 SCT020 28/24 Q1008 NOSIG=
202502061330 METAR WIHH 061330Z 07003KT 7000 SCT020 28/24 Q1008 RMK RA TO NE=
202502061300 METAR WIHH 061300Z 36003KT 7000 SCT020 28/24 Q1008 NOSIG=
202502061230 METAR WIHH 061230Z 02005KT 7000 SCT020 29/24 Q1008 NOSIG=
202502061200 METAR WIHH 061200Z 31005KT 7000 SCT020 29/24 Q1007 NOSIG=
202502061130 METAR WIHH 061130Z 31004KT 7000 SCT020 29/24 Q1007 NOSIG=
202502061100 METAR WIHH 061100Z 35006KT 7000 SCT020 29/24 Q1006 NOSIG=
202502061030 METAR WIHH 061030Z 32006KT 7000 SCT020 29/24 Q1006 NOSIG=
202502061000 METAR WIHH 061000Z 34007KT 7000 SCT020 29/24 Q1006 NOSIG=
202502060930 METAR WIHH 060930Z 31006KT 7000 SCT019 29/23 Q1005 NOSIG=
202502060900 METAR WIHH 060900Z 33008KT 7000 SCT019 28/23 Q1005 NOSIG=
202502060830 METAR WIHH 060830Z 33006KT 7000 SCT019 29/23 Q1005 NOSIG=
202502060800 METAR WIHH 060800Z 34006KT 6000 SCT018 29/23 Q1005=
202502060730 METAR WIHH 060730Z 29007KT 6000 SCT018 30/24 Q1005 RMK RA TO SW=
202502060700 METAR WIHH 060700Z 33009KT 6000 SCT018 29/23 Q1006 RMK RA TO E=
202502060630 METAR WIHH 060630Z 34006KT 6000 SCT018 29/23 Q1006 RMK RA TO W=
202502060600 METAR WIHH 060600Z 29009KT 6000 SCT017 30/23 Q1007 RMK RA TO SW=
202502060530 METAR WIHH 060530Z 33011KT 6000 SCT017 29/23 Q1007 RMK RA TO E AND SW=
202502060500 METAR WIHH 060500Z 32008KT 6000 SCT017 28/23 Q1008 RMK RA TO NW=
202502060430 METAR WIHH 060430Z 27010KT 6000 SCT017 28/23 Q1008 RMK RA TO SW=
202502060400 METAR WIHH 060400Z 32009KT 6000 SCT017 28/23 Q1009 RMK RA TO S=
202502060330 METAR WIHH 060330Z 31006KT 6000 SCT017 27/23 Q1009 RMK RA TO NE AND W=
202502060300 METAR WIHH 060300Z 28007KT 6000 SCT017 27/23 Q1009 RMK RA TO N AND W=
202502060230 METAR WIHH 060230Z 30007KT 6000 -RA BKN017 27/23 Q1009=
202502060200 METAR WIHH 060200Z 31008KT 6000 -RA BKN017 27/23 Q1009=
202502060130 METAR WIHH 060130Z 31009KT 6000 BKN017 27/23 Q1009 NOSIG RMK RA TO SE=
202502060100 METAR WIHH 060100Z 27005KT 6000 SCT017 26/24 Q1009 RMK RA TO SE=
202502060030 METAR WIHH 060030Z 29005KT 6000 SCT017 26/24 Q1009 RMK RA TO S=
202502060000 METAR WIHH 060000Z 27005KT 6000 FEW016CB SCT017 25/24 Q1008 RMK CB TO SE=
202502052330 METAR WIHH 052330Z 27006KT 6000 SCT016 26/24 Q1008 RMK RA TO SE=
202502052300 METAR WIHH 052300Z 27006KT 6000 -RA FEW016CB SCT017 26/24 Q1008 RMK CB TO SE=
202502052230 METAR WIHH 052230Z 30006KT 6000 -RA FEW016CB SCT017 26/25 Q1007 RMK CB TO SE=
202502052200 METAR WIHH 052200Z 25007KT 4000 -TSRA FEW016CB SCT017 26/25 Q1007 RMK CB TO E-SE=
202502052130 METAR WIHH 052130Z 32003KT 4000 -RA FEW016CB SCT017 25/25 Q1007 RMK CB TO E=
202502052100 METAR WIHH 052100Z 28003KT 4000 -RA FEW016CB SCT017 26/24 Q1006 RMK CB TO E=
202502052030 METAR WIHH 052030Z 32005KT 2000 -RA FEW016CB SCT017 26/24 Q1006 RMK CB TO E=
202502052000 METAR WIHH 052000Z 30003KT 7000 SCT017 26/23 Q1006 RMK RA TO NW=
202502051930 METAR WIHH 051930Z 24003KT 7000 SCT017 26/23 Q1006 RMK RA TO N=
202502051900 METAR WIHH 051900Z 23003KT 7000 SCT017 26/23 Q1006 RMK RA TO N=
202502051830 METAR WIHH 051830Z 32003KT 7000 SCT020 27/23 Q1007 NOSIG=
202502051800 METAR WIHH 051800Z 31003KT 7000 SCT020 27/23 Q1007 NOSIG=
202502051730 METAR WIHH 051730Z 25004KT 7000 SCT020 27/23 Q1007 NOSIG=
202502051700 METAR WIHH 051700Z 27005KT 7000 SCT020 27/23 Q1007 NOSIG=
202502051630 METAR WIHH 051630Z 25005KT 7000 SCT020 27/23 Q1007 NOSIG=
202502051600 METAR WIHH 051600Z 27006KT 7000 SCT020 27/23 Q1008 NOSIG=
202502051530 METAR WIHH 051530Z 26006KT 7000 SCT020 27/23 Q1008 RMK RA TO N=
202502051500 METAR WIHH 051500Z 27008KT 7000 SCT020 27/23 Q1008 RMK RA TO N=
202502051430 METAR WIHH 051430Z 25007KT 7000 SCT020 27/23 Q1007 NOSIG=
202502051400 METAR WIHH 051400Z 27003KT 7000 FEW020 27/23 Q1007 NOSIG=
202502051330 METAR WIHH 051330Z 26006KT 7000 SCT018 27/23 Q1007 NOSIG=
202502051300 METAR WIHH 051300Z 23008KT 7000 SCT018 27/22 Q1007 NOSIG=
202502051230 METAR WIHH 051230Z 22006KT 7000 SCT018 28/23 Q1007 NOSIG=
202502051200 METAR WIHH 051200Z 30005KT 7000 SCT018 29/23 Q1006 NOSIG=
202502051130 METAR WIHH 051130Z 24005KT 6000 SCT017 29/23 Q1006 NOSIG=
202502051100 METAR WIHH 051100Z 26005KT 6000 SCT017 29/23 Q1005 NOSIG=
202502051030 METAR WIHH 051030Z 34008KT 6000 SCT017 30/24 Q1005 RMK RA TO E=
202502051000 METAR WIHH 051000Z 35010KT 6000 SCT017 31/23 Q1004 RMK RA TO E=
202502050930 METAR WIHH 050930Z 27005KT 6000 SCT017 30/24 Q1004 RMK RA TO E=
202502050900 METAR WIHH 050900Z 28005KT 6000 -RA SCT016 30/24 Q1004 NOSIG=
202502050830 METAR WIHH 050830Z 25007KT 6000 -RA SCT016 30/24 Q1004 NOSIG=
202502050800 METAR WIHH 050800Z 28007KT 6000 SCT017 31/24 Q1004 RMK RA TO NW AND E=
202502050730 METAR WIHH 050730Z 24005KT 6000 SCT017 30/24 Q1005 RMK RA TO SE=
202502050700 METAR WIHH 050700Z 33005KT 5000 HZ 29/24 Q1005 NOSIG RMK RA TO SE=
202502050630 METAR WIHH 050630Z 32007KT 5000 -RA SCT017 29/24 Q1005 NOSIG=
202502050600 METAR WIHH 050600Z 31008KT 6000 -RA SCT017 29/26 Q1006 NOSIG=
202502050530 METAR WIHH 050530Z 33005KT 4000 -RA SCT017 29/26 Q1006 NOSIG=
202502050500 METAR WIHH 050500Z 33010KT 3000 -RA 29/25 Q1007 TEMPO TL0530 3000 -RA=
202502050430 METAR WIHH 050430Z 32005KT 6000 -RA SCT017 29/25 Q1007 NOSIG=
202502050400 METAR WIHH 050400Z 27004KT 6000 -RA SCT017 29/23 Q1007 NOSIG=
202502050330 METAR WIHH 050330Z 27009KT 6000 -RA SCT018 29/23 Q1007 NOSIG=
202502050300 METAR WIHH 050300Z 26012KT 7000 SCT018 29/23 Q1008 NOSIG=
202502050230 METAR WIHH 050230Z 31010KT 7000 SCT018 29/23 Q1008 NOSIG=
202502050200 METAR WIHH 050200Z 22009KT 7000 SCT018 28/24 Q1008 NOSIG=
202502050130 METAR WIHH 050130Z 24012KT 7000 SCT018 28/24 Q1008 NOSIG=
202502050100 METAR WIHH 050100Z 25008KT 7000 SCT018 28/23 Q1008 NOSIG=
202502050030 METAR WIHH 050030Z 24004KT 7000 SCT018 27/23 Q1008 NOSIG=
202502050000 METAR WIHH 050000Z 26004KT 7000 SCT016 26/23 Q1007 NOSIG=
202502042330 METAR WIHH 042330Z 26005KT 7000 SCT018 25/23 Q1007 NOSIG=
202502042300 METAR WIHH 042300Z 25004KT 7000 SCT018 25/23 Q1007 NOSIG=
202502042230 METAR WIHH 042230Z 30004KT 7000 FEW018 25/23 Q1007 NOSIG=
202502042200 METAR WIHH 042200Z 29005KT 7000 FEW018 25/23 Q1006 NOSIG=
202502042130 METAR WIHH 042130Z 26003KT 7000 FEW018 25/23 Q1007 NOSIG=
202502042100 METAR WIHH 042100Z 26003KT 7000 FEW018 25/23 Q1007 NOSIG=
202502042030 METAR WIHH 042030Z 26004KT 7000 FEW016 25/24 Q1007 NOSIG=
202502042000 METAR WIHH 042000Z 27004KT 7000 FEW016 25/24 Q1007 NOSIG=
202502041930 METAR WIHH 041930Z 25005KT 7000 FEW016 25/24 Q1007 NOSIG=
202502041900 METAR WIHH 041900Z 26005KT 7000 FEW016 25/24 Q1008 NOSIG=
202502041830 METAR WIHH 041830Z 25004KT 7000 FEW015 25/24 Q1008 NOSIG=
202502041800 METAR WIHH 041800Z 24005KT 7000 FEW015 25/24 Q1008 NOSIG=
202502041730 METAR WIHH 041730Z 23005KT 7000 FEW015 25/24 Q1008 NOSIG=
202502041700 METAR WIHH 041700Z 24005KT 6000 FEW018 26/23 Q1008 NOSIG=
202502041630 METAR WIHH 041630Z 24005KT 7000 FEW018 25/23 Q1008 NOSIG=
202502041600 METAR WIHH 041600Z 26005KT 7000 FEW018 26/23 Q1009 NOSIG=
202502041530 METAR WIHH 041530Z 26005KT 7000 FEW018 26/23 Q1009 NOSIG=
202502041500 METAR WIHH 041500Z 25006KT 7000 FEW018 26/23 Q1009 NOSIG=
202502041430 METAR WIHH 041430Z 25007KT 7000 FEW018 26/23 Q1009 NOSIG=
202502041400 METAR WIHH 041400Z 25006KT 7000 SCT017 25/23 Q1009 NOSIG=
202502041330 METAR WIHH 041330Z 27006KT 6000 SCT016 26/23 Q1009 NOSIG=
202502041300 METAR WIHH 041300Z 26004KT 6000 SCT017 25/23 Q1009 NOSIG=
202502041230 METAR WIHH 041230Z 25007KT 6000 SCT017 26/23 Q1009 NOSIG=
202502041200 METAR WIHH 041200Z 26005KT 6000 SCT017 26/24 Q1008 RMK RA TO N=
202502041130 METAR WIHH 041130Z 25005KT 6000 SCT015 26/24 Q1008 RMK RA TO W=
202502041100 METAR WIHH 041100Z 27009KT 6000 SCT015 26/24 Q1008 RMK RA TO N=
202502041030 METAR WIHH 041030Z 25007KT 5000 HZ SCT015 26/24 Q1007 RMK RA TO S=
202502041000 METAR WIHH 041000Z 30005KT 4000 HZ SCT015 FEW017CB 27/25 Q1007 RMK CB AND RA TO N=
202502040930 METAR WIHH 040930Z 26005KT 4000 -RA SCT014 26/25 Q1007 NOSIG=
202502040900 METAR WIHH 040900Z 22003KT 4000 -TSRA BKN014 FEW017CB 26/25 Q1006 TEMPO TL0930 3000 -RA RMK CB TO W=
202502040830 METAR WIHH 040830Z 28006KT 1000 -TSRA BKN014 FEW017CB 26/25 Q1007 TEMPO TL0900 4000 -RA RMK CB TO W=
202502040800 METAR WIHH 040800Z 35010KT 3000 -TSRA BKN014 FEW017CB 28/26 Q1006 RMK CB TO SW=
202502040730 METAR WIHH 040730Z 32005KT 4000 -TSRA BKN015 FEW017CB 29/24 Q1007 RMK CB TO SW=
202502040700 METAR WIHH 040700Z 35006KT 5000 HZ 30/24 Q1007 TEMPO FM0715 4000 RA BKN015 RMK RA TO SE=
202502040630 METAR WIHH 040630Z 36004KT 5000 HZ 31/24 Q1007 RMK RA TO SE=
202502040600 METAR WIHH 040600Z 34006KT 5000 HZ SCT018 31/24 Q1008 RMK RA TO S=
202502040530 METAR WIHH 040530Z 28003KT 5000 HZ SCT018 31/24 Q1008 NOSIG=
202502040500 METAR WIHH 040500Z 34004KT 5000 HZ SCT018 30/24 Q1009 RMK RA TO S=
202502040430 METAR WIHH 040430Z 30006KT 5000 HZ SCT018 30/24 Q1009 RMK RA TO S=
202502040400 METAR WIHH 040400Z 27008KT 5000 HZ SCT018 30/24 Q1009 RMK RA TO S=
202502040330 METAR WIHH 040330Z 31003KT 5000 HZ SCT018 30/24 Q1009 NOSIG=
202502040300 METAR WIHH 040300Z 33006KT 5000 SCT018 30/24 Q1009 NOSIG=
202502040230 METAR WIHH 040230Z 30004KT 4000 SCT018 29/24 Q1009 NOSIG=
202502040200 METAR WIHH 040200Z 28003KT 4000 SCT018 29/25 Q1009 NOSIG=
202502040130 METAR WIHH 040130Z 29005KT 4000 HZ SCT020 28/25 Q1009 NOSIG=
202502040100 METAR WIHH 040100Z 24003KT 4000 HZ SCT020 28/25 Q1009 NOSIG=
202502040030 METAR WIHH 040030Z 24003KT 4000 HZ FEW020 27/25 Q1009 NOSIG=
202502040000 METAR WIHH 040000Z 27003KT 4000 HZ FEW020 26/25 Q1008 NOSIG=
202502032330 METAR WIHH 032330Z 26003KT 4000 HZ FEW020 25/24 Q1008 NOSIG=
202502032300 METAR WIHH 032300Z 25003KT 5000 HZ FEW020 25/24 Q1008 NOSIG=
202502032230 METAR WIHH 032230Z 22003KT 6000 SCT020 25/24 Q1008 NOSIG=
202502032200 METAR WIHH 032200Z 24003KT 6000 SCT020 25/24 Q1007 NOSIG=
202502032130 METAR WIHH 032130Z 00000KT 8000 SCT020 25/24 Q1008 NOSIG=
202502032100 METAR WIHH NIL=
202502032030 METAR WIHH 032030Z 25003KT 8000 SCT020 25/24 Q1008=
202502032000 METAR WIHH 032000Z 00000KT 8000 FEW020 25/24 Q1008=
202502031930 METAR WIHH 031930Z 00000KT 8000 FEW020 25/24 Q1008 NOSIG=
202502031900 METAR WIHH 031900Z 00000KT 8000 FEW020 26/24 Q1008 NOSIG=
202502031830 METAR WIHH 031830Z 00000KT 8000 FEW020 26/24 Q1008 NOSIG=
202502031800 METAR WIHH 031800Z 25003KT 8000 FEW020 26/24 Q1009 NOSIG=
202502031730 METAR WIHH 031730Z 23003KT 8000 FEW020 26/24 Q1009 NOSIG=
202502031700 METAR WIHH 031700Z 27003KT 8000 FEW020 27/24 Q1009 NOSIG=
202502031630 METAR WIHH 031630Z 26003KT 8000 FEW020 26/24 Q1010=
202502031600 METAR WIHH 031600Z 29003KT 8000 FEW020 27/23 Q1010 NOSIG=
202502031530 METAR WIHH 031530Z 24003KT 8000 SCT020 27/24 Q1010 NOSIG=
202502031500 METAR WIHH 031500Z 27003KT 8000 27/25 Q1009 NOSIG=
202502031430 METAR WIHH 031430Z 29003KT 8000 SCT020 27/24 Q1009 NOSIG=
202502031400 METAR WIHH 031400Z 36005KT 8000 SCT018 28/24 Q1009 NOSIG=
202502031330 METAR WIHH 031330Z 35006KT 8000 SCT018 28/24 Q1009 RMK NOSIG=
202502031300 METAR WIHH 031300Z 31004KT 8000 28/24 Q1008 NOSIG=
202502031230 METAR WIHH 031230Z 31008KT 8000 SCT020 28/24 Q1008 NOSIG=
202502031200 METAR WIHH 031200Z 32004KT 7000 SCT020 28/24 Q1008 NOSIG=
202502031130 METAR WIHH 031130Z 34006KT 7000 SCT020 28/24 Q1007 NOSIG=
202502031100 METAR WIHH 031100Z 35008KT 7000 SCT020 28/24 Q1007 NOSIG=
202502031030 METAR WIHH 031030Z 35006KT 7000 SCT020 29/24 Q1007 NOSIG=
202502031000 METAR WIHH 031000Z 36007KT 7000 SCT020 30/24 Q1006 NOSIG=
202502030930 METAR WIHH 030930Z 34005KT 7000 SCT019 30/24 Q1006 NOSIG=
202502030900 METAR WIHH 030900Z 31006KT 7000 SCT018 30/24 Q1006 NOSIG=
202502030830 METAR WIHH 030830Z 29007KT 7000 SCT018 30/23 Q1006 NOSIG=
202502030800 METAR WIHH 030800Z 31006KT 7000 SCT018 30/23 Q1007 NOSIG=
202502030730 METAR WIHH 030730Z 34009KT 6000 SCT018 30/24 Q1007 NOSIG=
202502030700 METAR WIHH 030700Z 33007KT 6000 SCT018 29/24 Q1007 NOSIG=
202502030630 METAR WIHH 030630Z 32006KT 6000 SCT018 30/24 Q1008 NOSIG=
202502030600 METAR WIHH 030600Z 35006KT 6000 SCT018 29/25 Q1008 RMK RA TO SE=
202502030530 METAR WIHH 030530Z 34007KT 6000 SCT018 30/24 Q1008 NOSIG=
202502030500 METAR WIHH 030500Z 28008KT 6000 SCT018 30/25 Q1008 NOSIG=
202502030430 METAR WIHH 030430Z 35005KT 6000 SCT018 30/25 Q1009 RMK RA TO SE=
202502030400 METAR WIHH 030400Z 33007KT 5000 HZ SCT016 29/25 Q1009 RMK RA TO NW AND SE=
202502030330 METAR WIHH 030330Z 02006KT 4000 HZ BKN016 29/25 Q1009 RMK RA TO NW AND E=
202502030300 METAR WIHH 030300Z 21006KT 4000 HZ SCT016 28/26 Q1010 RMK RA TO N-E=
202502030230 METAR WIHH 030230Z 18005KT 3000 HZ SCT016 28/25 Q1010 RMK RA TO NW=
202502030200 METAR WIHH 030200Z 19007KT 3000 -RA BKN016 27/25 Q1010=
202502030130 METAR WIHH 030130Z 16003KT 3000 BR SCT016 27/26 Q1010 TEMPO FM0150 2000 -RA RMK RA TO NW=
202502030100 METAR WIHH 030100Z 17004KT 3000 BR SCT016 27/26 Q1009 NOSIG RMK RA TO NE=
202502030030 METAR WIHH 030030Z 17003KT 3000 HZ SCT016 27/26 Q1009 RMK RA TO SE=
202502030000 METAR WIHH 030000Z 16003KT 3000 HZ SCT015 27/26 Q1008 RMK RA TO SW-SE=
202502022330 METAR WIHH 022330Z 00000KT 3000 HZ SCT016 27/26 Q1008 RMK RA TO SW-SE=
202502022300 METAR WIHH 022300Z 24003KT 3000 HZ SCT016 26/25 Q1008 RMK RA TO S=
202502022230 METAR WIHH 022230Z 28003KT 3000 TS FEW015CB SCT016 26/26 Q1007 RMK CB AND RA TO S=
202502022200 METAR WIHH 022200Z 00000KT 3000 -RA SCT016 27/26 Q1007 RMK NOSIG=
202502022130 METAR WIHH 022130Z 16003KT 3000 RA SCT016 27/26 Q1006 RMK NOSIG=
202502022100 METAR WIHH 022100Z 28003KT 4000 TS FEW015CB SCT016 27/26 Q1007 RMK CB AND RA TO S=
202502022030 METAR WIHH 022030Z 00000KT 4000 HZ FEW015CB SCT016 SCT016 27/26 Q1007 RMK CB AND RA TO S=
202502022000 METAR WIHH NIL=
202502021930 METAR WIHH NIL=
202502021900 METAR WIHH NIL=
202502021830 METAR WIHH NIL=
202502021800 METAR WIHH NIL=
202502021730 METAR WIHH NIL=
202502021700 METAR WIHH 021700Z 02003KT 6000 SCT019 28/25 Q1008 RA TO SE=
202502021630 METAR WIHH 021630Z 03004KT 6000 SCT019 28/25 Q1008 RA TO E=
202502021600 METAR WIHH 021600Z 02004KT 6000 SCT019 28/25 Q1008 NOSIG=
202502021530 METAR WIHH NIL=
202502021500 METAR WIHH 021500Z 05005KT 6000 SCT019 28/25 Q1008 NOSIG=
202502021430 METAR WIHH 021430Z 06005KT 6000 SCT019 28/25 Q1008 NOSIG=
202502021400 METAR WIHH 021400Z 02003KT 6000 SCT019 28/25 Q1008 NOSIG=
202502021330 METAR WIHH 021330Z 32004KT 6000 SCT019 28/25 Q1007 NOSIG=
202502021300 METAR WIHH 021300Z 02005KT 6000 SCT019 28/25 Q1007 NOSIG=
202502021230 METAR WIHH 021230Z 03006KT 6000 SCT019 28/24 Q1007 NOSIG=
202502021200 METAR WIHH 021200Z 33005KT 6000 FEW019 28/25 Q1006 NOSIG=
202502021130 METAR WIHH 021130Z 34003KT 6000 FEW019 28/24 Q1006 NOSIG=
202502021100 METAR WIHH 021100Z 34004KT 6000 FEW019 29/24 Q1006 NOSIG=
202502021030 METAR WIHH 021030Z 03006KT 6000 SCT019 29/24 Q1006 NOSIG=
202502021000 METAR WIHH 021000Z 35005KT 6000 SCT019 29/24 Q1005 NOSIG=
202502020930 METAR WIHH 020930Z 34007KT 6000 SCT017 29/24 Q1005 NOSIG=
202502020900 METAR WIHH 020900Z 33006KT 6000 SCT017 30/24 Q1005 NOSIG=
202502020830 METAR WIHH 020830Z 29005KT 6000 SCT017 30/24 Q1005 NOSIG=
202502020800 METAR WIHH 020800Z 34005KT 6000 SCT017 31/24 Q1005 NOSIG=
202502020730 METAR WIHH 020730Z 27006KT 6000 SCT016 31/24 Q1005 NOSIG=
202502020700 METAR WIHH 020700Z 33009KT 6000 SCT016 30/24 Q1006 NOSIG=
202502020630 METAR WIHH 020630Z 31007KT 6000 SCT016 30/24 Q1007 NOSIG=
202502020600 METAR WIHH 020600Z 33010KT 6000 SCT016 30/24 Q1007 NOSIG=
202502020530 METAR WIHH 020530Z 33006KT 6000 SCT016 30/24 Q1007 NOSIG=
202502020500 METAR WIHH 020500Z 31007KT 6000 SCT016 30/24 Q1007 NOSIG=
202502020430 METAR WIHH 020430Z 35006KT 6000 SCT016 30/24 Q1007 NOSIG=
202502020400 METAR WIHH 020400Z 34006KT 6000 SCT016 30/25 Q1008 NOSIG=
202502020330 METAR WIHH 020330Z 33004KT 5000 HZ SCT016 30/25 Q1008 NOSIG=
202502020300 METAR WIHH 020300Z 34004KT 5000 HZ SCT016 29/25 Q1008 RMK RA TO SE=
202502020230 METAR WIHH 020230Z 28007KT 5000 HZ SCT016 29/25 Q1008 RMK RA TO SE=
202502020200 METAR WIHH 020200Z 30008KT 4000 HZ SCT016 28/25 Q1008 RMK RA TO E=
202502020130 METAR WIHH 020130Z 28003KT 4000 HZ SCT015 28/26 Q1008 RMK RA TO N AND E=
202502020100 METAR WIHH 020100Z 27003KT 4000 HZ SCT015 28/26 Q1008 RMK RA TO E=
202502020030 METAR WIHH 020030Z 00000KT 4000 HZ SCT015 26/26 Q1008 RMK RA TO E=
202502020000 METAR WIHH 020000Z 24003KT 4000 BR SCT015 26/26 Q1007 RMK RA TO E=
202502012330 METAR WIHH 012330Z 23004KT 4000 BR SCT015 26/25 Q1007 RMK RA TO NE-E=
202502012300 METAR WIHH 012300Z 00000KT 4000 BR SCT016 26/25 Q1007 RMK RA TO NE=
202502012230 METAR WIHH 012230Z 00000KT 5000 HZ SCT016 25/25 Q1007 RMK RA TO NW=
202502012200 METAR WIHH 012200Z 00000KT 5000 HZ SCT015 25/25 Q1007 RMK RA TO S=
202502012130 METAR WIHH 012130Z 00000KT 5000 HZ SCT015 25/25 Q1007 RMK RA TO S=
202502012100 METAR WIHH 012100Z 00000KT 5000 HZ SCT015 26/25 Q1006 NOSIG=
202502012030 METAR WIHH 012030Z 00000KT 4000 HZ BKN015 26/25 Q1006 NOSIG=
202502012000 METAR WIHH 012000Z 00000KT 4000 -RA BKN015 26/26 Q1006 NOSIG=
202502011930 METAR WIHH 011930Z 16003KT 4000 -RA BKN015 26/26 Q1006 RMK CB TO E=
202502011900 METAR WIHH 011900Z 18003KT 4000 RA BKN015 FEW017CB 26/26 Q1006 RMK CB TO N=
202502011850 METAR WIHH NIL=
202502011830 METAR WIHH 011830Z 32003KT 4000 -TSRA BKN015 FEW017CB 26/25 Q1007 RMK CB TO N=
202502011800 METAR WIHH 011800Z 34003KT 4000 -RA BKN015 26/25 Q1007 NOSIG=
202502011730 METAR WIHH 011730Z 11003KT 5000 HZ BKN015 26/25 Q1007 RMK RA TO NW AND E=
202502011700 METAR WIHH 011700Z 10003KT 5000 HZ BKN015 26/25 Q1007 RMK RA TO N=
202502011630 METAR WIHH 011630Z 13003KT 5000 HZ SCT016 26/25 Q1008 NOSIG=
202502011600 METAR WIHH 011600Z 14003KT 5000 HZ BKN015 26/25 Q1008 RMK RA TO S=
202502011530 METAR WIHH 011530Z 15003KT 4000 -RA SCT016 26/25 Q1008 NOSIG=
202502011500 METAR WIHH 011500Z 12003KT 3000 -RA SCT016 27/25 Q1008 NOSIG=
202502011430 METAR WIHH 011430Z 00000KT 6000 SCT018 27/25 Q1008 NOSIG=
202502011400 METAR WIHH 011400Z 00000KT 6000 SCT018 27/25 Q1008 NOSIG=
202502011330 METAR WIHH 011330Z 00000KT 6000 SCT018 27/24 Q1007 NOSIG=
202502011300 METAR WIHH 011300Z 00000KT 6000 SCT018 27/24 Q1007 NOSIG=
202502011230 METAR WIHH 011230Z 32003KT 6000 SCT020 27/24 Q1007 NOSIG=
202502011200 METAR WIHH 011200Z 00000KT 7000 FEW020 28/24 Q1006 NOSIG=
202502011130 METAR WIHH 011130Z 31004KT 6000 SCT018 28/24 Q1006 NOSIG=
202502011100 METAR WIHH 011100Z 34004KT 6000 SCT018 28/24 Q1006 NOSIG=
202502011030 METAR WIHH 011030Z 34007KT 6000 SCT018 28/24 Q1006 NOSIG=
202502011000 METAR WIHH 011000Z 33003KT 6000 SCT018 29/24 Q1005 NOSIG=
202502010930 METAR WIHH 010930Z 36007KT 6000 SCT015 29/24 Q1005 NOSIG=
202502010900 METAR WIHH 010900Z 33006KT 6000 SCT015 30/24 Q1005 NOSIG=
202502010830 METAR WIHH 010830Z 36003KT 6000 SCT015 30/24 Q1005=
202502010800 METAR WIHH 010800Z 29005KT 6000 30/24 Q1005 RMK NOSIG=
202502010730 METAR WIHH 010730Z 01008KT 6000 SCT015 29/23 Q1005 NOSIG=
202502010700 METAR WIHH 010700Z 33008KT 6000 SCT015 30/23 Q1006=
202502010630 METAR WIHH 010630Z 36006KT 6000 SCT015 29/23 Q1006 RMK RA TO SW=
202502010600 METAR WIHH 010600Z 31006KT 6000 SCT015 29/23 Q1006 RMK RA TO SW=
202502010530 METAR WIHH 010530Z 32004KT 6000 30/24 Q1007 RMK RA TO S=
202502010500 METAR WIHH 010500Z 32004KT 6000 SCT015 29/23 Q1007 RMK RA TO W=
202502010430 METAR WIHH 010430Z 30005KT 6000 SCT015 30/23 Q1007 RMK RA TO SW=
202502010400 METAR WIHH 010400Z 33005KT 6000 SCT015 29/23 Q1008 RMK RA TO S=
202502010330 METAR WIHH 010330Z 34006KT 6000 SCT015 30/23 Q1008 RMK RA TO S=
202502010300 METAR WIHH 010300Z 31004KT 6000 29/24 Q1008 RMK RA TO NE=
202502010230 METAR WIHH 010230Z 31008KT 5000 HZ SCT015 29/24 Q1008=
202502010200 METAR WIHH 010200Z 29008KT 5000 HZ BKN015 28/24 Q1009 RMK RA TO E=
202502010130 METAR WIHH 010130Z 25003KT 5000 HZ BKN015 27/25 Q1009 RMK RA TO N AND SE=
202502010100 METAR WIHH 010100Z 23005KT 5000 HZ BKN015 27/25 Q1008 RMK RA TO NW AND SE=
202502010030 METAR WIHH 010030Z 30005KT 5000 HZ BKN017 27/24 Q1008 RMK RA TO NW AND SE=
202502010000 METAR WIHH 010000Z 00000KT 5000 HZ SCT017 27/24 Q1008 RMK RA TO W=

# No short TAF reports from WIHH in databse.

###################################
#  large TAF from WIHH
###################################
202502282300 TAF WIHH 282300Z 0100/0200 36007KT 6000 FEW020
                      TEMPO 0106/0109 32014KT 3000 -TSRA SCT015
                       FEW017CB
                      TEMPO 0112/0115 15004KT 4000 -RA BKN014=
202502281705 TAF WIHH 281705Z 2818/0118 24003KT 5000 HZ FEW020
                      BECMG 0100/0102 33008KT 6000 SCT018=
202502281700 TAF WIHH 281700Z NIL=
202502281100 TAF WIHH 281100Z 2812/0112 15006KT 6000 SCT018
                      TEMPO 2812/2815 3000 -TSRA BKN015 FEW016CB
                       BECMG 2816/2818 00000KT 5000 HZ=
202502280500 TAF WIHH 280500Z 2806/0106 34010KT 6000 SCT018
                      TEMPO 2807/2811 20014KT 3000 -TSRA BKN015
                       FEW016CB
                      BECMG 2814/2816 16004KT 5000 HZ=
202502272300 TAF WIHH 272300Z 2800/0100 01006KT 6000 SCT018
                      BECMG 2800/2802 5000 HZ FEW020
                      TEMPO 2808/2811 21012KT 3000 -TSRA FEW015CB
                       BKN017
                      BECMG 2813/2815 16005KT 5000 HZ=
202502271700 TAF WIHH 271700Z 2718/2818 15005KT 6000 SCT018
                      BECMG 2722/2800 01006KT 5000 HZ=
202502271100 TAF WIHH 271100Z 2712/2812 35006KT 6000 SCT018
                      TEMPO 2712/2715 18008KT 4000 -RA BKN016
                      BECMG 2715/2717 00000KT 5000 HZ=
202502270500 TAF WIHH 270500Z 2706/2806 33008KT 7000 SCT018
                      TEMPO 2708/2711 15010KT 3000 -TSRA FEW017CB
                       BKN018
                      BECMG 2713/2715 5000 HZ=
202502262300 TAF WIHH 262300Z 2700/2800 21006KT 6000 SCT018
                      TEMPO 2708/2711 15014KT 3000 -TSRA FEW017CB
                       BKN018
                      BECMG 2713/2715 5000 HZ=
202502261700 TAF WIHH 261700Z 2618/2718 15005KT 6000 SCT018
                      BECMG 2701/2703 5000 HZ
                      TEMPO 2706/2709 30014KT 3000 -TSRA FEW017CB
                       BKN018=
202502261100 TAF WIHH 261100Z 2612/2712 21005KT 6000 SCT018
                      BECMG 2621/2623 00000KT 5000 HZ=
202502260500 TAF WIHH 260500Z 2606/2706 03006KT 6000 SCT018
                      TEMPO 2606/2610 12012G20KT 3000 -TSRA BKN016
                       FEW018CB
                      BECMG 2613/2615 5000 HZ=
202502252300 TAF WIHH 252300Z 2600/2700 24006KT 5000 HZ SCT018
                      BECMG 2601/2603 33008KT 6000
                      TEMPO 2609/2612 3000 -TSRA BKN015 FEW017CB=
202502251700 TAF WIHH 251700Z 2518/2618 20003KT 5000 HZ SCT016
                      TEMPO 2519/2522 4000 -RA BKN015
                      BECMG 2601/2603 34008KT 6000 SCT018=
202502251100 TAF WIHH 251100Z 2512/2612 15010KT 3000 -TSRA BKN015 FEW017CB
                      BECMG 2515/2517 18005KT 6000 SCT018=
202502250500 TAF WIHH 250500Z 2506/2606 33010KT 7000 SCT018
                      TEMPO 2509/2512 20014KT 3000 -TSRA BKN015
                       FEW017CB
                      BECMG 2514/2516 15004KT 5000 HZ
                      TEMPO 2518/2521 4000 -RA FEW017CB=
202502242300 TAF WIHH 242300Z 2500/2600 06006KT 6000 SCT018
                      TEMPO 2505/2509 15012G20KT 2000 TSRA BKN014
                       FEW016CB
                      BECMG 2511/2513 5000 HZ
                      TEMPO 2518/2521 3000 -RA FEW017CB=
202502241700 TAF WIHH 241700Z 2418/2518 03006KT 6000 SCT018
                      TEMPO 2419/2422 16008KT 3000 -RA FEW018CB
                       BECMG 2423/2501 00000KT 5000 HZ
                      TEMPO 2504/2508 12012G20KT 2000 TSRA BKN015
                       FEW017CB=
202502241100 TAF WIHH 241100Z 2412/2512 27006KT 6000 SCT018
                      TEMPO 2412/2415 4000 -RA FEW017CB
                      TEMPO 2418/2421 16008KT 3000 -TSRA BKN016
                       FEW018CB
                      BECMG 2422/2500 00000KT 3000 BR=
202502240500 TAF WIHH 240500Z 2406/2506 24006KT 6000 SCT018
                      TEMPO 2406/2410 02014G20KT 2000 TSRA BKN016
                       FEW017CB
                      BECMG 2413/2415 5000 HZ
                      TEMPO 2418/2421 12005KT 3000 -RA BKN014 FEW017CB=
202502232300 TAF WIHH 232300Z 2400/2500 27006KT 6000 SCT018
                      TEMPO 2400/2403 4000 -RA BKN017
                      TEMPO 2408/2411 36013KT 3000 -TSRA FEW016CB
                       BKN017
                      BECMG 2413/2415 18005KT 5000 HZ=
202502231700 TAF WIHH 231700Z 2318/2418 32005KT 7000 SCT018
                      TEMPO 2322/2401 25008KT 4000 -RA FEW016CB
                       BKN017=
202502231100 TAF WIHH 231100Z 2312/2412 27005KT 7000 SCT018
                      TEMPO 2322/2401 24008KT 4000 -RA FEW016CB
                       BKN017=
202502230500 TAF WIHH 230500Z 2306/2406 27006KT 7000 SCT018
                      TEMPO 2306/2309 33012KT 3000 -RA FEW016CB
                       BKN017
                      BECMG 2311/2313 23005KT 5000 HZ=
202502222300 TAF WIHH 222300Z 2300/2400 26008KT 6000 SCT018
                      TEMPO 2300/2303 4000 -RA BKN016
                      TEMPO 2307/2311 33014KT 3000 -TSRA BKN015
                       FEW017CB=
202502221700 TAF WIHH 221700Z 2218/2318 25003KT 6000 FEW020
                      BECMG 2301/2303 33008KT SCT018=
202502221100 TAF WIHH 221100Z 2212/2312 27006KT 6000 SCT018
                      BECMG 2215/2217 22004KT 5000 HZ=
202502220500 TAF WIHH 220500Z 2206/2306 34008KT 7000 SCT018
                      TEMPO 2209/2212 27014KT 4000 -TSRA BKN015
                       FEW017CB
                      BECMG 2214/2216 24003KT 5000 HZ=
202502212300 TAF WIHH 212300Z 2200/2300 27008KT 7000 SCT018
                      TEMPO 2203/2206 4000 -RA
                      TEMPO 2207/2210 31014KT 3000 -TSRA BKN016
                       FEW018CB
                      BECMG 2212/2214 5000 HZ=
202502211700 TAF WIHH 211700Z 2118/2218 24006KT 7000 FEW020
                      BECMG 2201/2203 5000 HZ SCT018
                      TEMPO 2207/2210 30014KT 3000 -TSRA BKN016
                       FEW017CB=
202502211100 TAF WIHH 211100Z 2112/2212 27008KT 7000 SCT018
                      TEMPO 2114/2117 4000 -RA FEW017CB
                      BECMG 2118/2120 21003KT 5000 HZ=
202502210500 TAF WIHH 210500Z 2106/2206 27008KT 7000 SCT020
                      TEMPO 2108/2111 24014KT 4000 -RA FEW017CB
                       BKN018
                      BECMG 2111/2113 5000 HZ=
202502202300 TAF WIHH 202300Z 2100/2200 26007KT 7000 FEW020
                      TEMPO 2106/2110 31014KT 3000 -TSRA BKN015
                       FEW017CB
                      BECMG 2112/2114 23005KT SCT018=
202502201700 TAF WIHH 201700Z 2018/2118 20004KT 6000 FEW020
                      BECMG 2101/2103 27010KT SCT018=
202502201105 TAF COR WIHH 201105Z 2012/2112 22005KT 7000 SCT018
                      TEMPO 2018/2021 4000 -RA BKN015
                      BECMG 2100/2102 27008KT=
202502201100 TAF WIHH 201100Z 2012/2112 22005KT 7000 SCT018
                      TEMPO 2018/2021 4000 -RA BKN015
                      BECMG 2100/2302 27008KT=
202502200500 TAF WIHH 200500Z 2006/2106 33008KT 7000 SCT018
                      TEMPO 2008/2012 24012KT 3000 -TSRA BKN015
                       FEW017CB
                      BECMG 2014/2016 00000KT 6000=
202502192300 TAF WIHH 192300Z 2000/2100 30006KT 6000 SCT018
                      TEMPO 2006/2009 36012KT 3000 -TSRA FEW015CB
                       TEMPO 2013/2016 25010KT 4000 -RA BKN016
                       BECMG 2018/2020 00000KT 5000 HZ=
202502191700 TAF WIHH 191700Z 1918/2018 35006KT 6000 SCT018
                      BECMG 1922/2000 27005KT 5000 HZ=
202502191100 TAF WIHH 191100Z 1912/2012 34005KT 7000 SCT018
                      TEMPO 1914/1917 18008KT 4000 -RA FEW016CB
                       BKN018
                      BECMG 1919/1921 27005KT 5000 HZ=
202502190500 TAF WIHH 190500Z 1906/2006 34006KT 7000 SCT018
                      TEMPO 1907/1910 25012KT 3000 -TSRA FEW016CB
                       BKN018
                      BECMG 1911/1913 18005KT 5000 HZ
                      BECMG 1920/1922 27005KT=
202502182300 TAF WIHH 182300Z 1900/2000 31008KT 6000 SCT018
                      TEMPO 1901/1904 27012G20KT 3000 -TSRA BKN015
                       FEW017CB
                      TEMPO 1906/1909 3000 RA FEW018CB
                      BECMG 1911/1913 21004KT 5000 HZ=
202502181700 TAF WIHH 181700Z 1818/1918 30006KT 6000 SCT018
                      TEMPO 1819/1822 3000 -RA FEW017CB
                      BECMG 1823/1901 00000KT 4000 BR=
202502181100 TAF WIHH 181100Z 1812/1912 30006KT 6000 SCT018
                      TEMPO 1813/1815 4000 -RA
                      TEMPO 1818/1821 3000 RA FEW017CB BKN018
                      BECMG 1822/1900 00000KT 4000 BR=
202502180500 TAF WIHH 180500Z 1806/1906 27006KT 6000 SCT018
                      TEMPO 1806/1809 30014KT 3000 -TSRA BKN01
                       FEW018CB
                      BECMG 1811/1813 5000 HZ
                      TEMPO 1818/1821 3000 RA FEW017CB=
202502172300 TAF WIHH 172300Z 1800/1900 27008KT 7000 SCT020 TEMP0 1804/1807
                       4000 -RA BKN018
                      TEMPO 1809/1812 32010KT 3000 -TSRA FEW016CB
                       BECMG 1814/1816 18005KT 5000 HZ=
202502171700 TAF WIHH 171700Z 1718/1818 27006KT 6000 SCT020 TEMP0 1806/1809
                       20005KT 3000 -TSRA FEW016CB BKN018=
202502171100 TAF WIHH 171100Z 1712/1812 27006KT 6000 SCT020
                      BECMG 1722/1800 20005KT 5000 HZ=
202502170600 TAF AMD WIHH 170600Z 1706/1806 25008KT 8000 SCT020
                      TEMPO 1706/1710 36010G20KT 3000 -TSRA FEW016CB
                       BKN018
                      BECMG 1712/1714 20005KT 5000 HZ=
202502170500 TAF WIHH 170500Z 1706/1806 25008KT 8000 SCT020
                      TEMPO 1707/1710 36010G20KT 3000 -TSRA FEW016CB
                       BKN018
                      BECMG 1712/1714 20005KT 5000 HZ=
202502162300 TAF WIHH 162300Z 1700/1800 28010KT 6000 SCT020
                      TEMPO 1701/1705 4000 -RA BKN015
                      TEMPO 1707/1710 3000 -TSRA BKN014 FEW017CB
                       TEMPO 1718/1721 22012KT 4000 -RA BKN015=
202502161700 TAF WIHH 161700Z 1618/1718 26003KT 6000 SCT020
                      BECMG 1701/1703 28010KT=
202502161100 TAF WIHH 161100Z 1612/1712 25008KT 7000 SCT020
                      TEMPO 1612/1614 3000 -RA BKN015 FEW017CB
                       BECMG 1616/1618 27005KT 5000 HZ=
202502160500 TAF WIHH 160500Z 1606/1706 29010KT 7000 SCT018
                      TEMPO 1607/1611 33012G22KT 3000 -TSRA BKN016
                       FEW017CB
                      BECMG 1614/1616 22005KT 5000 HZ=
202502152300 TAF WIHH 152300Z 1600/1700 27008KT 6000 SCT018
                      TEMPO 1604/1606 3000 -RA
                      TEMPO 1608/1611 31012G20KT 3000 -TSRA BKN015
                       FEW017CB
                      BECMG 1613/1615 5000 HZ=
202502151700 TAF WIHH 151700Z 1518/1618 27006KT 6000 SCT018
                      TEMPO 1519/1522 3000 -RA BKN016
                      BECMG 1600/1602 5000 HZ FEW020
                      TEMPO 1606/1610 30014KT 3000 -TSRA FEW017CB
                       BKN018=
202502151100 TAF WIHH 151100Z 1512/1612 24006KT 6000 SCT018
                      TEMPO 1512/1515 3000 RA BKN016
                      BECMG 1516/1518 5000 HZ=
202502150500 TAF WIHH 150500Z 1506/1606 27006KT 6000 SCT018
                      TEMPO 1506/1510 24012G20KT 3000 -TSRA BKN016
                       FEW017CB
                      BECMG 1512/1514 5000 HZ=
202502142300 TAF WIHH 142300Z 1500/1600 27008KT 7000 SCT020
                      TEMPO 1504/1507 4000 -RA BKN018
                      TEMPO 1509/1512 23010G22KT 3000 -TSRA FEW017CB
                       BECMG 1514/1516 13005KT 5000 HZ=
202502141700 TAF WIHH 141700Z 1418/1518 24005KT 7000 FEW020
                      BECMG 1422/1500 5000 HZ SCT018
                      TEMPO 1508/1511 31012KT 3000 -TSRA FEW017CB=
202502141100 TAF WIHH 141100Z 1412/1512 25006KT 7000 SCT020
                      TEMPO 1413/1416 20013KT 3000 -RA FEW016CB
                       BKN018
                      BECMG 1418/1420 10005KT 5000 HZ=
202502140500 TAF WIHH 140500Z 1406/1506 24008KT 7000 SCT020
                      TEMPO 1409/1412 20010G20KT 3000 -TSRA FEW016CB
                       BKN018
                      BECMG 1414/1416 10005KT 5000 HZ=
202502132300 TAF WIHH 132300Z 1400/1500 28007KT 6000 FEW018
                      TEMPO 1403/1406 4000 -RA SCT016
                      TEMPO 1410/1413 24012G22KT 3000 -TSRA BKN015
                       FEW017CB
                      BECMG 1415/1417 15004KT FEW020=
202502131700 TAF WIHH 131700Z 1318/1418 12004KT 6000 SCT018
                      TEMPO 1320/1400 4000 -RA FEW017CB
                      BECMG 1403/1405 29008KT=
202502131130 TAF COR WIHH 131130Z 1312/1412 21009KT 7000 SCT018
                      TEMPO 1312/1315 5000 -TSRA FEW017CB
                      BECMG 1315/1317 15004KT 6000=
202502131100 TAF WIHH 131100Z 1312/1412 21009KT 7000 SCT018
                      BECMG 1315/1317 15004KT=
202502130500 TAF WIHH 130500Z 1306/1406 20010KT 7000 SCT018
                      TEMPO 1308/1311 16014KT 3000 -TSRA BKN015
                       FEW017CB
                      BECMG 1313/1315 22005KT 5000 HZ=
202502122300 TAF WIHH 122300Z 1300/1400 21006KT 6000 SCT020
                      TEMPO 1306/1310 24012G20KT 3000 -TSRA BKN016
                       FEW017CB
                      BECMG 1312/1314 5000 HZ
                      TEMPO 1318/1321 34012KT 4000 -RA FEW018CB=
202502121700 TAF WIHH 121700Z 1218/1318 27006KT 6000 SCT020
                      BECMG 1223/1301 VRB03KT 4000 BR FEW020
                      TEMPO 1307/1310 21014KT 3000 -RA BKN018=
202502121100 TAF WIHH 121100Z 1212/1312 24006KT 7000 SCT020
                      BECMG 1217/1219 5000 HZ FEW020=
202502120500 TAF WIHH 120500Z 1206/1306 21006KT 7000 SCT018
                      TEMPO 1209/1212 34012KT 4000 -RA FEW016CB
                       BKN018
                      BECMG 1214/1216 6000=
202502112300 TAF WIHH 112300Z 1200/1300 24006KT 7000 SCT020
                      BECMG 1200/1202 27005KT 4000 HZ
                      TEMPO 1211/1214 35008KT 3000 -TSRA FEW015CB
                       BKN017=
202502111700 TAF WIHH 111700Z 1118/1218 18005KT 5000 HZ SCT018
                      BECMG 1202/1204 27005KT 7000
                      TEMPO 1212/1215 35008KT 3000 -TSRA FEW015CB
                       BKN017=
202502111100 TAF WIHH 111100Z 1112/1212 34006KT 6000 SCT018
                      TEMPO 1114/1117 18005KT 3000 -TSRA FEW015CB
                       BKN017
                      BECMG 1119/1121 27005KT 5000 HZ=
202502110500 TAF WIHH 110500Z 1106/1206 35008KT 7000 SCT018
                      TEMPO 1115/1118 18005KT 3000 -TSRA FEW015CB
                       BKN017
                      BECMG 1120/1122 27005KT 5000 HZ=
202502102300 TAF WIHH 102300Z 1100/1200 29006KT 5000 HZ SCT018
                      TEMPO 1100/1103 4000 -RA BKN015
                      BECMG 1104/1106 34010KT 6000
                      TEMPO 1116/1120 3000 -RA BKN012 FEW016CB=
202502101700 TAF WIHH 101700Z 1018/1118 22003KT 6000 SCT015
                      TEMPO 1018/1020 3000 -TSRA BKN012 FEW017CB
                       BECMG 1021/1023 00000KT 5000 HZ SCT018=
202502101100 TAF WIHH 101100Z 1012/1112 34005KT 6000 SCT018
                      TEMPO 1019/1022 22008KT 3000 -TSRA BKN015
                       FEW017CB=
202502100500 TAF WIHH 100500Z 1006/1106 27007KT 4000 -RA BKN012
                      BECMG 1007/1009 32010KT 6000 SCT018
                      TEMPO 1019/1022 3000 -TSRA BKN016 FEW017CB=
202502092300 TAF WIHH 092300Z 1000/1100 30006KT 6000 SCT018
                      TEMPO 1000/1002 4000 -RA
                      BECMG 1003/1005 5000 HZ
                      TEMPO 1019/1022 34012KT 3000 -TSRA BKN016
                       FEW018CB=
202502091700 TAF WIHH 091700Z 0918/1018 27006KT 6000 SCT018
                      TEMPO 0919/0922 3000 -RA FEW017CB
                      BECMG 1000/1002 5000 HZ
                      TEMPO 1007/1010 34012KT 4000 -RA BKN016=
202502091100 TAF WIHH 091100Z 0912/1012 31006KT 7000 SCT018
                      BECMG 0915/0917 5000 HZ=
202502090500 TAF WIHH 090500Z 0906/1006 30006KT 6000 SCT018
                      TEMPO 0908/0911 27012KT 4000 -RA
                      BECMG 0912/0914 5000 HZ
                      TEMPO 0918/0921 3000 -TSRA BKN016 FEW018CB=
202502082300 TAF WIHH 082300Z 0900/1000 27006KT 7000 SCT018
                      TEMPO 0905/0909 33012KT 4000 -RA BKN015
                      TEMPO 0917/0921 3000 -TSRA BKN015 FEW016CB=
202502081700 TAF WIHH 081700Z 0818/0918 22004KT 6000 SCT018
                      TEMPO 0818/0821 4000 -RA BKN015 FEW017CB
                       BECMG 0901/0903 5000 HZ=
202502081100 TAF WIHH 081100Z 0812/0912 31006KT 7000 SCT018
                      TEMPO 0819/0821 4000 -RA BKN015 FEW017CB=
202502080500 TAF WIHH 080500Z 0806/0906 28008KT 6000 SCT018
                      TEMPO 0806/0810 4000 -RA BKN015
                      TEMPO 0819/0823 22005KT 3000 -RA FEW017CB=
202502072300 TAF WIHH 072300Z 0800/0900 33008KT 8000 SCT020
                      TEMPO 0800/0803 5000 -RA BKN018
                      BECMG 0805/0807 02012KT 6000
                      TEMPO 0819/0823 14005KT 3000 -RA FEW017CB=
202502071700 TAF WIHH 071700Z 0718/0818 06005KT 7000 SCT020
                      TEMPO 0720/0723 33010KT 3000 -TSRA FEW015CB
                       BKN017
                      BECMG 0801/0803 24006KT 5000 HZ=
202502071100 TAF WIHH 071100Z 0712/0812 33008KT 7000 SCT018
                      TEMPO 0715/0719 27010KT 3000 -TSRA FEW015CB
                       BKN017
                      TEMPO 0721/0800 20006KT 4000 -RA BKN016=
202502070500 TAF WIHH 070500Z 0706/0806 33008KT 6000 SCT018
                      TEMPO 0706/0709 4000 -RA BKN016
                      BECMG 0711/0713 02005KT 5000 HZ
                      TEMPO 0715/0719 27010KT 3000 -TSRA FEW016CB
                       BKN017=
202502062300 TAF WIHH 062300Z 0700/0800 30008KT 6000 SCT018
                      TEMPO 0708/0711 4000 -RA
                      BECMG 0712/0714 5000 HZ
                      TEMPO 0716/0720 27012KT 3000 -RA BKN017=
202502061700 TAF WIHH 061700Z 0618/0718 27006KT 6000 SCT018
                      TEMPO 0618/0621 3000 RA FEW017CB
                      BECMG 0623/0701 00000KT 5000 HZ=
202502061100 TAF WIHH 061100Z 0612/0712 33008KT 6000 SCT018
                      TEMPO 0618/0621 3000 RA BKN017
                      BECMG 0623/0701 VRB03KT 4000 BR=
202502060500 TAF WIHH 060500Z 0606/0706 27008KT 6000 SCT018
                      TEMPO 0607/0611 34014G20KT 3000 -TSRA BKN016
                       FEW017CB
                      BECMG 0613/0615 24005KT 5000 HZ
                      TEMPO 0619/0622 3000 RA BKN017=
202502052300 TAF WIHH 052300Z 0600/0700 27008KT 7000 SCT018
                      TEMPO 0600/0603 5000 -RA BKN016
                      TEMPO 0607/0610 33012KT 3000 -RA FEW016CB
                       BKN017
                      BECMG 0612/0614 24005KT 5000 HZ=
202502051700 TAF WIHH 051700Z 0518/0618 27005KT 7000 SCT020
                      TEMPO 0521/0600 22008KT 5000 -RA BKN016=
202502051100 TAF WIHH 051100Z 0512/0612 26006KT 7000 SCT018
                      TEMPO 0521/0600 22008KT 5000 -RA BKN016=
202502050500 TAF WIHH 050500Z 0506/0606 26008KT 7000 SCT018
                      TEMPO 0506/0509 35012KT 4000 -TSRA FEW015CB
                       BKN016
                      BECMG 0511/0513 22005KT 5000 HZ
                      TEMPO 0521/0600 3000 -RA BKN017=
202502042300 TAF WIHH 042300Z 0500/0600 29008KT 7000 SCT018
                      TEMPO 0505/0509 23014KT 4000 -RA BKN016
                      TEMPO 0515/0519 3000 -TSRA BKN015 FEW017CB=
202502041700 TAF WIHH 041700Z 0418/0518 24005KT 6000 FEW020
                      TEMPO 0420/0423 4000 -RA BKN015 FEW016CB
                       BECMG 0501/0503 28007KT 5000 HZ SCT018=
202502041100 TAF WIHH 041100Z 0412/0512 24008KT 6000 SCT015
                      TEMPO 0417/0421 3000 -TSRA BKN014 FEW016CB
                       BECMG 0422/0500 27006KT 5000 HZ=
202502040500 TAF COR WIHH 040500Z 0406/0506 30010KT 6000 SCT018
                      TEMPO 0407/0411 24014KT 3000 -TSRA FEW016CB
                       BKN017
                      TEMPO 0417/0421 4000 -TSRA SCT015 FEW017CB=
202502032300 TAF WIHH 032300Z 0400/0500 31008KT 6000 SCT020
                      TEMPO 0408/0411 24014KT 3000 RA BKN016=
202502031700 TAF WIHH 031700Z 0318/0418 30006KT 6000 SCT018
                      BECMG 0322/0400 5000 HZ=
202502031100 TAF WIHH 031100Z 0312/0412 30006KT 6000 SCT018
                      TEMPO 0316/0319 4000 -RA BKN017
                      BECMG 0321/0323 00000KT 4000 BR=
202502030500 TAF WIHH 030500Z 0306/0406 27006KT 6000 SCT018
                      TEMPO 0307/0310 34014KT 3000 -TSRA BKN016
                       FEW017CB
                      BECMG 0312/0314 5000 HZ
                      TEMPO 0315/0318 4000 -RA=
202502022300 TAF WIHH 022300Z 0300/0400 32008KT 6000 SCT018
                      TEMPO 0300/0303 5000 -RA BKN016
                      TEMPO 0307/0310 36013KT 3000 -TSRA FEW017CB
                       BECMG 0312/0314 04006KT 5000 HZ=
202502021700 TAF WIHH 021700Z 0218/0318 33006KT 7000 SCT020
                      TEMPO 0219/0222 18008KT 3000 -RA BKN016
                      BECMG 0300/0302 28006KT 5000 HZ=
202502021100 TAF WIHH 021100Z 0212/0312 33006KT 7000 SCT018
                      TEMPO 0215/0218 18008KT 3000 -TSRA FEW017CB
                       BECMG 0220/0222 VRB02KT 5000 HZ=
202502020500 TAF WIHH 020500Z 0206/0306 28006KT 7000 SCT018
                      TEMPO 0208/0211 34010KT 4000 -RA BKN016
                      TEMPO 0215/0218 18008KT 3000 -TSRA FEW017CB
                       BECMG 0220/0222 VRB02KT 5000 HZ=
202502012300 TAF WIHH 012300Z 0200/0300 33007KT 6000 SCT016
                      TEMPO 0200/0202 4000 -RA
                      TEMPO 0217/0220 18010KT 3000 -TSRA BKN015
                       FEW017CB=
202502011730 TAF COR WIHH 011730Z 0118/0218 15003KT 5000 HZ SCT016
                      TEMPO 0118/0121 4000 -RA BKN015
                      BECMG 0201/0203 32006KT=
202502011700 TAF WIHH 011700Z 0118/0218 15003KT 5000 HZ SCT018
                      BECMG 0201/0203 32006KT 6000=
202502011100 TAF WIHH 011100Z 0112/0212 32007KT 6000 SCT018
                      TEMPO 0117/0121 27010KT 4000 -RA BKN016
                      BECMG 0122/0200 34008KT 5000 HZ=
202502010500 TAF WIHH 010500Z 0106/0206 33010KT 6000 SCT017
                      TEMPO 0108/0111 27012KT 3000 RA BKN015 FEW016CB
                       TEMPO 0117/0121 4000 -RA BKN016=
