##########################################################
# Query made at 05/05/2026 03:23:28 UTC
# Time interval: from 07/01/2025 00:00  to 07/31/2025 23:59  UTC
##########################################################

##########################################################
# WIHH, Jakarta Halim Perdanakusuma (Indonesia)
# WMO index: 96747. WIGOS ID: Unknown
# Latitude 06-15S. Longitude 106-54E. Altitude 30 m.
##########################################################

###################################
#  METAR/SPECI from WIHH
###################################
202507312330 METAR WIHH 312330Z 07003KT 5000 HZ NSC 26/23 Q1010 NOSIG=
202507312300 METAR WIHH 312300Z 11003KT 5000 HZ FEW020 25/23 Q1009 NOSIG=
202507312230 METAR WIHH 312230Z 11003KT 6000 FEW020 26/23 Q1009 NOSIG=
202507312200 METAR WIHH 312200Z 12005KT 6000 SCT020 25/23 Q1009 NOSIG=
202507312130 METAR WIHH NIL=
202507312100 METAR WIHH NIL=
202507312030 METAR WIHH NIL=
202507312000 METAR WIHH NIL=
202507311930 METAR WIHH NIL=
202507311900 METAR WIHH NIL=
202507311830 METAR WIHH NIL=
202507311800 METAR WIHH NIL=
202507311730 METAR WIHH NIL=
202507311700 METAR WIHH 311700Z 15003KT 7000 FEW020 28/23 Q1010 NOSIG=
202507311630 METAR WIHH 311630Z 11004KT 8000 FEW020 27/23 Q1010 NOSIG=
202507311600 METAR WIHH 311600Z 08006KT 8000 FEW020 28/23 Q1010 NOSIG=
202507311530 METAR WIHH 311530Z 09006KT 8000 NSC 28/24 Q1010 NOSIG=
202507311500 METAR WIHH 311500Z 09008KT 8000 NSC 28/24 Q1010 NOSIG=
202507311430 METAR WIHH 311430Z 07010KT 8000 NSC 28/24 Q1010 NOSIG=
202507311400 METAR WIHH 311400Z 07009KT 8000 NSC 28/24 Q1010 NOSIG=
202507311330 METAR WIHH 311330Z 09007KT 8000 NSC 28/23 Q1010 NOSIG=
202507311300 METAR WIHH NIL=
202507311230 METAR WIHH NIL=
202507311200 METAR WIHH 311200Z 04011KT 8000 NSC 29/22 Q1009 NOSIG=
202507311130 METAR WIHH NIL=
202507311100 METAR WIHH 311100Z 04012KT 8000 FEW020 30/22 Q1008 NOSIG=
202507311030 METAR WIHH 311030Z 05013KT 8000 FEW020 30/23 Q1008 NOSIG=
202507311000 METAR WIHH 311000Z 06014KT 8000 FEW020 31/23 Q1007 NOSIG=
202507310930 METAR WIHH 310930Z 06011KT 8000 FEW018 32/23 Q1007 NOSIG=
202507310900 METAR WIHH 310900Z 06013KT 8000 FEW018 32/23 Q1007 NOSIG=
202507310830 METAR WIHH 310830Z 04014KT 8000 FEW018 32/23 Q1007 NOSIG=
202507310800 METAR WIHH NIL=
202507310730 METAR WIHH 310730Z 06012KT 7000 SCT018 33/22 Q1007 NOSIG=
202507310700 METAR WIHH 310700Z 07012KT 7000 SCT018 34/22 Q1007 NOSIG DUPE=
202507310630 METAR WIHH 310630Z 06013KT 7000 SCT018 32/22 Q1008 NOSIG=
202507310600 METAR WIHH 310600Z 09012KT 7000 SCT018 33/22 Q1009 NOSIG=
202507310530 METAR WIHH 310530Z 09012KT 7000 SCT018 33/22 Q1009 NOSIG=
202507310500 METAR WIHH 310500Z 10013KT 7000 SCT018 32/21 Q1010 NOSIG=
202507310430 METAR WIHH NIL=
202507310400 METAR WIHH 310400Z 07012KT 7000 SCT018 32/22 Q1011 NOSIG=
202507310330 METAR WIHH 310330Z 09011KT 7000 SCT018 32/22 Q1011 NOSIG=
202507310300 METAR WIHH NIL=
202507310230 METAR WIHH 310230Z 09015KT 6000 FEW020 30/22 Q1012 NOSIG=
202507310200 METAR WIHH 310200Z 09009KT 5000 HZ NSC 30/23 Q1012 NOSIG=
202507310130 METAR WIHH 310130Z 14004KT 5000 HZ FEW020 29/24 Q1012 NOSIG=
202507310100 METAR WIHH NIL=
202507310030 METAR WIHH 310030Z 13004KT 5000 HZ FEW020 27/24 Q1012 NOSIG=
202507310000 METAR WIHH 310000Z 12005KT 6000 FEW020 26/23 Q1011 NOSIG=
202507302330 METAR WIHH 302330Z 09003KT 7000 FEW020 26/23 Q1011 NOSIG=
202507302300 METAR WIHH 302300Z 07003KT 7000 FEW020 25/23 Q1011 NOSIG=
202507302230 METAR WIHH NIL=
202507302200 METAR WIHH 302200Z 00000KT 7000 SCT020 25/23 Q1010 NOSIG=
202507302130 METAR WIHH 302130Z 24003KT 7000 SCT018 25/23 Q1010 NOSIG METAR WARR 302130Z 29003KT 5000 HZ FEW020 23/22 Q1011 NOSIG=
202507302100 METAR WIHH NIL=
202507302030 METAR WIHH NIL=
202507302000 METAR WIHH NIL=
202507301930 METAR WIHH NIL=
202507301900 METAR WIHH NIL=
202507301830 METAR WIHH NIL=
202507301800 METAR WIHH NIL=
202507301730 METAR WIHH NIL=
202507301700 METAR WIHH NIL=
202507301630 METAR WIHH NIL=
202507301600 METAR WIHH 301600Z 24003KT 7000 BKN018 26/25 Q1011 RMK RA TO SW-W=
202507301530 METAR WIHH 301530Z 17003KT 7000 BKN018 26/25 Q1008 RMK RA TO SW=
202507301500 METAR WIHH 301500Z 18003KT 7000 BKN018 26/25 Q1011 NOSIG=
202507301430 METAR WIHH 301430Z 20006KT 7000 -RA BKN018 28/24 Q1011 NOSIG=
202507301400 METAR WIHH 301400Z 27003KT 8000 -RA BKN018 28/24 Q1011 NOSIG=
202507301330 METAR WIHH 301330Z 34004KT 8000 SCT018 29/24 Q1011 NOSIG=
202507301300 METAR WIHH 301300Z 08005KT 7000 SCT020 29/24 Q1010 NOSIG=
202507301230 METAR WIHH 301230Z 07006KT 7000 SCT018 29/23 Q1010 NOSIG=
202507301200 METAR WIHH 301200Z 06006KT 7000 SCT018 29/23 Q1010 NOSIG=
202507301130 METAR WIHH NIL=
202507301100 METAR WIHH 301100Z 05010KT 7000 FEW017CB SCT018 30/25 Q1009 NOSIG=
202507301030 METAR WIHH 301030Z 07010KT 7000 FEW017CB SCT018 31/23 Q1009 RMK CB AND RA TO S=
202507301000 METAR WIHH 301000Z 06010KT 7000 FEW017CB SCT018 31/24 Q1008 NOSIG RMK CB AND RA TO S=
202507300930 METAR WIHH 300930Z 05010KT 8000 SCT018 32/24 Q1008 NOSIG RMK RA TO S=
202507300900 METAR WIHH 300900Z 06010KT 8000 SCT018 32/23 Q1007 NOSIG=
202507300830 METAR WIHH 300830Z 05010KT 8000 SCT018 33/23 Q1007 NOSIG=
202507300800 METAR WIHH NIL=
202507300730 METAR WIHH NIL=
202507300700 METAR WIHH NIL=
202507300630 METAR WIHH 300630Z 04007KT 6000 SCT018 33/23 Q1008 NOSIG=
202507300600 METAR WIHH 300600Z 10007KT 6000 SCT018 34/23 Q1009 NOSIG=
202507300530 METAR WIHH NIL=
202507300500 METAR WIHH 300500Z 09010KT 7000 SCT018 32/23 Q1008 NOSIG=
202507300430 METAR WIHH 300430Z 04008KT 7000 SCT018 33/23 Q1010 NOSIG=
202507300400 METAR WIHH 300400Z 12006KT 7000 SCT018 32/22 Q1010 NOSIG=
202507300330 METAR WIHH 300330Z 10006KT 7000 SCT018 32/22 Q1010 NOSIG=
202507300300 METAR WIHH 300300Z 08006KT 8000 SCT018 31/22 Q1011 NOSIG=
202507300230 METAR WIHH 300230Z 03004KT 8000 FEW020 31/23 Q1011 NOSIG=
202507300200 METAR WIHH 300200Z 20005KT 8000 NCD 30/23 Q1011 NOSIG=
202507300130 METAR WIHH 300130Z 17004KT 8000 NSC 29/23 Q1011 NOSIG=
202507300100 METAR WIHH 300100Z 23005KT 8000 NSC 28/23 Q1011 NOSIG=
202507300030 METAR WIHH 300030Z 22005KT 8000 NSC 27/24 Q1011 NOSIG=
202507300000 METAR WIHH 300000Z 00000KT 7000 NSC 26/24 Q1010 NOSIG=
202507292330 METAR WIHH 292330Z 00000KT 7000 NSC 25/24 Q1010 NOSIG=
202507292300 METAR WIHH NIL=
202507292230 METAR WIHH 292230Z 24003KT 6000 FEW020 25/24 Q1010 NOSIG=
202507292200 METAR WIHH 292200Z 24003KT 6000 FEW020 25/24 Q1009 NOSIG=
202507292130 METAR WIHH 292130Z 00000KT 6000 FEW020 25/24 Q1009 NOSIG=
202507292100 METAR WIHH 292100Z 22003KT 6000 FEW020 25/24 Q1009 NOSIG=
202507292030 METAR WIHH NIL=
202507292000 METAR WIHH NIL=
202507291930 METAR WIHH NIL=
202507291900 METAR WIHH NIL=
202507291830 METAR WIHH NIL=
202507291800 METAR WIHH NIL=
202507291730 METAR WIHH NIL=
202507291700 METAR WIHH 291700Z 00000KT 8000 SCT020 28/24 Q1010 NOSIG=
202507291630 METAR WIHH 291630Z 00000KT 8000 SCT020 26/24 Q1010 NOSIG=
202507291600 METAR WIHH 291600Z 25004KT 8000 SCT020 27/24 Q1011 NOSIG=
202507291530 METAR WIHH NIL=
202507291500 METAR WIHH 291500Z 06005KT 8000 SCT020 28/24 Q1011 NOSIG=
202507291430 METAR WIHH 291430Z 04004KT 8000 SCT020 29/24 Q1010 NOSIG=
202507291400 METAR WIHH 291400Z 03006KT 8000 SCT020 29/24 Q1010 NOSIG=
202507291330 METAR WIHH 291330Z 07005KT 8000 SCT020 29/24 Q1010 NOSIG=
202507291300 METAR WIHH NIL=
202507291230 METAR WIHH 291230Z 05009KT 8000 SCT020 29/24 Q1009 NOSIG=
202507291200 METAR WIHH 291200Z 05010KT 8000 SCT020 29/24 Q1009 NOSIG=
202507291130 METAR WIHH 291130Z 05010KT 8000 FEW020 30/24 Q1008 NOSIG=
202507291100 METAR WIHH 291100Z 05012KT 8000 FEW020 30/23 Q1008 NOSIG=
202507291030 METAR WIHH 291030Z 05013KT 8000 SCT020 31/23 Q1007 NOSIG=
202507291000 METAR WIHH 291000Z 05011KT 8000 SCT020 31/23 Q1007 NOSIG=
202507290930 METAR WIHH 290930Z 05011KT 8000 SCT020 32/24 Q1007 NOSIG=
202507290900 METAR WIHH 290900Z 06011KT 8000 SCT020 33/24 Q1007 NOSIG=
202507290830 METAR WIHH 290830Z 04010KT 8000 SCT020 33/24 Q1007 NOSIG=
202507290800 METAR WIHH 290800Z 04011KT 8000 SCT020 33/23 Q1007 NOSIG=
202507290730 METAR WIHH 290730Z 05010KT 8000 SCT020 33/23 Q1007 NOSIG=
202507290700 METAR WIHH 290700Z 06011KT 8000 SCT020 33/23 Q1007 NOSIG=
202507290630 METAR WIHH 290630Z 06008KT 7000 SCT020 33/22 Q1008 NOSIG DUPE=
202507290600 METAR WIHH NIL=
202507290530 METAR WIHH 290530Z 05007KT 7000 SCT020 32/23 Q1009 NOSIG=
202507290500 METAR WIHH 290500Z 07008KT 7000 SCT020 33/23 Q1010 NOSIG=
202507290430 METAR WIHH 290430Z 04009KT 6000 SCT020 33/23 Q1010 NOSIG=
202507290400 METAR WIHH NIL=
202507290330 METAR WIHH 290330Z 07009KT 7000 SCT020 32/22 Q1011 NOSIG=
202507290300 METAR WIHH 290300Z 21004KT 7000 FEW020 31/24 Q1011 NOSIG=
202507290230 METAR WIHH NIL=
202507290200 METAR WIHH 290200Z 33003KT 7000 NSC 30/24 Q1011 NOSIG=
202507290130 METAR WIHH 290130Z 10003KT 7000 NSC 30/23 Q1011 NOSIG=
202507290100 METAR WIHH NIL=
202507290030 METAR WIHH 290030Z 18003KT 6000 NSC 27/23 Q1011 NOSIG=
202507290000 METAR WIHH 290000Z 22003KT 6000 FEW020 25/23 Q1010 NOSIG=
202507282330 METAR WIHH 282330Z 27003KT 6000 FEW020 25/23 Q1010 NOSIG=
202507282300 METAR WIHH 282300Z 24005KT 6000 FEW020 25/22 Q1010 NOSIG=
202507282230 METAR WIHH 282230Z 24003KT 8000 FEW020 24/23 Q1009 NOSIG=
202507282200 METAR WIHH NIL=
202507282130 METAR WIHH NIL=
202507282100 METAR WIHH 282100Z 24003KT 8000 FEW020 25/23 Q1009 NOSIG=
202507282030 METAR WIHH NIL=
202507282000 METAR WIHH NIL=
202507281930 METAR WIHH NIL=
202507281900 METAR WIHH NIL=
202507281830 METAR WIHH NIL=
202507281800 METAR WIHH NIL=
202507281730 METAR WIHH NIL=
202507281700 METAR WIHH NIL=
202507281630 METAR WIHH 281630Z 00000KT 8000 SCT020 26/23 Q1011 NOSIG=
202507281600 METAR WIHH 281600Z 00000KT 8000 SCT020 27/23 Q1011 NOSIG=
202507281530 METAR WIHH NIL=
202507281500 METAR WIHH NIL=
202507281430 METAR WIHH NIL=
202507281400 METAR WIHH NIL=
202507281330 METAR WIHH NIL=
202507281300 METAR WIHH NIL=
202507281230 METAR WIHH NIL=
202507281200 METAR WIHH NIL=
202507281130 METAR WIHH NIL=
202507281100 METAR WIHH NIL=
202507281030 METAR WIHH NIL=
202507281000 METAR WIHH 281000Z 28003KT 5000 HZ SCT018 30/24 Q1009 NOSIG=
202507280930 METAR WIHH 280930Z 32003KT 5000 HZ SCT018 29/24 Q1009 NOSIG=
202507280900 METAR WIHH NIL=
202507280830 METAR WIHH 280830Z 29004KT 5000 HZ SCT018 26/23 Q1008 RMK RA TO SW-NW=
202507280800 METAR WIHH 280800Z 31005KT 4000 TS FEW017CB SCT018 28/24 Q1009 RMK CB AND RA TO NW=
202507280730 METAR WIHH 280730Z 33004KT 4000 -TSRA BKN016 FEW017CB 27/25 Q1009 RMK CB TO NW=
202507280700 METAR WIHH NIL=
202507280630 METAR WIHH NIL=
202507280600 METAR WIHH NIL=
202507280530 METAR WIHH NIL=
202507280500 METAR WIHH NIL=
202507280430 METAR WIHH 280430Z 12003KT 5000 HZ SCT018 32/23 Q1011 NOSIG RMK RA TO NW=
202507280400 METAR WIHH 280400Z 27005KT 5000 HZ SCT018 32/23 Q1011 NOSIG=
202507280330 METAR WIHH NIL=
202507280300 METAR WIHH NIL=
202507280230 METAR WIHH 280230Z 14004KT 5000 HZ SCT018 30/24 Q1011 NOSIG=
202507280200 METAR WIHH 280200Z 15004KT 5000 HZ SCT018 30/24 Q1011 NOSIG=
202507280130 METAR WIHH 280130Z 21004KT 5000 HZ SCT018 29/24 Q1011 NOSIG=
202507280100 METAR WIHH NIL=
202507280030 METAR WIHH 280030Z 00000KT 4000 HZ SCT018 27/24 Q1011 NOSIG=
202507280000 METAR WIHH 280000Z 00000KT 4000 SCT018 26/24 Q1010 NOSIG=
202507272330 METAR WIHH 280000Z 00000KT 4000 SCT018 26/24 Q1010 NOSIG=
202507272300 METAR WIHH 272300Z 18004KT 5000 HZ SCT018 25/24 Q1010 NOSIG=
202507272230 METAR WIHH 272230Z 04004KT 6000 SCT018 26/24 Q1010 NOSIG=
202507272200 METAR WIHH NIL=
202507272130 METAR WIHH 272130Z 32004KT 7000 SCT018 26/24 Q1009 NOSIG=
202507272100 METAR WIHH 272100Z 07003KT 7000 SCT020 27/23 Q1009 NOSIG=
202507272030 METAR WIHH NIL=
202507272000 METAR WIHH NIL=
202507271930 METAR WIHH NIL=
202507271900 METAR WIHH NIL=
202507271830 METAR WIHH NIL=
202507271800 METAR WIHH NIL=
202507271730 METAR WIHH NIL=
202507271700 METAR WIHH 271700Z 00000KT 7000 SCT020 26/23 Q1012 NOSIG=
202507271630 METAR WIHH 271630Z 23003KT 8000 SCT020 27/23 Q1012 NOSIG=
202507271600 METAR WIHH NIL=
202507271530 METAR WIHH 271530Z 25005KT 8000 SCT020 27/22 Q1012 NOSIG=
202507271500 METAR WIHH 271500Z 24004KT 8000 SCT020 27/23 Q1012 NOSIG=
202507271430 METAR WIHH 271430Z 22006KT 8000 SCT020 26/23 Q1011 NOSIG DUPE=
202507271400 METAR WIHH NIL=
202507271330 METAR WIHH NIL=
202507271300 METAR WIHH 271300Z 24009KT 7000 28/24 Q1011 RMK RA TO SW-NW=
202507271230 METAR WIHH 271230Z 03006KT 8000 SCT020 30/24 Q1010 NOSIG RMK RA TO SW=
202507271200 METAR WIHH 271200Z 02007KT 8000 SCT020 30/23 Q1010 NOSIG=
202507271130 METAR WIHH NIL=
202507271100 METAR WIHH 271100Z 03009KT 8000 SCT020 31/24 Q1009 NOSIG=
202507271030 METAR WIHH 271030Z 03009KT 8000 SCT020 31/23 Q1008 NOSIG=
202507271000 METAR WIHH 271000Z 04009KT 8000 SCT020 32/22 Q1008 NOSIG RMK RA TO SW=
202507270930 METAR WIHH 270930Z 05009KT 8000 SCT020 33/22 Q1007 NOSIG=
202507270900 METAR WIHH 270900Z 04009KT 8000 SCT020 33/22 Q1007 NOSIG=
202507270830 METAR WIHH NIL=
202507270800 METAR WIHH 270800Z 06010KT 7000 SCT018 34/22 Q1008 RMK RA TO SW-W=
202507270730 METAR WIHH 270730Z 06010KT 6000 SCT018 33/22 Q1008 NOSIG=
202507270700 METAR WIHH NIL=
202507270630 METAR WIHH 270630Z 06008KT 6000 SCT018 34/22 Q1009 NOSIG=
202507270600 METAR WIHH 270600Z 06007KT 5000 HZ SCT018 33/22 Q1010 NOSIG=
202507270530 METAR WIHH NIL=
202507270500 METAR WIHH 270500Z 19005KT 5000 HZ SCT018 33/23 Q1011 NOSIG=
202507270430 METAR WIHH NIL=
202507270400 METAR WIHH 270400Z 22006KT 5000 HZ SCT020 32/23 Q1012 NOSIG=
202507270330 METAR WIHH NIL=
202507270300 METAR WIHH NIL=
202507270230 METAR WIHH 270230Z 19004KT 4000 HZ FEW020 30/24 Q1012 NOSIG=
202507270200 METAR WIHH 270200Z 07004KT 4000 HZ NSC 30/24 Q1012 NOSIG=
202507270130 METAR WIHH 270130Z 14003KT 4000 HZ NSC 30/25 Q1012 NOSIG=
202507270100 METAR WIHH 270100Z 16003KT 4000 HZ NSC 28/25 Q1012 NOSIG=
202507270030 METAR WIHH 270030Z 00000KT 4000 NSC 27/25 Q1012 NOSIG=
202507270000 METAR WIHH 270000Z 00000KT 3000 BR NSC 25/25 Q1011 NOSIG=
202507262330 METAR WIHH 262330Z 00000KT 3000 BR NSC 25/24 Q1011 NOSIG=
202507262300 METAR WIHH 262300Z 00000KT 3000 BR NSC 25/24 Q1010 NOSIG=
202507262230 METAR WIHH 262230Z 00000KT 5000 HZ NSC 25/24 Q1010 NOSIG=
202507262200 METAR WIHH 262200Z 00000KT 5000 HZ NSC 25/24 Q1010 NOSIG=
202507262130 METAR WIHH NIL=
202507262100 METAR WIHH 262100Z 16003KT 5000 HZ NSC 26/24 Q1009 NOSIG=
202507262030 METAR WIHH NIL=
202507262000 METAR WIHH NIL=
202507261930 METAR WIHH NIL=
202507261900 METAR WIHH NIL=
202507261830 METAR WIHH NIL=
202507261800 METAR WIHH NIL=
202507261730 METAR WIHH NIL=
202507261700 METAR WIHH 261700Z 11003KT 7000 NSC 28/24 Q1011 NOSIG=
202507261630 METAR WIHH 261630Z 11003KT 7000 NSC 28/24 Q1011 NOSIG=
202507261600 METAR WIHH 261600Z 11004KT 7000 NSC 27/24 Q1011 NOSIG=
202507261530 METAR WIHH 261530Z 14004KT 7000 NSC 28/24 Q1011 NOSIG=
202507261500 METAR WIHH 261500Z 09005KT 7000 NSC 28/24 Q1011 NOSIG=
202507261430 METAR WIHH 261430Z 08004KT 7000 NSC 29/24 Q1011 NOSIG=
202507261400 METAR WIHH NIL=
202507261330 METAR WIHH NIL=
202507261300 METAR WIHH 261300Z 04007KT 7000 NSC 29/24 Q1010 NOSIG=
202507261230 METAR WIHH NIL=
202507261200 METAR WIHH NIL=
202507261130 METAR WIHH 261130Z 05008KT 7000 NSC 30/23 Q1009 NOSIG=
202507261100 METAR WIHH 261100Z 03009KT 7000 NSC 31/23 Q1009 NOSIG=
202507261030 METAR WIHH 261030Z 02009KT 8000 NSC 31/23 Q1008 NOSIG=
202507261000 METAR WIHH NIL=
202507260930 METAR WIHH 260930Z 05009KT 8000 FEW020 33/23 Q1008 NOSIG=
202507260900 METAR WIHH 260900Z 03010KT 8000 FEW020 33/22 Q1008 NOSIG=
202507260800 METAR WIHH NIL=
202507260700 METAR WIHH 260700Z 02008KT 7000 FEW020 34/22 Q1008 NOSIG=
202507260630 METAR WIHH 260630Z 03008KT 7000 NSC 34/21 Q1009 NOSIG=
202507260600 METAR WIHH NIL=
202507260530 METAR WIHH 260530Z 36009KT 7000 NSC 34/21 Q1010 NOSIG=
202507260500 METAR WIHH 260500Z 04009KT 7000 NSC 33/22 Q1010 NOSIG=
202507260430 METAR WIHH 260430Z 10007KT 7000 NSC 34/21 Q1011 NOSIG=
202507260400 METAR WIHH 260400Z 11008KT 7000 NSC 32/22 Q1011 NOSIG=
202507260330 METAR WIHH 260330Z 06007KT 7000 NSC 32/22 Q1011 NOSIG=
202507260300 METAR WIHH NIL=
202507260230 METAR WIHH 260230Z 09005KT 7000 NSC 31/22 Q1012 NOSIG=
202507260200 METAR WIHH NIL=
202507260130 METAR WIHH NIL=
202507260100 METAR WIHH 260100Z 23003KT 5000 HZ NSC 28/24 Q1011 NOSIG=
202507260030 METAR WIHH NIL=
202507260000 METAR WIHH NIL=
202507252330 METAR WIHH 252330Z 24003KT 4000 HZ NSC 25/24 Q1010 NOSIG=
202507252300 METAR WIHH 252300Z 21003KT 4000 NSC 24/24 Q1010 NOSIG=
202507252230 METAR WIHH 252230Z 23003KT 4000 BR NSC 24/24 Q1010 NOSIG=
202507252200 METAR WIHH 252200Z 24002KT 4000 BR NSC 24/24 Q1009 NOSIG=
202507252130 METAR WIHH 252130Z 00000KT 4000 BR NSC 25/24 Q1009 NOSIG=
202507252100 METAR WIHH 252100Z 00000KT 4000 HZ NSC 25/24 Q1009 NOSIG=
202507252030 METAR WIHH NIL=
202507252000 METAR WIHH NIL=
202507251930 METAR WIHH NIL=
202507251900 METAR WIHH NIL=
202507251830 METAR WIHH NIL=
202507251800 METAR WIHH NIL=
202507251730 METAR WIHH NIL=
202507251700 METAR WIHH 251700Z 13004KT 6000 NSC 26/24 Q1010 NOSIG=
202507251630 METAR WIHH NIL=
202507251600 METAR WIHH 251600Z 12003KT 6000 NSC 27/24 Q1010 NOSIG=
202507251530 METAR WIHH 251530Z 12005KT 6000 NSC 27/24 Q1010 NOSIG=
202507251500 METAR WIHH 251500Z 13005KT 6000 NSC 28/24 Q1010 NOSIG=
202507251430 METAR WIHH 251430Z 11004KT 7000 NSC 28/24 Q1010 NOSIG=
202507251400 METAR WIHH NIL=
202507251330 METAR WIHH 251330Z 11009KT 7000 NSC 28/24 Q1010 NOSIG=
202507251300 METAR WIHH 251300Z 06009KT 7000 NSC 29/24 Q1009 NOSIG=
202507251230 METAR WIHH 251230Z 05008KT 7000 NSC 29/23 Q1009 NOSIG=
202507251200 METAR WIHH NIL=
202507251130 METAR WIHH 251130Z 07013KT 7000 NSC 31/23 Q1008 NOSIG=
202507251100 METAR WIHH 251100Z 07012KT 7000 NSC 30/23 Q1008 NOSIG=
202507251030 METAR WIHH 251030Z 07010KT 7000 FEW020 31/23 Q1007 NOSIG=
202507251000 METAR WIHH 251000Z 07013KT 7000 FEW020 32/23 Q1007 NOSIG=
202507250930 METAR WIHH 250930Z 05010KT 7000 SCT020 33/22 Q1007 NOSIG=
202507250900 METAR WIHH 250900Z 05010KT 7000 SCT020 33/22 Q1007 NOSIG=
202507250830 METAR WIHH 250830Z 07012KT 7000 SCT020 33/22 Q1007 NOSIG=
202507250800 METAR WIHH 250800Z 04010KT 7000 SCT020 33/22 Q1007 NOSIG=
202507250730 METAR WIHH 250730Z 04013KT 7000 SCT018 33/22 Q1007 NOSIG=
202507250700 METAR WIHH NIL=
202507250630 METAR WIHH 250630Z 06012KT 6000 SCT018 33/22 Q1008 NOSIG=
202507250600 METAR WIHH 250600Z 06010KT 6000 SCT020 33/21 Q1009 NOSIG=
202507250530 METAR WIHH NIL=
202507250500 METAR WIHH 250500Z 06012KT 6000 SCT020 33/21 Q1009 NOSIG=
202507250430 METAR WIHH 250430Z 08010KT 6000 SCT020 33/21 Q1009 NOSIG=
202507250400 METAR WIHH 250400Z 13005KT 6000 SCT020 32/22 Q1009 NOSIG=
202507250330 METAR WIHH NIL=
202507250300 METAR WIHH 250300Z 1105KT 6000 FEW020 32/22 Q1010 NOSIG=
202507250230 METAR WIHH 250230Z 09005KT 5000 NSC 31/23 Q1010 NOSIG=
202507250200 METAR WIHH NIL=
202507250130 METAR WIHH 250130Z 18003KT 5000 HZ NSC 29/23 Q1010 NOSIG=
202507250100 METAR WIHH NIL=
202507250030 METAR WIHH 250030Z 19004KT 4000 HZ NSC 27/23 Q1009 NOSIG=
202507250000 METAR WIHH 250000Z 16004KT 4000 HZ FEW020 25/23 Q1009 NOSIG=
202507242330 METAR WIHH NIL=
202507242300 METAR WIHH NIL=
202507242230 METAR WIHH NIL=
202507242200 METAR WIHH NIL=
202507242130 METAR WIHH NIL=
202507242100 METAR WIHH NIL=
202507242030 METAR WIHH NIL=
202507242000 METAR WIHH NIL=
202507241930 METAR WIHH NIL=
202507241900 METAR WIHH NIL=
202507241830 METAR WIHH NIL=
202507241800 METAR WIHH NIL=
202507241730 METAR WIHH NIL=
202507241700 METAR WIHH NIL=
202507241630 METAR WIHH NIL=
202507241600 METAR WIHH NIL=
202507241530 METAR WIHH NIL=
202507241500 METAR WIHH NIL=
202507241430 METAR WIHH NIL=
202507241400 METAR WIHH NIL=
202507241330 METAR WIHH NIL=
202507241300 METAR WIHH NIL=
202507241230 METAR WIHH NIL=
202507241200 METAR WIHH NIL=
202507241130 METAR WIHH NIL=
202507241100 METAR WIHH NIL=
202507241030 METAR WIHH NIL=
202507241000 METAR WIHH NIL=
202507240930 METAR WIHH NIL=
202507240900 METAR WIHH NIL=
202507240830 METAR WIHH NIL=
202507240800 METAR WIHH NIL=
202507240730 METAR WIHH NIL=
202507240700 METAR WIHH NIL=
202507240630 METAR WIHH NIL=
202507240600 METAR WIHH NIL=
202507240530 METAR WIHH NIL=
202507240500 METAR WIHH NIL=
202507240430 METAR WIHH 240430Z 13009KT 8000 FEW020 33/18 Q1008 NOSIG=
202507240400 METAR WIHH 240400Z 10008KT 7000 NSC 32/20 Q1009 NOSIG=
202507240330 METAR WIHH 240330Z 11008KT 7000 NSC 32/21 Q1009 NOSIG=
202507240300 METAR WIHH 240300Z 07009KT 6000 NSC 32/20 Q1009 NOSIG=
202507240230 METAR WIHH 240230Z 15008KT 6000 NSC 31/21 Q1010 NOSIG=
202507240200 METAR WIHH 240200Z 18003KT 5000 HZ NSC 30/22 Q1010 NOSIG=
202507240130 METAR WIHH NIL=
202507240100 METAR WIHH 240100Z 13004KT 4000 NSC 27/21 Q1010 NOSIG=
202507240030 METAR WIHH 240030Z 18004KT 5000 HZ NSC 26/21 Q1009 NOSIG=
202507240000 METAR WIHH 240000Z 21004KT 5000 HZ NSC 24/23 Q1009 NOSIG=
202507232330 METAR WIHH NIL=
202507232300 METAR WIHH 232300Z 21003KT 5000 HZ FEW020 24/22 Q1008 NOSIG=
202507232230 METAR WIHH 232230Z 25003KT 6000 FEW020 24/23 Q1008 NOSIG=
202507232200 METAR WIHH 232200Z 23003KT 6000 FEW020 24/23 Q1008 NOSIG=
202507232130 METAR WIHH 232130Z 24003KT 6000 FEW020 24/23 Q1008 NOSIG=
202507232100 METAR WIHH 232100Z 23003KT 6000 FEW020 24/23 Q1008 NOSIG=
202507232030 METAR WIHH NIL=
202507232000 METAR WIHH NIL=
202507231930 METAR WIHH NIL=
202507231900 METAR WIHH NIL=
202507231830 METAR WIHH NIL=
202507231800 METAR WIHH NIL=
202507231730 METAR WIHH NIL=
202507231700 METAR WIHH 231700Z 00000KT 7000 FEW020 25/23 Q1009 NOSIG=
202507231630 METAR WIHH 231630Z 00000KT 7000 FEW020 26/23 Q1009 NOSIG=
202507231600 METAR WIHH 231600Z 00000KT 7000 FEW020 26/23 Q1009 NOSIG=
202507231530 METAR WIHH NIL=
202507231500 METAR WIHH NIL=
202507231430 METAR WIHH 231430Z 12003KT 8000 FEW020 28/23 Q1009 NOSIG=
202507231400 METAR WIHH 231400Z 231400Z 11003KT 8000 28/23 Q1009 NOSIG METAR WARR 231400Z 11007KT 8000 FEW020 27/26 Q1010 NOSIG=
202507231330 METAR WIHH 231330Z 12004KT 8000 FEW020 28/23 Q1009 NOSIG=
202507231300 METAR WIHH NIL=
202507231230 METAR WIHH 231230Z 05007KT 8000 FEW020 29/22 Q1008 NOSIG=
202507231200 METAR WIHH 231200Z 04005KT 8000 FEW020 29/22 Q1007 NOSIG=
202507231130 METAR WIHH NIL=
202507231100 METAR WIHH NIL=
202507231030 METAR WIHH 231030Z 05008KT 8000 SCT018 32/20 Q1006 NOSIG=
202507231000 METAR WIHH 231000Z 03008KT 8000 SCT018 33/20 Q1006 NOSIG=
202507230930 METAR WIHH 230930Z 02008KT 8000 SCT018 33/19 Q1005 NOSIG=
202507230900 METAR WIHH 230900Z 02007KT 8000 SCT018 34/20 Q1005 NOSIG=
202507230830 METAR WIHH 230830Z 03007KT 8000 SCT018 33/20 Q1005 NOSIG=
202507230800 METAR WIHH NIL=
202507230730 METAR WIHH 230730Z 14004KT 7000 SCT018 33/19 Q1006 NOSIG=
202507230700 METAR WIHH NIL=
202507230630 METAR WIHH 230630Z 06005KT 7000 SCT018 32/19 Q1006 NOSIG=
202507230600 METAR WIHH NIL=
202507230530 METAR WIHH NIL=
202507230500 METAR WIHH 230500Z 06008KT 7000 SCT020 32/19 Q1008 NOSIG=
202507230430 METAR WIHH NIL=
202507230400 METAR WIHH 230400Z 07004KT 7000 FEW020 32/19 Q1009 NOSIG=
202507230330 METAR WIHH NIL=
202507230300 METAR WIHH NIL=
202507230230 METAR WIHH 230230Z 15003KT 6000 NSC 30/22 Q1010 NOSIG=
202507230200 METAR WIHH 230200Z 13003KT 6000 NSC 29/22 Q1010 NOSIG=
202507230130 METAR WIHH 230130Z 15003KT 5000 HZ NSC 28/22 Q1010 NOSIG=
202507230100 METAR WIHH 230100Z 21004KT 5000 HZ NSC 27/23 Q1009 NOSIG=
202507230030 METAR WIHH 230030Z 00000KT 5000 HZ NSC 25/22 Q1009 NOSIG=
202507230000 METAR WIHH 230000Z 00000KT 5000 HZ NSC 24/22 Q1009 NOSIG=
202507222330 METAR WIHH 222330Z 00000KT 6000 NSC 23/22 Q1008 NOSIG=
202507222300 METAR WIHH 222300Z 00000KT 7000 NSC 23/22 Q1008 NOSIG=
202507222230 METAR WIHH NIL=
202507222200 METAR WIHH 222200Z 15002KT 7000 NSC 24/22 Q1008 NOSIG=
202507222130 METAR WIHH 222130Z 14002KT 7000 NSC 24/22 Q1008 NOSIG=
202507222100 METAR WIHH 222100Z 16003KT 6000 NSC 24/22 Q1008 NOSIG=
202507222030 METAR WIHH NIL=
202507222000 METAR WIHH NIL=
202507221930 METAR WIHH NIL=
202507221900 METAR WIHH NIL=
202507221830 METAR WIHH NIL=
202507221800 METAR WIHH 221800Z 00000KT 7000 NSC 24/22 Q1009 NOSIG=
202507221730 METAR WIHH 221730Z 00000KT 7000 NSC 24/22 Q1010 NOSIG=
202507221700 METAR WIHH 221700Z 00000KT 7000 NSC 25/22 Q1010 NOSIG=
202507221630 METAR WIHH NIL=
202507221600 METAR WIHH 221600Z 16002KT 8000 NSC 26/22 Q1010 NOSIG=
202507221530 METAR WIHH NIL=
202507221500 METAR WIHH 221500Z 10006KT 8000 NSC 27/21 Q1010 NOSIG=
202507221430 METAR WIHH NIL=
202507221400 METAR WIHH NIL=
202507221330 METAR WIHH 221330Z 05007KT 8000 NSC 28/21 Q1009 NOSIG=
202507221300 METAR WIHH 221300Z 05006KT 8000 NSC 28/20 Q1008 NOSIG=
202507221230 METAR WIHH 221230Z 05008KT 8000 NSC 29/21 Q1007 NOSIG=
202507221200 METAR WIHH 221200Z 05008KT 8000 NSC 29/21 Q1007 NOSIG=
202507221130 METAR WIHH 221130Z 05008KT 8000 NSC 29/22 Q1007 NOSIG=
202507221100 METAR WIHH 221100Z 05008KT 8000 FEW020 29/22 Q1007 NOSIG=
202507221030 METAR WIHH 221030Z 03007KT 8000 FEW020 31/20 Q1007 NOSIG=
202507221000 METAR WIHH 221000Z 04008KT 8000 FEW020 31/20 Q1006 NOSIG=
202507220930 METAR WIHH 220930Z 05007KT 7000 SCT020 32/20 Q1006 NOSIG=
202507220900 METAR WIHH 220900Z 03007KT 7000 SCT020 32/20 Q1006 NOSIG=
202507220830 METAR WIHH 220830Z 05007KT 7000 SCT020 32/19 Q1006 NOSIG=
202507220800 METAR WIHH 220800Z 07008KT 7000 SCT020 32/19 Q1006 NOSIG=
202507220730 METAR WIHH 220730Z 04007KT 7000 SCT020 32/19 Q1006 NOSIG=
202507220700 METAR WIHH 220700Z 07006KT 7000 SCT020 32/19 Q1007 NOSIG=
202507220630 METAR WIHH NIL=
202507220600 METAR WIHH NIL=
202507220530 METAR WIHH 220530Z 03008KT 7000 FEW020 32/19 Q1008 NOSIG=
202507220500 METAR WIHH 220500Z 04010KT 7000 FEW020 32/20 Q1009 NOSIG=
202507220430 METAR WIHH NIL=
202507220400 METAR WIHH NIL=
202507220330 METAR WIHH 220330Z 07006KT 7000 NCD 31/20 Q1010 NOSIG=
202507220300 METAR WIHH NIL=
202507220230 METAR WIHH 220230Z 12006KT 6000 NSC 30/20 Q1010 NOSIG=
202507220200 METAR WIHH 220200Z 14005KT 5000 HZ NSC 29/22 Q1010 NOSIG=
202507220130 METAR WIHH 220130Z 09005KT 5000 HZ NSC 28/22 Q1010 NOSIG=
202507220100 METAR WIHH 220100Z METAR WIHH 220100Z METAR WARR 220100Z 26003KT 5000 HZ NSC 25/22 Q1011 NOSIG METAR WADD 220100Z VRB01KT 9999 FEW017 27/23 Q1012 NOSIG=
202507220030 METAR WIHH 220030Z 00000KT 5000 HZ NSC 26/22 Q1010 NOSIG=
202507220000 METAR WIHH 220000Z 00000KT 5000 HZ NSC 24/22 Q1010 NOSIG=
202507212330 METAR WIHH 212330Z 20003KT 4000 BR NSC 23/23 Q1010 NOSIG=
202507212300 METAR WIHH 212300Z 00000KT 4000 BR NSC 23/22 Q1009 NOSIG=
202507212230 METAR WIHH NIL=
202507212200 METAR WIHH 212200Z 00000KT 5000 HZ FEW020 23/22 Q1009 NOSIG=
202507212130 METAR WIHH 212130Z 00000KT 5000 HZ FEW020 24/22 Q1009 NOSIG=
202507212100 METAR WIHH 212100Z 00000KT 5000 HZ SCT020 24/23 Q1009 NOSIG=
202507212030 METAR WIHH NIL=
202507212000 METAR WIHH NIL=
202507211930 METAR WIHH NIL=
202507211900 METAR WIHH NIL=
202507211830 METAR WIHH NIL=
202507211800 METAR WIHH NIL=
202507211730 METAR WIHH NIL=
202507211700 METAR WIHH 211700Z 15003KT 6000 SCT020 26/22 Q1010 NOSIG=
202507211630 METAR WIHH 211630Z 13003KT 6000 SCT020 27/22 Q1010 NOSIG=
202507211600 METAR WIHH 211600Z 15003KT 6000 SCT020 27/22 Q1011 NOSIG=
202507211530 METAR WIHH NIL=
202507211500 METAR WIHH 211500Z 10006KT 8000 SCT020 28/22 Q1010 NOSIG=
202507211430 METAR WIHH 211430Z 10006KT 8000 SCT020 28/22 Q1010 NOSIG=
202507211400 METAR WIHH 211400Z 08007KT 8000 SCT020 28/22 Q1010 NOSIG=
202507211330 METAR WIHH 211330Z 05008KT 8000 SCT020 28/22 Q1010 NOSIG=
202507211300 METAR WIHH 211300Z 06008KT 8000 SCT020 28/22 Q1009 NOSIG=
202507211230 METAR WIHH 211230Z 07009KT 8000 SCT020 28/21 Q1009 NOSIG=
202507211200 METAR WIHH NIL=
202507211130 METAR WIHH 211130Z 05010KT 7000 SCT018 29/21 Q1008 NOSIG=
202507211100 METAR WIHH NIL=
202507211030 METAR WIHH NIL=
202507211000 METAR WIHH NIL=
202507210930 METAR WIHH NIL=
202507210900 METAR WIHH NIL=
202507210830 METAR WIHH 210830Z 03011KT 7000 SCT020 32/21 Q1006 NOSIG=
202507210800 METAR WIHH 210800Z 04012KT 7000 SCT018 32/21 Q1006 NOSIG=
202507210730 METAR WIHH 210730Z 06012KT 7000 SCT018 32/21 Q1006 NOSIG=
202507210700 METAR WIHH 210700Z 06007KT 7000 SCT018 33/20 Q1007 NOSIG=
202507210630 METAR WIHH 210630Z 06007KT 7000 SCT018 33/20 Q1007 NOSIG=
202507210600 METAR WIHH 210600Z 35007KT 7000 SCT018 33/21 Q1008 NOSIG=
202507210530 METAR WIHH NIL=
202507210500 METAR WIHH 210500Z 12005KT 7000 SCT020 33/20 Q1009 NOSIG=
202507210430 METAR WIHH NIL=
202507210400 METAR WIHH 210400Z 09008KT 6000 FEW020 32/23 Q1010 NOSIG=
202507210330 METAR WIHH 210330Z 18005KT 6000 NSC 31/22 Q1010 NOSIG=
202507210300 METAR WIHH 210300Z 15005KT 5000 HZ NSC 30/23 Q1011 NOSIG=
202507210230 METAR WIHH NIL=
202507210200 METAR WIHH 210200Z 12004KT 5000 HZ NSC 28/23 Q1011 NOSIG=
202507210130 METAR WIHH 210130Z 18003KT 5000 HZ NSC 28/23 Q1011 NOSIG=
202507210100 METAR WIHH 210100Z 12003KT 6000 NSC 27/23 Q1011 NOSIG=
202507210030 METAR WIHH NIL=
202507210000 METAR WIHH 210000Z 14003KT 6000 FEW020 25/23 Q1011 NOSIG=
202507202330 METAR WIHH 202330Z 21003KT 6000 FEW020 24/23 Q1010 NOSIG=
202507202300 METAR WIHH 202300Z 24003KT 6000 FEW020 24/23 Q1010 NOSIG=
202507202230 METAR WIHH 202230Z 29003KT 6000 FEW020 24/23 Q1010 NOSIG=
202507202200 METAR WIHH 202200Z 25003KT 6000 FEW020 24/23 Q1010 NOSIG=
202507202130 METAR WIHH 202130Z 23003KT 6000 FEW020 25/23 Q1009 NOSIG=
202507202100 METAR WIHH NIL=
202507202030 METAR WIHH NIL=
202507202000 METAR WIHH NIL=
202507201930 METAR WIHH NIL=
202507201900 METAR WIHH NIL=
202507201830 METAR WIHH NIL=
202507201800 METAR WIHH NIL=
202507201730 METAR WIHH NIL=
202507201700 METAR WIHH 201700Z 05004KT 7000 FEW020 27/22 Q1010 NOSIG=
202507201630 METAR WIHH 201630Z 06004KT 8000 SCT020 27/22 Q1010 NOSIG=
202507201600 METAR WIHH 201600Z 07005KT 8000 SCT020 28/22 Q1010 NOSIG=
202507201530 METAR WIHH 201530Z 07005KT 8000 SCT018 28/22 Q1010 NOSIG=
202507201500 METAR WIHH 201500Z 06005KT 8000 SCT018 28/22 Q1010 NOSIG=
202507201430 METAR WIHH NIL=
202507201400 METAR WIHH 201400Z 07004KT 8000 FEW020 28/22 Q1009 NOSIG=
202507201330 METAR WIHH 201330Z 03005KT 8000 FEW020 28/22 Q1009 NOSIG=
202507201300 METAR WIHH 201300Z 05005KT 7000 FEW020 29/21 Q1008 NOSIG=
202507201230 METAR WIHH NIL=
202507201200 METAR WIHH NIL=
202507201130 METAR WIHH 201130Z 34003KT 7000 FEW020 29/21 Q1007 NOSIG=
202507201100 METAR WIHH 201100Z 32006KT 7000 FEW020 29/21 Q1006 NOSIG=
202507201030 METAR WIHH 201030Z 36006KT 7000 FEW020 30/22 Q1006 NOSIG=
202507201000 METAR WIHH 201000Z 01007KT 6000 SCT018 30/22 Q1006 NOSIG=
202507200930 METAR WIHH NIL=
202507200900 METAR WIHH 200900Z 34006KT 6000 SCT018 31/23 Q1005 NOSIG=
202507200830 METAR WIHH NIL=
202507200800 METAR WIHH NIL=
202507200730 METAR WIHH 200730Z 04006KT 6000 SCT018 31/21 Q1005 NOSIG=
202507200700 METAR WIHH NIL=
202507200630 METAR WIHH NIL=
202507200600 METAR WIHH 200600Z 05005KT 7000 SCT018 32/21 Q1007 NOSIG=
202507200530 METAR WIHH NIL=
202507200500 METAR WIHH 200500Z 23003KT 7000 SCT018 32/23 Q1008 NOSIG=
202507200430 METAR WIHH 200430Z 06003KT 7000 SCT018 32/22 Q1009 NOSIG=
202507200400 METAR WIHH 200400Z 20003KT 7000 SCT018 31/22 Q1009 NOSIG=
202507200330 METAR WIHH NIL=
202507200300 METAR WIHH 200300Z 29003KT 7000 SCT020 30/22 Q1010 NOSIG=
202507200230 METAR WIHH 200230Z 18003KT 7000 SCT020 30/23 Q1010 NOSIG=
202507200200 METAR WIHH 200200Z 17004KT 7000 NSC 29/23 Q1010 NOSIG=
202507200130 METAR WIHH 200130Z 21004KT 7000 FEW020 28/23 Q1010 NOSIG=
202507200100 METAR WIHH 200100Z 24004KT 7000 FEW020 26/22 Q1010 NOSIG=
202507200030 METAR WIHH 200030Z 22004KT 7000 FEW020 26/22 Q1010 NOSIG=
202507200000 METAR WIHH 200000Z 20004KT 7000 FEW020 24/22 Q1009 NOSIG=
202507192330 METAR WIHH 192330Z 00000KT 7000 FEW020 24/22 Q1009 NOSIG=
202507192300 METAR WIHH 192300Z 00000KT 6000 FEW020 24/22 Q1008 NOSIG=
202507192230 METAR WIHH 192230Z 20003KT 6000 FEW020 24/22 Q1008 NOSIG=
202507192200 METAR WIHH 192200Z 00000KT 6000 FEW020 24/22 Q1008 NOSIG=
202507192130 METAR WIHH 192130Z 00000KT 6000 FEW020 24/23 Q1008 NOSIG=
202507192100 METAR WIHH NIL=
202507192030 METAR WIHH NIL=
202507192000 METAR WIHH NIL=
202507191930 METAR WIHH NIL=
202507191900 METAR WIHH NIL=
202507191830 METAR WIHH NIL=
202507191800 METAR WIHH NIL=
202507191730 METAR WIHH NIL=
202507191700 METAR WIHH NIL=
202507191630 METAR WIHH NIL=
202507191600 METAR WIHH NIL=
202507191530 METAR WIHH 191530Z 10005KT 7000 FEW020 28/22 Q1008 NOSIG=
202507191500 METAR WIHH 191500Z 10005KT 7000 FEW020 28/22 Q1008 NOSIG=
202507191430 METAR WIHH 191430Z 07005KT 7000 FEW020 28/22 Q1008 NOSIG=
202507191400 METAR WIHH 191400Z 06005KT 7000 FEW020 28/22 Q1008 NOSIG=
202507191330 METAR WIHH 191330Z 05004KT 6000 SCT020 29/22 Q1008 NOSIG=
202507191300 METAR WIHH 191300Z 04005KT 6000 SCT020 29/22 Q1008 NOSIG=
202507191230 METAR WIHH 191230Z 01004KT 6000 SCT020 26/22 Q1007 NOSIG=
202507191200 METAR WIHH 191200Z 01005KT 6000 SCT020 29/23 Q1007 NOSIG=
202507191130 METAR WIHH 191130Z 35007KT 6000 SCT020 30/22 Q1006 NOSIG=
202507191100 METAR WIHH 191100Z 02007KT 6000 SCT020 30/22 Q1006 NOSIG=
202507191030 METAR WIHH 191030Z 02008KT 7000 SCT020 30/22 Q1006 NOSIG=
202507191000 METAR WIHH NIL=
202507190930 METAR WIHH 190930Z 32008KT 7000 SCT020 31/23 Q1005 NOSIG=
202507190900 METAR WIHH 190900Z 34008KT 7000 SCT020 32/25 Q1005 NOSIG=
202507190830 METAR WIHH 190830Z 33008KT 7000 SCT020 32/23 Q1005 NOSIG=
202507190800 METAR WIHH NIL=
202507190730 METAR WIHH 190730Z 03008KT 7000 FEW020 33/22 Q1005 NOSIG=
202507190700 METAR WIHH 190700Z 03008KT 7000 FEW020 34/23 Q1005 NOSIG=
202507190630 METAR WIHH 190630Z 01004KT 7000 33/19 Q1006 NOSIG=
202507190600 METAR WIHH 190600Z 12005KT 7000 FEW020 33/21 Q1007 NOSIG=
202507190530 METAR WIHH NIL=
202507190500 METAR WIHH 190500Z 24005KT 7000 FEW020 33/21 Q1008 NOSIG=
202507190430 METAR WIHH 190430Z 16007KT 7000 FEW020 32/21 Q1008 NOSIG=
202507190400 METAR WIHH 190400Z 18007KT 7000 FEW020 31/21 Q1009 NOSIG=
202507190330 METAR WIHH 190330Z 07004KT 7000 FEW020 31/22 Q1009 NOSIG=
202507190300 METAR WIHH 190300Z 06005KT 7000 FEW020 30/22 Q1010 NOSIG=
202507190230 METAR WIHH NIL=
202507190200 METAR WIHH 190200Z 11004KT 7000 FEW020 29/22 Q1010 NOSIG=
202507190130 METAR WIHH 190130Z 12003KT 7000 NSC 28/22 Q1011 NOSIG=
202507190100 METAR WIHH 190100Z 17004KT 6000 NSC 26/21 Q1011 NOSIG=
202507190030 METAR WIHH 190030Z 19004KT 6000 NSC 26/21 Q1011 NOSIG=
202507190000 METAR WIHH 190000Z 24005KT 6000 FEW020 24/21 Q1010 NOSIG=
202507182330 METAR WIHH 182330Z 24003KT 6000 FEW020 24/22 Q1010 NOSIG=
202507182300 METAR WIHH NIL=
202507182230 METAR WIHH 182230Z 27003KT 7000 FEW020 24/22 Q1009 NOSIG=
202507182200 METAR WIHH 182200Z 22004KT 6000 FEW020 24/23 Q1009 NOSIG=
202507182130 METAR WIHH 182130Z 23002KT 6000 FEW020 24/23 Q1009 NOSIG=
202507182100 METAR WIHH 182100Z 00000KT 6000 FEW020 24/23 Q1009 NOSIG=
202507182030 METAR WIHH NIL=
202507182000 METAR WIHH NIL=
202507181930 METAR WIHH NIL=
202507181900 METAR WIHH NIL=
202507181830 METAR WIHH NIL=
202507181800 METAR WIHH NIL=
202507181730 METAR WIHH NIL=
202507181700 METAR WIHH 181700Z 18003KT 7000 SCT020 26/24 Q1010 NOSIG=
202507181630 METAR WIHH 181630Z 00000KT 7000 SCT020 26/24 Q1010 NOSIG=
202507181600 METAR WIHH NIL=
202507181530 METAR WIHH NIL=
202507181500 METAR WIHH 181500Z 24003KT 8000 SCT020 26/23 Q1010 RMK RA TO N=
202507181430 METAR WIHH NIL=
202507181400 METAR WIHH 181400Z 27004KT 8000 SCT020 29/23 Q1010 RMK RA TO W-SW=
202507181330 METAR WIHH 181330Z 02005KT 8000 SCT020 29/22 Q1010 RMK RA TO SW=
202507181300 METAR WIHH 181300Z 01005KT 8000 SCT020 29/22 Q1009 RMK RA TO SW=
202507181230 METAR WIHH NIL=
202507181200 METAR WIHH 181200Z 33004KT 8000 SCT019 28/22 Q1008 RMK CB TO SW=
202507181130 METAR WIHH 181130Z 34004KT 7000 SCT020 29/22 Q1008 NOSIG=
202507181100 METAR WIHH 181100Z 01005KT 7000 SCT020 29/22 Q1007 NOSIG=
202507181030 METAR WIHH 181030Z 35007KT 7000 FEW020 30/22 Q1007 NOSIG=
202507181000 METAR WIHH NIL=
202507180930 METAR WIHH 180930Z 34006KT 7000 FEW020 31/22 Q1006 NOSIG=
202507180900 METAR WIHH NIL=
202507180830 METAR WIHH 180830Z 30005KT 7000 FEW020 32/22 Q1006 NOSIG=
202507180800 METAR WIHH 180800Z 02005KT 7000 FEW020 33/23 Q1006 NOSIG=
202507180730 METAR WIHH NIL=
202507180700 METAR WIHH 180700Z 36010KT 6000 SCT018 32/23 Q1007 NOSIG=
202507180630 METAR WIHH 180630Z 03009KT 6000 SCT018 32/23 Q1007 NOSIG=
202507180600 METAR WIHH 180600Z 07004KT 6000 SCT018 32/22 Q1008 NOSIG=
202507180530 METAR WIHH 180530Z 02003KT 6000 SCT018 32/23 Q1008 NOSIG=
202507180500 METAR WIHH 180500Z 19004KT 6000 SCT018 31/23 Q1009 NOSIG=
202507180430 METAR WIHH 180430Z 10004KT 6000 SCT018 31/23 Q1009 NOSIG=
202507180400 METAR WIHH 180400Z 18004KT 6000 SCT018 32/22 Q1010 NOSIG=
202507180330 METAR WIHH 180330Z 23004KT 6000 SCT018 30/23 Q1010 NOSIG=
202507180300 METAR WIHH 180300Z 09005KT 6000 SCT018 30/23 Q1011 NOSIG=
202507180230 METAR WIHH 180230Z 10004KT 5000 HZ FEW020 30/23 Q1011 NOSIG=
202507180200 METAR WIHH 180200Z 13005KT 5000 HZ FEW020 29/24 Q1011 NOSIG=
202507180130 METAR WIHH 180130Z 13004KT 4000 HZ FEW020 28/24 Q1011 NOSIG=
202507180100 METAR WIHH 180100Z 14004KT 3000 HZ SCT020 27/24 Q1011 NOSIG=
202507180030 METAR WIHH 180030Z 14003KT 3000 BR SCT018 26/25 Q1011 NOSIG=
202507180000 METAR WIHH 180000Z 00000KT 3000 BR SCT017 26/25 Q1011 NOSIG=
202507172330 METAR WIHH 172330Z 00000KT 2000 BR SCT017 26/25 Q1010 NOSIG=
202507172300 METAR WIHH 172300Z 00000KT 2000 BR SCT020 25/25 Q1010 NOSIG=
202507172230 METAR WIHH 172230Z 00000KT 4000 SCT020 25/25 Q1010 NOSIG=
202507172200 METAR WIHH 172200Z 00000KT 4000 BR SCT020 26/25 Q1010 NOSIG=
202507172130 METAR WIHH 172130Z 00000KT 4000 BR SCT020 25/25 Q1010 NOSIG=
202507172100 METAR WIHH 172100Z 00000KT 6000 SCT020 25/25 Q1009 NOSIG=
202507172030 METAR WIHH NIL=
202507172000 METAR WIHH NIL=
202507171930 METAR WIHH NIL=
202507171900 METAR WIHH NIL=
202507171830 METAR WIHH NIL=
202507171800 METAR WIHH NIL=
202507171730 METAR WIHH NIL=
202507171700 METAR WIHH NIL=
202507171630 METAR WIHH 171630Z METAR WIHH 171630Z=
202507171600 METAR WIHH NIL=
202507171530 METAR WIHH 171530Z 00000KT 6000 SCT020 27/26 Q1011 NOSIG=
202507171500 METAR WIHH NIL=
202507171430 METAR WIHH 171430Z 35003KT 6000 SCT020 27/25 Q1011 NOSIG=
202507171400 METAR WIHH NIL=
202507171330 METAR WIHH 171330Z 32005KT 6000 SCT020 28/25 Q1010 NOSIG=
202507171300 METAR WIHH 171300Z 34005KT 6000 SCT020 28/25 Q1010 NOSIG=
202507171230 METAR WIHH 171230Z 36004KT 6000 SCT020 28/25 Q1010 NOSIG=
202507171200 METAR WIHH NIL=
202507171130 METAR WIHH 171130Z 34003KT 6000 SCT017 29/24 Q1008 NOSIG=
202507171100 METAR WIHH 171100Z 30004KT 6000 SCT017 29/24 Q1008 NOSIG=
202507171030 METAR WIHH 171030Z 32005KT 6000 SCT017 29/24 Q1008 NOSIG=
202507171000 METAR WIHH 171000Z 35007KT 7000 SCT017 30/24 Q1008 NOSIG=
202507170930 METAR WIHH 170930Z 32005KT 6000 SCT017 30/24 Q1008 NOSIG=
202507170900 METAR WIHH 170900Z 34006KT 6000 SCT017 30/23 Q1008 NOSIG=
202507170830 METAR WIHH NIL=
202507170800 METAR WIHH 170800Z 02008KT 5000 HZ SCT017 32/23 Q1007 RMK RA TO SE=
202507170730 METAR WIHH NIL=
202507170700 METAR WIHH 170700Z 03005KT 6000 SCT018 33/24 Q1008 NOSIG=
202507170630 METAR WIHH 170630Z 01007KT 6000 SCT018 32/23 Q1008 NOSIG=
202507170600 METAR WIHH 170600Z 01007KT 6000 SCT018 31/23 Q1009 NOSIG=
202507170530 METAR WIHH 170530Z 35007KT 6000 SCT018 31/24 Q1009 NOSIG=
202507170500 METAR WIHH 170500Z 36004KT 6000 SCT020 32/24 Q1009 NOSIG=
202507170430 METAR WIHH 170430Z 24003KT 6000 SCT020 31/24 Q1010 NOSIG=
202507170400 METAR WIHH 170400Z 24003KT 6000 SCT020 31/24 Q1010 NOSIG=
202507170330 METAR WIHH NIL=
202507170300 METAR WIHH 170300Z 15003KT 6000 FEW020 30/24 Q1011 NOSIG=
202507170230 METAR WIHH 170230Z 14004KT 7000 FEW020 30/24 Q1011 NOSIG=
202507170200 METAR WIHH 170200Z 21004KT 7000 FEW020 29/24 Q1011 NOSIG=
202507170130 METAR WIHH NIL=
202507170100 METAR WIHH 170100Z 24004KT 6000 SCT020 26/24 Q1011 NOSIG=
202507170030 METAR WIHH 170030Z 24004KT 6000 SCT018 25/24 Q1011 NOSIG=
202507170000 METAR WIHH 170000Z 26004KT 6000 SCT018 25/24 Q1011 NOSIG=
202507162330 METAR WIHH 162330Z 24004KT 5000 HZ FEW020 24/24 Q1010 NOSIG=
202507162300 METAR WIHH 162300Z 24004KT 4000 BR FEW020 24/24 Q1010 NOSIG=
202507162230 METAR WIHH 162230Z 24004KT 4000 BR FEW020 24/24 Q1010 NOSIG=
202507162200 METAR WIHH 162200Z 24003KT 4000 BR FEW020 25/24 Q1010 NOSIG DUPE=
202507162130 METAR WIHH NIL=
202507162100 METAR WIHH NIL=
202507162030 METAR WIHH NIL=
202507162000 METAR WIHH NIL=
202507161930 METAR WIHH NIL=
202507161900 METAR WIHH NIL=
202507161830 METAR WIHH NIL=
202507161800 METAR WIHH NIL=
202507161730 METAR WIHH NIL=
202507161700 METAR WIHH NIL=
202507161630 METAR WIHH NIL=
202507161600 METAR WIHH 161600Z 00000KT 6000 SCT018 25/24 Q1011 NOSIG=
202507161530 METAR WIHH 161530Z 30004KT 6000 SCT018 25/24 Q1011 RMK RA TO N=
202507161500 METAR WIHH NIL=
202507161430 METAR WIHH NIL=
202507161400 METAR WIHH 161400Z 04006KT 6000 -TSRA FEW016CB SCT017 25/24 Q1011 RMK CB TO N-E=
202507161330 METAR WIHH NIL=
202507161300 METAR WIHH 161300Z 27010KT 3000 -TSRA BKN015 FEW016CB 24/23 Q1010 RMK CB OTF=
202507161230 METAR WIHH 161230Z 18015KT 5000 -TSRA SCT016 FEW017CB 26/23 Q1010 TEMPO TL1240 1500 TSRA BKN014 FEW016CB RMK CB TO S=
202507161200 METAR WIHH 161200Z 01006KT 6000 TS FEW017CB SCT018 29/24 Q1009 RMK CB AND RA TO S-NW=
202507161130 METAR WIHH 161130Z 36007KT 6000 FEW017CB SCT018 29/24 Q1008 RMK CB AND RA TO S-NE=
202507161100 METAR WIHH 161100Z 35007KT 5000 HZ SCT018 29/24 Q1008 RMK RA TO S=
202507161030 METAR WIHH 161030Z 33005KT 5000 HZ SCT018 29/24 Q1008 RMK RA TO S=
202507161000 METAR WIHH 161000Z 35005KT 5000 HZ SCT018 30/24 Q1008 RMK RA TO S=
202507160930 METAR WIHH 160930Z 34007KT 5000 HZ SCT018 30/23 Q1008 RMK RA TO NE=
202507160900 METAR WIHH 160900Z 33005KT 5000 -RA FEW017CB SCT018 30/24 Q1007 RMK CB TO SW=
202507160830 METAR WIHH 160830Z 32007KT 4000 -RA FEW017CB SCT018 32/23 Q1007 RMK CB TO SE-SW=
202507160800 METAR WIHH 160800Z 33007KT 5000 HZ FEW017CB SCT018 32/23 Q1007 RMK CB AND RA TO SE-SW=
202507160730 METAR WIHH 160730Z 36007KT 5000 HZ SCT018 32/23 Q1007 TEMPO FM0820 4000 -RA SCT016 FEW017CB RMK RA TO SE AND S=
202507160700 METAR WIHH 160700Z 31005KT 5000 HZ SCT018 33/24 Q1008 TEMPO FM0720 4000 -RA SCT016 FEW017CB RMK RA TO E=
202507160630 METAR WIHH 160630Z 33007KT 5000 HZ SCT018 33/24 Q1008 RMK RA TO E=
202507160600 METAR WIHH 160600Z 34003KT 5000 HZ SCT018 32/24 Q1008 RMK RA TO NW=
202507160530 METAR WIHH 160530Z 14003KT 5000 HZ SCT018 33/22 Q1008 NOSIG=
202507160500 METAR WIHH 160500Z 12003KT 5000 HZ SCT020 32/23 Q1009 NOSIG=
202507160430 METAR WIHH 160430Z 05003KT 5000 HZ SCT020 33/22 Q1009 NOSIG=
202507160400 METAR WIHH NIL=
202507160330 METAR WIHH NIL=
202507160300 METAR WIHH NIL=
202507160230 METAR WIHH 160230Z 07003KT 4000 HZ FEW020 31/24 Q1011 NOSIG=
202507160200 METAR WIHH NIL=
202507160130 METAR WIHH 160130Z 21003KT 4000 HZ FEW020 29/24 Q1012 NOSIG=
202507160100 METAR WIHH 160100Z 23003KT 4000 HZ FEW020 28/24 Q1011 NOSIG=
202507160030 METAR WIHH NIL=
202507160000 METAR WIHH 160000Z 00000KT 4000 BR FEW020 25/25 Q1011 NOSIG=
202507152330 METAR WIHH 160000Z 00000KT 4000 BR FEW020 25/25 Q1011 NOSIG=
202507152300 METAR WIHH 152300Z 00000KT 4000 BR SCT020 25/24 Q1010 NOSIG=
202507152230 METAR WIHH 152230Z 00000KT 4000 BR SCT020 25/24 Q1010 NOSIG=
202507152200 METAR WIHH NIL=
202507152130 METAR WIHH NIL=
202507152100 METAR WIHH NIL=
202507152030 METAR WIHH NIL=
202507152000 METAR WIHH NIL=
202507151930 METAR WIHH NIL=
202507151900 METAR WIHH NIL=
202507151830 METAR WIHH NIL=
202507151800 METAR WIHH NIL=
202507151730 METAR WIHH NIL=
202507151700 METAR WIHH NIL=
202507151630 METAR WIHH 151630Z 18003KT 5000 HZ SCT020 26/24 Q1011 NOSIG=
202507151600 METAR WIHH 151600Z 00000KT 5000 HZ SCT020 26/24 Q1011 NOSIG=
202507151530 METAR WIHH 151530Z 00000KT 5000 HZ SCT020 27/24 Q1011 NOSIG=
202507151500 METAR WIHH NIL=
202507151430 METAR WIHH NIL=
202507151400 METAR WIHH 151400Z 18005KT 4000 HZ SCT018 27/24 Q1011 NOSIG=
202507151330 METAR WIHH NIL=
202507151300 METAR WIHH NIL=
202507151230 METAR WIHH 151230Z 11003KT 6000 SCT018 28/24 Q1010 RMK RA TO SW=
202507151200 METAR WIHH NIL=
202507151130 METAR WIHH 151130Z 14004KT 6000 SCT018 27/24 Q1009 RMK RA TO SE=
202507151100 METAR WIHH 151100Z 18004KT 5000 HZ SCT018 27/24 Q1009 RMK RA TO NE-SE=
202507151030 METAR WIHH 151030Z 24004KT 5000 HZ SCT018 27/24 Q1009 RMK RA TO SE AND SW=
202507151000 METAR WIHH 151000Z 20010KT 5000 HZ SCT018 FEW019CB 28/25 Q1008 TEMPO FM1015 4000 -RA RMK CB AND RA TO S-SW=
202507150930 METAR WIHH 150930Z 18012KT 4000 TS SCT018 31/25 Q1008 TEMPO FM0945 3000 -TSRA RMK CB AND RA TO S-SW=
202507150900 METAR WIHH 150900Z 02006KT 5000 TS SCT019 FEW020CB 32/24 Q1008 RMK CB AND RA TO S-SW=
202507150830 METAR WIHH 150830Z 04007KT 5000 HZ SCT018 FEW020CB 29/25 Q1008 RMK CB AND RA TO SW=
202507150800 METAR WIHH 150800Z 36007KT 5000 -RA SCT018 31/24 Q1008 NOSIG=
202507150730 METAR WIHH NIL=
202507150700 METAR WIHH NIL=
202507150630 METAR WIHH 150630Z 33005KT 7000 RA SCT018 32/22 Q1009 NOSIG=
202507150600 METAR WIHH 150600Z 12006KT 7000 SCT018 33/22 Q1009 NOSIG=
202507150530 METAR WIHH 150530Z 14004KT 7000 SCT018 33/22 Q1009 NOSIG=
202507150500 METAR WIHH 150500Z 22006KT 7000 SCT018 32/23 Q1010 NOSIG=
202507150430 METAR WIHH NIL=
202507150400 METAR WIHH 150400Z 23008KT 7000 SCT018 31/24 Q1011 NOSIG=
202507150330 METAR WIHH NIL=
202507150300 METAR WIHH NIL=
202507150230 METAR WIHH NIL=
202507150200 METAR WIHH 150200Z 24007KT 6000 FEW020 28/24 Q1012 NOSIG=
202507150130 METAR WIHH 150130Z 25006KT 6000 FEW020 27/24 Q1012 NOSIG=
202507150100 METAR WIHH 150100Z 24005KT 6000 FEW020 27/23 Q1012 NOSIG=
202507150030 METAR WIHH NIL=
202507150000 METAR WIHH 150000Z 19005KT 5000 HZ SCT020 25/24 Q1011 NOSIG=
202507142330 METAR WIHH 142330Z 00000KT 5000 HZ SCT020 25/24 Q1010 NOSIG=
202507142300 METAR WIHH 142300Z 00000KT 5000 HZ SCT020 25/24 Q1010 NOSIG=
202507142230 METAR WIHH 142230Z 24002KT 6000 SCT020 25/24 Q1010 NOSIG=
202507142200 METAR WIHH NIL=
202507142130 METAR WIHH NIL=
202507142100 METAR WIHH NIL=
202507142030 METAR WIHH NIL=
202507142000 METAR WIHH NIL=
202507141930 METAR WIHH NIL=
202507141900 METAR WIHH NIL=
202507141830 METAR WIHH NIL=
202507141800 METAR WIHH NIL=
202507141730 METAR WIHH NIL=
202507141700 METAR WIHH 141700Z 23004KT 6000 SCT020 26/24 Q1011 NOSIG=
202507141630 METAR WIHH NIL=
202507141600 METAR WIHH 141600Z 00000KT 6000 SCT018 26/23 Q1011 NOSIG=
202507141530 METAR WIHH 141530Z 00000KT 6000 SCT018 26/24 Q1011 NOSIG=
202507141500 METAR WIHH NIL=
202507141430 METAR WIHH 141430Z 22003KT 6000 SCT018 26/24 Q1011 NOSIG=
202507141400 METAR WIHH 141400Z 23005KT 6000 SCT018 26/24 Q1010 NOSIG=
202507141330 METAR WIHH 141330Z 21003KT 6000 SCT018 27/24 Q1010 NOSIG=
202507141300 METAR WIHH NIL=
202507141230 METAR WIHH 141230Z 00000KT 6000 SCT018 27/25 Q1009 NOSIG=
202507141200 METAR WIHH 141200Z 03004KT 6000 SCT017 28/23 Q1009 NOSIG=
202507141130 METAR WIHH NIL=
202507141100 METAR WIHH NIL=
202507141030 METAR WIHH 141030Z 03005KT 5000 HZ SCT017 29/23 Q1008 NOSIG=
202507141000 METAR WIHH 141000Z 01005KT 5000 HZ SCT017 30/23 Q1008 NOSIG=
202507140930 METAR WIHH NIL=
202507140900 METAR WIHH 140900Z 01006KT 5000 HZ SCT017 30/24 Q1008 NOSIG=
202507140830 METAR WIHH NIL=
202507140800 METAR WIHH 140800Z 05007KT 4000 -RA SCT017 29/25 Q1008 NOSIG=
202507140730 METAR WIHH 140730Z 04007KT 4000 HZ FEW016CB SCT017 31/24 Q1009 RMK CB AND RA TO E=
202507140700 METAR WIHH 140700Z 01006KT 5000 HZ SCT017 31/24 Q1009 RMK RA TO SE=
202507140630 METAR WIHH 140630Z 24005KT 5000 HZ SCT018 31/23 Q1010 RMK RA TO N=
202507140600 METAR WIHH 140600Z 23005KT 5000 HZ SCT018 31/23 Q1010 NOSIG=
202507140530 METAR WIHH 140530Z 21004KT 6000 SCT018 31/24 Q1011 NOSIG=
202507140500 METAR WIHH 140500Z 23004KT 6000 SCT018 31/24 Q1011 NOSIG=
202507140430 METAR WIHH 140430Z 15003KT 5000 HZ SCT018 30/24 Q1011 NOSIG=
202507140400 METAR WIHH NIL=
202507140330 METAR WIHH 140330Z 12004KT 5000 HZ SCT020 28/24 Q1012 NOSIG=
202507140300 METAR WIHH 140300Z 17004KT 5000 HZ SCT018 27/24 Q1012 NOSIG=
202507140230 METAR WIHH NIL=
202507140200 METAR WIHH NIL=
202507140130 METAR WIHH NIL=
202507140100 METAR WIHH 140100Z 21003KT 4000 HZ SCT018 26/25 Q1012 NOSIG=
202507140030 METAR WIHH NIL=
202507140000 METAR WIHH 140000Z 19003KT 4000 HZ SCT018 25/24 Q1011 NOSIG=
202507132330 METAR WIHH 132330Z 19003KT 5000 HZ SCT018 25/24 Q1011 NOSIG=
202507132300 METAR WIHH 132300Z 08003KT 5000 HZ SCT018 25/24 Q1011 NOSIG=
202507132230 METAR WIHH 132230Z 08003KT 6000 SCT018 26/24 Q1011 NOSIG=
202507132200 METAR WIHH 132200Z 07003KT 6000 SCT018 25/24 Q1010 NOSIG=
202507132130 METAR WIHH NIL=
202507132100 METAR WIHH 132100Z 00000KT 6000 SCT018 25/23 Q1010 NOSIG RMK RA TO SW=
202507132030 METAR WIHH NIL=
202507132000 METAR WIHH NIL=
202507131930 METAR WIHH NIL=
202507131900 METAR WIHH NIL=
202507131830 METAR WIHH NIL=
202507131800 METAR WIHH NIL=
202507131730 METAR WIHH NIL=
202507131700 METAR WIHH 131700Z 00000KT 7000 SCT018 27/25 Q1012 RMK RA TO SW=
202507131630 METAR WIHH NIL=
202507131600 METAR WIHH 131600Z 00000KT 7000 SCT018 27/25 Q1012 RMK RA TO SW=
202507131530 METAR WIHH 131530Z 00000KT 7000 SCT018 27/25 Q1012 NOSIG RMK RA TO S-SW=
202507131500 METAR WIHH 131500Z 00000KT 7000 SCT018 28/24 Q1012 RMK RA TO NW=
202507131430 METAR WIHH NIL=
202507131400 METAR WIHH 131400Z 06003KT 7000 SCT018 28/24 Q1011 NOSIG=
202507131330 METAR WIHH NIL=
202507131300 METAR WIHH 131300Z 06004KT 7000 SCT018 28/24 Q1010 NOSIG=
202507131230 METAR WIHH 131230Z 04006KT 7000 SCT020 29/24 Q1010 NOSIG=
202507131200 METAR WIHH 131200Z 07004KT 7000 SCT020 29/24 Q1010 NOSIG=
202507131130 METAR WIHH NIL=
202507131100 METAR WIHH 131100Z 05005KT 6000 SCT020 30/25 Q1009 NOSIG=
202507131030 METAR WIHH 131030Z 03006KT 6000 SCT020 30/24 Q1008 NOSIG=
202507131000 METAR WIHH 131000Z 02005KT 6000 SCT018 30/24 Q1008 NOSIG=
202507130930 METAR WIHH 130930Z 03005KT 6000 SCT018 30/24 Q1008 NOSIG=
202507130900 METAR WIHH 130900Z 04006KT 6000 SCT018 30/24 Q1008 NOSIG=
202507130830 METAR WIHH NIL=
202507130800 METAR WIHH 130800Z 03007KT 7000 SCT018 31/23 Q1008 NOSIG=
202507130730 METAR WIHH NIL=
202507130700 METAR WIHH 130700Z 03010KT 7000 SCT018 32/22 Q1009 RMK RA TO N=
202507130630 METAR WIHH 130630Z 07008KT 7000 SCT018 32/22 Q1009 NOSIG=
202507130600 METAR WIHH 130600Z 07015KT 7000 SCT018 33/23 Q1009 NOSIG=
202507130530 METAR WIHH NIL=
202507130500 METAR WIHH 130500Z 08012KT 7000 SCT018 32/23 Q1010 NOSIG=
202507130430 METAR WIHH 130430Z 09010KT 7000 SCT018 31/23 Q1010 NOSIG=
202507130400 METAR WIHH 130400Z 12010KT 6000 SCT018 31/22 Q1010 NOSIG=
202507130330 METAR WIHH 130330Z 08010KT 6000 SCT020 31/22 Q1011 NOSIG=
202507130300 METAR WIHH 130300Z 11010KT 6000 FEW020 31/22 Q1011 NOSIG=
202507130230 METAR WIHH 130230Z 06008KT 5000 HZ FEW020 30/22 Q1011 NOSIG=
202507130200 METAR WIHH 130200Z 06008KT 5000 HZ FEW020 30/22 Q1011 NOSIG=
202507130130 METAR WIHH 130130Z 15003KT 5000 HZ FEW020 29/23 Q1011 NOSIG=
202507130100 METAR WIHH 130100Z 23005KT 5000 HZ NSC 27/23 Q1011 NOSIG=
202507130030 METAR WIHH NIL=
202507130000 METAR WIHH NIL=
202507122330 METAR WIHH NIL=
202507122300 METAR WIHH 122300Z 25003KT 000 HZ FEW020 24/23 Q1010 NOSIG=
202507122230 METAR WIHH NIL=
202507122200 METAR WIHH 122200Z 00000KT 6000 FEW020 24/23 Q1010 NOSIG=
202507122130 METAR WIHH 122130Z 00000KT 6000 FEW020 24/23 Q1010 NOSIG=
202507122100 METAR WIHH NIL=
202507122030 METAR WIHH NIL=
202507122000 METAR WIHH NIL=
202507121930 METAR WIHH NIL=
202507121900 METAR WIHH NIL=
202507121830 METAR WIHH NIL=
202507121800 METAR WIHH NIL=
202507121730 METAR WIHH NIL=
202507121700 METAR WIHH 121700Z 10003KT 6000 FEW020 26/23 Q1011 NOSIG=
202507121630 METAR WIHH 121630Z 12003KT 6000 FEW020 26/23 Q1011 NOSIG=
202507121600 METAR WIHH NIL=
202507121530 METAR WIHH 121530Z 12003KT 7000 FEW020 27/22 Q1011 NOSIG=
202507121500 METAR WIHH 121500Z 11005KT 7000 FEW020 27/22 Q1011 NOSIG=
202507121430 METAR WIHH 121430Z 09006KT 8000 FEW020 27/22 Q1010=
202507121400 METAR WIHH 121400Z 09009KT 8000 FEW020 28/22 Q1010 NOSIG=
202507121330 METAR WIHH 121330Z 08008KT 8000 FEW020 28/22 Q1010 NOSIG=
202507121300 METAR WIHH 121300Z 07010KT 8000 FEW020 28/22 Q1009 NOSIG=
202507121230 METAR WIHH 121230Z 07012KT 7000 FEW020 28/22 Q1009 NOSIG=
202507121200 METAR WIHH 121200Z 06012KT 7000 FEW020 29/21 Q1009 NOSIG=
202507121130 METAR WIHH 121130Z 07015KT 7000 FEW020 29/21 Q1008 NOSIG=
202507121100 METAR WIHH NIL=
202507121030 METAR WIHH 121030Z 05011KT 7000 FEW020 30/21 Q1008 NOSIG=
202507121000 METAR WIHH NIL=
202507120930 METAR WIHH NIL=
202507120900 METAR WIHH 120900Z 06012KT 7000 FEW020 32/22 Q1007 NOSIG=
202507120830 METAR WIHH NIL=
202507120800 METAR WIHH 120800Z 06012KT 7000 SCT020 32/21 Q1007 NOSIG=
202507120730 METAR WIHH 120730Z 03011KT 7000 SCT020 33/21 Q1007 NOSIG=
202507120700 METAR WIHH 120700Z 04012KT 7000 SCT020 33/21 Q1007 NOSIG=
202507120630 METAR WIHH 120630Z 05012KT 7000 SCT020 33/21 Q1007 NOSIG=
202507120600 METAR WIHH 120600Z 11007KT 7000 SCT020 33/21 Q1008 NOSIG=
202507120530 METAR WIHH 120530Z 16006KT 6000 SCT020 32/21 Q1008 NOSIG=
202507120500 METAR WIHH 120500Z 10006KT 6000 FEW020 31/21 Q1009 NOSIG=
202507120430 METAR WIHH 120430Z 06005KT 6000 FEW020 31/21 Q1009 NOSIG=
202507120400 METAR WIHH 120400Z 12006KT 6000 FEW020 31/22 Q1010 NOSIG=
202507120330 METAR WIHH 120330Z 12008KT 6000 NSC 30/21 Q1010 NOSIG=
202507120300 METAR WIHH 120300Z 11006KT 5000 HZ NSC 30/21 Q1011 NOSIG=
202507120230 METAR WIHH 120230Z 07008KT 5000 HZ NSC 29/22 Q1011 NOSIG=
202507120200 METAR WIHH 120200Z 09009KT 5000 HZ NSC 29/23 Q1011 NOSIG=
202507120130 METAR WIHH 120130Z 11004KT 5000 HZ FEW020 28/23 Q1011 NOSIG=
202507120100 METAR WIHH NIL=
202507120030 METAR WIHH 120030Z 24003KT 3000 HZ FEW020 26/24 Q1011 NOSIG=
202507120000 METAR WIHH 120000Z 23003KT 3000 BR FEW020 24/23 Q1011 NOSIG=
202507112330 METAR WIHH 112330Z 24003KT 3000 BR FEW020 23/23 Q1010 NOSIG=
202507112300 METAR WIHH 112300Z 23003KT 3000 BR FEW020 23/23 Q1010 NOSIG=
202507112230 METAR WIHH NIL=
202507112200 METAR WIHH 112200Z 00000KT 5000 HZ FEW020 24/23 Q1010 NOSIG=
202507112130 METAR WIHH NIL=
202507112100 METAR WIHH NIL=
202507112030 METAR WIHH NIL=
202507112000 METAR WIHH NIL=
202507111930 METAR WIHH NIL=
202507111900 METAR WIHH NIL=
202507111830 METAR WIHH NIL=
202507111800 METAR WIHH NIL=
202507111730 METAR WIHH NIL=
202507111700 METAR WIHH 111700Z 00000KT 6000 FEW020 26/23 Q1011 NOSIG=
202507111630 METAR WIHH NIL=
202507111600 METAR WIHH 111600Z 00000KT 7000 FEW020 25/23 Q1011 NOSIG=
202507111530 METAR WIHH 111530Z 00000KT 7000 FEW020 26/23 Q1011 NOSIG=
202507111500 METAR WIHH 111500Z 00000KT 7000 FEW020 26/23 Q1011 NOSIG=
202507111430 METAR WIHH NIL=
202507111400 METAR WIHH 111400Z 08003KT 7000 FEW020 28/22 Q1010 NOSIG=
202507111330 METAR WIHH NIL=
202507111300 METAR WIHH 111300Z 05005KT 7000 FEW020 28/22 Q1009 NOSIG=
202507111230 METAR WIHH 111230Z 04005KT 7000 FEW020 28/22 Q1009 NOSIG=
202507111200 METAR WIHH 111200Z 07006KT 7000 FEW020 28/22 Q1008 NOSIG=
202507111130 METAR WIHH 111130Z 06005KT 7000 FEW020 29/21 Q1008 NOSIG=
202507111100 METAR WIHH NIL=
202507111030 METAR WIHH NIL=
202507111000 METAR WIHH NIL=
202507110930 METAR WIHH 110930Z 08007KT 7000 SCT020 31/20 Q1006 NOSIG=
202507110900 METAR WIHH 110900Z 03006KT 7000 SCT020 31/21 Q1006 NOSIG=
202507110830 METAR WIHH NIL=
202507110800 METAR WIHH 110800Z 07003KT 6000 SCT018 31/20 Q1006 NOSIG=
202507110730 METAR WIHH NIL=
202507110700 METAR WIHH 110700Z 02004KT 5000 HZ BKN018 31/22 Q1006 RMK RA TO NW=
202507110630 METAR WIHH NIL=
202507110600 METAR WIHH NIL=
202507110530 METAR WIHH 110530Z 27003KT 5000 HZ BKN018 31/21 Q1007 NOSIG=
202507110500 METAR WIHH 110500Z 00000KT 5000 HZ BKN018 30/21 Q1008 NOSIG=
202507110430 METAR WIHH 110430Z 00000KT 5000 HZ BKN018 30/21 Q1009 NOSIG=
202507110400 METAR WIHH 110400Z 00000KT 6000 BKN018 29/21 Q1009 NOSIG=
202507110330 METAR WIHH 110330Z 28003KT 6000 SCT018 30/22 Q1009 NOSIG=
202507110300 METAR WIHH 110300Z 20003KT 6000 SCT018 28/22 Q1010 NOSIG=
202507110230 METAR WIHH 110230Z 24003KT 6000 SCT018 28/23 Q1010 NOSIG=
202507110200 METAR WIHH NIL=
202507110130 METAR WIHH 110130Z 32003KT 7000 SCT020 28/22 Q1009 NOSIG=
202507110100 METAR WIHH 110100Z 27003KT 7000 SCT020 27/23 Q1009 NOSIG=
202507110030 METAR WIHH 110030Z 00000KT 7000 SCT020 27/23 Q1009 NOSIG DUPE=
202507110000 METAR WIHH 110000Z 00000KT 7000 SCT020 25/23 Q1008 NOSIG=
202507102330 METAR WIHH 102330Z 00000KT 7000 FEW020 25/23 Q1008 NOSIG=
202507102300 METAR WIHH 102300Z 00000KT 6000 FEW020 24/23 Q1008 NOSIG=
202507102230 METAR WIHH 102230Z 00000KT 6000 FEW020 25/23 Q1008 NOSIG=
202507102200 METAR WIHH NIL=
202507102130 METAR WIHH 102130Z 21003KT 6000 FEW020 25/23 Q1007 NOSIG=
202507102100 METAR WIHH 102100Z 27003KT 6000 FEW020 25/23 Q1007 NOSIG=
202507102030 METAR WIHH NIL=
202507102000 METAR WIHH NIL=
202507101930 METAR WIHH NIL=
202507101900 METAR WIHH NIL=
202507101830 METAR WIHH NIL=
202507101800 METAR WIHH NIL=
202507101730 METAR WIHH NIL=
202507101700 METAR WIHH NIL=
202507101630 METAR WIHH 101630Z 19003KT 8000 SCT020 27/22 Q1009 NOSIG=
202507101600 METAR WIHH 101600Z 19003KT 8000 SCT020 27/22 Q1009 NOSIG=
202507101530 METAR WIHH 101530Z 12004KT 8000 SCT020 27/21 Q1008 NOSIG=
202507101500 METAR WIHH NIL=
202507101430 METAR WIHH 101430Z 08005KT 8000 SCT020 28/21 Q1009 NOSIG=
202507101400 METAR WIHH NIL=
202507101330 METAR WIHH 101330Z 06008KT 8000 SCT020 28/21 Q1008 NOSIG=
202507101300 METAR WIHH 101300Z 05008KT 8000 SCT020 29/22 Q1008 NOSIG=
202507101230 METAR WIHH 101230Z 03007KT 8000 SCT020 29/23 Q1008 NOSIG=
202507101200 METAR WIHH 101200Z 01005KT 8000 SCT020 28/23 Q1008 NOSIG=
202507101130 METAR WIHH 101130Z 35005KT 8000 FEW020 29/22 Q1007 NOSIG=
202507101100 METAR WIHH 101100Z 36007KT 8000 FEW020 29/22 Q1007 NOSIG=
202507101030 METAR WIHH NIL=
202507101000 METAR WIHH 101000Z 34006KT 8000 SCT020 30/22 Q1007 NOSIG=
202507100930 METAR WIHH 100930Z 36007KT 8000 SCT020 31/23 Q1006 NOSIG=
202507100900 METAR WIHH 100900Z 34008KT 8000 SCT020 31/23 Q1006 NOSIG=
202507100830 METAR WIHH NIL=
202507100800 METAR WIHH 100800Z 33008KT 8000 SCT020 32/22 Q1007 NOSIG=
202507100730 METAR WIHH 100730Z 01009KT 8000 SCT020 32/21 Q1007 NOSIG=
202507100700 METAR WIHH 100700Z 02009KT 8000 SCT020 32/22 Q1007 NOSIG=
202507100630 METAR WIHH 100630Z 35008KT 8000 SCT020 32/22 Q1007 NOSIG=
202507100600 METAR WIHH NIL=
202507100530 METAR WIHH NIL=
202507100500 METAR WIHH 100500Z 34006KT 7000 SCT020 31/24 Q1009 NOSIG=
202507100430 METAR WIHH 100430Z 34006KT 7000 SCT020 31/24 Q1009 NOSIG=
202507100400 METAR WIHH 100400Z 34003KT 7000 SCT020 30/23 Q1010 NOSIG=
202507100330 METAR WIHH 100330Z 03005KT 7000 FEW020 31/23 Q1010 NOSIG=
202507100300 METAR WIHH 100300Z 07004KT 7000 FEW020 30/24 Q1010 NOSIG=
202507100230 METAR WIHH 100230Z 14003KT 7000 FEW020 30/23 Q1010 NOSIG=
202507100200 METAR WIHH 100200Z 16003KT 7000 FEW020 28/24 Q1011 NOSIG=
202507100130 METAR WIHH 100130Z 22003KT 7000 SCT020 27/24 Q1011 NOSIG=
202507100100 METAR WIHH 100100Z 21003KT 7000 SCT020 26/24 Q1010 NOSIG=
202507100030 METAR WIHH NIL=
202507100000 METAR WIHH 100000Z 13003KT 6000 SCT018 25/23 Q1009 NOSIG=
202507092330 METAR WIHH 092330Z 22003KT 6000 SCT018 25/23 Q1009 RMK RA TO NE=
202507092300 METAR WIHH 092300Z 21003KT 6000 SCT018 25/24 Q1009 RMK RA TO NE=
202507092230 METAR WIHH NIL=
202507092200 METAR WIHH 092200Z 17003KT 6000 SCT020 25/23 Q1009 NOSIG=
202507092130 METAR WIHH NIL=
202507092100 METAR WIHH NIL=
202507092030 METAR WIHH NIL=
202507092000 METAR WIHH NIL=
202507091930 METAR WIHH NIL=
202507091900 METAR WIHH NIL=
202507091830 METAR WIHH NIL=
202507091800 METAR WIHH NIL=
202507091730 METAR WIHH NIL=
202507091700 METAR WIHH 091700Z 00000KT 6000 FEW020 26/24 Q1011 NOSIG=
202507091630 METAR WIHH 091630Z 00000KT 6000 SCT020 26/24 Q1011 NOSIG=
202507091600 METAR WIHH 091600Z 16003KT 7000 SCT020 26/24 Q1011 NOSIG=
202507091530 METAR WIHH 091530Z 17003KT 7000 SCT020 26/24 Q1011 NOSIG=
202507091500 METAR WIHH 091500Z 09003KT 7000 SCT020 26/24 Q1011 NOSIG=
202507091430 METAR WIHH 091430Z 10003KT 7000 SCT018 26/24 Q1010 NOSIG=
202507091400 METAR WIHH NIL=
202507091330 METAR WIHH 091330Z 03003KT 7000 SCT018 26/24 Q1010 NOSIG=
202507091300 METAR WIHH NIL=
202507091230 METAR WIHH 091230Z 17006KT 7000 SCT018 27/24 Q1009 RMK RA TO SE=
202507091200 METAR WIHH 091200Z 17006KT 7000 FEW017CB SCT018 27/24 Q1009 RMK CB AND RA TO S=
202507091130 METAR WIHH NIL=
202507091100 METAR WIHH 091100Z 01004KT 7000 SCT018 29/24 Q1008 RMK RA TO S=
202507091030 METAR WIHH 091030Z 02006KT 7000 SCT018 30/23 Q1008 RMK RA TO S=
202507091000 METAR WIHH 091000Z 36005KT 7000 SCT018 30/23 Q1008 RMK RA TO SE=
202507090930 METAR WIHH 090930Z 01008KT 7000 SCT018 31/23 Q1008 RMK RA TO SE=
202507090900 METAR WIHH 090900Z 35010KT 7000 SCT018 32/23 Q1008 RMK RA TO E=
202507090830 METAR WIHH 090830Z 34004KT 7000 SCT018 33/23 Q1007 RMK RA TO E-SE=
202507090800 METAR WIHH 090800Z 35008KT 7000 SCT018 33/23 Q1007 RMK RA TO SE=
202507090730 METAR WIHH 090730Z 34006KT 7000 SCT018 33/24 Q1008 RMK RA TO NE AND SE=
202507090700 METAR WIHH 090700Z 01003KT 7000 SCT018 33/23 Q1008 NOSIG=
202507090630 METAR WIHH 090630Z 36005KT 7000 SCT020 33/23 Q1009 NOSIG=
202507090600 METAR WIHH 090600Z 28004KT 7000 SCT020 32/23 Q1009 NOSIG=
202507090530 METAR WIHH 090530Z 02005KT 7000 SCT020 32/24 Q1009 NOSIG=
202507090500 METAR WIHH 090500Z 36003KT 7000 SCT020 31/23 Q1010 NOSIG=
202507090430 METAR WIHH 090430Z 28003KT 7000 SCT020 31/24 Q1011 NOSIG=
202507090400 METAR WIHH 090400Z 34003KT 7000 SCT020 30/24 Q1011 NOSIG=
202507090330 METAR WIHH 090330Z 16003KT 7000 SCT020 29/24 Q1011 NOSIG=
202507090300 METAR WIHH NIL=
202507090230 METAR WIHH 090230Z 27003KT 5000 HZ SCT015 28/24 Q1012 RMK RA TO N=
202507090200 METAR WIHH 090200Z 03003KT 5000 HZ SCT015 27/24 Q1012 RMK RA TO N=
202507090130 METAR WIHH NIL=
202507090100 METAR WIHH 090100Z 00000KT 5000 HZ SCT015 FEW017CB 26/24 Q1012 TEMPO FM0120 4000 -RA BKN015 RMK CB AND RA TO NE-E=
202507090030 METAR WIHH 090030Z 21007KT 5000 HZ SCT015 26/25 Q1011 RMK RA TO NE=
202507090000 METAR WIHH 090000Z 24007KT 4000 -RA BKN015 26/25 Q1011 NOSIG=
202507082330 METAR WIHH 082330Z 23004KT 4000 HZ BKN015 26/25 Q1011 RMK RA TO N=
202507082300 METAR WIHH 082300Z 24007KT 6000 SCT020 26/24 Q1010 NOSIG=
202507082230 METAR WIHH NIL=
202507082200 METAR WIHH 082200Z 24003KT 6000 SCT020 25/24 Q1010 NOSIG=
202507082100 METAR WIHH NIL=
202507082000 METAR WIHH NIL=
202507081900 METAR WIHH NIL=
202507081800 METAR WIHH NIL=
202507081730 METAR WIHH NIL=
202507081700 METAR WIHH 081700Z 06003KT 7000 SCT020 28/25 Q1012 NOSIG=
202507081630 METAR WIHH NIL=
202507081600 METAR WIHH 081600Z 07003KT 7000 SCT020 28/25 Q1012 NOSIG=
202507081530 METAR WIHH 081530Z 07004KT 7000 SCT020 28/25 Q1012 NOSIG=
202507081500 METAR WIHH 081500Z 04004KT 7000 SCT020 28/24 Q1012 NOSIG=
202507081430 METAR WIHH NIL=
202507081400 METAR WIHH 081400Z 05005KT 7000 SCT020 28/24 Q1012 NOSIG=
202507081330 METAR WIHH 081330Z 06005KT 7000 SCT020 28/24 Q1011 NOSIG=
202507081300 METAR WIHH 081300Z 03005KT 7000 SCT020 29/24 Q1011 NOSIG=
202507081230 METAR WIHH NIL=
202507081200 METAR WIHH 081200Z 05008KT 7000 SCT020 29/24 Q1010 NOSIG=
202507081130 METAR WIHH 081130Z 04010KT 7000 SCT018 30/23 Q1009 NOSIG=
202507081100 METAR WIHH NIL=
202507081030 METAR WIHH 081030Z 04008KT 7000 SCT018 32/23 Q1008 NOSIG=
202507081000 METAR WIHH 081000Z 08008KT 7000 SCT018 32/23 Q1008 NOSIG=
202507080930 METAR WIHH 080930Z 06010KT 7000 SCT018 32/23 Q1008=
202507080900 METAR WIHH NIL=
202507080830 METAR WIHH 080830Z 05012KT 7000 SCT018 32/23 Q1008 NOSIG=
202507080800 METAR WIHH 080800Z 07012KT 7000 SCT018 32/23 Q1008 NOSIG=
202507080730 METAR WIHH 080730Z 05012KT 7000 SCT018 33/23 Q1008 NOSIG=
202507080700 METAR WIHH NIL=
202507080630 METAR WIHH NIL=
202507080600 METAR WIHH 080600Z 13015KT 7000 SCT020 33/22 Q1010 NOSIG DUPE=
202507080530 METAR WIHH NIL=
202507080500 METAR WIHH NIL=
202507080430 METAR WIHH 080430Z 14010KT 7000 SCT020 30/23 Q1011 NOSIG=
202507080400 METAR WIHH NIL=
202507080330 METAR WIHH 080330Z 10010KT 7000 SCT020 30/24 Q1012 NOSIG=
202507080300 METAR WIHH NIL=
202507080230 METAR WIHH 080230Z 07004KT 7000 FEW020 29/24 Q1012 NOSIG=
202507080200 METAR WIHH 080200Z 09003KT 7000 FEW020 27/24 Q1012 NOSIG=
202507080130 METAR WIHH 080130Z 05003KT 7000 FEW020 27/24 Q1012 NOSIG=
202507080100 METAR WIHH 080100Z 02003KT 7000 SCT020 26/24 Q1012 NOSIG=
202507080030 METAR WIHH 080030Z 02004KT 6000 SCT020 25/24 Q1012 NOSIG=
202507080000 METAR WIHH 080000Z 33003KT 6000 SCT003 24/23 Q1011 NOSIG=
202507072330 METAR WIHH NIL=
202507072300 METAR WIHH 072300Z 07003KT 6000 SCT017 24/23 Q1011 RMK RA TO N=
202507072230 METAR WIHH 072230Z 13003KT 6000 SCT017 24/23 Q1011 RMK RA TO N=
202507072200 METAR WIHH 072200Z 12003KT 6000 SCT017 24/23 Q1010 RMK RA TO N=
202507072130 METAR WIHH 072130Z 14004KT 6000 SCT017 24/23 Q1010 NOSIG=
202507072100 METAR WIHH 072100Z 11004KT 6000 SCT017 24/23 Q1010 NOSIG=
202507072030 METAR WIHH NIL=
202507072000 METAR WIHH NIL=
202507071930 METAR WIHH NIL=
202507071900 METAR WIHH NIL=
202507071830 METAR WIHH NIL=
202507071800 METAR WIHH NIL=
202507071730 METAR WIHH NIL=
202507071700 METAR WIHH NIL=
202507071630 METAR WIHH 071630Z 15004KT 6000 -TSRA FEW016CB SCT017 24/23 Q1014 RMK CB TO NE=
202507071600 METAR WIHH 071600Z 16004KT 5000 -TSRA FEW016CB SCT017 24/24 Q1014 RMK CB TO N-E=
202507071530 METAR WIHH 071530Z 19004KT 5000 -TSRA FEW016 SCT017CB 24/24 Q1014 RMK CB TO N-E=
202507071500 METAR WIHH 071500Z 22003KT 5000 -TSRA FEW016CB SCT017 24/24 Q1014 RMK CB TO N-E=
202507071430 METAR WIHH 071430Z 19003KT 6000 -TSRA 24/24 Q1014 RMK CB TO N-E=
202507071400 METAR WIHH 071400Z 20005KT 7000 -TSRA FEW016CB SCT017 24/24 Q1014 RMK CB TO N-E=
202507071330 METAR WIHH 071330Z 23008KT 7000 -TSRA FEW016CB 24/24 Q1013 RMK CB TO SE=
202507071300 METAR WIHH 071300Z 23008KT 5000 -TSRA FEW016CB SCT017 24/23 Q1013 RMK CB TO SE=
202507071230 METAR WIHH NIL=
202507071200 METAR WIHH 071200Z 11006KT 2000 -TSRA BKN015 FEW016CB 25/24 Q1012 RMK CB OVER THE FIELD=
202507071130 METAR WIHH 071130Z 19008KT 3000 BKN015 FEW016CB 26/25 Q1011 TEMPO TL1230 3000 -TSRA RMK CB OVER THE FIELD=
202507071100 METAR WIHH 071100Z 22009KT 3000 -TSRA BKN015 26/26 Q1011 TEMPO TL1200 3000 -TSRA RMK CB OVER THE FIELD=
202507071030 METAR WIHH NIL=
202507071000 METAR WIHH 071000Z 03007KT 6000 FEW016CB SCT017 30/24 Q1009 TEMPO FM1030 3000 -TSRA RMK CB AND RA TO S-W=
202507070930 METAR WIHH NIL=
202507070900 METAR WIHH 070900Z 02008KT 6000 FEW017CB SCT018 31/23 Q1009 RMK CB AND RA TO SW-W=
202507070830 METAR WIHH 070830Z 02012KT 6000 FEW017 SCT018 31/23 Q1009 NOSIG RMK CB AND RA TO SW-W=
202507070800 METAR WIHH 070800Z 01008KT 6000 FEW017CB SCT018 31/24 Q1009 RMK CB AND RA TO SW-W=
202507070730 METAR WIHH 070730Z 02010KT 6000 FEW017CB SCT018 32/22 Q1009 RMK CB AND RA TO SW=
202507070700 METAR WIHH 070700Z 06008KT 8000 SCT018 32/23 Q1009 RMK RA TO S=
202507070630 METAR WIHH 070630Z 10008KT 6000 SCT018 33/22 Q1010 NOSIG=
202507070600 METAR WIHH 070600Z 10008KT 6000 SCT018 33/22 Q1010 NOSIG=
202507070530 METAR WIHH 070530Z 08006KT 6000 SCT018 33/24 Q1010 NOSIG=
202507070500 METAR WIHH 070500Z 01005KT 6000 SCT020 32/23 Q1011 NOSIG=
202507070430 METAR WIHH 070430Z 12003KT 6000 SCT020 33/23 Q1011 NOSIG=
202507070400 METAR WIHH 070400Z 27003KT 6000 FEW020 32/22 Q1012 NOSIG=
202507070330 METAR WIHH NIL=
202507070300 METAR WIHH 070300Z 05004KT 6000 FEW020 31/22 Q1012 NOSIG=
202507070230 METAR WIHH NIL=
202507070200 METAR WIHH 070200Z METAR WIHH 070200Z=
202507070130 METAR WIHH 070130Z 02003KT 6000 FEW020 28/23 Q1012 NOSIG=
202507070100 METAR WIHH 070100Z 15003KT 6000 FEW020 28/23 Q1012 NOSIG=
202507070030 METAR WIHH 070030Z 30003KT 6000 FEW020 25/23 Q1011 NOSIG=
202507070000 METAR WIHH 070000Z 24004KT 6000 FEW020 24/23 Q1011 NOSIG=
202507062330 METAR WIHH 062330Z 22003KT 6000 FEW020 24/23 Q1011 NOSIG=
202507062300 METAR WIHH 062300Z 13003KT 6000 FEW020 24/23 Q1010 NOSIG=
202507062230 METAR WIHH 062230Z 11003KT 6000 FEW020 24/23 Q1010 NOSIG=
202507062200 METAR WIHH 062200Z 14003KT 6000 FEW020 24/23 Q1009 NOSIG=
202507062130 METAR WIHH NIL=
202507062100 METAR WIHH 062100Z 13004KT 6000 FEW020 24/23 Q1009 NOSIG=
202507062030 METAR WIHH NIL=
202507062000 METAR WIHH NIL=
202507061930 METAR WIHH NIL=
202507061900 METAR WIHH NIL=
202507061830 METAR WIHH NIL=
202507061800 METAR WIHH NIL=
202507061730 METAR WIHH NIL=
202507061700 METAR WIHH 061700Z 15003KT 7000 SCT020 24/23 Q1012 NOSIG=
202507061630 METAR WIHH 061630Z 14003KT 7000 SCT020 24/23 Q1012 NOSIG=
202507061600 METAR WIHH NIL=
202507061530 METAR WIHH 061530Z 26003KT 7000 SCT020 23/23 Q1012 NOSIG=
202507061500 METAR WIHH 061500Z 27003KT 7000 SCT020 23/23 Q1012 NOSIG=
202507061430 METAR WIHH 061430Z 16003KT 7000 SCT020 23/23 Q1012 NOSIG=
202507061400 METAR WIHH NIL=
202507061330 METAR WIHH 061330Z 25004KT 6000 SCT020 24/23 Q1012 RMK RA TO SE=
202507061300 METAR WIHH 061300Z 27004KT 6000 BKN016 23/23 Q1012 RMK RA TO N=
202507061230 METAR WIHH 061230Z 14004KT 6000 -RA BKN016 23/23 Q1012 NOSIG=
202507061200 METAR WIHH NIL=
202507061130 METAR WIHH NIL=
202507061100 METAR WIHH NIL=
202507061030 METAR WIHH 061030Z 25008KT 3000 TSRA FEW014CB BKN016 23/23 Q1011 TEMPO TL1100 3000 -RA RMK CB TO N=
202507061000 METAR WIHH 061000Z 19010KT 1500 TSRA FEW014CB BKN016 23/23 Q1011 TEMPO TL1100 3000 -RA RMK CB TO N=
202507060930 METAR WIHH 060930Z 26006KT 1300 TSRA BKN015 FEW017CB 23/23 Q1011 TEMPO TL1000 3000 -TSRA RMK CB TO NE=
202507060900 METAR WIHH NIL=
202507060830 METAR WIHH 060830Z 28015KT 0800 TSRA FEW016CB BKN018 23/22 Q1010 TEMPO TL0900 3000 -TSRA=
202507060800 METAR WIHH 060800Z 25010KT 2000 RA FEW016CB BKN018 27/24 Q1009 TEMPO TL0830 TSRA RMK CB TO NW=
202507060730 METAR WIHH NIL=
202507060700 METAR WIHH 060700Z 05004KT 8000 SCT018 33/22 Q1008 NOSIG=
202507060630 METAR WIHH 060630Z 05003KT 8000 SCT018 33/23 Q1009 NOSIG=
202507060600 METAR WIHH 060600Z 30005KT 8000 SCT018 32/23 Q1010 NOSIG=
202507060530 METAR WIHH 060530Z 34005KT 8000 SCT018 32/22 Q1010 NOSIG=
202507060500 METAR WIHH 060500Z 01005KT 8000 SCT020 33/22 Q1010 NOSIG=
202507060430 METAR WIHH 060430Z 04004KT 8000 SCT020 32/22 Q1011 NOSIG=
202507060400 METAR WIHH NIL=
202507060300 METAR WIHH 060300Z 09003KT 8000 FEW020 30/23 Q1012 NOSIG=
202507060230 METAR WIHH 060230Z 00000KT 8000 FEW020 30/24 Q1012 NOSIG=
202507060200 METAR WIHH 060200Z 13003KT 8000 FEW020 29/23 Q1012 NOSIG=
202507060130 METAR WIHH 060130Z 00000KT 7000 FEW020 28/24 Q1012 NOSIG=
202507060100 METAR WIHH 060100Z 00000KT 6000 SCT020 25/24 Q1012 NOSIG=
202507060030 METAR WIHH 060030Z 00000KT 6000 SCT020 25/24 Q1012 NOSIG=
202507060000 METAR WIHH 060000Z 03003KT 6000 SCT020 24/24 Q1011 NOSIG=
202507052330 METAR WIHH NIL=
202507052300 METAR WIHH 052300Z 18004KT 7000 BKN020 24/23 Q1010 RMK RA TO SE=
202507052230 METAR WIHH 052230Z 17004KT 8000 SCT020 24/23 Q1010 RMK RA TO W=
202507052200 METAR WIHH 052200Z 16003KT 8000 SCT020 24/23 Q1010 RMK RA TO NW-NE=
202507052130 METAR WIHH NIL=
202507052100 METAR WIHH NIL=
202507052030 METAR WIHH NIL=
202507052000 METAR WIHH NIL=
202507051930 METAR WIHH NIL=
202507051900 METAR WIHH NIL=
202507051830 METAR WIHH NIL=
202507051800 METAR WIHH NIL=
202507051730 METAR WIHH NIL=
202507051700 METAR WIHH 051700Z 04004KT 5000 -TSRA FEW018CB SCT019 25/24 Q1012 RMK CB OTF=
202507051630 METAR WIHH NIL=
202507051600 METAR WIHH NIL=
202507051530 METAR WIHH 051530Z 24005KT 8000 SCT018 FEW020CB 26/24 Q1012 RMK CB AND RA TO N=
202507051500 METAR WIHH 051500Z 22005KT 8000 SCT018 26/24 Q1012 RMK RA TO NW=
202507051430 METAR WIHH 051430Z 17005KT 8000 SCT018 26/24 Q1012 RMK RA TO NW=
202507051400 METAR WIHH NIL=
202507051330 METAR WIHH 051330Z 20010KT 7000 SCT018 26/24 Q1012 RMK CB AND RA TO W=
202507051300 METAR WIHH 051300Z 12008KT 7000 -RA SCT018 FEW020CB 29/24 Q1011 RMK CB TO W=
202507051230 METAR WIHH NIL=
202507051200 METAR WIHH 051200Z 05007KT 6000 SCT018 29/24 Q1010 RMK RA TO SW=
202507051130 METAR WIHH 051130Z 04008KT 6000 SCT018 29/23 Q1010 RMK RA TO N AND SW=
202507051100 METAR WIHH 051100Z 04013KT 6000 SCT019 FEW020CB 29/23 Q1009 RMK CB TO SW AND RA TO E-SW=
202507051030 METAR WIHH 051030Z 04011KT 8000 SCT019 FEW020CB 30/23 Q1009 RMK CB AND RA TO S=
202507051000 METAR WIHH NIL=
202507050930 METAR WIHH 050930Z 02010KT 8000 SCT020 31/23 Q1008 RMK RA TO SE=
202507050900 METAR WIHH 050900Z 01010KT 8000 SCT020 31/23 Q1008 RMK RA TO SE=
202507050830 METAR WIHH NIL=
202507050800 METAR WIHH 050800Z 01008KT 8000 SCT020 32/22 Q1008 NOSIG=
202507050730 METAR WIHH NIL=
202507050700 METAR WIHH 050700Z 33005KT 6000 SCT020 32/23 Q1008 RMK RA TO SE=
202507050630 METAR WIHH NIL=
202507050600 METAR WIHH NIL=
202507050530 METAR WIHH 050530Z 34012KT 4000 RA SCT018 29/24 Q1009 NOSIG=
202507050500 METAR WIHH 050500Z 34004KT 7000 SCT020 32/22 Q1010 RMK RA TO NW-NE=
202507050430 METAR WIHH 050430Z 26004KT 7000 SCT020 32/23 Q1010 RMK RA TO NW=
202507050400 METAR WIHH 050400Z 13004KT 7000 SCT020 32/22 Q1010 NOSIG=
202507050330 METAR WIHH 050330Z 12003KT 7000 SCT020 32/22 Q1011 NOSIG=
202507050300 METAR WIHH 050300Z 25004KT 7000 SCT020 30/23 Q1011 NOSIG=
202507050230 METAR WIHH NIL=
202507050200 METAR WIHH NIL=
202507050130 METAR WIHH 050130Z 25004KT 7000 FEW020 27/24 Q1012 NOSIG=
202507050100 METAR WIHH NIL=
202507050030 METAR WIHH 050030Z 23005KT 6000 FEW020 26/24 Q1012 NOSIG=
202507050000 METAR WIHH NIL=
202507042330 METAR WIHH 042330Z 24003KT 7000 FEW020 24/23 Q1011 NOSIG=
202507042300 METAR WIHH 042300Z 20003KT 7000 FEW020 25/23 Q1010 NOSIG=
202507042230 METAR WIHH NIL=
202507042200 METAR WIHH 042200Z 23003KT 8000 FEW020 25/24 Q1010 NOSIG=
202507042130 METAR WIHH 042130Z 24003KT 8000 FEW020 25/24 Q1009 NOSIG=
202507042100 METAR WIHH 042100Z 23003KT 8000 FEW020 25/24 Q1010 NOSIG=
202507042030 METAR WIHH NIL=
202507042000 METAR WIHH NIL=
202507041930 METAR WIHH NIL=
202507041900 METAR WIHH NIL=
202507041830 METAR WIHH NIL=
202507041800 METAR WIHH NIL=
202507041730 METAR WIHH NIL=
202507041700 METAR WIHH NIL=
202507041630 METAR WIHH NIL=
202507041600 METAR WIHH NIL=
202507041530 METAR WIHH 041530Z 00000KT 8000 SCT020 26/23 Q1011 NOSIG=
202507041500 METAR WIHH 041500Z 00000KT 8000 SCT020 26/23 Q1011 NOSIG=
202507041430 METAR WIHH 041430Z 23003KT 8000 SCT020 26/23 Q1011 NOSIG=
202507041400 METAR WIHH 041400Z 10003KT 8000 SCT020 27/23 Q1011 NOSIG=
202507041330 METAR WIHH 041330Z 19004KT 8000 SCT018 26/23 Q1011 NOSIG=
202507041300 METAR WIHH 041300Z 20003KT 8000 SCT018 27/23 Q1011 NOSIG=
202507041230 METAR WIHH 041230Z 18005KT 8000 SCT018 28/23 Q1010 NOSIG=
202507041200 METAR WIHH 041200Z 12003KT 7000 SCT018 29/22 Q1010 NOSIG=
202507041130 METAR WIHH 041130Z 04005KT 7000 SCT018 30/22 Q1009 NOSIG=
202507041100 METAR WIHH 041100Z 02006KT 7000 SCT018 30/23 Q1009 RMK RA TO S=
202507041030 METAR WIHH 041030Z 03006KT 7000 SCT018 30/22 Q1008 NOSIG RMK RA TO S=
202507041000 METAR WIHH NIL=
202507040930 METAR WIHH 040930Z 05005KT 6000 SCT018 31/22 Q1008 RMK RA TO SW AND NW=
202507040900 METAR WIHH 040900Z 02008KT 6000 FEW017 32/22 Q1008 RMK CB AND RA TO SW=
202507040830 METAR WIHH 040830Z 01005KT 6000 FEW017CB SCT018 32/22 Q1008 RMK CB AND RA TO SW=
202507040800 METAR WIHH 040800Z 07007KT 6000 FEW017CB SCT018 32/23 Q1008 RMK CB AND RA TO SW=
202507040730 METAR WIHH 040730Z 06008KT 6000 SCT018 32/23 Q1008 RMK RA TO SW AND NW=
202507040700 METAR WIHH NIL=
202507040630 METAR WIHH NIL=
202507040600 METAR WIHH 040600Z 19003KT 7000 SCT018 32/22 Q1009 NOSIG=
202507040530 METAR WIHH 040530Z 12003KT 7000 SCT018 32/22 Q1010 NOSIG=
202507040500 METAR WIHH 040500Z 03004KT 7000 SCT020 32/22 Q1010 NOSIG=
202507040430 METAR WIHH NIL=
202507040400 METAR WIHH 040400Z 14003KT 7000 FEW020 32/23 Q1011 NOSIG=
202507040330 METAR WIHH 040330Z 31003KT 7000 FEW020 30/23 Q1012 NOSIG=
202507040300 METAR WIHH 040300Z 04004KT 7000 FEW020 29/23 Q1012 NOSIG=
202507040230 METAR WIHH 040230Z 11003KT 7000 FEW020 29/23 Q1012 NOSIG=
202507040200 METAR WIHH 040200Z 24003KT 6000 FEW020 29/23 Q1012 NOSIG=
202507040130 METAR WIHH 040130Z 28003KT 5000 HZ FEW020 27/23 Q1013 NOSIG=
202507040100 METAR WIHH 040100Z 21003KT 5000 HZ FEW020 26/24 Q1012 NOSIG=
202507040030 METAR WIHH NIL=
202507040000 METAR WIHH NIL=
202507032330 METAR WIHH 032330Z 00000KT 4000 BR FEW020 24/23 Q1011 NOSIG=
202507032300 METAR WIHH NIL=
202507032230 METAR WIHH NIL=
202507032200 METAR WIHH 032200Z 00000KT 6000 FEW020 23/23 Q1010 NOSIG=
202507032130 METAR WIHH 032130Z 00000KT 6000 FEW020 23/23 Q1010 NOSIG=
202507032100 METAR WIHH 032100Z 00000KT 6000 SCT020 24/23 Q1010 NOSIG=
202507032030 METAR WIHH NIL=
202507032000 METAR WIHH NIL=
202507031930 METAR WIHH NIL=
202507031900 METAR WIHH NIL=
202507031830 METAR WIHH NIL=
202507031800 METAR WIHH NIL=
202507031730 METAR WIHH NIL=
202507031700 METAR WIHH NIL=
202507031630 METAR WIHH NIL=
202507031600 METAR WIHH NIL=
202507031530 METAR WIHH 031530Z 20004KT 8000 SCT018 25/23 Q1012 NOSIG=
202507031500 METAR WIHH 031500Z 19006KT 8000 SCT018 25/23 Q1012 NOSIG=
202507031430 METAR WIHH 031430Z 17008KT 8000 SCT018 26/24 Q1012 RMK RA TO SW=
202507031400 METAR WIHH 031400Z 18006KT 7000 SCT018 26/23 Q1012 RMK RA TO SE- SW=
202507031330 METAR WIHH 031330Z 15008KT 7000 SCT018 FEW020CB 26/22 Q1012 TEMPO FM1400 4000 RA BKN018 RMK CB AND RA TO S-SW=
202507031300 METAR WIHH 031300Z 09003KT 8000 TS SCT019 FEW020CB 28/24 Q1012 RMK CB AND RA TO S-SW=
202507031230 METAR WIHH NIL=
202507031200 METAR WIHH 031200Z 06007KT 8000 SCT019 FEW020CB 28/23 Q1010 RMK CB AND RA TO SW=
202507031130 METAR WIHH 031130Z 04009KT 8000 SCT019 FEW020CB 28/24 Q1010 RMK CB AND RA TO SW=
202507031100 METAR WIHH 031100Z 04010KT 8000 SCT019 FEW020CB 29/23 Q1010 RMK CB AND RA TO SW=
202507031030 METAR WIHH 031030Z 06010KT 8000 SCT020 29/24 Q1009 NOSIG=
202507031000 METAR WIHH 031000Z 05007KT 8000 SCT020 30/24 Q1009 NOSIG=
202507030930 METAR WIHH 030930Z 05007KT 8000 SCT020 30/24 Q1009 NOSIG=
202507030900 METAR WIHH 030900Z 04006KT 8000 SCT020 30/23 Q1008 NOSIG=
202507030830 METAR WIHH 030830Z 09008KT 8000 SCT020 31/24 Q1008 NOSIG=
202507030800 METAR WIHH 030800Z 03008KT 8000 SCT020 30/23 Q1009 NOSIG=
202507030730 METAR WIHH 030730Z 06009KT 8000 SCT020 30/23 Q1009 NOSIG=
202507030700 METAR WIHH 030700Z 04006KT 8000 SCT020 31/23 Q1009 NOSIG=
202507030630 METAR WIHH 030630Z 09007KT 7000 SCT020 31/23 Q1009 NOSIG=
202507030600 METAR WIHH 030600Z 07007KT 7000 SCT020 31/23 Q1010 NOSIG=
202507030530 METAR WIHH NIL=
202507030500 METAR WIHH 030500Z 09008KT 7000 SCT020 30/23 Q1011 NOSIG=
202507030430 METAR WIHH 030430Z 10008KT 7000 SCT020 30/23 Q1011 NOSIG=
202507030400 METAR WIHH 030400Z 09008KT 7000 SCT020 29/23 Q1011 NOSIG=
202507030330 METAR WIHH 030330Z 09006KT 6000 FEW020 29/23 Q1012=
202507030300 METAR WIHH 030300Z 06005KT 5000 HZ SCT020 28/23 Q1012 NOSIG=
202507030230 METAR WIHH 030230Z 03005KT 4000 HZ SCT020 28/24 Q1012 NOSIG=
202507030200 METAR WIHH NIL=
202507030130 METAR WIHH NIL=
202507030100 METAR WIHH NIL=
202507030030 METAR WIHH 030030Z 13003KT 3000 BR SCT018 26/25 Q1012 NOSIG=
202507030000 METAR WIHH 030000Z 20003KT 3000 BR SCT019 25/25 Q1012 NOSIG=
202507022330 METAR WIHH 022330Z 17003KT 3000 BR SCT018 25/25 Q1012 NOSIG=
202507022300 METAR WIHH 022300Z 14003KT 3000 BR SCT018 25/25 Q1011 NOSIG=
202507022230 METAR WIHH NIL=
202507022200 METAR WIHH NIL=
202507022130 METAR WIHH NIL=
202507022100 METAR WIHH NIL=
202507022030 METAR WIHH NIL=
202507022000 METAR WIHH NIL=
202507021930 METAR WIHH NIL=
202507021900 METAR WIHH NIL=
202507021830 METAR WIHH NIL=
202507021800 METAR WIHH NIL=
202507021730 METAR WIHH NIL=
202507021700 METAR WIHH 021700Z 19003KT 7000 SCT018 25/25 Q1012 NOSIG=
202507021630 METAR WIHH 021630Z 22003KT 7000 SCT018 25/24 Q1012 RMK RA TO S=
202507021600 METAR WIHH NIL=
202507021530 METAR WIHH NIL=
202507021500 METAR WIHH 021500Z 22003KT 7000 SCT018 24/24 Q1012 RMK RA TO S=
202507021430 METAR WIHH 021430Z 25003KT 7000 SCT018 24/24 Q1012 NOSIG=
202507021400 METAR WIHH NIL=
202507021330 METAR WIHH NIL=
202507021300 METAR WIHH 021300Z 19005KT 7000 SCT018 24/23 Q1011 RMK RA TO E-S=
202507021230 METAR WIHH 021230Z 20005KT 7000 FEW017CB SCT018 24/23 Q1011 RMK CB AND RA TO E-S=
202507021200 METAR WIHH 021200Z 17005KT 7000 FEW017CB SCT018 24/23 Q1011 RMK CB TO S=
202507021130 METAR WIHH 021130Z 05005KT 6000 -TSRA FEW016CB SCT017 23/22 Q1010 RMK CB TO S=
202507021100 METAR WIHH 021100Z 35006KT 4000 -TSRA BKN014 FEW016CB 23/22 Q1009 RMK CB TO N=
202507021030 METAR WIHH 021030Z 33006KT 1000 TSRA BKN014 FEW016CB 23/23 Q1010 RMK CB OTF=
202507021000 METAR WIHH NIL=
202507020930 METAR WIHH NIL=
202507020900 METAR WIHH 020900Z 03010KT 6000 FEW016CB SCT017 31/24 Q1007 RMK CB AND RA TO SW-NW=
202507020830 METAR WIHH NIL=
202507020800 METAR WIHH NIL=
202507020730 METAR WIHH 020730Z 03009KT 7000 SCT018 33/24 Q1007 RMK RA TO N=
202507020700 METAR WIHH 020700Z 06006KT 7000 SCT018 32/23 Q1008 NOSIG RMK RA TO N=
202507020630 METAR WIHH 020630Z 07006KT 7000 SCT018 32/23 Q1008 NOSIG=
202507020600 METAR WIHH NIL=
202507020530 METAR WIHH NIL=
202507020500 METAR WIHH NIL=
202507020430 METAR WIHH 020430Z 09006KT 8000 SCT018 31/22 Q1010 NOSIG=
202507020400 METAR WIHH NIL=
202507020330 METAR WIHH 020330Z 14007KT 8000 SCT019 31/23 Q1011 NOSIG=
202507020300 METAR WIHH 020300Z 10007KT 8000 FEW020 31/23 Q1011 NOSIG=
202507020230 METAR WIHH 020230Z 09012KT 8000 FEW020 30/23 Q1011 NOSIG=
202507020200 METAR WIHH 020200Z 13008KT 7000 FEW020 30/23 Q1011 NOSIG=
202507020130 METAR WIHH 020130Z 12008KT 6000 NSC 29/24 Q1011 NOSIG=
202507020100 METAR WIHH 020100Z 13008KT 5000 HZ NSC 28/23 Q1011 NOSIG=
202507020030 METAR WIHH 020030Z 00000KT 4000 HZ NSC 27/23 Q1011 NOSIG=
202507020000 METAR WIHH 020000Z 17003KT 4000 HZ FEW020 25/24 Q1010 NOSIG=
202507012330 METAR WIHH NIL=
202507012300 METAR WIHH NIL=
202507012230 METAR WIHH 012230Z 00000KT 6000 FEW020 24/23 Q1010 NOSIG=
202507012200 METAR WIHH 012200Z 00000KT 6000 FEW020 24/24 Q1010 NOSIG=
202507012130 METAR WIHH 012130Z 00000KT 6000 FEW020 24/23 Q1010 NOSIG=
202507012100 METAR WIHH 012100Z 00000KT 6000 SCT020 24/23 Q1010 NOSIG=
202507012030 METAR WIHH NIL=
202507012000 METAR WIHH NIL=
202507011930 METAR WIHH NIL=
202507011900 METAR WIHH NIL=
202507011830 METAR WIHH NIL=
202507011800 METAR WIHH NIL=
202507011730 METAR WIHH NIL=
202507011700 METAR WIHH NIL=
202507011630 METAR WIHH NIL=
202507011600 METAR WIHH 011600Z 24004KT 7000 SCT020 26/23 Q1012 RMK RA TO NE=
202507011530 METAR WIHH 011530Z 24004KT 7000 SCT020 26/23 Q1012 RMK RA TO NE=
202507011500 METAR WIHH 011500Z 24008KT 7000 SCT020 26/23 Q1012 RMK RA TO NE,SE=
202507011430 METAR WIHH 011430Z 25005KT 7000 SCT020 26/24 Q1012 RMK RA TO E,W=
202507011400 METAR WIHH 011400Z 26004KT 8000 SCT020 26/24 Q1012 RMK RA TO E,W=
202507011330 METAR WIHH 011330Z 24003KT 8000 SCT020 26/24 Q1011 NOSIG=
202507011300 METAR WIHH 011300Z 24003KT 8000 SCT020 26/24 Q1011 NOSIG=
202507011230 METAR WIHH 011230Z 19004KT 8000 SCT018 26/23 Q1010 NOSIG=
202507011200 METAR WIHH 011200Z 23004KT 8000 SCT018 26/23 Q1010 NOSIG=
202507011130 METAR WIHH NIL=
202507011100 METAR WIHH 011100Z 21006KT 8000 SCT018 26/22 Q1009 RMK RA TO SE,NW=
202507011030 METAR WIHH 011030Z 18005KT 8000 SCT018 27/22 Q1009 RMK RA TO S,W=
202507011000 METAR WIHH NIL=
202507010930 METAR WIHH 010930Z 04007KT 6000 SCT018 FEW020CB 31/23 Q1008 RMK CB AND RA TO SW-W=
202507010900 METAR WIHH 010900Z 05010KT 6000 SCT019 FEW020CB 31/23 Q1008 RMK CB AND RA TO SW-W=
202507010830 METAR WIHH 010830Z 06009KT 7000 SCT019 31/23 Q1008 RMK CB AND RA TO SW=
202507010800 METAR WIHH NIL=
202507010730 METAR WIHH 010730Z 05008KT 8000 SCT020 31/24 Q1008 RMK RA TO SE AND NW=
202507010700 METAR WIHH NIL=
202507010630 METAR WIHH 010630Z 05006KT 8000 SCT020 31/23 Q1009 RMK RA TO SE AND NW=
202507010600 METAR WIHH 010600Z 10006KT 8000 SCT020 32/23 Q1009 NOSIG=
202507010530 METAR WIHH 010530Z 09009KT 8000 SCT020 32/23 Q1009 NOSIG=
202507010500 METAR WIHH 010500Z 10008KT 8000 SCT020 31/23 Q1010 NOSIG=
202507010430 METAR WIHH 010430Z 11009KT 8000 SCT020 31/23 Q1010 NOSIG=
202507010400 METAR WIHH NIL=
202507010330 METAR WIHH 010330Z 09008KT 8000 SCT020 30/23 Q1011 NOSIG=
202507010300 METAR WIHH NIL=
202507010230 METAR WIHH 010230Z 09010KT 8000 SCT020 29/24 Q1011 NOSIG=
202507010200 METAR WIHH NIL=
202507010130 METAR WIHH NIL=
202507010100 METAR WIHH 010100Z 11003KT 7000 FEW020 27/25 Q1011 NOSIG=
202507010030 METAR WIHH 010030Z 12003KT 7000 FEW020 26/25 Q1011 NOSIG=
202507010000 METAR WIHH 010000Z 20003KT 7000 RA SCT018 25/24 Q1011 NOSIG=

# No short TAF reports from WIHH in databse.

###################################
#  large TAF from WIHH
###################################
202507312300 TAF WIHH 312300Z 0100/0200 09010KT 6000 FEW020
                      TEMPO 0109/0112 04015KT 4000 -RA FEW017CB
                       SCT018
                      BECMG 0113/0115 12006KT=
202507311700 TAF WIHH 311700Z 3118/0118 11004KT 5000 HZ FEW020
                      BECMG 0101/0103 08010KT 7000 SCT018=
202507311100 TAF WIHH 311100Z 3112/0112 12007KT 8000 FEW020
                      BECMG 3118/3120 00000KT 5000 HZ=
202507310500 TAF WIHH 310500Z 3106/0106 06012KT 7000 SCT018
                      TEMPO 3111/3115 02015KT 4000 -TSRA FEW017CB
                       BKN018
                      BECMG 3116/3118 12005KT 5000 HZ=
202507302300 TAF WIHH 302300Z 3100/0100 05008KT 7000 SCT018
                      BECMG 3100/3102 24005KT 5000 HZ FEW020
                      TEMPO 3110/3114 34010KT 4000 -TSRA FEW017CB
                       BKN018=
202507301700 TAF WIHH 301700Z 3018/3118 18005KT 6000 SCT018
                      BECMG 3022/3100 24005KT 5000 HZ FEW020
                      BECMG 3103/3105 08010KT 8000 SCT020=
202507301100 TAF WIHH 301100Z 3012/3112 06008KT 7000 SCT020
                      BECMG 3015/3017 17005KT 5000 HZ=
202507300500 TAF WIHH 300500Z 3006/3106 05010KT 7000 SCT020
                      TEMPO 3010/3013 25010KT 4000 -RA FEW017CB
                       BKN018
                      BECMG 3015/3017 17005KT 5000 HZ=
202507292300 TAF WIHH 292300Z 3000/3100 21008KT 7000 FEW020
                      TEMPO 3009/3012 03012KT 4000 -RA BKN018
                      BECMG 3013/3015 06006KT=
202507291700 TAF WIHH 291700Z 2918/3018 00000KT 8000 SCT020
                      BECMG 2921/2923 12003KT 5000 HZ SCT020=
202507291100 TAF WIHH 291100Z 2912/3012 07012KT 8000 FEW020
                      BECMG 2918/2920 15005KT 6000=
202507290500 TAF WIHH 290500Z 2906/3006 35010KT 6000 SCT018
                      TEMPO 2908/2911 05012KT 4000 -TSRA FEW017CB
                       BKN018
                      BECMG 2913/2915 14006KT=
202507282300 TAF WIHH 282300Z 2900/3000 24008KT 6000 FEW020
                      BECMG 2900/2902 15005KT 5000 HZ
                      TEMPO 2908/2911 35012KT 3000 -TSRA FEW017CB
                       BKN018=
202507281700 TAF WIHH 281700Z 2818/2918 22005KT 7000 SCT020
                      BECMG 2821/2823 5000 HZ FEW020
                      BECMG 2904/2906 03008KT=
202507281100 TAF WIHH 281100Z 2812/2912 26005KT 7000 SCT020
                      BECMG 2821/2823 18004KT 5000 HZ FEW020=
202507280600 TAF AMD WIHH 280600Z 2806/2906 06008KT 6000 SCT020
                      TEMPO 2806/2809 24010KT 4000 -TSRA FEW016CB
                       BKN018=
202507280500 TAF WIHH 280500Z 2806/2906 06008KT 6000 SCT020
                      TEMPO 2810/2813 24010KT 4000 -RA BKN018=
202507272300 TAF WIHH 272300Z 2800/2900 03005KT 5000 HZ FEW020
                      TEMPO 2809/2811 12012KT 4000 -RA SCT018
                      BECMG 2813/2815 21005KT=
202507271700 TAF WIHH 271700Z 2718/2818 00000KT 6000 SCT020
                      BECMG 2721/2723 17003KT 4000 BR SCT018=
202507271100 TAF WIHH 271100Z 2712/2812 05008KT 7000 SCT020
                      BECMG 2717/2719 15005KT 6000 FEW020=
202507270500 TAF WIHH 270500Z 2706/2806 10008KT 6000 SCT018
                      BECMG 2709/2711 02010KT 5000 HZ BKN017
                      BECMG 2713/2715 09008KT=
202507262300 TAF WIHH 262300Z 2700/2800 11008KT 6000 FEW020
                      BECMG 2700/2702 23003KT 5000 HZ
                      BECMG 2705/2707 05010KT 8000 SCT018
                      BECMG 2710/2712 36012KT 4000 HZ BKN016=
202507261700 TAF WIHH 261700Z 2618/2718 12005KT 7000 FEW020
                      BECMG 2621/2623 24003KT 4000 HZ=
202507261100 TAF WIHH 261100Z 2612/2712 02008KT 8000 FEW020
                      BECMG 2621/2623 24003KT 4000 HZ=
202507260500 TAF WIHH 260500Z 2606/2706 07010KT 7000 SCT018
                      BECMG 2614/2616 13005KT
                      BECMG 2621/2623 24003KT 4000 HZ FEW020=
202507252300 TAF WIHH 252300Z 2600/2700 12005KT 4000 HZ FEW020
                      BECMG 2604/2606 06012KT 6000 SCT018=
202507251700 TAF WIHH 251700Z 2518/2618 12005KT 6000 FEW020
                      BECMG 2521/2523 21004KT 5000 HZ=
202507251100 TAF WIHH 251100Z 2512/2612 05010KT 7000 FEW020
                      BECMG 2517/2519 14003KT 6000 FEW020=
202507250500 TAF WIHH 250500Z 2506/2606 05012KT 8000 SCT018
                      BECMG 2513/2515 14007KT 7000 FEW020=
202507242300 TAF WIHH 242300Z 2500/2600 14006KT 6000 FEW020
                      BECMG 2500/2502 22003KT 5000 HZ
                      BECMG 2504/2506 08010KT 8000 SCT018=
202507241700 TAF WIHH 241700Z 2418/2518 12006KT 8000 FEW020
                      BECMG 2421/2423 23003KT 5000 HZ=
202507241100 TAF WIHH 241100Z 2412/2512 05006KT 8000 FEW020
                      BECMG 2421/2423 23003KT 5000 HZ=
202507240500 TAF WIHH 240500Z 2406/2506 06008KT 8000 SCT018
                      BECMG 2413/2415 12005KT
                      BECMG 2421/2423 23003KT 5000 HZ FEW020=
202507232300 TAF WIHH 232300Z 2400/2500 16004KT 6000 FEW020
                      BECMG 2407/2409 04010KT
                      BECMG 2418/2420 20003KT 5000 HZ SCT020=
202507231700 TAF WIHH 231700Z 2318/2418 00000KT 7000 SCT020
                      BECMG 2321/2323 11004KT 5000 HZ FEW020=
202507231100 TAF WIHH 231100Z 2312/2412 04008KT 7000 SCT020
                      BECMG 2318/2320 12003KT 5000 HZ SCT018=
202507230500 TAF WIHH 230500Z 2306/2406 04010KT 8000 SCT020
                      BECMG 2313/2315 12007KT 7000 SCT020=
202507222300 TAF WIHH 222300Z 2300/2400 15006KT 6000 FEW020
                      BECMG 2300/2302 20003KT 5000 HZ
                      BECMG 2304/2306 05010KT 8000 SCT018=
202507221700 TAF WIHH 221700Z 2218/2318 05006KT 7000 SCT020
                      BECMG 2221/2223 22005KT 5000 HZ FEW018=
202507221100 TAF WIHH 221100Z 2212/2312 03008KT 7000 SCT020
                      BECMG 2220/2222 15005KT 5000 HZ FEW018=
202507220500 TAF WIHH 220500Z 2206/2306 06010KT 7000 FEW020
                      BECMG 2218/2220 15005KT 5000 HZ SCT018=
202507212300 TAF WIHH 212300Z 2200/2300 13005KT 5000 HZ FEW020
                      BECMG 2208/2210 05008KT 7000 SCT018 2213/2215
                       36004KT=
202507211700 TAF WIHH 211700Z 2118/2218 14004KT 6000 SCT018
                      BECMG 2201/2203 12005KT 7000 FEW020=
202507211100 TAF WIHH 211100Z 2112/2212 03008KT 8000 FEW020
                      BECMG 2118/2120 15005KT 6000 SCT020=
202507210500 TAF WIHH 210500Z 2106/2206 06008KT 7000 SCT018
                      BECMG 2117/2119 12004KT 6000 SCT020=
202507202300 TAF WIHH 202300Z 2100/2200 24006KT 7000 FEW020
                      BECMG 2109/2111 02008KT
                      BECMG 2118/2120 35004KT 5000 HZ SCT018=
202507201700 TAF WIHH 201700Z 2018/2118 02005KT 6000 SCT020
                      BECMG 2020/2022 12004KT 5000 HZ=
202507201100 TAF WIHH 201100Z NIL=
202507200500 TAF WIHH 200500Z 2006/2106 28010KT 7000 SCT018
                      BECMG 2018/2020 03005KT 5000 HZ SCT020=
202507192300 TAF WIHH 192300Z 2000/2100 12007KT 7000 FEW020
                      BECMG 2007/2009 01010KT
                      BECMG 2017/2019 24005KT 5000 HZ BKN018=
202507191700 TAF WIHH 191700Z 1918/2018 24005KT 6000 SCT020
                      BECMG 2002/2004 12005KT=
202507191100 TAF WIHH 191100Z 1912/2012 35007KT 6000 SCT020
                      BECMG 1916/1918 24005KT
                      BECMG 2002/2004 12005KT=
202507190500 TAF WIHH 190500Z 1906/2006 35008KT 7000 SCT020
                      BECMG 1914/1916 24005KT=
202507182300 TAF WIHH 182300Z 1900/2000 10004KT 5000 HZ FEW020
                      BECMG 1901/1903 23010KT 7000 SCT018
                      BECMG 1913/1915 34005KT=
202507181700 TAF WIHH 181700Z 1818/1918 24004KT 6000 FEW020
                      BECMG 1821/1823 00000KT 3000 BR SCT020
                      BECMG 1901/1903 13006KT 5000 HZ=
202507181100 TAF WIHH 181100Z 1812/1912 33007KT 7000 FEW020
                      BECMG 1817/1819 25004KT 5000 HZ SCT020
                      BECMG 1821/1823 00000KT 3000 BR=
202507180500 TAF WIHH 180500Z 1806/1906 16008KT 6000 SCT018
                      TEMPO 1813/1815 21010KT 3000 -RA FEW017CB
                       BKN018
                      BECMG 1816/1818 05004KT 4000 HZ=
202507172300 TAF WIHH 172300Z 1800/1900 35008KT 6000 SCT020
                      BECMG 1800/1802 24005KT 5000 HZ
                      TEMPO 1813/1716 04006KT 3000 -TSRA FEW017CB
                       BKN018=
202507171700 TAF WIHH 171700Z 1718/1818 16005KT 6000 SCT020
                      TEMPO 1718/1721 04006KT 3000 -RA FEW017CB
                       BKN018
                      BECMG 1722/1800 24005KT 5000 HZ=
202507171100 TAF WIHH 171100Z 1712/1812 35006KT 6000 SCT020
                      TEMPO 1717/1720 04008KT 4000 -RA FEW017CB
                       BKN018=
202507170500 TAF WIHH 170500Z 1706/1806 14008KT 6000 SCT020
                      TEMPO 1709/1712 33015KT 3000 -TSRA BKN016
                       FEW017CB
                      BECMG 1714/1716 04005KT 5000 HZ=
202507162300 TAF WIHH 162300Z 1700/1800 23005KT 4000 HZ FEW020
                      BECMG 1702/1704 06008KT 6000 SCT018
                      TEMPO 1708/1712 08014KT 3000 -TSRA BKN016
                       FEW017CB=
202507161700 TAF WIHH 161700Z 1618/1718 23004KT 4000 HZ FEW020
                      BECMG 1701/1703 12005KT 6000 SCT018=
202507161255 TAF AMD WIHH 161255Z 1613/1712 27010KT 3000 -TSRA FEW017CB BKN018
                       BECMG 1614/1616 23008KT 4000 HZ SCT018=
202507161100 TAF WIHH 161100Z 1612/1712 03005KT 6000 SCT018
                      TEMPO 1619/1621 23008KT 4000 -RA FEW018CB=
202507160500 TAF WIHH 160500Z 1606/1706 35008KT 6000 SCT020
                      TEMPO 1608/1612 03012KT 3000 -TSRA BKN016
                       FEW017CB
                      BECMG 1612/1614 23005KT 5000 HZ=
202507152300 TAF WIHH 152300Z 1600/1700 23004KT 6000 FEW020
                      TEMPO 1607/1611 25012KT 4000 -RA FEW016CB
                       SCT018
                      BECMG 1613/1615 18005KT 5000 HZ SCT020=
202507151700 TAF WIHH 151700Z 1518/1618 00000KT 5000 HZ SCT018
                      BECMG 1601/1604 21004KT 6000 FEW020=
202507151100 TAF WIHH 151100Z 1512/1612 25008KT 6000 SCT018
                      BECMG 1515/1518 16005KT 5000 HZ FEW020=
202507150500 TAF WIHH 150500Z 1506/1606 21008KT 7000 SCT018
                      TEMPO 1508/1512 16010KT 4000 -RA FEW017CB
                       SCT018
                      BECMG 1513/1516 23004KT 6000 SCT020=
202507142300 TAF WIHH 142300Z 1500/1600 14005KT 6000 FEW020
                      BECMG 1504/1506 03008KT SCT018
                      TEMPO 1508/1512 30012KT 4000 -RA FEW018CB=
202507141700 TAF WIHH 141700Z 1418/1518 24003KT 5000 HZ FEW022
                      BECMG 1502/1504 15006KT 7000 SCT020=
202507141100 TAF WIHH 141100Z 1412/1512 06005KT 6000 SCT018
                      BECMG 1418/1420 21003KT 4000 HZ FEW020=
202507140500 TAF WIHH 140500Z 1406/1506 01008KT 7000 SCT018
                      TEMPO 1409/1412 14012KT 4000 -RA FEW017CB
                       BECMG 1413/1415 03005KT 5000 HZ=
202507132300 TAF WIHH 132300Z 1400/1500 07008KT 6000 SCT020
                      TEMPO 1407/1411 03015KT 4000 -TSRA FEW017CB
                       BKN018
                      BECMG 1412/1414 25003KT 5000 HZ FEW020=
202507131700 TAF WIHH 131700Z 1318/1418 07005KT 7000 SCT018
                      BECMG 1321/1323 25003KT 5000 HZ FEW020=
202507131100 TAF WIHH 131100Z 1312/1412 03008KT 7000 SCT018
                      BECMG 1315/1317 11005KT
                      BECMG 1321/1323 25003KT 5000 HZ FEW020=
202507130500 TAF WIHH 130500Z 1306/1406 12008KT 6000 SCT020
                      TEMPO 1308/1312 06013KT 3000 -TSRA FEW017CB
                       BKN018
                      BECMG 1314/1316 5000 HZ FEW020=
202507122300 TAF WIHH 122300Z 1300/1400 04004KT 6000 FEW020
                      TEMPO 1308/1312 12010KT 4000 -TSRA BKN015
                       FEW017CB
                      BECMG 1313/1316 11005KT 5000 HZ=
202507121700 TAF WIHH 121700Z 1218/1318 09005KT 6000 SCT020
                      BECMG 1220/1223 24003KT 4000 BR SCT020
                      BECMG 1300/1303 15004KT 5000 HZ FEW020=
202507121100 TAF WIHH 121100Z NIL=
202507120500 TAF WIHH 120500Z 1206/1306 15008KT 7000 SCT020
                      TEMPO 1210/1213 32005KT 4000 -RA BKN015 FEW017CB
                       BECMG 1215/1217 03004KT 5000 HZ=
202507112300 TAF WIHH 112300Z 1200/1300 12007KT 5000 HZ FEW020
                      BECMG 1204/1206 04010KT 7000 SCT018
                      BECMG 1212/1214 18005KT=
202507111700 TAF WIHH 111700Z 1118/1218 00000KT 5000 HZ FEW020
                      BECMG 1121/1123 18003KT 4000 BR=
202507111100 TAF WIHH 111100Z 1112/1212 22010KT 7000 FEW022
                      BECMG 1117/1119 00000KT 5000 HZ=
202507110500 TAF WIHH 110500Z 1106/1206 35010KT 6000 SCT018
                      TEMPO 1112/1116 22008KT 4000 -RA BKN016 FEW017CB=
202507102300 TAF WIHH 102300Z 1100/1200 34008KT 7000 SCT020
                      BECMG 1112/1114 06008KT
                      BECMG 1116/1118 12005KT=
202507101700 TAF WIHH 101700Z 1018/1118 16005KT 8000 SCT020
                      BECMG 1021/1023 22003KT 5000 HZ FEW022=
202507101100 TAF WIHH 101100Z 1012/1112 17008KT 7000 SCT020
                      BECMG 1021/1023 22003KT 5000 HZ FEW022=
202507100500 TAF WIHH 100500Z 1006/1106 35008KT 7000 SCT020
                      TEMPO 1009/1012 17012KT 3000 -TSRA FEW016CB
                       BKN018
                      BECMG 1014/1016 11004KT 5000 HZ=
202507092300 TAF WIHH 092300Z 1000/1100 11007KT 7000 SCT020
                      TEMPO 1009/1012 02010G22KT 3000 -TSRA BKN016
                       FEW017CB
                      BECMG 1014/1016 16004KT 5000 HZ=
202507091700 TAF WIHH 091700Z 0918/1018 00000KT 5000 HZ FEW020
                      TEMPO 1009/1012 02014KT 4000 -RA FEW017CB
                       SCT018=
202507091100 TAF WIHH 091100Z 0912/1012 03005KT 7000 SCT020
                      BECMG 0918/0920 00000KT 5000 HZ=
202507090500 TAF WIHH 090500Z 0906/1006 33010KT 7000 SCT018
                      TEMPO 0908/0911 24012KT 3000 -TSRA BKN015
                       FEW017CB
                      TEMPO 0913/0916 4000 -RA SCT016=
202507082355 TAF AMD WIHH 082355Z 0900/1000 24007KT 4000 -RA BKN015
                      BECMG 0903/0905 6000 SCT018
                      TEMPO 0908/0911 30014KT 3000 -TSRA BKN016
                       FEW017CB
                      TEMPO 0913/0916 18007KT 4000 -RA=
202507082300 TAF WIHH 082300Z 0900/1000 24007KT 6000 SCT020
                      TEMPO 0908/0911 30014KT 3000 -TSRA BKN016
                       FEW017CB
                      TEMPO 0913/0916 18007KT 4000 -RA SCT018=
202507081700 TAF WIHH 081700Z 0818/0918 21003KT 5000 HZ FEW020
                      BECMG 0900/0902 24007KT 7000 SCT018=
202507081100 TAF WIHH 081100Z 0812/0912 14008KT 7000 SCT018
                      BECMG 0817/0819 21004KT 5000 HZ FEW022=
202507080500 TAF WIHH 080500Z 0806/0906 09010KT 7000 SCT020
                      TEMPO 0807/0811 15014KT 3000 -TSRA BKN015
                       FEW017CB
                      TEMPO 0812/0815 21008KT 4000 -RA SCT016=
202507072300 TAF WIHH 072300Z 0800/0900 15008KT 7000 SCT020
                      BECMG 0800/0802 30003KT 5000 HZ
                      TEMPO 0807/0810 02013KT 2000 -TSRA FEW016CB
                       BKN018
                      TEMPO 0811/0814 23008KT 4000 -RA SCT016=
202507071700 TAF WIHH 071700Z 0718/0818 23006KT 6000 SCT018
                      TEMPO 0718/0721 15006KT 4000 -RA FEW016CB
                       BKN017
                      BECMG 0721/0723 00000KT 5000 HZ
                      BECMG 0802/0804 10008KT=
202507071100 TAF WIHH 071100Z 0712/0812 02008KT 6000 SCT018
                      TEMPO 0712/0715 22010KT 4000 -RA FEW015CB
                       BKN017
                      BECMG 0717/0719 00000KT 5000 HZ=
202507070500 TAF WIHH 070500Z 0706/0806 04007KT 7000 SCT020
                      TEMPO 0708/0711 26010KT 3000 -TSRA FEW015CB
                       BKN016
                      BECMG 0713/0715 14006KT 6000 SCT018=
202507062300 TAF WIHH 062300Z 0700/0800 13006KT 6000 SCT020
                      TEMPO 0708/0711 28012KT 3000 -TSRA FEW015CB
                       BKN016
                      BECMG 0712/0714 25005KT 4000 -RA SCT018=
202507061700 TAF WIHH 061700Z 0618/0718 28004KT 6000 FEW020
                      BECMG 0621/0623 00000KT 3000 BR SCT020
                      BECMG 0701/0703 04005KT 5000 HZ=
202507061100 TAF WIHH 061100Z 0612/0712 23006KT 4000 -RA BKN017
                      BECMG 0614/0618 21005KT 5000 HZ SCT018
                      BECMG 0620/0623 00000KT 3000 BR=
202507060500 TAF WIHH 060500Z 0606/0706 07007KT 8000 SCT180
                      TEMPO 0608/0611 24012KT 4000 -TSRA SCT016
                       FEW017CB
                      BECMG 0613/0615 24005KT 5000 HZ SCT018=
202507052300 TAF WIHH 052300Z 0600/0700 10007KT 7000 SCT020
                      TEMPO 0608/0611 21012KT 4000 -TSRA SCT016
                       FEW017CB
                      BECMG 0612/0614 26005KT=
202507051700 TAF WIHH 051700Z 0518/0618 32010KT 3000 -TSRA SCT018 FEW020
                      BECMG 0521/0523 23003KT 4000 BR=
202507051100 TAF WIHH 051100Z 0512/0612 12007KT 6000 SCT018
                      BECMG 0516/0518 23005KT 5000 HZ FEW020=
202507050500 TAF WIHH 050500Z 0506/0606 35010KT 6000 SCT018
                      TEMPO 0507/0511 11014KT 4000 -TSRA BKN015
                       FEW017CB
                      BECMG 0513/0515 23005KT=
202507042300 TAF WIHH 042300Z 0500/0600 12006KT 6000 SCT020
                      BECMG 0500/0502 5000 HZ FEW020
                      TEMPO 0508/0511 02012KT 3000 -TSRA FEW017CB
                       BKN018
                      TEMPO 0513/0516 19005KT 4000 -RA BKN020=
202507041700 TAF WIHH 041700Z 0418/0518 20005KT 6000 SCT018
                      BECMG 0421/0423 12003KT 5000 HZ FEW020
                      BECMG 0508/0510 02010KT=
202507041100 TAF WIHH 041100Z 0412/0512 04008KT 7000 SCT020
                      BECMG 0416/0418 20006KT 5000 HZ=
202507040500 TAF WIHH 040500Z 0406/0506 04008KT 7000 SCT020
                      TEMPO 0409/0412 09012KT 3000 -TSRA FEW016CB
                       BKN018
                      BECMG 0414/0416 18006KT 5000 HZ=
202507032300 TAF WIHH 032300Z 0400/0500 15004KT 6000 FEW020
                      TEMPO 0407/0411 09010KT 4000 -TSRA FEW017CB
                       SCT018
                      BECMG 0412/0415 05005KT 4000 HZ=
202507031700 TAF WIHH 031700Z NIL=
202507031100 TAF WIHH 031100Z 0312/0412 07008KT 8000 SCT020
                      TEMPO 0316/0318 22005KT 5000 -RA SCT018
                      BECMG 0319/0322 00000KT 4000 HZ SCT018=
202507030500 TAF WIHH 030500Z 0306/0406 24008KT 7000 SCT018
                      TEMPO 0307/0311 22014KT 3000 -TSRA BKN016
                       FEW017CB
                      BECMG 0315/0317 15004KT 5000 HZ SCT018=
202507022300 TAF WIHH 022300Z 0300/0400 22006KT 5000 HZ FEW020
                      BECMG 0302/0304 12008KT 7000 SCT018
                      TEMPO 0307/0311 02014KT 3000 -TSRA SCT016
                       FEW017CB=
202507021700 TAF WIHH 021700Z 0218/0318 14003KT 4000 HZ SCT018
                      BECMG 0300/0302 22006KT 6000=
202507021100 TAF WIHH 021100Z 0212/0312 22007KT 3000 -RA BKN016 FEW017CB
                      BECMG 0214/0216 14003KT 5000 HZ SCT020=
202507020500 TAF WIHH 020500Z 0206/0306 04010KT 8000 SCT018
                      TEMPO 0208/0212 21014KT 3000 -TSRA BKN016
                       FEW017CB
                      BECMG 0214/0216 14003KT 5000 HZ=
202507012300 TAF WIHH 012300Z 0200/0300 11010KT 7000 SCT020
                      TEMPO 0208/0211 04010G20KT 3000 -TSRA FEW016CB
                       BKN018
                      BECMG 0213/0215 24005KT 5000 HZ=
202507011700 TAF WIHH 011700Z 0118/0218 21006KT 6000 SCT020
                      TEMPO 0207/0210 05013KT 3000 -TSRA FEW016CB
                       BKN018=
202507011100 TAF WIHH 011100Z 0112/0212 06008KT 6000 SCT020
                      TEMPO 0112/0115 21012KT 3000 -RA FEW016CB
                       BKN018
                      BECMG 0117/0119 12005KT 5000 HZ=
202507010500 TAF WIHH 010500Z 0106/0206 07010KT 8000 SCT020
                      TEMPO 0107/0110 11015KT 2000 -TSRA FEW015CB
                       BKN017
                      BECMG 0112/0114 5000 HZ
                      TEMPO 0116/0119 06010G20KT 3000 -RA BKN018=
