##########################################################
# Query made at 05/05/2026 03:25:00 UTC
# Time interval: from 08/01/2022 00:00  to 08/31/2022 23:59  UTC
##########################################################

##########################################################
# WIHH, Jakarta Halim Perdanakusuma (Indonesia)
# WMO index: 96747. WIGOS ID: Unknown
# Latitude 06-15S. Longitude 106-54E. Altitude 30 m.
##########################################################

###################################
#  METAR/SPECI from WIHH
###################################
202208312330 METAR WIHH NIL=
202208312300 METAR WIHH NIL=
202208312230 METAR WIHH NIL=
202208312200 METAR WIHH NIL=
202208312130 METAR WIHH NIL=
202208312100 METAR WIHH NIL=
202208312030 METAR WIHH NIL=
202208312000 METAR WIHH NIL=
202208311930 METAR WIHH NIL=
202208311900 METAR WIHH NIL=
202208311830 METAR WIHH NIL=
202208311800 METAR WIHH NIL=
202208311730 METAR WIHH NIL=
202208311700 METAR WIHH NIL=
202208311630 METAR WIHH NIL=
202208311600 METAR WIHH NIL=
202208311530 METAR WIHH NIL=
202208311500 METAR WIHH NIL=
202208311430 METAR WIHH NIL=
202208311400 METAR WIHH NIL=
202208311330 METAR WIHH NIL=
202208311300 METAR WIHH NIL=
202208311230 METAR WIHH NIL=
202208311200 METAR WIHH NIL=
202208311130 METAR WIHH NIL=
202208311100 METAR WIHH NIL=
202208311030 METAR WIHH NIL=
202208311000 METAR WIHH 311000Z 06008KT 5000 HZ FEW020 31/21 Q1006 NOSIG=
202208310930 METAR WIHH 310930Z 36008KT 5000 HZ SCT020 31/21 Q1006 NOSIG=
202208310900 METAR WIHH 310900Z 02008KT 5000 HZ SCT020 31/21 Q1005 NOSIG=
202208310830 METAR WIHH 310830Z 36008KT 5000 HZ SCT020 32/22 Q1005 NOSIG=
202208310800 METAR WIHH 310800Z 03008KT 5000 HZ SCT020 32/22 Q1006 NOSIG=
202208310730 METAR WIHH 310730Z 09007KT 5000 HZ SCT020 32/21 Q1006 NOSIG=
202208310700 METAR WIHH 310700Z 08004KT 5000 HZ SCT020 32/21 Q1006 NOSIG=
202208310630 METAR WIHH 310630Z 03007KT 5000 HZ SCT020 33/20 Q1007 NOSIG=
202208310600 METAR WIHH 310600Z 12005KT 5000 HZ SCT020 33/21 Q1007 NOSIG=
202208310530 METAR WIHH 310530Z 12005KT 4000 HZ SCT020 32/22 Q1008 NOSIG=
202208310500 METAR WIHH 310500Z 12005KT 4000 HZ SCT020 32/22 Q1008 NOSIG=
202208310430 METAR WIHH 310430Z 13006KT 4000 HZ SCT020 32/21 Q1008 NOSIG=
202208310400 METAR WIHH 310400Z 12005KT 5000 HZ SCT020 32/21 Q1009 NOSIG=
202208310330 METAR WIHH 310330Z 13005KT 5000 HZ SCT020 31/22 Q1009 NOSIG=
202208310300 METAR WIHH 310300Z 04003KT 5000 HZ FEW020 30/23 Q1010 NOSIG=
202208310230 METAR WIHH 310230Z 04004KT 4000 HZ FEW020 30/23 Q1010 NOSIG=
202208310200 METAR WIHH 310200Z 15003KT 3000 HZ FEW020 29/24 Q1010 NOSIG=
202208310130 METAR WIHH 310130Z 16003KT 3000 HZ FEW020 28/24 Q1010 NOSIG=
202208310100 METAR WIHH 310100Z 13003KT 4000 HZ NSC 28/24 Q1009 NOSIG=
202208310030 METAR WIHH NIL=
202208302330 METAR WIHH NIL=
202208302300 METAR WIHH NIL=
202208302230 METAR WIHH NIL=
202208302200 METAR WIHH NIL=
202208302130 METAR WIHH NIL=
202208302100 METAR WIHH NIL=
202208302030 METAR WIHH NIL=
202208302000 METAR WIHH NIL=
202208301930 METAR WIHH NIL=
202208301900 METAR WIHH NIL=
202208301830 METAR WIHH NIL=
202208301800 METAR WIHH NIL=
202208301730 METAR WIHH NIL=
202208301700 METAR WIHH NIL=
202208301630 METAR WIHH NIL=
202208301600 METAR WIHH NIL=
202208301530 METAR WIHH NIL=
202208301500 METAR WIHH NIL=
202208301430 METAR WIHH NIL=
202208301400 METAR WIHH NIL=
202208301330 METAR WIHH NIL=
202208301300 METAR WIHH NIL=
202208301230 METAR WIHH NIL=
202208301200 METAR WIHH NIL=
202208301130 METAR WIHH NIL=
202208301100 METAR WIHH NIL=
202208301030 METAR WIHH NIL=
202208301000 METAR WIHH NIL=
202208300930 METAR WIHH NIL=
202208300900 METAR WIHH NIL=
202208300830 METAR WIHH 300830Z 36010KT 5000 HZ SCT020 32/22 Q1006 NOSIG=
202208300800 METAR WIHH 300800Z 05007KT 5000 HZ SCT020 33/21 Q1006 NOSIG=
202208300730 METAR WIHH 300730Z 36007KT 5000 HZ SCT020 33/23 Q1006 NOSIG=
202208300700 METAR WIHH 300700Z 36006KT 5000 HZ SCT020 33/23 Q1006 NOSIG=
202208300630 METAR WIHH NIL=
202208300600 METAR WIHH 300600Z 02010KT 6000 SCT020 34/22 Q1007 NOSIG=
202208300530 METAR WIHH NIL=
202208300500 METAR WIHH 300500Z 00000KT 6000 SCT020 33/21 Q1008 NOSIG=
202208300430 METAR WIHH 300430Z 30003KT 5000 HZ FEW020 33/20 Q1008 NOSIG=
202208300400 METAR WIHH NIL=
202208300330 METAR WIHH NIL=
202208300300 METAR WIHH 300300Z 24006KT 5000 HZ FEW020 31/20 Q1009 NOSIG=
202208300230 METAR WIHH 300230Z 26003KT 5000 HZ FEW020 31/21 Q1010 NOSIG=
202208300200 METAR WIHH 300200Z 27003KT 5000 HZ FEW020 29/21 Q1010 NOSIG=
202208300130 METAR WIHH NIL=
202208300100 METAR WIHH 300100Z 25004KT 5000 HZ FEW020 28/21 Q1010 NOSIG=
202208300030 METAR WIHH 300030Z 24003KT 5000 HZ SCT020 27/23 Q1010 NOSIG=
202208300000 METAR WIHH NIL=
202208292330 METAR WIHH NIL=
202208292300 METAR WIHH NIL=
202208292130 METAR WIHH NIL=
202208292100 METAR WIHH NIL=
202208292030 METAR WIHH NIL=
202208292000 METAR WIHH NIL=
202208291930 METAR WIHH NIL=
202208291900 METAR WIHH NIL=
202208291830 METAR WIHH NIL=
202208291800 METAR WIHH NIL=
202208291730 METAR WIHH NIL=
202208291600 METAR WIHH NIL=
202208291530 METAR WIHH NIL=
202208291500 METAR WIHH NIL=
202208291430 METAR WIHH NIL=
202208291400 METAR WIHH NIL=
202208291330 METAR WIHH NIL=
202208291300 METAR WIHH NIL=
202208291230 METAR WIHH NIL=
202208291200 METAR WIHH NIL=
202208291130 METAR WIHH NIL=
202208291100 METAR WIHH NIL=
202208291030 METAR WIHH NIL=
202208291000 METAR WIHH 291000Z 02005KT 5000 HZ SCT020 30/25 Q1008 NOSIG=
202208290930 METAR WIHH NIL=
202208290900 METAR WIHH 290900Z 34006KT 5000 HZ SCT020 30/25 Q1007 NOSIG=
202208290830 METAR WIHH 290830Z 30006KT 4000 HZ SCT020 30/25 Q1007 RMK RA TO SW=
202208290800 METAR WIHH 290800Z 36008KT 4000 -RA SCT020 30/26 Q1007 NOSIG=
202208290730 METAR WIHH 290730Z 35004KT 4000 HZ SCT020 30/25 Q1007 RMK RA TO NE=
202208290700 METAR WIHH NIL=
202208290630 METAR WIHH 290630Z 31004KT 5000 HZ SCT018 31/23 Q1008 RMK RA TO E=
202208290600 METAR WIHH 290600Z 34006KT 5000 HZ SCT018 32/23 Q1008 NOSIG=
202208290530 METAR WIHH NIL=
202208290500 METAR WIHH NIL=
202208290430 METAR WIHH NIL=
202208290400 METAR WIHH NIL=
202208290330 METAR WIHH NIL=
202208290300 METAR WIHH NIL=
202208290230 METAR WIHH NIL=
202208290200 METAR WIHH 290200Z 23004KT 6000 NSC 29/24 Q1010 NOSIG=
202208290130 METAR WIHH 290130Z 23006KT 6000 NSC 28/25 Q1010 NOSIG=
202208290100 METAR WIHH 290100Z 21005KT 5000 HZ NSC 28/24 Q1009 NOSIG=
202208290030 METAR WIHH 290030Z 24003KT 5000 HZ NSC 27/24 Q1009 NOSIG=
202208290000 METAR WIHH NIL=
202208282330 METAR WIHH NIL=
202208282300 METAR WIHH NIL=
202208282230 METAR WIHH NIL=
202208282130 METAR WIHH NIL=
202208282100 METAR WIHH NIL=
202208282030 METAR WIHH NIL=
202208282000 METAR WIHH NIL=
202208281930 METAR WIHH NIL=
202208281900 METAR WIHH NIL=
202208281830 METAR WIHH NIL=
202208281800 METAR WIHH NIL=
202208281730 METAR WIHH NIL=
202208281700 METAR WIHH NIL=
202208281600 METAR WIHH NIL=
202208281500 METAR WIHH NIL=
202208281430 METAR WIHH NIL=
202208281400 METAR WIHH NIL=
202208281330 METAR WIHH NIL=
202208281300 METAR WIHH NIL=
202208281230 METAR WIHH NIL=
202208281200 METAR WIHH NIL=
202208281130 METAR WIHH NIL=
202208281100 METAR WIHH NIL=
202208281030 METAR WIHH NIL=
202208281000 METAR WIHH NIL=
202208280930 METAR WIHH NIL=
202208280900 METAR WIHH NIL=
202208280830 METAR WIHH NIL=
202208280800 METAR WIHH NIL=
202208280730 METAR WIHH NIL=
202208280700 METAR WIHH NIL=
202208280630 METAR WIHH NIL=
202208280600 METAR WIHH NIL=
202208280530 METAR WIHH NIL=
202208280500 METAR WIHH NIL=
202208280430 METAR WIHH NIL=
202208280400 METAR WIHH NIL=
202208280300 METAR WIHH NIL=
202208280230 METAR WIHH NIL=
202208280200 METAR WIHH NIL=
202208280130 METAR WIHH NIL=
202208280100 METAR WIHH NIL=
202208280030 METAR WIHH NIL=
202208280000 METAR WIHH NIL=
202208272330 METAR WIHH NIL=
202208272300 METAR WIHH NIL=
202208272230 METAR WIHH NIL=
202208272200 METAR WIHH NIL=
202208272130 METAR WIHH NIL=
202208272100 METAR WIHH NIL=
202208272030 METAR WIHH NIL=
202208272000 METAR WIHH NIL=
202208271930 METAR WIHH NIL=
202208271900 METAR WIHH NIL=
202208271830 METAR WIHH NIL=
202208271800 METAR WIHH NIL=
202208271730 METAR WIHH NIL=
202208271700 METAR WIHH NIL=
202208271630 METAR WIHH NIL=
202208271600 METAR WIHH NIL=
202208271530 METAR WIHH NIL=
202208271500 METAR WIHH NIL=
202208271430 METAR WIHH NIL=
202208271400 METAR WIHH NIL=
202208271330 METAR WIHH NIL=
202208271300 METAR WIHH NIL=
202208271230 METAR WIHH NIL=
202208271200 METAR WIHH NIL=
202208271130 METAR WIHH NIL=
202208271100 METAR WIHH NIL=
202208271030 METAR WIHH NIL=
202208271000 METAR WIHH NIL=
202208270930 METAR WIHH NIL=
202208270900 METAR WIHH NIL=
202208270830 METAR WIHH NIL=
202208270800 METAR WIHH NIL=
202208270730 METAR WIHH NIL=
202208270700 METAR WIHH NIL=
202208270630 METAR WIHH NIL=
202208270600 METAR WIHH NIL=
202208270530 METAR WIHH NIL=
202208270500 METAR WIHH NIL=
202208270430 METAR WIHH NIL=
202208270400 METAR WIHH NIL=
202208270330 METAR WIHH NIL=
202208270300 METAR WIHH NIL=
202208270230 METAR WIHH NIL=
202208270200 METAR WIHH NIL=
202208270130 METAR WIHH NIL=
202208270100 METAR WIHH NIL=
202208270030 METAR WIHH NIL=
202208270000 METAR WIHH NIL=
202208262330 METAR WIHH NIL=
202208262300 METAR WIHH NIL=
202208262230 METAR WIHH NIL=
202208262200 METAR WIHH NIL=
202208262130 METAR WIHH NIL=
202208262100 METAR WIHH NIL=
202208262030 METAR WIHH NIL=
202208262000 METAR WIHH NIL=
202208261930 METAR WIHH NIL=
202208261900 METAR WIHH NIL=
202208261830 METAR WIHH NIL=
202208261800 METAR WIHH NIL=
202208261730 METAR WIHH NIL=
202208261700 METAR WIHH NIL=
202208261630 METAR WIHH NIL=
202208261600 METAR WIHH NIL=
202208261530 METAR WIHH NIL=
202208261500 METAR WIHH NIL=
202208261430 METAR WIHH NIL=
202208261400 METAR WIHH NIL=
202208261330 METAR WIHH NIL=
202208261300 METAR WIHH NIL=
202208261230 METAR WIHH NIL=
202208261200 METAR WIHH NIL=
202208261130 METAR WIHH NIL=
202208261100 METAR WIHH NIL=
202208261030 METAR WIHH NIL=
202208261000 METAR WIHH NIL=
202208260930 METAR WIHH NIL=
202208260900 METAR WIHH 260900Z 03008KT 5000 HZ SCT020 32/21 Q1006 NOSIG=
202208260830 METAR WIHH 260830Z 03007KT 5000 HZ FEW020 32/22 Q1006 NOSIG=
202208260800 METAR WIHH 260800Z 02007KT 5000 HZ SCT020 32/21 Q1006 NOSIG=
202208260730 METAR WIHH 260730Z 04007KT 5000 HZ SCT020 32/21 Q1006 NOSIG=
202208260700 METAR WIHH 260700Z 01003KT 5000 HZ SCT020 32/21 Q1007 NOSIG=
202208260630 METAR WIHH 260630Z 01004KT 5000 HZ SCT020 32/21 Q1007 NOSIG=
202208260600 METAR WIHH 260600Z 04006KT 5000 HZ SCT020 32/20 Q1007 NOSIG=
202208260530 METAR WIHH 260530Z 02003KT 5000 HZ SCT020 32/21 Q1008 NOSIG=
202208260500 METAR WIHH 260500Z 05004KT 5000 HZ SCT020 32/21 Q1008 NOSIG=
202208260430 METAR WIHH NIL=
202208260400 METAR WIHH 260400Z 04004KT 5000 HZ SCT020 31/21 Q1009 NOSIG=
202208260330 METAR WIHH 260330Z 00000KT 5000 HZ FEW022 31/22 Q1009 NOSIG=
202208260300 METAR WIHH 260300Z 25003KT 5000 HZ SCT022 30/23 Q1010 NOSIG=
202208260230 METAR WIHH 260230Z 23003KT 5000 HZ FEW022 29/22 Q1010 NOSIG=
202208260200 METAR WIHH NIL=
202208260130 METAR WIHH NIL=
202208260100 METAR WIHH 260100Z 23003KT 5000 HZ NSC 27/22 Q1010 NOSIG=
202208260030 METAR WIHH 260030Z 25003KT 5000 HZ NSC 27/23 Q1010 NOSIG=
202208260000 METAR WIHH NIL=
202208252330 METAR WIHH NIL=
202208252300 METAR WIHH NIL=
202208252230 METAR WIHH NIL=
202208252200 METAR WIHH NIL=
202208252130 METAR WIHH NIL=
202208252100 METAR WIHH NIL=
202208252030 METAR WIHH NIL=
202208252000 METAR WIHH NIL=
202208251930 METAR WIHH NIL=
202208251900 METAR WIHH NIL=
202208251830 METAR WIHH NIL=
202208251800 METAR WIHH NIL=
202208251730 METAR WIHH NIL=
202208251700 METAR WIHH NIL=
202208251630 METAR WIHH NIL=
202208251600 METAR WIHH NIL=
202208251530 METAR WIHH NIL=
202208251500 METAR WIHH NIL=
202208251430 METAR WIHH NIL=
202208251400 METAR WIHH NIL=
202208251330 METAR WIHH NIL=
202208251300 METAR WIHH NIL=
202208251230 METAR WIHH NIL=
202208251200 METAR WIHH NIL=
202208251130 METAR WIHH NIL=
202208251100 METAR WIHH NIL=
202208251030 METAR WIHH NIL=
202208251000 METAR WIHH NIL=
202208250930 METAR WIHH 250930Z 06010KT 6000 FEW020 32/21 Q1007 NOSIG=
202208250900 METAR WIHH 250900Z 07010KT 6000 FEW020 32/21 Q1006 NOSIG=
202208250830 METAR WIHH 250830Z 09010KT 6000 SCT020 32/21 Q1006 NOSIG=
202208250800 METAR WIHH NIL=
202208250730 METAR WIHH 250730Z 04010KT 6000 SCT020 33/21 Q1007 NOSIG=
202208250700 METAR WIHH 250700Z 12010KT 6000 SCT020 33/21 Q1007 NOSIG=
202208250630 METAR WIHH 250630Z 08006KT 6000 SCT020 33/20 Q1008 NOSIG=
202208250600 METAR WIHH 250600Z 32006KT 6000 SCT020 33/19 Q1008 NOSIG=
202208250530 METAR WIHH 250530Z 06006KT 6000 SCT020 33/19 Q1009 NOSIG=
202208250500 METAR WIHH 250500Z 04010KT 5000 HZ SCT020 33/20 Q1009 NOSIG=
202208250430 METAR WIHH 250430Z 04012KT 5000 HZ SCT020 33/20 Q1010 NOSIG=
202208250400 METAR WIHH 250400Z 04010KT 5000 HZ NSC 32/20 Q1010 NOSIG=
202208250330 METAR WIHH 250330Z 08004KT 5000 HZ NSC 31/21 Q1011 NOSIG=
202208250300 METAR WIHH 250300Z 11004KT 6000 NSC 31/21 Q1011 NOSIG=
202208250230 METAR WIHH 250230Z 12007KT 6000 NSC 31/20 Q1011 NOSIG=
202208250200 METAR WIHH 250200Z 09005KT 6000 NSC 30/21 Q1011 NOSIG=
202208250130 METAR WIHH NIL=
202208250100 METAR WIHH 250100Z 21008KT 6000 NSC 28/21 Q1011 NOSIG=
202208250030 METAR WIHH 250030Z 23008KT 6000 NSC 27/22 Q1010 NOSIG=
202208250000 METAR WIHH NIL=
202208242330 METAR WIHH NIL=
202208242300 METAR WIHH NIL=
202208242230 METAR WIHH NIL=
202208242200 METAR WIHH NIL=
202208242130 METAR WIHH NIL=
202208242100 METAR WIHH NIL=
202208242030 METAR WIHH NIL=
202208242000 METAR WIHH NIL=
202208241930 METAR WIHH NIL=
202208241900 METAR WIHH NIL=
202208241830 METAR WIHH NIL=
202208241800 METAR WIHH NIL=
202208241730 METAR WIHH NIL=
202208241700 METAR WIHH NIL=
202208241630 METAR WIHH NIL=
202208241600 METAR WIHH NIL=
202208241530 METAR WIHH NIL=
202208241500 METAR WIHH NIL=
202208241430 METAR WIHH NIL=
202208241400 METAR WIHH NIL=
202208241330 METAR WIHH NIL=
202208241300 METAR WIHH NIL=
202208241230 METAR WIHH NIL=
202208241200 METAR WIHH NIL=
202208241130 METAR WIHH NIL=
202208241100 METAR WIHH NIL=
202208241030 METAR WIHH NIL=
202208241000 METAR WIHH 241000Z 06012KT 6000 SCT020 31/22 Q1007 NOSIG=
202208240930 METAR WIHH 240930Z 06012KT 6000 SCT020 31/23 Q1006 NOSIG=
202208240900 METAR WIHH 240900Z 03012KT 6000 SCT020 33/22 Q1006 NOSIG=
202208240830 METAR WIHH 240830Z 03012KT 6000 SCT020 33/21 Q1006 NOSIG=
202208240800 METAR WIHH 240800Z 03012KT 6000 SCT020 33/22 Q1006 NOSIG=
202208240730 METAR WIHH 240730Z 03010KT 6000 SCT020 33/22 Q1006 NOSIG=
202208240700 METAR WIHH 240700Z 03012KT 6000 SCT020 33/21 Q1007 NOSIG=
202208240630 METAR WIHH NIL=
202208240600 METAR WIHH NIL=
202208240530 METAR WIHH NIL=
202208240500 METAR WIHH NIL=
202208240430 METAR WIHH NIL=
202208240400 METAR WIHH NIL=
202208240330 METAR WIHH NIL=
202208240300 METAR WIHH NIL=
202208240230 METAR WIHH NIL=
202208240200 METAR WIHH NIL=
202208240130 METAR WIHH NIL=
202208240100 METAR WIHH NIL=
202208240030 METAR WIHH 240030Z 00000KT 3000 HZ NSC 27/24 Q1011 NOSIG=
202208240000 METAR WIHH NIL=
202208232330 METAR WIHH NIL=
202208232300 METAR WIHH NIL=
202208232230 METAR WIHH NIL=
202208232200 METAR WIHH NIL=
202208232130 METAR WIHH NIL=
202208232100 METAR WIHH NIL=
202208232030 METAR WIHH NIL=
202208232000 METAR WIHH NIL=
202208231930 METAR WIHH NIL=
202208231900 METAR WIHH NIL=
202208231830 METAR WIHH NIL=
202208231800 METAR WIHH NIL=
202208231730 METAR WIHH NIL=
202208231700 METAR WIHH NIL=
202208231630 METAR WIHH NIL=
202208231600 METAR WIHH NIL=
202208231530 METAR WIHH NIL=
202208231500 METAR WIHH NIL=
202208231430 METAR WIHH NIL=
202208231400 METAR WIHH NIL=
202208231330 METAR WIHH NIL=
202208231300 METAR WIHH NIL=
202208231230 METAR WIHH NIL=
202208231200 METAR WIHH NIL=
202208231130 METAR WIHH NIL=
202208231100 METAR WIHH NIL=
202208231030 METAR WIHH NIL=
202208231000 METAR WIHH NIL=
202208230930 METAR WIHH 230930Z 07010KT 5000 HZ FEW020 32/22 Q1006 NOSIG=
202208230900 METAR WIHH 230900Z 07010KT 5000 HZ FEW020 33/22 Q1006 NOSIG=
202208230830 METAR WIHH 230830Z 07010KT 5000 HZ FEW020 33/21 Q1006 NOSIG=
202208230800 METAR WIHH 230800Z 06009KT 5000 HZ SCT020 33/21 Q1006 NOSIG=
202208230730 METAR WIHH 230730Z 07009KT 5000 HZ SCT020 33/21 Q1006 NOSIG=
202208230700 METAR WIHH 230700Z 06008KT 5000 HZ SCT020 34/21 Q1006 NOSIG=
202208230630 METAR WIHH 230630Z 05005KT 5000 HZ SCT020 34/21 Q1007 NOSIG=
202208230600 METAR WIHH 230600Z 04005KT 5000 HZ SCT020 34/21 Q1007 NOSIG=
202208230530 METAR WIHH 230530Z 05006KT 5000 HZ SCT020 34/21 Q1008 NOSIG=
202208230500 METAR WIHH 230500Z 04003KT 5000 HZ SCT020 33/21 Q1008 NOSIG=
202208230430 METAR WIHH 230430Z 12004KT 5000 HZ SCT020 33/22 Q1009 NOSIG=
202208230400 METAR WIHH 230400Z 07005KT 5000 HZ SCT020 33/21 Q1009 NOSIG=
202208230330 METAR WIHH NIL=
202208230300 METAR WIHH 230300Z 09003KT 5000 HZ FEW020 31/23 Q1010 NOSIG=
202208230230 METAR WIHH 230230Z 08004KT 5000 HZ FEW020 31/24 Q1010 NOSIG=
202208230200 METAR WIHH 230200Z 00000KT 4000 HZ FEW020 30/23 Q1011 NOSIG=
202208230130 METAR WIHH 230130Z 00000KT 4000 HZ FEW020 29/24 Q1011 NOSIG=
202208230100 METAR WIHH 230100Z 00000KT 4000 HZ FEW020 28/24 Q1011 NOSIG=
202208230030 METAR WIHH 230030Z 24004KT 3000 HZ FEW022 27/25 Q1011 NOSIG=
202208230000 METAR WIHH NIL=
202208222330 METAR WIHH NIL=
202208222300 METAR WIHH NIL=
202208222230 METAR WIHH NIL=
202208222200 METAR WIHH NIL=
202208222130 METAR WIHH NIL=
202208222100 METAR WIHH NIL=
202208222030 METAR WIHH NIL=
202208222000 METAR WIHH NIL=
202208221930 METAR WIHH NIL=
202208221900 METAR WIHH NIL=
202208221830 METAR WIHH NIL=
202208221800 METAR WIHH NIL=
202208221730 METAR WIHH NIL=
202208221700 METAR WIHH NIL=
202208221630 METAR WIHH NIL=
202208221600 METAR WIHH NIL=
202208221530 METAR WIHH NIL=
202208221500 METAR WIHH NIL=
202208221430 METAR WIHH NIL=
202208221400 METAR WIHH NIL=
202208221330 METAR WIHH NIL=
202208221300 METAR WIHH NIL=
202208221230 METAR WIHH NIL=
202208221200 METAR WIHH NIL=
202208221130 METAR WIHH NIL=
202208221100 METAR WIHH NIL=
202208221030 METAR WIHH NIL=
202208221000 METAR WIHH NIL=
202208220930 METAR WIHH NIL=
202208220900 METAR WIHH NIL=
202208220830 METAR WIHH 220830Z 06010KT 5000 HZ SCT018 31/23 Q1007 RMK RA TO S=
202208220800 METAR WIHH 220800Z 03010KT 5000 HZ BKN018 31/24 Q1007 RMK RA TO S=
202208220730 METAR WIHH 220730Z 03010KT 5000 HZ BKN018 30/24 Q1008 RMK RA TO S=
202208220700 METAR WIHH NIL=
202208220630 METAR WIHH NIL=
202208220600 METAR WIHH 220600Z 34005KT 5000 HZ BKN018 29/24 Q1009 RMK RA TO SE=
202208220530 METAR WIHH 220530Z 36007KT 5000 HZ BKN018 30/23 Q1009 RMK RA TO SW=
202208220500 METAR WIHH 220500Z 36007KT 5000 HZ BKN018 30/23 Q1009 RMK RA TO SE=
202208220430 METAR WIHH 220430Z 02005KT 5000 HZ BKN018 31/22 Q1010 RMK RA TO NE AND SE=
202208220400 METAR WIHH 220400Z 01005KT 5000 HZ SCT018 32/23 Q1010 RMK RA TO NE=
202208220330 METAR WIHH NIL=
202208220300 METAR WIHH NIL=
202208220230 METAR WIHH NIL=
202208220200 METAR WIHH NIL=
202208220130 METAR WIHH NIL=
202208220100 METAR WIHH 220100Z 24003KT 5000 HZ FEW022 27/24 Q1010 NOSIG=
202208220030 METAR WIHH 220030Z 24003KT 5000 HZ SCT020 26/24 Q1010 NOSIG=
202208220000 METAR WIHH NIL=
202208212330 METAR WIHH NIL=
202208212300 METAR WIHH NIL=
202208212230 METAR WIHH NIL=
202208212200 METAR WIHH NIL=
202208212130 METAR WIHH NIL=
202208212100 METAR WIHH NIL=
202208212030 METAR WIHH NIL=
202208212000 METAR WIHH NIL=
202208211930 METAR WIHH NIL=
202208211900 METAR WIHH NIL=
202208211830 METAR WIHH NIL=
202208211800 METAR WIHH NIL=
202208211730 METAR WIHH NIL=
202208211700 METAR WIHH NIL=
202208211630 METAR WIHH NIL=
202208211600 METAR WIHH NIL=
202208211530 METAR WIHH NIL=
202208211500 METAR WIHH NIL=
202208211430 METAR WIHH NIL=
202208211400 METAR WIHH NIL=
202208211330 METAR WIHH NIL=
202208211300 METAR WIHH NIL=
202208211230 METAR WIHH NIL=
202208211200 METAR WIHH NIL=
202208211130 METAR WIHH NIL=
202208211100 METAR WIHH NIL=
202208211030 METAR WIHH NIL=
202208211000 METAR WIHH NIL=
202208210930 METAR WIHH NIL=
202208210900 METAR WIHH NIL=
202208210830 METAR WIHH NIL=
202208210800 METAR WIHH NIL=
202208210730 METAR WIHH NIL=
202208210700 METAR WIHH NIL=
202208210630 METAR WIHH NIL=
202208210600 METAR WIHH NIL=
202208210530 METAR WIHH NIL=
202208210500 METAR WIHH NIL=
202208210430 METAR WIHH NIL=
202208210400 METAR WIHH NIL=
202208210330 METAR WIHH NIL=
202208210300 METAR WIHH NIL=
202208210230 METAR WIHH NIL=
202208210200 METAR WIHH NIL=
202208210130 METAR WIHH NIL=
202208210100 METAR WIHH NIL=
202208210030 METAR WIHH NIL=
202208210000 METAR WIHH NIL=
202208202330 METAR WIHH NIL=
202208202300 METAR WIHH NIL=
202208202230 METAR WIHH NIL=
202208202200 METAR WIHH NIL=
202208202130 METAR WIHH NIL=
202208202100 METAR WIHH NIL=
202208202030 METAR WIHH NIL=
202208202000 METAR WIHH NIL=
202208201930 METAR WIHH NIL=
202208201900 METAR WIHH NIL=
202208201830 METAR WIHH NIL=
202208201800 METAR WIHH NIL=
202208201730 METAR WIHH NIL=
202208201700 METAR WIHH NIL=
202208201630 METAR WIHH NIL=
202208201600 METAR WIHH NIL=
202208201530 METAR WIHH NIL=
202208201500 METAR WIHH NIL=
202208201430 METAR WIHH NIL=
202208201400 METAR WIHH NIL=
202208201330 METAR WIHH NIL=
202208201300 METAR WIHH NIL=
202208201230 METAR WIHH NIL=
202208201200 METAR WIHH NIL=
202208201130 METAR WIHH NIL=
202208201100 METAR WIHH NIL=
202208201030 METAR WIHH NIL=
202208201000 METAR WIHH NIL=
202208200930 METAR WIHH NIL=
202208200900 METAR WIHH NIL=
202208200830 METAR WIHH NIL=
202208200800 METAR WIHH NIL=
202208200730 METAR WIHH NIL=
202208200700 METAR WIHH NIL=
202208200630 METAR WIHH NIL=
202208200600 METAR WIHH NIL=
202208200530 METAR WIHH NIL=
202208200500 METAR WIHH NIL=
202208200430 METAR WIHH NIL=
202208200400 METAR WIHH NIL=
202208200330 METAR WIHH NIL=
202208200300 METAR WIHH NIL=
202208200230 METAR WIHH NIL=
202208200200 METAR WIHH NIL=
202208200130 METAR WIHH NIL=
202208200100 METAR WIHH NIL=
202208200030 METAR WIHH NIL=
202208200000 METAR WIHH NIL=
202208192330 METAR WIHH NIL=
202208192300 METAR WIHH NIL=
202208192230 METAR WIHH NIL=
202208192200 METAR WIHH NIL=
202208192130 METAR WIHH NIL=
202208192100 METAR WIHH NIL=
202208192030 METAR WIHH NIL=
202208192000 METAR WIHH NIL=
202208191930 METAR WIHH NIL=
202208191900 METAR WIHH NIL=
202208191830 METAR WIHH NIL=
202208191800 METAR WIHH NIL=
202208191730 METAR WIHH NIL=
202208191700 METAR WIHH NIL=
202208191630 METAR WIHH NIL=
202208191600 METAR WIHH NIL=
202208191530 METAR WIHH NIL=
202208191500 METAR WIHH NIL=
202208191430 METAR WIHH NIL=
202208191400 METAR WIHH NIL=
202208191330 METAR WIHH NIL=
202208191300 METAR WIHH NIL=
202208191230 METAR WIHH NIL=
202208191200 METAR WIHH NIL=
202208191130 METAR WIHH NIL=
202208191100 METAR WIHH NIL=
202208191030 METAR WIHH NIL=
202208191000 METAR WIHH NIL=
202208190930 METAR WIHH 190930Z 07013KT 6000 FEW020 33/22 Q1006 NOSIG=
202208190900 METAR WIHH 190900Z 06016KT 6000 SCT018 34/22 Q1006 NOSIG=
202208190830 METAR WIHH 190830Z 10012KT 6000 SCT018 34/22 Q1006 NOSIG=
202208190800 METAR WIHH 190800Z 07015KT 6000 SCT018 34/21 Q1006 NOSIG=
202208190730 METAR WIHH NIL=
202208190700 METAR WIHH NIL=
202208190630 METAR WIHH 190630Z 09013KT 6000 SCT020 34/21 Q1007 NOSIG=
202208190600 METAR WIHH 190600Z 05017KT 6000 SCT020 34/20 Q1007 NOSIG=
202208190530 METAR WIHH 190530Z 05012KT 6000 SCT020 34/20 Q1008 NOSIG=
202208190500 METAR WIHH 190500Z 08012KT 6000 SCT020 33/20 Q1009 NOSIG=
202208190430 METAR WIHH NIL=
202208190400 METAR WIHH 190400Z 10015KT 6000 SCT020 33/21 Q1010 NOSIG=
202208190330 METAR WIHH 190330Z 11015KT 6000 SCT020 32/21 Q1010 NOSIG=
202208190300 METAR WIHH 190300Z 09015KT 5000 HZ FEW020 32/21 Q1010 NOSIG=
202208190230 METAR WIHH NIL=
202208190200 METAR WIHH NIL=
202208190130 METAR WIHH NIL=
202208190100 METAR WIHH 190100Z 00000KT 4000 HZ NSC 28/22 Q1010 NOSIG=
202208190030 METAR WIHH NIL=
202208190000 METAR WIHH NIL=
202208182330 METAR WIHH NIL=
202208182300 METAR WIHH NIL=
202208182230 METAR WIHH NIL=
202208182200 METAR WIHH NIL=
202208182130 METAR WIHH NIL=
202208182100 METAR WIHH NIL=
202208182030 METAR WIHH NIL=
202208182000 METAR WIHH NIL=
202208181930 METAR WIHH NIL=
202208181900 METAR WIHH NIL=
202208181830 METAR WIHH NIL=
202208181800 METAR WIHH NIL=
202208181730 METAR WIHH NIL=
202208181700 METAR WIHH NIL=
202208181630 METAR WIHH NIL=
202208181600 METAR WIHH NIL=
202208181530 METAR WIHH NIL=
202208181500 METAR WIHH NIL=
202208181430 METAR WIHH NIL=
202208181400 METAR WIHH NIL=
202208181330 METAR WIHH NIL=
202208181300 METAR WIHH NIL=
202208181230 METAR WIHH NIL=
202208181200 METAR WIHH NIL=
202208181130 METAR WIHH NIL=
202208181100 METAR WIHH NIL=
202208181030 METAR WIHH NIL=
202208181000 METAR WIHH NIL=
202208180930 METAR WIHH NIL=
202208180900 METAR WIHH NIL=
202208180830 METAR WIHH NIL=
202208180800 METAR WIHH 180800Z 06012KT 6000 SCT020 33/22 Q1007 NOSIG=
202208180730 METAR WIHH 180730Z 06012KT 6000 SCT020 33/22 Q1007 NOSIG=
202208180700 METAR WIHH NIL=
202208180630 METAR WIHH 180630Z 09012KT 6000 SCT020 33/20 Q1008 NOSIG=
202208180600 METAR WIHH 180600Z 06012KT 6000 SCT020 33/20 Q1008 NOSIG=
202208180530 METAR WIHH NIL=
202208180500 METAR WIHH 180500Z 06012KT 6000 FEW020 32/20 Q1009 NOSIG=
202208180430 METAR WIHH 180430Z 06012KT 6000 FEW020 33/20 Q1009 NOSIG=
202208180400 METAR WIHH NIL=
202208180330 METAR WIHH 180330Z 12010KT 5000 HZ FEW022 32/20 Q1010 NOSIG=
202208180300 METAR WIHH 180300Z 09005KT 5000 HZ FEW022 31/20 Q1011 NOSIG=
202208180230 METAR WIHH 180230Z 09003KT 5000 HZ FEW022 31/19 Q1011 NOSIG=
202208180200 METAR WIHH NIL=
202208180130 METAR WIHH 180130Z 10003KT 5000 HZ FEW020 29/22 Q1011 NOSIG=
202208180100 METAR WIHH NIL=
202208180030 METAR WIHH NIL=
202208180000 METAR WIHH NIL=
202208172330 METAR WIHH NIL=
202208172300 METAR WIHH NIL=
202208172230 METAR WIHH NIL=
202208172200 METAR WIHH NIL=
202208172130 METAR WIHH NIL=
202208172100 METAR WIHH NIL=
202208172030 METAR WIHH NIL=
202208172000 METAR WIHH NIL=
202208171930 METAR WIHH NIL=
202208171900 METAR WIHH NIL=
202208171830 METAR WIHH NIL=
202208171800 METAR WIHH NIL=
202208171730 METAR WIHH NIL=
202208171700 METAR WIHH NIL=
202208171630 METAR WIHH NIL=
202208171600 METAR WIHH NIL=
202208171530 METAR WIHH NIL=
202208171500 METAR WIHH NIL=
202208171430 METAR WIHH NIL=
202208171400 METAR WIHH NIL=
202208171330 METAR WIHH NIL=
202208171300 METAR WIHH NIL=
202208171230 METAR WIHH NIL=
202208171200 METAR WIHH NIL=
202208171130 METAR WIHH NIL=
202208171100 METAR WIHH NIL=
202208171030 METAR WIHH NIL=
202208171000 METAR WIHH NIL=
202208170930 METAR WIHH NIL=
202208170900 METAR WIHH NIL=
202208170830 METAR WIHH NIL=
202208170800 METAR WIHH NIL=
202208170730 METAR WIHH NIL=
202208170700 METAR WIHH NIL=
202208170630 METAR WIHH NIL=
202208170600 METAR WIHH NIL=
202208170530 METAR WIHH NIL=
202208170500 METAR WIHH NIL=
202208170430 METAR WIHH NIL=
202208170400 METAR WIHH NIL=
202208170330 METAR WIHH NIL=
202208170300 METAR WIHH NIL=
202208170230 METAR WIHH NIL=
202208170200 METAR WIHH NIL=
202208170130 METAR WIHH NIL=
202208170100 METAR WIHH NIL=
202208170030 METAR WIHH NIL=
202208170000 METAR WIHH NIL=
202208162330 METAR WIHH NIL=
202208162300 METAR WIHH NIL=
202208162230 METAR WIHH NIL=
202208162200 METAR WIHH NIL=
202208162130 METAR WIHH NIL=
202208162100 METAR WIHH NIL=
202208162030 METAR WIHH NIL=
202208162000 METAR WIHH NIL=
202208161930 METAR WIHH NIL=
202208161900 METAR WIHH NIL=
202208161830 METAR WIHH NIL=
202208161800 METAR WIHH NIL=
202208161730 METAR WIHH NIL=
202208161700 METAR WIHH NIL=
202208161630 METAR WIHH NIL=
202208161600 METAR WIHH NIL=
202208161530 METAR WIHH NIL=
202208161500 METAR WIHH NIL=
202208161430 METAR WIHH NIL=
202208161400 METAR WIHH NIL=
202208161330 METAR WIHH NIL=
202208161300 METAR WIHH NIL=
202208161230 METAR WIHH NIL=
202208161200 METAR WIHH NIL=
202208161130 METAR WIHH NIL=
202208161100 METAR WIHH NIL=
202208161030 METAR WIHH NIL=
202208161000 METAR WIHH NIL=
202208160930 METAR WIHH 160930Z 32008KT 5000 HZ FEW019CB SCT020 31/25 Q1007 CB AND RA TO SW=
202208160900 METAR WIHH 160900Z 03008KT 5000 HZ FEW019CB SCT020 32/25 Q1007 CB AND RA TO SW=
202208160830 METAR WIHH 160830Z 05009KT 5000 HZ SCT020 32/25 Q1007 RMK RA TO SE=
202208160800 METAR WIHH 160800Z 09008KT 5000 HZ SCT020 32/25 Q1007 RMK RA TO NW=
202208160730 METAR WIHH 160730Z 30004KT 5000 HZ SCT020 32/24 Q1008 RMK RA TO NW=
202208160700 METAR WIHH 160700Z 27003KT 5000 HZ SCT020 32/24 Q1008 RMK RA TO NW=
202208160630 METAR WIHH 160630Z 30003KT 5000 HZ SCT020 32/23 Q1008 RMK RA TO NW=
202208160600 METAR WIHH 160600Z 22003KT 5000 HZ SCT020 32/24 Q1009 RMK RA TO N=
202208160530 METAR WIHH 160530Z 29004KT 5000 HZ SCT020 32/24 Q1009 NOSIG=
202208160500 METAR WIHH 160500Z 18005KT 5000 HZ SCT020 32/24 Q1010 NOSIG=
202208160430 METAR WIHH 160430Z 22005KT 5000 HZ SCT020 30/24 Q1011 NOSIG=
202208160400 METAR WIHH NIL=
202208160330 METAR WIHH NIL=
202208160300 METAR WIHH NIL=
202208160230 METAR WIHH NIL=
202208160200 METAR WIHH 160200Z 30005KT 4000 HZ SCT020 29/25 Q1012 NOSIG=
202208160130 METAR WIHH 160130Z 23005KT 4000 HZ SCT020 29/25 Q1012 NOSIG=
202208160100 METAR WIHH NIL=
202208160030 METAR WIHH NIL=
202208160000 METAR WIHH NIL=
202208152330 METAR WIHH NIL=
202208152300 METAR WIHH NIL=
202208152230 METAR WIHH NIL=
202208152200 METAR WIHH NIL=
202208152130 METAR WIHH NIL=
202208152100 METAR WIHH NIL=
202208152030 METAR WIHH NIL=
202208152000 METAR WIHH NIL=
202208151930 METAR WIHH NIL=
202208151900 METAR WIHH NIL=
202208151830 METAR WIHH NIL=
202208151800 METAR WIHH NIL=
202208151730 METAR WIHH NIL=
202208151700 METAR WIHH NIL=
202208151630 METAR WIHH NIL=
202208151600 METAR WIHH NIL=
202208151530 METAR WIHH NIL=
202208151500 METAR WIHH NIL=
202208151430 METAR WIHH NIL=
202208151400 METAR WIHH NIL=
202208151330 METAR WIHH NIL=
202208151300 METAR WIHH NIL=
202208151230 METAR WIHH NIL=
202208151200 METAR WIHH NIL=
202208151130 METAR WIHH NIL=
202208151100 METAR WIHH NIL=
202208151030 METAR WIHH NIL=
202208151000 METAR WIHH NIL=
202208150930 METAR WIHH NIL=
202208150900 METAR WIHH NIL=
202208150830 METAR WIHH 150830Z 04012KT 6000 SCT020 33/23 Q1006 RMK RA TO SW=
202208150800 METAR WIHH NIL=
202208150730 METAR WIHH NIL=
202208150700 METAR WIHH 150700Z 03010KT 6000 SCT020 33/22 Q1008 NOSIG=
202208150630 METAR WIHH NIL=
202208150600 METAR WIHH 150600Z 06010KT 6000 SCT020 33/22 Q1009 NOSIG=
202208150530 METAR WIHH 150530Z 09008KT 6000 SCT020 33/21 Q1010 NOSIG=
202208150500 METAR WIHH 150500Z 09005KT 6000 SCT020 32/22 Q1010 NOSIG=
202208150430 METAR WIHH 150430Z 12012KT 6000 SCT020 32/24 Q1010 NOSIG=
202208150400 METAR WIHH 150400Z 12010KT 6000 SCT020 31/23 Q1011 NOSIG=
202208150330 METAR WIHH 150330Z 09010KT 6000 FEW022 32/23 Q1011 NOSIG=
202208150300 METAR WIHH 150300Z 09010KT 6000 FEW022 31/23 Q1011 NOSIG=
202208150230 METAR WIHH 150230Z 09010KT 5000 HZ FEW022 31/23 Q1011 NOSIG=
202208150200 METAR WIHH 150200Z 12008KT 5000 HZ FEW022 30/23 Q1012 NOSIG=
202208150130 METAR WIHH NIL=
202208150100 METAR WIHH NIL=
202208150030 METAR WIHH NIL=
202208150000 METAR WIHH NIL=
202208142330 METAR WIHH NIL=
202208142300 METAR WIHH NIL=
202208142230 METAR WIHH NIL=
202208142200 METAR WIHH NIL=
202208142130 METAR WIHH NIL=
202208142100 METAR WIHH NIL=
202208142030 METAR WIHH NIL=
202208142000 METAR WIHH NIL=
202208141930 METAR WIHH NIL=
202208141900 METAR WIHH NIL=
202208141830 METAR WIHH NIL=
202208141800 METAR WIHH NIL=
202208141730 METAR WIHH NIL=
202208141700 METAR WIHH NIL=
202208141630 METAR WIHH NIL=
202208141600 METAR WIHH NIL=
202208141530 METAR WIHH NIL=
202208141500 METAR WIHH NIL=
202208141430 METAR WIHH NIL=
202208141400 METAR WIHH NIL=
202208141330 METAR WIHH NIL=
202208141300 METAR WIHH NIL=
202208141230 METAR WIHH NIL=
202208141200 METAR WIHH NIL=
202208141130 METAR WIHH NIL=
202208141100 METAR WIHH NIL=
202208141030 METAR WIHH NIL=
202208141000 METAR WIHH NIL=
202208140930 METAR WIHH NIL=
202208140900 METAR WIHH NIL=
202208140830 METAR WIHH NIL=
202208140800 METAR WIHH NIL=
202208140730 METAR WIHH NIL=
202208140700 METAR WIHH NIL=
202208140630 METAR WIHH NIL=
202208140600 METAR WIHH NIL=
202208140530 METAR WIHH NIL=
202208140500 METAR WIHH NIL=
202208140430 METAR WIHH NIL=
202208140400 METAR WIHH NIL=
202208140330 METAR WIHH NIL=
202208140300 METAR WIHH NIL=
202208140230 METAR WIHH NIL=
202208140200 METAR WIHH NIL=
202208140130 METAR WIHH NIL=
202208140100 METAR WIHH NIL=
202208140030 METAR WIHH NIL=
202208140000 METAR WIHH NIL=
202208132330 METAR WIHH NIL=
202208132300 METAR WIHH NIL=
202208132230 METAR WIHH NIL=
202208132200 METAR WIHH NIL=
202208132130 METAR WIHH NIL=
202208132100 METAR WIHH NIL=
202208132030 METAR WIHH NIL=
202208132000 METAR WIHH NIL=
202208131930 METAR WIHH NIL=
202208131900 METAR WIHH NIL=
202208131830 METAR WIHH NIL=
202208131800 METAR WIHH NIL=
202208131730 METAR WIHH NIL=
202208131700 METAR WIHH NIL=
202208131630 METAR WIHH NIL=
202208131600 METAR WIHH NIL=
202208131530 METAR WIHH NIL=
202208131500 METAR WIHH NIL=
202208131430 METAR WIHH NIL=
202208131400 METAR WIHH NIL=
202208131330 METAR WIHH NIL=
202208131300 METAR WIHH NIL=
202208131230 METAR WIHH NIL=
202208131200 METAR WIHH NIL=
202208131130 METAR WIHH NIL=
202208131100 METAR WIHH NIL=
202208131030 METAR WIHH NIL=
202208131000 METAR WIHH NIL=
202208130930 METAR WIHH NIL=
202208130900 METAR WIHH NIL=
202208130830 METAR WIHH NIL=
202208130800 METAR WIHH NIL=
202208130730 METAR WIHH NIL=
202208130700 METAR WIHH NIL=
202208130630 METAR WIHH NIL=
202208130600 METAR WIHH NIL=
202208130530 METAR WIHH NIL=
202208130500 METAR WIHH NIL=
202208130430 METAR WIHH NIL=
202208130400 METAR WIHH NIL=
202208130330 METAR WIHH NIL=
202208130300 METAR WIHH NIL=
202208130230 METAR WIHH NIL=
202208130200 METAR WIHH NIL=
202208130130 METAR WIHH NIL=
202208130100 METAR WIHH NIL=
202208130030 METAR WIHH NIL=
202208130000 METAR WIHH NIL=
202208122330 METAR WIHH NIL=
202208122300 METAR WIHH NIL=
202208122230 METAR WIHH NIL=
202208122200 METAR WIHH NIL=
202208122130 METAR WIHH NIL=
202208122100 METAR WIHH NIL=
202208122030 METAR WIHH NIL=
202208122000 METAR WIHH NIL=
202208121930 METAR WIHH NIL=
202208121900 METAR WIHH NIL=
202208121830 METAR WIHH NIL=
202208121800 METAR WIHH NIL=
202208121730 METAR WIHH NIL=
202208121700 METAR WIHH NIL=
202208121630 METAR WIHH NIL=
202208121600 METAR WIHH NIL=
202208121530 METAR WIHH NIL=
202208121500 METAR WIHH NIL=
202208121430 METAR WIHH NIL=
202208121400 METAR WIHH NIL=
202208121330 METAR WIHH NIL=
202208121300 METAR WIHH NIL=
202208121230 METAR WIHH NIL=
202208121200 METAR WIHH NIL=
202208121130 METAR WIHH NIL=
202208121100 METAR WIHH NIL=
202208121030 METAR WIHH NIL=
202208121000 METAR WIHH NIL=
202208120930 METAR WIHH 120930Z 02009KT 6000 TS FEW018CB SCT020 32/23 Q1007 RMK CB AND RA TO S=
202208120900 METAR WIHH 120900Z 34006KT 6000 SCT020 32/22 Q1006 RMK RA TO SE=
202208120830 METAR WIHH 120830Z 34003KT 6000 SCT020 31/23 Q1006 RMK RA TO SW=
202208120800 METAR WIHH 120800Z 24004KT 5000 HZ FEW018CB SCT020 33/23 Q1007 RMK CB AND RA TO SW=
202208120730 METAR WIHH NIL=
202208120700 METAR WIHH NIL=
202208120630 METAR WIHH NIL=
202208120600 METAR WIHH 120600Z 07010KT 6000 SCT020 33/22 Q1008 NOSIG=
202208120530 METAR WIHH NIL=
202208120500 METAR WIHH 120500Z 09004KT 5000 HZ SCT020 32/23 Q1009 RMK RA TO SW=
202208120430 METAR WIHH NIL=
202208120400 METAR WIHH 120400Z 26003KT 4000 HZ SCT020 31/23 Q1010 NOSIG=
202208120330 METAR WIHH NIL=
202208120300 METAR WIHH 120300Z 05004KT 5000 HZ SCT020 32/24 Q1010 NOSIG=
202208120230 METAR WIHH 120230Z 08004KT 5000 HZ SCT020 31/23 Q1010 NOSIG=
202208120200 METAR WIHH 120200Z 05005KT 5000 HZ SCT020 30/24 Q1010 NOSIG=
202208120130 METAR WIHH 120130Z 09005KT 5000 HZ SCT020 29/25 Q1010 NOSIG=
202208120100 METAR WIHH NIL=
202208120030 METAR WIHH NIL=
202208120000 METAR WIHH NIL=
202208112330 METAR WIHH NIL=
202208112300 METAR WIHH NIL=
202208112230 METAR WIHH NIL=
202208112200 METAR WIHH NIL=
202208112130 METAR WIHH NIL=
202208112100 METAR WIHH NIL=
202208112030 METAR WIHH NIL=
202208112000 METAR WIHH NIL=
202208111930 METAR WIHH NIL=
202208111900 METAR WIHH NIL=
202208111830 METAR WIHH NIL=
202208111800 METAR WIHH NIL=
202208111730 METAR WIHH NIL=
202208111700 METAR WIHH NIL=
202208111630 METAR WIHH NIL=
202208111600 METAR WIHH NIL=
202208111530 METAR WIHH NIL=
202208111500 METAR WIHH NIL=
202208111430 METAR WIHH NIL=
202208111400 METAR WIHH NIL=
202208111330 METAR WIHH NIL=
202208111300 METAR WIHH NIL=
202208111230 METAR WIHH NIL=
202208111200 METAR WIHH NIL=
202208111130 METAR WIHH NIL=
202208111100 METAR WIHH NIL=
202208111030 METAR WIHH NIL=
202208111000 METAR WIHH NIL=
202208110930 METAR WIHH NIL=
202208110900 METAR WIHH NIL=
202208110830 METAR WIHH 110830Z 03005KT 6000 SCT020 34/23 Q1006 NOSIG=
202208110800 METAR WIHH 110800Z 03005KT 6000 SCT020 33/23 Q1006 NOSIG=
202208110730 METAR WIHH 110730Z 12006KT 6000 SCT020 33/22 Q1006 NOSIG=
202208110700 METAR WIHH 110700Z 06006KT 6000 SCT020 34/23 Q1007 NOSIG=
202208110630 METAR WIHH 110630Z 07007KT 6000 SCT020 33/23 Q1007 NOSIG=
202208110600 METAR WIHH 110600Z 09006KT 6000 SCT020 34/23 Q1008 NOSIG=
202208110530 METAR WIHH 110530Z 07007KT 6000 SCT020 33/22 Q1009 NOSIG=
202208110500 METAR WIHH 110500Z 04004KT 6000 SCT020 33/22 Q1009 NOSIG=
202208110430 METAR WIHH 110430Z 11007KT 6000 SCT020 32/22 Q1009 NOSIG=
202208110400 METAR WIHH 110400Z 21010KT 5000 HZ SCT020 31/23 Q1010 NOSIG=
202208110330 METAR WIHH NIL=
202208110300 METAR WIHH 110300Z 12008KT 6000 SCT020 31/22 Q1010 NOSIG=
202208110230 METAR WIHH 110230Z 12010KT 6000 FEW020 31/22 Q1010 NOSIG=
202208110200 METAR WIHH 110200Z 12007KT 6000 NSC 30/23 Q1011 NOSIG=
202208110130 METAR WIHH 110130Z 11006KT 5000 HZ NSC 29/23 Q1010 NOSIG=
202208110100 METAR WIHH 110100Z 00000KT 5000 HZ NSC 29/24 Q1010 NOSIG=
202208110030 METAR WIHH NIL=
202208110000 METAR WIHH NIL=
202208102330 METAR WIHH NIL=
202208102300 METAR WIHH NIL=
202208102230 METAR WIHH NIL=
202208102200 METAR WIHH NIL=
202208102130 METAR WIHH NIL=
202208102100 METAR WIHH NIL=
202208102030 METAR WIHH NIL=
202208102000 METAR WIHH NIL=
202208101930 METAR WIHH NIL=
202208101900 METAR WIHH NIL=
202208101830 METAR WIHH NIL=
202208101800 METAR WIHH NIL=
202208101730 METAR WIHH NIL=
202208101700 METAR WIHH NIL=
202208101630 METAR WIHH NIL=
202208101600 METAR WIHH NIL=
202208101530 METAR WIHH NIL=
202208101500 METAR WIHH NIL=
202208101430 METAR WIHH NIL=
202208101400 METAR WIHH NIL=
202208101330 METAR WIHH NIL=
202208101300 METAR WIHH NIL=
202208101230 METAR WIHH NIL=
202208101200 METAR WIHH NIL=
202208101130 METAR WIHH NIL=
202208101100 METAR WIHH NIL=
202208101030 METAR WIHH NIL=
202208101000 METAR WIHH 101000Z 05012KT 6000 SCT020 32/23 Q1007 NOSIG=
202208100930 METAR WIHH 100930Z 07013KT 6000 SCT020 32/23 Q1006 NOSIG=
202208100900 METAR WIHH 100900Z 05010KT 6000 SCT020 33/22 Q1006 NOSIG=
202208100830 METAR WIHH 100830Z 05010KT 6000 SCT020 33/22 Q1006 NOSIG=
202208100800 METAR WIHH 100800Z 08010KT 6000 SCT020 34/22 Q1007 NOSIG=
202208100730 METAR WIHH 100730Z 08010KT 6000 SCT020 34/22 Q1007 NOSIG=
202208100700 METAR WIHH 100700Z 06010KT 6000 SCT020 34/22 Q1007 NOSIG=
202208100630 METAR WIHH 100630Z 07010KT 6000 SCT020 33/21 Q1008 NOSIG=
202208100600 METAR WIHH 100600Z 05012KT 6000 SCT020 33/21 Q1008 NOSIG=
202208100530 METAR WIHH 100530Z 06008KT 6000 SCT020 33/21 Q1008 NOSIG=
202208100500 METAR WIHH 100500Z 09010KT 6000 SCT020 33/21 Q1009 NOSIG=
202208100430 METAR WIHH 100430Z 13004KT 6000 SCT020 32/22 Q1009 NOSIG=
202208100400 METAR WIHH 100400Z 09007KT 5000 HZ SCT020 32/21 Q1010 NOSIG=
202208100330 METAR WIHH NIL=
202208100300 METAR WIHH 100300Z 20003KT 5000 HZ NSC 31/23 Q1010 NOSIG=
202208100230 METAR WIHH 100230Z 19003KT 5000 HZ NSC 30/24 Q1011 NOSIG=
202208100200 METAR WIHH 100200Z 23003KT 5000 HZ NSC 30/24 Q1011 NOSIG=
202208100130 METAR WIHH NIL=
202208100100 METAR WIHH NIL=
202208100030 METAR WIHH NIL=
202208100000 METAR WIHH NIL=
202208092330 METAR WIHH NIL=
202208092300 METAR WIHH NIL=
202208092230 METAR WIHH NIL=
202208092200 METAR WIHH NIL=
202208092130 METAR WIHH NIL=
202208092100 METAR WIHH NIL=
202208092030 METAR WIHH NIL=
202208092000 METAR WIHH NIL=
202208091930 METAR WIHH NIL=
202208091900 METAR WIHH NIL=
202208091830 METAR WIHH NIL=
202208091800 METAR WIHH NIL=
202208091730 METAR WIHH NIL=
202208091700 METAR WIHH NIL=
202208091630 METAR WIHH NIL=
202208091600 METAR WIHH NIL=
202208091530 METAR WIHH NIL=
202208091500 METAR WIHH NIL=
202208091430 METAR WIHH NIL=
202208091400 METAR WIHH NIL=
202208091330 METAR WIHH NIL=
202208091300 METAR WIHH NIL=
202208091230 METAR WIHH NIL=
202208091200 METAR WIHH NIL=
202208091130 METAR WIHH NIL=
202208091100 METAR WIHH NIL=
202208091030 METAR WIHH 091030Z 05010KT 6000 FEW020 31/21 Q1007 NOSIG=
202208091000 METAR WIHH 091000Z 04007KT 6000 FEW020 32/22 Q1006 NOSIG=
202208090930 METAR WIHH NIL=
202208090900 METAR WIHH 090900Z 04007KT 6000 SCT020 32/22 Q1006 RMK RA TO S=
202208090830 METAR WIHH 090830Z METAR WIHH 090830Z 36008KT 5000 HZ SCT020 33/23 Q1005 NOSIG=
202208090800 METAR WIHH 090800Z METAR WIHH 090800Z 33005KT 5000 HZ SCT020 32/23 Q1006 NOSIG=
202208090730 METAR WIHH NIL=
202208090700 METAR WIHH NIL=
202208090630 METAR WIHH NIL=
202208090600 METAR WIHH NIL=
202208090530 METAR WIHH NIL=
202208090500 METAR WIHH NIL=
202208090430 METAR WIHH NIL=
202208090400 METAR WIHH NIL=
202208090330 METAR WIHH NIL=
202208090300 METAR WIHH NIL=
202208090230 METAR WIHH NIL=
202208090200 METAR WIHH NIL=
202208090130 METAR WIHH NIL=
202208090100 METAR WIHH NIL=
202208090030 METAR WIHH NIL=
202208090000 METAR WIHH NIL=
202208082330 METAR WIHH NIL=
202208082300 METAR WIHH NIL=
202208082230 METAR WIHH NIL=
202208082200 METAR WIHH NIL=
202208082130 METAR WIHH NIL=
202208082100 METAR WIHH NIL=
202208082030 METAR WIHH NIL=
202208082000 METAR WIHH NIL=
202208081930 METAR WIHH NIL=
202208081900 METAR WIHH NIL=
202208081830 METAR WIHH NIL=
202208081800 METAR WIHH NIL=
202208081730 METAR WIHH NIL=
202208081700 METAR WIHH NIL=
202208081630 METAR WIHH NIL=
202208081600 METAR WIHH NIL=
202208081530 METAR WIHH NIL=
202208081500 METAR WIHH NIL=
202208081430 METAR WIHH NIL=
202208081400 METAR WIHH NIL=
202208081330 METAR WIHH NIL=
202208081300 METAR WIHH NIL=
202208081230 METAR WIHH NIL=
202208081200 METAR WIHH NIL=
202208081130 METAR WIHH NIL=
202208081100 METAR WIHH NIL=
202208081030 METAR WIHH NIL=
202208081000 METAR WIHH NIL=
202208080930 METAR WIHH NIL=
202208080900 METAR WIHH NIL=
202208080830 METAR WIHH NIL=
202208080800 METAR WIHH NIL=
202208080730 METAR WIHH NIL=
202208080700 METAR WIHH NIL=
202208080630 METAR WIHH NIL=
202208080600 METAR WIHH NIL=
202208080530 METAR WIHH NIL=
202208080500 METAR WIHH NIL=
202208080430 METAR WIHH NIL=
202208080400 METAR WIHH NIL=
202208080330 METAR WIHH NIL=
202208080300 METAR WIHH NIL=
202208080230 METAR WIHH NIL=
202208080200 METAR WIHH NIL=
202208080130 METAR WIHH NIL=
202208080100 METAR WIHH NIL=
202208080030 METAR WIHH NIL=
202208080000 METAR WIHH NIL=
202208072330 METAR WIHH NIL=
202208072300 METAR WIHH NIL=
202208072230 METAR WIHH NIL=
202208072200 METAR WIHH NIL=
202208072130 METAR WIHH NIL=
202208072100 METAR WIHH NIL=
202208072030 METAR WIHH NIL=
202208072000 METAR WIHH NIL=
202208071930 METAR WIHH NIL=
202208071900 METAR WIHH NIL=
202208071830 METAR WIHH NIL=
202208071800 METAR WIHH NIL=
202208071730 METAR WIHH NIL=
202208071700 METAR WIHH NIL=
202208071630 METAR WIHH NIL=
202208071600 METAR WIHH NIL=
202208071530 METAR WIHH NIL=
202208071500 METAR WIHH NIL=
202208071430 METAR WIHH NIL=
202208071400 METAR WIHH NIL=
202208071330 METAR WIHH NIL=
202208071300 METAR WIHH NIL=
202208071230 METAR WIHH NIL=
202208071200 METAR WIHH NIL=
202208071130 METAR WIHH NIL=
202208071100 METAR WIHH NIL=
202208071030 METAR WIHH NIL=
202208071000 METAR WIHH NIL=
202208070930 METAR WIHH NIL=
202208070900 METAR WIHH NIL=
202208070830 METAR WIHH NIL=
202208070800 METAR WIHH NIL=
202208070730 METAR WIHH NIL=
202208070700 METAR WIHH NIL=
202208070630 METAR WIHH NIL=
202208070600 METAR WIHH NIL=
202208070530 METAR WIHH NIL=
202208070500 METAR WIHH NIL=
202208070430 METAR WIHH NIL=
202208070400 METAR WIHH NIL=
202208070330 METAR WIHH NIL=
202208070300 METAR WIHH NIL=
202208070230 METAR WIHH NIL=
202208070200 METAR WIHH NIL=
202208070130 METAR WIHH NIL=
202208070100 METAR WIHH NIL=
202208070030 METAR WIHH NIL=
202208070000 METAR WIHH NIL=
202208062330 METAR WIHH NIL=
202208062300 METAR WIHH NIL=
202208062230 METAR WIHH NIL=
202208062200 METAR WIHH NIL=
202208062130 METAR WIHH NIL=
202208062100 METAR WIHH NIL=
202208062030 METAR WIHH NIL=
202208062000 METAR WIHH NIL=
202208061930 METAR WIHH NIL=
202208061900 METAR WIHH NIL=
202208061830 METAR WIHH NIL=
202208061800 METAR WIHH NIL=
202208061730 METAR WIHH NIL=
202208061700 METAR WIHH NIL=
202208061630 METAR WIHH NIL=
202208061600 METAR WIHH NIL=
202208061530 METAR WIHH NIL=
202208061500 METAR WIHH NIL=
202208061430 METAR WIHH NIL=
202208061400 METAR WIHH NIL=
202208061330 METAR WIHH NIL=
202208061300 METAR WIHH NIL=
202208061230 METAR WIHH NIL=
202208061200 METAR WIHH NIL=
202208061130 METAR WIHH NIL=
202208061100 METAR WIHH NIL=
202208061030 METAR WIHH NIL=
202208061000 METAR WIHH NIL=
202208060930 METAR WIHH NIL=
202208060900 METAR WIHH NIL=
202208060830 METAR WIHH NIL=
202208060800 METAR WIHH NIL=
202208060730 METAR WIHH NIL=
202208060700 METAR WIHH NIL=
202208060630 METAR WIHH NIL=
202208060600 METAR WIHH NIL=
202208060530 METAR WIHH NIL=
202208060500 METAR WIHH NIL=
202208060430 METAR WIHH NIL=
202208060400 METAR WIHH NIL=
202208060330 METAR WIHH NIL=
202208060300 METAR WIHH NIL=
202208060230 METAR WIHH NIL=
202208060200 METAR WIHH NIL=
202208060130 METAR WIHH NIL=
202208060100 METAR WIHH NIL=
202208060030 METAR WIHH NIL=
202208060000 METAR WIHH NIL=
202208052330 METAR WIHH NIL=
202208052300 METAR WIHH NIL=
202208052230 METAR WIHH NIL=
202208052200 METAR WIHH NIL=
202208052130 METAR WIHH NIL=
202208052100 METAR WIHH NIL=
202208052030 METAR WIHH NIL=
202208052000 METAR WIHH NIL=
202208051930 METAR WIHH NIL=
202208051900 METAR WIHH NIL=
202208051830 METAR WIHH NIL=
202208051800 METAR WIHH NIL=
202208051730 METAR WIHH NIL=
202208051700 METAR WIHH NIL=
202208051630 METAR WIHH NIL=
202208051600 METAR WIHH NIL=
202208051530 METAR WIHH NIL=
202208051500 METAR WIHH NIL=
202208051430 METAR WIHH NIL=
202208051400 METAR WIHH NIL=
202208051330 METAR WIHH NIL=
202208051300 METAR WIHH NIL=
202208051230 METAR WIHH NIL=
202208051200 METAR WIHH NIL=
202208051130 METAR WIHH NIL=
202208051100 METAR WIHH NIL=
202208051030 METAR WIHH NIL=
202208051000 METAR WIHH NIL=
202208050930 METAR WIHH NIL=
202208050900 METAR WIHH NIL=
202208050830 METAR WIHH NIL=
202208050800 METAR WIHH NIL=
202208050730 METAR WIHH NIL=
202208050700 METAR WIHH NIL=
202208050630 METAR WIHH NIL=
202208050600 METAR WIHH NIL=
202208050530 METAR WIHH NIL=
202208050500 METAR WIHH NIL=
202208050430 METAR WIHH NIL=
202208050400 METAR WIHH NIL=
202208050330 METAR WIHH NIL=
202208050300 METAR WIHH NIL=
202208050230 METAR WIHH NIL=
202208050200 METAR WIHH NIL=
202208050130 METAR WIHH NIL=
202208050100 METAR WIHH NIL=
202208050030 METAR WIHH NIL=
202208050000 METAR WIHH NIL=
202208042330 METAR WIHH NIL=
202208042300 METAR WIHH NIL=
202208042230 METAR WIHH NIL=
202208042200 METAR WIHH NIL=
202208042130 METAR WIHH NIL=
202208042100 METAR WIHH NIL=
202208042030 METAR WIHH NIL=
202208042000 METAR WIHH NIL=
202208041930 METAR WIHH NIL=
202208041900 METAR WIHH NIL=
202208041830 METAR WIHH NIL=
202208041800 METAR WIHH NIL=
202208041730 METAR WIHH NIL=
202208041700 METAR WIHH NIL=
202208041630 METAR WIHH NIL=
202208041600 METAR WIHH NIL=
202208041530 METAR WIHH NIL=
202208041500 METAR WIHH NIL=
202208041430 METAR WIHH NIL=
202208041400 METAR WIHH NIL=
202208041330 METAR WIHH NIL=
202208041300 METAR WIHH NIL=
202208041230 METAR WIHH NIL=
202208041200 METAR WIHH NIL=
202208041130 METAR WIHH NIL=
202208041100 METAR WIHH NIL=
202208041030 METAR WIHH NIL=
202208041000 METAR WIHH NIL=
202208040930 METAR WIHH NIL=
202208040900 METAR WIHH NIL=
202208040830 METAR WIHH NIL=
202208040800 METAR WIHH NIL=
202208040730 METAR WIHH NIL=
202208040700 METAR WIHH NIL=
202208040630 METAR WIHH NIL=
202208040600 METAR WIHH NIL=
202208040530 METAR WIHH NIL=
202208040500 METAR WIHH NIL=
202208040430 METAR WIHH NIL=
202208040400 METAR WIHH NIL=
202208040330 METAR WIHH NIL=
202208040300 METAR WIHH NIL=
202208040230 METAR WIHH NIL=
202208040200 METAR WIHH NIL=
202208040130 METAR WIHH NIL=
202208040100 METAR WIHH NIL=
202208040030 METAR WIHH NIL=
202208040000 METAR WIHH NIL=
202208032330 METAR WIHH NIL=
202208032300 METAR WIHH NIL=
202208032230 METAR WIHH NIL=
202208032200 METAR WIHH NIL=
202208032130 METAR WIHH NIL=
202208032100 METAR WIHH NIL=
202208032030 METAR WIHH NIL=
202208032000 METAR WIHH NIL=
202208031930 METAR WIHH NIL=
202208031900 METAR WIHH NIL=
202208031830 METAR WIHH NIL=
202208031800 METAR WIHH NIL=
202208031730 METAR WIHH NIL=
202208031700 METAR WIHH NIL=
202208031630 METAR WIHH NIL=
202208031600 METAR WIHH NIL=
202208031530 METAR WIHH NIL=
202208031500 METAR WIHH NIL=
202208031430 METAR WIHH NIL=
202208031400 METAR WIHH NIL=
202208031330 METAR WIHH NIL=
202208031300 METAR WIHH NIL=
202208031230 METAR WIHH NIL=
202208031200 METAR WIHH NIL=
202208031130 METAR WIHH NIL=
202208031100 METAR WIHH NIL=
202208031030 METAR WIHH NIL=
202208031000 METAR WIHH NIL=
202208030930 METAR WIHH NIL=
202208030900 METAR WIHH NIL=
202208030830 METAR WIHH NIL=
202208030800 METAR WIHH NIL=
202208030730 METAR WIHH NIL=
202208030700 METAR WIHH NIL=
202208030630 METAR WIHH NIL=
202208030600 METAR WIHH NIL=
202208030530 METAR WIHH NIL=
202208030500 METAR WIHH NIL=
202208030430 METAR WIHH NIL=
202208030400 METAR WIHH NIL=
202208030330 METAR WIHH NIL=
202208030300 METAR WIHH NIL=
202208030230 METAR WIHH NIL=
202208030200 METAR WIHH NIL=
202208030130 METAR WIHH NIL=
202208030100 METAR WIHH NIL=
202208030030 METAR WIHH NIL=
202208030000 METAR WIHH NIL=
202208022330 METAR WIHH NIL=
202208022300 METAR WIHH NIL=
202208022230 METAR WIHH NIL=
202208022200 METAR WIHH NIL=
202208022130 METAR WIHH NIL=
202208022100 METAR WIHH NIL=
202208022030 METAR WIHH NIL=
202208022000 METAR WIHH NIL=
202208021930 METAR WIHH NIL=
202208021900 METAR WIHH NIL=
202208021830 METAR WIHH NIL=
202208021800 METAR WIHH NIL=
202208021730 METAR WIHH NIL=
202208021700 METAR WIHH NIL=
202208021630 METAR WIHH NIL=
202208021600 METAR WIHH NIL=
202208021530 METAR WIHH NIL=
202208021500 METAR WIHH NIL=
202208021430 METAR WIHH NIL=
202208021400 METAR WIHH NIL=
202208021330 METAR WIHH NIL=
202208021300 METAR WIHH NIL=
202208021230 METAR WIHH NIL=
202208021200 METAR WIHH NIL=
202208021130 METAR WIHH NIL=
202208021100 METAR WIHH NIL=
202208021030 METAR WIHH NIL=
202208021000 METAR WIHH NIL=
202208020930 METAR WIHH NIL=
202208020900 METAR WIHH NIL=
202208020830 METAR WIHH NIL=
202208020800 METAR WIHH NIL=
202208020730 METAR WIHH NIL=
202208020700 METAR WIHH NIL=
202208020630 METAR WIHH NIL=
202208020600 METAR WIHH NIL=
202208020530 METAR WIHH NIL=
202208020500 METAR WIHH NIL=
202208020430 METAR WIHH NIL=
202208020400 METAR WIHH NIL=
202208020330 METAR WIHH NIL=
202208020300 METAR WIHH NIL=
202208020230 METAR WIHH NIL=
202208020200 METAR WIHH NIL=
202208020130 METAR WIHH NIL=
202208020100 METAR WIHH NIL=
202208020030 METAR WIHH NIL=
202208020000 METAR WIHH NIL=
202208012330 METAR WIHH NIL=
202208012300 METAR WIHH NIL=
202208012230 METAR WIHH NIL=
202208012200 METAR WIHH NIL=
202208012130 METAR WIHH NIL=
202208012100 METAR WIHH NIL=
202208012030 METAR WIHH NIL=
202208012000 METAR WIHH NIL=
202208011930 METAR WIHH NIL=
202208011900 METAR WIHH NIL=
202208011830 METAR WIHH NIL=
202208011800 METAR WIHH NIL=
202208011730 METAR WIHH NIL=
202208011700 METAR WIHH NIL=
202208011630 METAR WIHH NIL=
202208011600 METAR WIHH NIL=
202208011530 METAR WIHH NIL=
202208011500 METAR WIHH NIL=
202208011430 METAR WIHH NIL=
202208011400 METAR WIHH NIL=
202208011330 METAR WIHH NIL=
202208011300 METAR WIHH NIL=
202208011230 METAR WIHH NIL=
202208011200 METAR WIHH NIL=
202208011130 METAR WIHH NIL=
202208011100 METAR WIHH NIL=
202208011030 METAR WIHH NIL=
202208011000 METAR WIHH NIL=
202208010930 METAR WIHH NIL=
202208010900 METAR WIHH NIL=
202208010830 METAR WIHH NIL=
202208010800 METAR WIHH NIL=
202208010730 METAR WIHH NIL=
202208010700 METAR WIHH NIL=
202208010630 METAR WIHH NIL=
202208010600 METAR WIHH NIL=
202208010530 METAR WIHH NIL=
202208010500 METAR WIHH NIL=
202208010430 METAR WIHH NIL=
202208010400 METAR WIHH NIL=
202208010330 METAR WIHH NIL=
202208010300 METAR WIHH NIL=
202208010230 METAR WIHH NIL=
202208010200 METAR WIHH NIL=
202208010130 METAR WIHH NIL=
202208010100 METAR WIHH NIL=
202208010030 METAR WIHH NIL=
202208010000 METAR WIHH NIL=

# No short TAF reports from WIHH in databse.

###################################
#  large TAF from WIHH
###################################
202208312300 TAF WIHH 312300Z 0100/0200 08005KT 4000 HZ FEW022
                      BECMG 0102/0104 03010KT 6000 SCT020
                      TEMPO 0107/0110 09008KT 3000 -RA FEW017CB
                       BKN018
                      BECMG 0112/0114 20004KT 5000 HZ=
202208311700 TAF WIHH 311700Z 3118/0118 VRB03KT 5000 HZ FEW022
                      BECMG 0101/0103 12008KT 6000 SCT020
                      TEMPO 0105/0109 03010KT 3000 -RA BKN018=
202208311100 TAF WIHH 311100Z 3112/0112 06006KT 6000 FEW022
                      BECMG 3114/3116 12004KT 5000 HZ
                      BECMG 3122/0100 00000KT 3000 BR=
202208310500 TAF WIHH 310500Z 3106/0106 01010KT 6000 SCT020
                      TEMPO 3107/3111 3000 -RA FEW017CB BKN018
                       BECMG 3113/3115 20004KT 5000 HZ FEW022=
202208302300 TAF WIHH 302300Z 3100/0100 12006KT 5000 HZ FEW020
                      TEMPO 3107/3111 02010KT 3000 -RA BKN018
                      BECMG 3112/3114 30004KT 4000 HZ SCT020
                      BECMG 3117/3119 00000KT FEW020=
202208301700 TAF WIHH 301700Z 3018/3118 09005KT 5000 HZ FEW020
                      BECMG 3103/3105 30004KT 6000 SCT020=
202208301100 TAF WIHH 301100Z 3012/3112 03006KT 5000 HZ SCT020
                      BECMG 3021/3023 00000KT 4000 FEW020=
202208300500 TAF WIHH 300500Z 3006/3106 15006KT 5000 HZ SCT020
                      BECMG 3010/3012 03006KT
                      BECMG 3016/3018 VRB03KT 6000 FEW020=
202208292300 TAF WIHH 292300Z 3000/3100 12006KT 5000 HZ FEW020
                      TEMPO 3008/3012 02010KT 3000 -RA BKN018
                      BECMG 3013/3015 05003KT 4000 HZ SCT020=
202208291700 TAF WIHH 291700Z 2918/3018 03006KT 5000 HZ FEW020
                      BECMG 2922/3000 00000KT 4000 BR
                      BECMG 3003/3005 12005KT 6000 SCT020=
202208291100 TAF WIHH 291100Z 2912/3012 03006KT 5000 HZ SCT020
                      TEMPO 2912/2914 24008KT 3000 -RA BKN018
                      BECMG 2915/2917 VRB03KT 4000 HZ FEW020
                      BECMG 2921/2923 00000KT BR=
202208290500 TAF WIHH 290500Z 2906/3006 12006KT 6000 SCT018
                      TEMPO 2907/2911 27010KT 3000 -RA BKN018
                      BECMG 2912/2914 03004KT 5000 HZ SCT020
                      BECMG 2918/2920 00000KT FEW020=
202208282300 TAF WIHH 282300Z 2900/3000 10007KT 6000 SCT020
                      TEMPO 2908/2912 23010KT 3000 -RA FEW018CB
                       BECMG 2913/2915 5000 HZ=
202208281700 TAF WIHH 281700Z 2818/2918 15003KT 4000 HZ SCT020
                      BECMG 2822/2900 00000KT 3000 BR FEW022=
202208281100 TAF WIHH 281100Z 2812/2918 16008KT 4000 -RA FEW018CB SCT020
                      BECMG 2815/2817 VRB04KT 4000 HZ FEW022=
202208280500 TAF WIHH 280500Z 2806/2906 35012KT 6000 SCT020
                      TEMPO 2810/2813 20010KT 3000 -RA FEW017CB
                       BECMG 2814/2816 15007KT 5000 HZ FEW022=
202208272300 TAF WIHH 272300Z 2800/2900 12008KT 5000 HZ FEW020
                      BECMG 2802/2804 27005KT SCT020
                      TEMPO 2808/2812 03010KT 3000 -RA BKN018
                      BECMG 2814/2816 36004KT 4000 HZ FEW022=
202208271700 TAF WIHH 271700Z 2718/2818 12005KT 5000 HZ SCT020
                      BECMG 2801/2803 03004KT FEW020=
202208271100 TAF WIHH 271100Z 2712/2812 03008KT 5000 HZ SCT018
                      BECMG 2717/2719 VRB03KT 4000 SCT020=
202208270500 TAF WIHH 270500Z 2706/2806 09006KT 5000 HZ SCT020
                      TEMPO 2710/2713 30010KT 3000 -RA BKN018
                      BECMG 2715/2717 00000KT 4000 HZ FEW020=
202208261700 TAF WIHH 261700Z 2618/2718 03006KT 5000 HZ FEW020
                      BECMG 2702/2704 09005KT SCT020=
202208261100 TAF WIHH 261100Z 2612/2712 06008KT 5000 HZ SCT020
                      TEMPO 2615/2618 33010KT 3000 -RA BKN018
                      BECMG 2620/2622 00000KT 3000 BR SCT020
                      BECMG 2701/2703 5000 HZ FEW022=
202208260500 TAF WIHH 260500Z 2606/2706 03006KT 5000 HZ SCT020
                      TEMPO 2612/2616 33008KT 3000 -RA BKN018
                      BECMG 2619/2621 00000KT 3000 BR FEW020=
202208252300 TAF WIHH 252300Z 2600/2700 23005KT 5000 HZ FEW022
                      BECMG 2603/2605 03012KT 6000 SCT020
                      TEMPO 2610/2613 20010KT 3000 -RA FEW017CB
                       BECMG 2614/2616 15004KT 4000 HZ=
202208251700 TAF WIHH 251700Z 2518/2618 22005KT 5000 HZ FEW022
                      BECMG 2601/2603 06010KT 6000=
202208251100 TAF WIHH 251100Z 2512/2612 06008KT 6000 FEW022
                      BECMG 2515/2517 22005KT 5000 HZ=
202208250500 TAF WIHH 250500Z 2506/2606 01012KT 6000 SCT020
                      BECMG 2515/2517 20005KT 5000 HZ FEW022=
202208242300 TAF WIHH 242300Z 2500/2600 21005KT 6000 FEW022
                      BECMG 2504/2506 01012KT SCT020
                      BECMG 2514/2516 16005KT 5000 HZ=
202208241700 TAF WIHH 241700Z 2418/2518 06003KT 5000 HZ FEW022
                      BECMG 2422/2500 23004KT 3000 BR
                      BECMG 2502/2504 03010KT 6000 SCT020=
202208241100 TAF WIHH 241100Z 2412/2512 25006KT 6000 SCT020
                      TEMPO 2418/2421 VRB04KT 4000 -RA BKN018=
202208240500 TAF WIHH 240500Z 2406/2506 02012KT 6000 SCT020
                      BECMG 2413/2415 20005KT 5000 HZ FEW022
                      BECMG 2418/2420 22008KT=
202208232300 TAF WIHH 232300Z 2400/2500 09008KT 5000 HZ FEW020
                      BECMG 2403/2405 03006KT 6000 SCT020
                      BECMG 2414/2416 15003KT 5000 HZ=
202208231700 TAF WIHH 231700Z 2318/2418 03005KT 5000 HZ SCT020
                      BECMG 2401/2403 VRB03KT FEW020=
202208231100 TAF WIHH 231100Z 2312/2412 06006KT 5000 HZ FEW020
                      BECMG 2321/2322 00000KT FEW022=
202208230500 TAF WIHH 230500Z 2306/2406 12006KT 5000 HZ SCT020
                      BECMG 2314/2316 03004KT FEW020=
202208222300 TAF WIHH 222300Z 2300/2400 09008KT 3000 HZ FEW022
                      BECMG 2302/2304 03012KT 6000 SCT020
                      BECMG 2312/2315 22005KT 5000 HZ=
202208221700 TAF WIHH 221700Z 2218/2318 20003KT 5000 HZ FEW022
                      BECMG 2301/2303 09008KT 6000 SCT020=
202208221100 TAF WIHH 221100Z 2212/2312 15003KT 5000 HZ SCT020
                      BECMG 2218/2221 23005KT 4000 BR FEW022=
202208220500 TAF WIHH 220500Z 2206/2306 01006KT 5000 HZ SCT018
                      TEMPO 2207/2211 34010KT 3000 RA BKN018
                      BECMG 2213/2215 16005KT 4000 HZ FEW020=
202208212300 TAF WIHH 212300Z 2200/2300 12008KT 5000 HZ SCT020
                      BECMG 2202/2204 03006KT 6000
                      TEMPO 2207/2211 3000 RA FEW017CB BKN018
                      BECMG 2213/2215 VRB03KT 5000 HZ FEW020=
202208211700 TAF WIHH 211700Z 2118/2218 09005KT 5000 HZ SCT020
                      BECMG 2202/2204 36003KT FEW020=
202208211100 TAF WIHH 211100Z 2112/2212 06005KT 5000 HZ SCT020
                      TEMPO 2112/2115 27010KT 3000 RA FEW017CB
                       BKN018
                      BECMG 2116/2118 00000KT 4000 BR FEW020
                      BECMG 2200/2202 VRB03KT FEW022=
202208210500 TAF WIHH 210500Z 2106/2206 12006KT 6000 SCT018
                      TEMPO 2108/2111 30010KT 4000 -RA BKN018
                      BECMG 2113/2115 03003KT 5000 HZ SCT020=
202208202300 TAF WIHH 202300Z 2100/2200 35010KT 6000 FEW022
                      TEMPO 2109/2112 33008KT 4000 -RA SCT020
                      BECMG 2114/2115 16005KT 5000 HZ=
202208201700 TAF WIHH 201700Z 2018/2118 23005KT 5000 HZ FEW022
                      BECMG 2101/2103 34008KT 6000 SCT020=
202208201100 TAF WIHH 201100Z 2012/2112 07010KT 6000 FEW022
                      BECMG 2013/2015 23005KT 5000 HZ
                      TEMPO 2018/2021 26010KT 4000 -RA SCT020=
202208200500 TAF WIHH 200500Z 2006/2106 08012KT 6000 SCT020
                      TEMPO 2009/2012 06008KT 3000 -TSRA FEW016CB
                       BECMG 2013/2015 23005KT 5000 HZ
                      TEMPO 2018/2021 25010KT 4000 -RA BKN018=
202208192300 TAF WIHH 192300Z 2000/2100 12008KT 6000 FEW020
                      TEMPO 2008/2011 34012KT 3000 -TSRA FEW017CB
                       SCT018
                      BECMG 2013/2015 03005KT 5000 HZ SCT020=
202208191700 TAF WIHH 191700Z 1918/2018 06008KT 5000 HZ FEW020
                      BECMG 2002/2004 03004KT 6000=
202208191100 TAF WIHH 191100Z 1912/2012 06008KT 6000 FEW020
                      BECMG 1918/1920 01003KT 5000 HZ=
202208190500 TAF WIHH 190500Z 1906/2006 09010KT 6000 SCT020
                      BECMG 1915/1917 03005KT 5000 HZ FEW020=
202208182300 TAF WIHH 182300Z 1900/2000 09008KT 6000 FEW022
                      BECMG 1904/1906 05012KT SCT020
                      BECMG 1914/1916 14005KT=
202208181700 TAF WIHH 181700Z 1818/1918 22004KT 5000 HZ FEW022
                      BECMG 1902/1904 09010KT 6000 SCT020=
202208181100 TAF WIHH 181100Z 1812/1912 10010KT 6000 FEW022
                      BECMG 1815/1817 21005KT 5000 HZ=
202208180500 TAF WIHH 180500Z 1806/1906 06012KT 7000 SCT020
                      BECMG 1814/1816 20005KT 5000 HZ FEW022=
202208172300 TAF WIHH 172300Z 1800/1900 15008KT 6000 FEW020
                      BECMG 1807/1809 01006KT SCT020
                      BECMG 1815/1817 5000 HZ FEW022=
202208171700 TAF WIHH 171700Z 1718/1818 12008KT 5000 HZ FEW020
                      BECMG 1803/1805 03006KT 6000 SCT020=
202208171100 TAF WIHH 171100Z 1712/1812 06008KT 6000 SCT020
                      BECMG 1718/1720 VRB03KT FEW020
                      BECMG 1801/1803 12005KT 5000 HZ=
202208170500 TAF WIHH 170500Z 1706/1806 12006KT 5000 HZ SCT018
                      TEMPO 1710/1714 03010KT 3000 -RA BKN018
                      BECMG 1715/1717 00000KT 4000 BR SCT020=
202208162300 TAF WIHH 162300Z 1700/1800 12008KT 5000 HZ FEW020
                      BECMG 1703/1705 03005KT 6000 SCT020
                      TEMPO 1710/1714 24010KT 3000 -RA BKN018=
202208161700 TAF WIHH 161700Z 1618/1718 06008KT 5000 HZ SCT018
                      BECMG 1621/1623 00000KT 3000 BR SCT020
                      BECMG 1703/1705 24005KT 6000=
202208161100 TAF WIHH 161100Z 1612/1712 36008KT 5000 HZ SCT018
                      TEMPO 1612/1615 06010KT 3000 -TSRA FEW017CB
                       BKN018
                      BECMG 1616/1618 00000KT 4000 BR FEW020=
202208160500 TAF WIHH 160500Z 1606/1706 24006KT 5000 HZ SCT020
                      TEMPO 1609/1613 03010KT 3000 -TSRA FEW017CB
                       BKN018
                      BECMG 1615/1617 VRB03KT 4000 BR FEW020=
202208152300 TAF WIHH 152300Z 1600/1700 25005KT 5000 HZ FEW022
                      BECMG 1602/1604 04010KT 6000 SCT020
                      TEMPO 1609/1612 34013KT 4000 -RA FEW016CB
                       BECMG 1614/1616 18005KT 5000 HZ=
202208151700 TAF WIHH 151700Z 1518/1618 15004KT 5000 HZ SCT020
                      BECMG 1602/1604 06008KT 6000=
202208151100 TAF WIHH 151100Z 1512/1612 33008KT 6000 SCT018
                      BECMG 1514/1516 15004KT 5000 HZ=
202208150500 TAF WIHH 150500Z 1506/1606 06012KT 6000 SCT018
                      TEMPO 1509/1512 02014KT 4000 -RA FEW017CB
                       BECMG 1514/1516 04005KT 5000 HZ FEW022=
202208142300 TAF WIHH 142300Z 1500/1600 10008KT 6000 FEW022
                      BECMG 1504/1506 06010KT SCT020
                      TEMPO 1509/1512 28012KT 4000 -RA FEW017CB
                       BECMG 1514/1516 04005KT 5000 HZ=
202208141700 TAF WIHH 141700Z 1418/1518 24004KT 5000 HZ FEW022
                      BECMG 1501/1503 09008KT 6000 SCT020=
202208141100 TAF WIHH 141100Z 1412/1512 20006KT 6000 SCT020
                      BECMG 1414/1416 VRB03KT 5000 HZ FEW022=
202208140500 TAF WIHH 140500Z 1406/1506 06010KT 6000 SCT020
                      TEMPO 1409/1412 23012KT 2000 TSRA FEW016CB
                       BKN017
                      BECMG 1413/1415 09006KT 5000 HZ=
202208131700 TAF WIHH 131700Z 1318/1418 01006KT 5000 HZ FEW020
                      BECMG 1403/1405 15008KT 6000 SCT020=
202208131100 TAF WIHH 131100Z 1312/1412 03008KT 5000 HZ SCT020
                      BECMG 1315/1317 09005KT FEW020=
202208130500 TAF WIHH 130500Z 1306/1406 15006KT 5000 HZ SCT018
                      TEMPO 1308/1312 30010KT 3000 -TSRA FEW017CB
                       BKN018
                      BECMG 1314/1316 00000KT 4000 HZ SCT020=
202208122300 TAF WIHH 122300Z 1300/1400 12004KT 4000 HZ FEW022
                      BECMG 1302/1304 02008KT 6000 SCT020
                      TEMPO 1307/1311 24010KT 3000 -TSRA FEW017CB
                       BKN018
                      BECMG 1312/1314 VRB03KT 5000 HZ=
202208121700 TAF WIHH 121700Z 1218/1318 VRB03KT 4000 HZ FEW022
                      BECMG 1302/1304 08008KT 6000 SCT020=
202208121105 TAF WIHH 121105Z 1212/1312 15010KT 5000 HZ SCT018
                      TEMPO 1212/1215 3000 -RA FEW017CB
                      BECMG 1216/1218 VRB03KT 4000 HZ FEW022=
202208121100 TAF WIHH 121100Z NIL=
202208120500 TAF WIHH 120500Z 1206/1306 36008KT 5000 HZ SCT020
                      TEMPO 1208/1212 09010KT 3000 -TSRA FEW017CB
                       BKN018
                      BECMG 1214/1216 25006KT 4000 HZ FEW022=
202208112300 TAF WIHH 112300Z 1200/1300 09008KT 5000 HZ SCT018
                      BECMG 1202/1204 01006KT 6000
                      TEMPO 1207/1211 33010KT 2000 TSRA FEW017CB
                       BKN018
                      BECMG 1213/1215 VRB03KT 4000 BR SCT020=
202208111700 TAF WIHH 111700Z 1118/1218 15008KT 5000 HZ FEW020
                      BECMG 1202/1204 03006KT 6000 SCT020=
202208111100 TAF WIHH 111100Z 1112/1212 03006KT 5000 HZ SCT018
                      TEMPO 1112/1115 3000 RA FEW017CB
                      BECMG 1116/1118 09003KT 4000 HZ SCT020
                      BECMG 1122/1200 00000KT FEW020=
202208110500 TAF WIHH 110500Z 1106/1206 12008KT 5000 HZ SCT018
                      TEMPO 1109/1112 03010KT 4000 -RA BKN018
                      BECMG 1113/1115 VRB03KT 5000 HZ SCT020
                      BECMG 1120/1122 00000KT 4000 FEW020=
202208102300 TAF WIHH 102300Z 1100/1200 15004KT 4000 HZ FEW022
                      BECMG 1102/1104 05008KT 6000 SCT020
                      TEMPO 1109/1112 01012KT 4000 -RA FEW017CB
                       BECMG 1114/1116 20003KT 5000 HZ=
202208101700 TAF WIHH 101700Z 1018/1118 23003KT 5000 HZ FEW022
                      BECMG 1101/1103 12006KT 6000 SCT020=
202208101100 TAF WIHH 101100Z 1012/1112 06008KT 6000 SCT020
                      BECMG 1014/1016 15004KT 5000 HZ FEW022=
202208100500 TAF WIHH 100500Z 1006/1106 03010KT 6000 SCT018
                      TEMPO 1009/1012 22008KT 4000 -RA FEW017CB
                       BECMG 1014/1016 VRB04KT 5000 HZ=
202208092300 TAF WIHH 092300Z 1000/1100 09008KT 5000 HZ SCT020
                      BECMG 1003/1005 02005KT 6000
                      TEMPO 1008/1011 15010KT 3000 RA FEW017CB
                       BECMG 1013/1015 00000KT 4000 HZ FEW020=
202208091700 TAF WIHH 091700Z 0918/1018 12008KT 5000 HZ FEW020
                      BECMG 1003/1005 03006KT 6000 SCT020=
202208091100 TAF WIHH 091100Z 0912/1012 06008KT 5000 HZ SCT020
                      BECMG 0918/0920 00000KT 4000 FEW020=
202208090500 TAF WIHH 090500Z 0906/1006 15008KT 6000 SCT020
                      TEMPO 0910/0913 33010KT 4000 -RA SCT018
                      BECMG 0915/0917 00000KT 5000 HZ FEW020=
202208082300 TAF WIHH 082300Z 0900/1000 24006KT 6000 SCT020
                      TEMPO 0909/0912 01008KT 4000 -RA
                      BECMG 0913/0915 20005KT 5000 HZ FEW022=
202208081700 TAF WIHH 081700Z 0818/0918 VRB03KT 5000 HZ FEW022
                      BECMG 0901/0903 22005KT 6000 SCT020
                      BECMG 0905/0907 36010KT=
202208081100 TAF WIHH 081100Z 0812/0912 22004KT 6000 FEW022
                      BECMG 0814/0816 5000 HZ
                      BECMG 0900/0902 20008KT 6000=
202208080500 TAF WIHH 080500Z 0806/0906 36008KT 6000 FEW022
                      TEMPO 0810/0813 06008KT 4000 -RA SCT018
                      BECMG 0814/0816 20004KT 5000 HZ=
202208072300 TAF WIHH 072300Z 0800/0900 15008KT 6000 FEW020
                      BECMG 0804/0806 03006KT SCT020
                      BECMG 0812/0814 5000 HZ=
202208071700 TAF WIHH 071700Z 0718/0818 06006KT 5000 HZ FEW020
                      BECMG 0804/0806 36005KT 6000 SCT020=
202208071100 TAF WIHH 071100Z 0712/0812 03008KT 5000 HZ SCT018
                      TEMPO 0712/0715 27010KT 3000 RA BKN020
                      BECMG 0717/0719 00000KT 4000 HZ SCT020
                      BECMG 0723/0801 BR FEW022=
202208070500 TAF WIHH 070500Z 0706/0806 12008KT 5000 HZ SCT020
                      TEMPO 0710/0713 03010KT 4000 -RA SCT018
                      BECMG 0714/0716 VRB03KT 5000 HZ FEW020=
202208062300 TAF WIHH 062300Z 0700/0800 15004KT 3000 BR FEW022
                      BECMG 0702/0704 09008KT 6000 SCT020
                      TEMPO 0707/0710 02010KT 4000 -TSRA FEW017CB
                       BECMG 0712/0714 00000KT 5000 HZ=
202208061700 TAF WIHH 061700Z 0618/0718 VRB03KT 5000 HZ FEW022
                      BECMG 0622/0700 00000KT 3000 BR
                      TEMPO 0707/0710 36010KT 4000 -RA SCT018=
202208061145 TAF AMD WIHH 061145Z 0612/0712 33006KT 4000 -RA SCT018
                      BECMG 0614/0616 14003KT 5000 HZ
                      BECMG 0622/0700 00000KT 3000 BR FEW022=
202208061100 TAF WIHH 061100Z 0612/0712 33006KT 6000 SCT018
                      BECMG 0614/0616 14003KT 5000 HZ
                      BECMG 0622/0700 00000KT 3000 BR FEW022=
202208060500 TAF WIHH 060500Z 0606/0706 30010KT 6000 SCT018
                      BECMG 0614/0616 15005KT 5000 HZ FEW022
                      BECMG 0622/0700 00000KT 3000 BR=
202208052300 TAF WIHH 052300Z 0600/0700 12008KT 6000 FEW020
                      BECMG 0605/0607 30006KT SCT020
                      BECMG 0615/0617 00000KT 5000 HZ FEW022=
202208051700 TAF WIHH 051700Z NIL=
202208051640 TAF WIHH 051640Z 0518/0618 12006KT 5000 HZ FEW020
                      BECMG 0603/0605 03005KT 6000 SCT020=
202208051100 TAF WIHH 051100Z 0512/0612 03008KT 5000 HZ SCT020
                      BECMG 0514/0516 36003KT FEW020
                      BECMG 0521/0523 00000KT 4000=
202208050500 TAF WIHH 050500Z 0506/0606 09006KT 5000 HZ SCT018
                      TEMPO 0509/0512 34008KT 4000 -RA BKN020
                      BECMG 0513/0515 12004KT 5000 HZ FEW020
                      BECMG 0520/0522 00000KT=
202208042300 TAF WIHH 042300Z 0500/0600 VRB04KT 4000 HZ SCT020
                      BECMG 0502/0504 36008KT 6000
                      TEMPO 0506/0509 33010KT 3000 -TSRA FEW017CB
                       BKN018
                      BECMG 0511/0513 17005KT 5000 HZ=
202208041700 TAF WIHH 041700Z 0418/0518 25005KT 4000 HZ SCT020
                      BECMG 0502/0504 09008KT 6000 FEW022=
202208041100 TAF WIHH 041100Z 0412/0512 22005KT 3000 -RA BKN018
                      BECMG 0414/0416 VRB03KT 4000 HZ SCT020=
202208040500 TAF WIHH 040500Z 0406/0506 36008KT 6000 SCT018
                      TEMPO 0409/0412 27010KT 3000 -TSRA FEW017CB
                       BECMG 0413/0415 24005KT 5000 HZ FEW022=
202208032300 TAF WIHH 032300Z 0400/0500 15008KT 5000 HZ SCT018
                      TEMPO 0400/0403 09006KT 3000 RA BKN020
                      TEMPO 0407/0411 36010KT TSRA FEW017CB BKN018
                       BECMG 0413/0415 00000KT 4000 BR FEW020=
202208031700 TAF WIHH 031700Z 0318/0418 12008KT 5000 HZ SCT018
                      BECMG 0400/0402 VRB03KT 4000 FEW020
                      TEMPO 0406/0409 06010KT 3000 -RA SCT018=
202208031100 TAF WIHH 031100Z 0312/0412 09010KT 5000 HZ SCT018
                      BECMG 0321/0323 03005KT 4000 SCT020=
202208030500 TAF WIHH 030500Z 0306/0406 12008KT 5000 HZ SCT020
                      TEMPO 0306/0310 30010KT 3000 -TSRA BKN018
                       BECMG 0312/0314 24003KT 4000 HZ FEW020
                      BECMG 0319/0321 00000KT BR=
202208022300 TAF WIHH 022300Z 0300/0400 15008KT 5000 HZ SCT020
                      TEMPO 0306/0309 03010KT 3000 -TSRA FEW017CB
                       BKN018
                      BECMG 0311/0313 34003KT 4000 HZ FEW020
                      BECMG 0318/0320 VRB03KT BR=
202208021700 TAF WIHH 021700Z 0218/0318 12008KT 5000 HZ SCT020
                      BECMG 0300/0302 VRB03KT
                      TEMPO 0306/0310 03010KT 4000 -RA BKN017=
202208021100 TAF WIHH 021100Z 0212/0312 03008KT 5000 HZ SCT020
                      BECMG 0219/0221 27004KT 4000 FEW020=
202208020500 TAF WIHH 020500Z 0206/0306 15008KT 6000 SCT020
                      BECMG 0212/0214 03005KT 5000 HZ FEW020
                      BECMG 0219/0221 00000KT 4000=
202208012300 TAF WIHH 012300Z 0200/0300 33006KT 4000 HZ FEW022
                      BECMG 0202/0204 04010KT 6000 SCT020
                      BECMG 0213/0215 12005KT 5000 HZ=
202208011700 TAF WIHH 011700Z 0118/0218 15005KT 4000 HZ FEW022
                      BECMG 0202/0204 04010KT 6000 SCT020=
202208011100 TAF WIHH 011100Z 0112/0212 06008KT 6000 FEW022
                      BECMG 0114/0116 15005KT 5000 HZ=
202208010500 TAF WIHH 010500Z 0106/0206 03012KT 6000 SCT020
                      BECMG 0113/0115 15005KT 5000 HZ FEW022=
