##########################################################
# Query made at 05/05/2026 02:51:48 UTC
# Time interval: from 05/01/2025 00:00  to 05/31/2025 23:59  UTC
##########################################################

##########################################################
# WIHH, Jakarta Halim Perdanakusuma (Indonesia)
# WMO index: 96747. WIGOS ID: Unknown
# Latitude 06-15S. Longitude 106-54E. Altitude 30 m.
##########################################################

###################################
#  METAR/SPECI from WIHH
###################################
202505312330 METAR WIHH NIL=
202505312300 METAR WIHH 312300Z 00000KT 5000 HZ SCT020 25/23 Q1012 NOSIG=
202505312230 METAR WIHH NIL=
202505312200 METAR WIHH 312200Z 22003KT 5000 HZ FEW020 25/24 Q1012 NOSIG=
202505312130 METAR WIHH 312130Z 20003KT 5000 HZ SCT020 25/24 Q1011 NOSIG=
202505312100 METAR WIHH NIL=
202505312030 METAR WIHH NIL=
202505312000 METAR WIHH NIL=
202505311930 METAR WIHH NIL=
202505311900 METAR WIHH NIL=
202505311830 METAR WIHH NIL=
202505311800 METAR WIHH NIL=
202505311730 METAR WIHH NIL=
202505311700 METAR WIHH NIL=
202505311630 METAR WIHH 311630Z 16003KT 7000 SCT020 26/24 Q1013 NOSIG=
202505311600 METAR WIHH 311600Z 33003KT 7000 SCT020 26/24 Q1013 NOSIG=
202505311530 METAR WIHH 311530Z 22003KT 7000 SCT018 26/23 Q1013 NOSIG=
202505311500 METAR WIHH 311500Z 13006KT 7000 BKN018 26/23 Q1013 RMK RA TO E=
202505311430 METAR WIHH 311430Z 13010KT 7000 BKN018 26/23 Q1014 RMK RA TO SE-S=
202505311400 METAR WIHH 311400Z 17008KT 7000 BKN018 26/23 Q1013 TEMPO FM1430 4000 -RA RMK RA TO SE-S=
202505311330 METAR WIHH 311330Z 11008KT 7000 BKN018 27/23 Q1013 RMK RA TO SE-S=
202505311300 METAR WIHH 311300Z 11010KT 6000 BKN018 27/23 Q1013 RMK RA TO SE-S=
202505311230 METAR WIHH 311230Z 15005KT 5000 TS SCT018 FEW020CB 29/23 Q1012 RMK CB AND RA TO SE=
202505311200 METAR WIHH NIL=
202505311130 METAR WIHH 311130Z 14006KT 5000 TS SCT018 FEW020CB 29/25 Q1011 RMK CBN AND RA TO NE-SE=
202505311100 METAR WIHH 311100Z 06005KT 4000 TS FEW017CB SCT018 29/25 Q1010 RMK CB AND RA NE-SE=
202505311030 METAR WIHH NIL=
202505311000 METAR WIHH 311000Z 24010KT 3000 -TSRA FEW016CB SCT017 32/24 Q1010 RMK CB TO NE-SE=
202505310930 METAR WIHH NIL=
202505310900 METAR WIHH NIL=
202505310830 METAR WIHH 310830Z 33006KT 7000 SCT020 34/24 Q1010 RMK RA TO E=
202505310800 METAR WIHH 310800Z 01007KT 7000 SCT020 34/24 Q1010 NOSIG=
202505310730 METAR WIHH 310730Z 30007KT 7000 SCT020 34/24 Q1010 NOSIG=
202505310700 METAR WIHH NIL=
202505310630 METAR WIHH 310630Z 27009KT 7000 SCT020 34/22 Q1010 NOSIG=
202505310600 METAR WIHH 310600Z 26006KT 7000 SCT020 34/23 Q1010 NOSIG=
202505310530 METAR WIHH 310530Z 32006KT 7000 SCT020 34/22 Q1011 NOSIG=
202505310500 METAR WIHH 310500Z 10005KT 7000 SCT020 33/23 Q1011 NOSIG=
202505310430 METAR WIHH 310430Z 26003KT 7000 SCT020 33/23 Q1012 NOSIG=
202505310400 METAR WIHH 310400Z 06003KT 6000 SCT020 33/23 Q1012 NOSIG=
202505310330 METAR WIHH 310330Z 14003KT 6000 SCT020 33/23 Q1012 NOSIG=
202505310300 METAR WIHH 310300Z 18005KT 6000 SCT020 32/24 Q1013 NOSIG=
202505310230 METAR WIHH 310230Z 18003KT 6000 SCT020 31/25 Q1013 NOSIG=
202505310200 METAR WIHH 310200Z 08003KT 6000 FEW020 31/25 Q1013 NOSIG=
202505310130 METAR WIHH NIL=
202505310100 METAR WIHH 310100Z 22005KT 5000 HZ FEW020 29/26 Q1013 NOSIG=
202505310030 METAR WIHH NIL=
202505310000 METAR WIHH 310000Z 23003KT 4000 BR FEW020 27/25 Q1013 NOSIG=
202505302330 METAR WIHH 302330Z 24003KT 4000 FEW020 26/25 Q1012 NOSIG=
202505302300 METAR WIHH 302300Z 20003KT 4000 BR FEW020 26/26 Q1012 NOSIG=
202505302230 METAR WIHH 302230Z 00000KT 6000 FEW020 26/25 Q1012 NOSIG=
202505302200 METAR WIHH NIL=
202505302130 METAR WIHH NIL=
202505302100 METAR WIHH NIL=
202505302030 METAR WIHH NIL=
202505302000 METAR WIHH NIL=
202505301930 METAR WIHH NIL=
202505301900 METAR WIHH NIL=
202505301830 METAR WIHH NIL=
202505301800 METAR WIHH NIL=
202505301730 METAR WIHH NIL=
202505301700 METAR WIHH NIL=
202505301630 METAR WIHH NIL=
202505301600 METAR WIHH 301600Z 13003KT 8000 SCT020 28/25 Q1012 NOSIG=
202505301530 METAR WIHH 301530Z 12004KT 8000 SCT020 28/25 Q1012 NOSIG=
202505301500 METAR WIHH 301500Z 12003KT 8000 SCT018 28/25 Q1012 NOSIG=
202505301430 METAR WIHH 301430Z 09003KT 8000 SCT080 29/24 Q1012 NOSIG=
202505301400 METAR WIHH NIL=
202505301330 METAR WIHH 301330Z 04004KT 8000 SCT020 29/25 Q1011 NOSIG=
202505301300 METAR WIHH 301300Z 01003KT 8000 SCT018 29/25 Q1011 NOSIG=
202505301230 METAR WIHH 301230Z 30003KT 8000 SCT018 29/25 Q1011 NOSIG=
202505301200 METAR WIHH 301200Z 30003KT 7000 SCT018 29/26 Q1011 NOSIG=
202505301130 METAR WIHH 301130Z 01005KT 6000 SCT018 30/25 Q1010 NOSIG=
202505301100 METAR WIHH 301100Z 34006KT 6000 SCT018 30/25 Q1010 NOSIG=
202505301030 METAR WIHH NIL=
202505301000 METAR WIHH NIL=
202505300930 METAR WIHH 300930Z 36005KT 6000 32/25 Q1009 NOSIG=
202505300900 METAR WIHH 300900Z 02006KT 6000 SCT018 32/24 Q1009 RMK RA TO SW=
202505300830 METAR WIHH 300830Z 36007KT 6000 SCT018 33/24 Q1009 RMK RA TO S=
202505300800 METAR WIHH 300800Z 36006KT 6000 SCT018 33/25 Q1009 NOSIG=
202505300730 METAR WIHH 300730Z 03005KT 6000 SCT018 33/25 Q1009 NOSIG=
202505300700 METAR WIHH 300700Z 03008KT 5000 HZ SCT018 34/25 Q1009 NOSIG=
202505300630 METAR WIHH 300630Z 35005KT 5000 HZ SCT018 33/25 Q1010 NOSIG=
202505300600 METAR WIHH 300600Z 01005KT 5000 HZ SCT018 33/24 Q1010 NOSIG=
202505300530 METAR WIHH 300530Z 28003KT 5000 HZ SCT018 32/25 Q1010 NOSIG=
202505300500 METAR WIHH 300500Z 14003KT 5000 HZ SCT020 32/23 Q1011 NOSIG=
202505300430 METAR WIHH 300430Z 23003KT 6000 FEW020 33/24 Q1011 NOSIG=
202505300400 METAR WIHH 300400Z 12003KT 6000 FEW020 32/23 Q1012 NOSIG=
202505300330 METAR WIHH 300330Z 18004KT 6000 FEW020 31/24 Q1012 BECMG=
202505300300 METAR WIHH 300300Z 24004KT 6000 FEW020 31/25 Q1012 NOSIG=
202505300230 METAR WIHH NIL=
202505300200 METAR WIHH 300200Z 03003KT 5000 HZ NSC 29/24 Q1012 NOSIG=
202505300130 METAR WIHH NIL=
202505300100 METAR WIHH 300100Z 12003KT 4000 HZ FEW020 27/25 Q1012 NOSIG=
202505300030 METAR WIHH 300030Z 17003KT 4000 HZ FEW020 26/25 Q1012 NOSIG=
202505300000 METAR WIHH 300000Z 25003KT 3000 BR FEW020 25/24 Q1012 NOSIG=
202505292330 METAR WIHH 292330Z 25003KT 3000 BR SCT020 25/24 Q1011 NOSIG=
202505292300 METAR WIHH NIL=
202505292230 METAR WIHH 292230Z 00000KT 5000 HZ SCT020 25/24 Q1011 NOSIG=
202505292200 METAR WIHH 292200Z 09003KT 6000 FEW020 25/24 Q1011 NOSIG=
202505292130 METAR WIHH 292130Z 10003KT 6000 FEW020 25/24 Q1011 NOSIG=
202505292100 METAR WIHH 292100Z 12003KT 6000 FEW020 25/24 Q1010 NOSIG=
202505292030 METAR WIHH NIL=
202505292000 METAR WIHH NIL=
202505291930 METAR WIHH NIL=
202505291900 METAR WIHH NIL=
202505291830 METAR WIHH NIL=
202505291800 METAR WIHH NIL=
202505291730 METAR WIHH NIL=
202505291700 METAR WIHH 291700Z 00000KT 6000 SCT018 25/24 Q1012 RMK RA TO W=
202505291630 METAR WIHH 291630Z 00000KT 6000 SCT018 25/24 Q1012 RMK RA TO W=
202505291600 METAR WIHH 291600Z 00000KT 6000 SCT018 25/24 Q1012 NOSIG=
202505291530 METAR WIHH 291530Z 00000KT 5000 -TSRA SCT016 FEW017CB 24/24 Q1012 RMK CB TO N=
202505291500 METAR WIHH 291500Z 27003KT 5000 -TSRA BKN014 FEW017CB 24/24 Q1012 RMK CB TO N=
202505291430 METAR WIHH 291430Z 12004KT 3000 -TSRA BKN014 FEW017CB 24/24 Q1013 RMK CB OTF=
202505291400 METAR WIHH 291400Z 17005KT 1000 -TSRA SCT015 FEW017CB 24/24 Q1012 RMK CB OTF DUPE=
202505291330 METAR WIHH 291330Z 25004KT 6000 -TSRA SCT015 FEW017CB 25/24 Q1012 RMK CB TO SE=
202505291300 METAR WIHH 291300Z 27004KT 6000 -TSRA SCT015 FEW017CB 26/24 Q1012 RMK CB TO NW AND S=
202505291230 METAR WIHH 291230Z 27012KT 6000 FEW017CB SCT018 27/24 Q1011 TEMPO FM1240 3000 -TSRA RMK CB AND RA TO SW-NW=
202505291200 METAR WIHH 291200Z 04004KT 6000 FEW017CB SCT018 30/26 Q1010 RMK CB AND RA TO SW=
202505291130 METAR WIHH 291130Z 08004KT 6000 FEW017CB SCT018 30/26 Q1009 RMK CB AND RA TO SW=
202505291100 METAR WIHH 291100Z 04006KT 6000 FEW017CB SCT018 30/25 Q1009 RMK CB AND RA TO SW=
202505291030 METAR WIHH NIL=
202505291000 METAR WIHH 291000Z 04006KT 6000 FEW017CB SCT018 31/25 Q1008 RMK CB AND RA TO S=
202505290930 METAR WIHH 290930Z 04007KT 6000 SCT017 31/24 Q1008 RMK RA TO S=
202505290900 METAR WIHH 290900Z 03005KT 6000 SCT017 32/26 Q1008 RMK RA TO S=
202505290830 METAR WIHH 290830Z 33003KT 6000 SCT017 29/26 Q1008 RMK RA TO N=
202505290800 METAR WIHH 290800Z 36003KT 6000 SCT017 27/25 Q1008 RMK RA TO N=
202505290730 METAR WIHH 290730Z 10004KT 5000 -TSRA FEW017CB SCT018 27/25 Q1008 RMK CB OTF=
202505290700 METAR WIHH 290700Z 09015KT 500 TSRA BKN015 FEW017CB 29/25 Q1009 RMK CB OTF=
202505290630 METAR WIHH 290630Z 03007KT 5000 HZ SCT018 33/24 Q1009 TEMPO FM0635 4000 -RA RMK RA TO E AND W=
202505290600 METAR WIHH 290600Z 09004KT 5000 HZ SCT018 33/24 Q1009 RMK RA TO E AND NW=
202505290530 METAR WIHH 290530Z 06005KT 5000 HZ SCT020 33/24 Q1010 NOSIG=
202505290500 METAR WIHH 290500Z 04005KT 5000 HZ SCT020 33/24 Q1010 NOSIG=
202505290430 METAR WIHH 290430Z 04003KT 6000 SCT020 33/24 Q1010 NOSIG=
202505290400 METAR WIHH 290400Z 02003KT 6000 SCT020 33/24 Q1011 NOSIG=
202505290330 METAR WIHH 290330Z 04003KT 6000 SCT020 32/24 Q1011 NOSIG=
202505290300 METAR WIHH 290300Z 06004KT 6000 FEW020 32/24 Q1011 NOSIG=
202505290230 METAR WIHH 290230Z 09005KT 6000 FEW020 31/24 Q1012 NOSIG=
202505290200 METAR WIHH 290200Z 10005KT 6000 FEW020 30/24 Q1012 NOSIG=
202505290130 METAR WIHH 290130Z 11004KT 6000 NSC 30/24 Q1011 NOSIG=
202505290100 METAR WIHH 290100Z 14003KT 6000 NSC 30/24 Q1011 NOSIG=
202505290030 METAR WIHH 290030Z 24003KT 5000 HZ FEW020 29/25 Q1011 NOSIG=
202505290000 METAR WIHH NIL=
202505282330 METAR WIHH 282330Z 35003KT 5000 HZ FEW020 27/25 Q1010 NOSIG=
202505282300 METAR WIHH NIL=
202505282230 METAR WIHH 282230Z 14003KT 5000 HZ SCT020 27/25 Q1009 NOSIG=
202505282200 METAR WIHH NIL=
202505282130 METAR WIHH 282130Z 15003KT 5000 HZ SCT020 27/25 Q1009 NOSIG=
202505282100 METAR WIHH NIL=
202505282030 METAR WIHH NIL=
202505282000 METAR WIHH NIL=
202505281930 METAR WIHH NIL=
202505281900 METAR WIHH NIL=
202505281830 METAR WIHH NIL=
202505281800 METAR WIHH NIL=
202505281730 METAR WIHH NIL=
202505281700 METAR WIHH NIL=
202505281630 METAR WIHH 281630Z 13004KT 7000 SCT020 27/23 Q1011 NOSIG=
202505281600 METAR WIHH 281600Z 12004KT 7000 SCT020 27/23 Q1011 NOSIG=
202505281530 METAR WIHH 281530Z 13005KT 6000 SCT020 27/23 Q1011 NOSIG=
202505281500 METAR WIHH 281500Z 13005KT 6000 SCT020 27/23 Q1011 NOSIG=
202505281430 METAR WIHH 281430Z 14005KT 6000 SCT020 28/23 Q1011 NOSIG=
202505281400 METAR WIHH 281400Z 14003KT 6000 SCT020 29/23 Q1011 NOSIG=
202505281330 METAR WIHH 281330Z 12004KT 6000 SCT020 29/23 Q1010 NOSIG=
202505281300 METAR WIHH 281300Z 13004KT 6000 SCT020 29/25 Q1010 NOSIG=
202505281230 METAR WIHH 281230Z 06004KT 6000 SCT020 30/25 Q1009 RMK RA TO S=
202505281200 METAR WIHH 281200Z 02004KT 6000 TS SCT019 FEW020CB 30/25 Q1009 RMK CB AND RA TO S=
202505281130 METAR WIHH 281130Z 33005KT 6000 TS SCT019 FEW020CB 30/25 Q1009 RMK CB AND RA TO S=
202505281100 METAR WIHH 281100Z 33006KT 6000 SCT019 FEW020CB 31/24 Q1008 RMK CB TO S=
202505281030 METAR WIHH 281030Z 36007KT 6000 SCT019 FEW020CB 31/24 Q1007 RMK CB TO S=
202505281000 METAR WIHH 281000Z 35005KT 6000 SCT020 32/25 Q1007 NOSIG=
202505280930 METAR WIHH 280930Z 33007KT 7000 SCT020 32/24 Q1007 NOSIG=
202505280900 METAR WIHH 280900Z 01008KT 7000 SCT020 33/24 Q1007 NOSIG=
202505280830 METAR WIHH 280830Z 36007KT 6000 SCT020 33/24 Q1006 RMK RA TO W=
202505280800 METAR WIHH 280800Z 34008KT 7000 SCT020 34/24 Q1007 RMK RA TO S=
202505280730 METAR WIHH 280730Z 02008KT 7000 SCT020 34/24 Q1007 NOSIG=
202505280700 METAR WIHH 280700Z 35007KT 7000 SCT020 34/24 Q1007 NOSIG=
202505280630 METAR WIHH 280630Z 31004KT 7000 SCT020 34/23 Q1007 NOSIG=
202505280600 METAR WIHH 280600Z 33004KT 7000 SCT020 34/23 Q1008 NOSIG=
202505280530 METAR WIHH 280530Z 30004KT 7000 SCT020 34/23 Q1008 NOSIG=
202505280500 METAR WIHH 280500Z 12004KT 7000 SCT020 34/23 Q1009 NOSIG=
202505280430 METAR WIHH 280430Z 26004KT 7000 SCT020 33/23 Q1009 NOSIG=
202505280400 METAR WIHH NIL=
202505280330 METAR WIHH 280330Z 10004KT 7000 SCT020 32/23 Q1010 NOSIG=
202505280300 METAR WIHH 280300Z 12005KT 6000 FEW020 32/23 Q1010 NOSIG=
202505280230 METAR WIHH NIL=
202505280200 METAR WIHH 280200Z 14004KT 5000 HZ NSC 30/24 Q1010 NOSIG=
202505280130 METAR WIHH NIL=
202505280100 METAR WIHH NIL=
202505280030 METAR WIHH 280030Z 00000KT 4000 HZ NSC 28/25 Q1010 NOSIG=
202505280000 METAR WIHH 280000Z 00000KT 4000 HZ FEW020 26/24 Q1010 NOSIG=
202505272330 METAR WIHH 272330Z 00000KT 4000 HZ FEW020 26/24 Q1010 NOSIG=
202505272300 METAR WIHH 272300Z 00000KT 5000 HZ FEW020 25/24 Q1009 NOSIG=
202505272230 METAR WIHH 272230Z 00000KT 6000 NSC 26/24 Q1009 NOSIG=
202505272200 METAR WIHH 272200Z 17003KT 6000 NSC 25/24 Q1009 NOSIG=
202505272130 METAR WIHH 272130Z 16003KT 6000 NSC 25/24 Q1009 NOSIG=
202505272100 METAR WIHH NIL=
202505272030 METAR WIHH NIL=
202505272000 METAR WIHH NIL=
202505271930 METAR WIHH NIL=
202505271900 METAR WIHH NIL=
202505271830 METAR WIHH NIL=
202505271800 METAR WIHH NIL=
202505271730 METAR WIHH 271730Z 18003KT 9999 NSC 26/23 Q1009 NOSIG=
202505271700 METAR WIHH NIL=
202505271630 METAR WIHH 271630Z 25003KT 9999 NSC 27/23 Q1010 NOSIG=
202505271600 METAR WIHH 271600Z 27003KT 9999 NSC 27/23 Q1010 NOSIG=
202505271530 METAR WIHH 271530Z 26003KT 9999 NSC 27/23 Q1010 NOSIG=
202505271500 METAR WIHH 271500Z 23003KT 9999 FEW020 28/23 Q1010 NOSIG=
202505271430 METAR WIHH 271430Z 27003KT 9999 FEW020 28/22 Q1010 NOSIG=
202505271400 METAR WIHH NIL=
202505271330 METAR WIHH 271330Z 28003KT 9999 FEW020 29/22 Q1009 NOSIG=
202505271300 METAR WIHH NIL=
202505271230 METAR WIHH 271230Z 26006KT 9999 FEW020 29/22 Q1008 NOSIG=
202505271200 METAR WIHH 271200Z 28006KT 9999 FEW020 30/22 Q1008 NOSIG=
202505271130 METAR WIHH 271130Z 29006KT 9999 FEW020 30/21 Q1008 NOSIG=
202505271100 METAR WIHH 271100Z 26010KT 9999 FEW020 31/22 Q1007 NOSIG=
202505271030 METAR WIHH NIL=
202505271000 METAR WIHH 271000Z 25010KT 9999 SCT020 32/24 Q1007 NOSIG=
202505270930 METAR WIHH 270930Z 25008KT 9999 SCT020 32/24 Q1007 NOSIG=
202505270900 METAR WIHH 270900Z 25010KT 9999 SCT020 33/23 Q1007 NOSIG=
202505270830 METAR WIHH 270830Z 26008KT 9999 SCT020 33/23 Q1007 NOSIG=
202505270800 METAR WIHH 270800Z 25008KT 9999 SCT020 33/23 Q1007 NOSIG=
202505270730 METAR WIHH 270730Z 24008KT 9999 SCT020 34/24 Q1007 NOSIG=
202505270700 METAR WIHH 270700Z 28008KT 9999 SCT020 33/23 Q1007 NOSIG=
202505270630 METAR WIHH 270630Z 23012KT 9999 SCT020 33/23 Q1008 NOSIG=
202505270600 METAR WIHH 270600Z 29010KT 9999 SCT020 33/23 Q1008 NOSIG=
202505270530 METAR WIHH 270530Z 26010KT 9999 SCT020 33/23 Q1008 NOSIG=
202505270500 METAR WIHH 270500Z 26015KT 9999 SCT020 33/24 Q1009 NOSIG=
202505270430 METAR WIHH 270430Z 31010KT 9000 SCT020 33/23 Q1009 NOSIG=
202505270400 METAR WIHH 270400Z 25015KT 9000 FEW020 32/24 Q1010 NOSIG=
202505270330 METAR WIHH 270330Z 26014KT 9000 FEW020 32/23 Q1010 NOSIG=
202505270300 METAR WIHH 270300Z 27012KT 8000 FEW020 31/23 Q1010 NOSIG=
202505270230 METAR WIHH 270230Z 25010KT 8000 NSC 31/24 Q1010 NOSIG=
202505270200 METAR WIHH 270200Z 26010KT 8000 NSC 30/23 Q1010 NOSIG=
202505270130 METAR WIHH 270130Z 25010KT 8000 NSC 29/23 Q1010 NOSIG=
202505270100 METAR WIHH 270100Z 24010KT 8000 NSC 28/23 Q1010 NOSIG=
202505270030 METAR WIHH 270030Z 24004KT 7000 NSC 28/23 Q1010 NOSIG=
202505270000 METAR WIHH 270000Z 24003KT 7000 FEW020 26/23 Q1010 NOSIG=
202505262330 METAR WIHH 262330Z 00000KT 7000 FEW020 26/23 Q1010 NOSIG=
202505262300 METAR WIHH 262300Z 26004KT 7000 FEW020 26/24 Q1009 NOSIG=
202505262230 METAR WIHH 262230Z 24003KT 7000 FEW020 26/24 Q1009 NOSIG=
202505262200 METAR WIHH 262200Z 24003KT 7000 FEW020 26/24 Q1009 NOSIG=
202505262130 METAR WIHH 262130Z 24005KT 6000 FEW020 26/24 Q1009 NOSIG=
202505262100 METAR WIHH 262100Z 23005KT 6000 FEW020 26/24 Q1008 NOSIG=
202505262030 METAR WIHH NIL=
202505262000 METAR WIHH NIL=
202505261930 METAR WIHH NIL=
202505261900 METAR WIHH NIL=
202505261830 METAR WIHH NIL=
202505261800 METAR WIHH NIL=
202505261730 METAR WIHH NIL=
202505261700 METAR WIHH 261700Z 24010KT 7000 FEW020 27/25 Q1010 NOSIG=
202505261630 METAR WIHH 261630Z 26006KT 7000 FEW020 27/25 Q1011 NOSIG=
202505261600 METAR WIHH 261600Z 25005KT 7000 FEW020 27/24 Q1011 NOSIG=
202505261530 METAR WIHH 261530Z 25005KT 7000 FEW020 27/24 Q1011 NOSIG=
202505261500 METAR WIHH 261500Z 24007KT 7000 FEW018 27/24 Q1011 NOSIG=
202505261430 METAR WIHH 261430Z 24005KT 6000 SCT018 27/24 Q1010 NOSIG=
202505261400 METAR WIHH 261400Z 26007KT 6000 SCT018 27/24 Q1010 NOSIG=
202505261330 METAR WIHH 261330Z 25006KT 6000 SCT018 27/24 Q1010 NOSIG=
202505261300 METAR WIHH 261300Z 25005KT 5000 HZ SCT018 27/25 Q1010 NOSIG=
202505261230 METAR WIHH 261230Z 25003KT 5000 SCT018 27/25 Q1009 NOSIG=
202505261200 METAR WIHH 261200Z 25004KT 5000 HZ SCT018 27/25 Q1009 NOSIG=
202505261130 METAR WIHH 261130Z 24004KT 6000 SCT018 27/25 Q1009 NOSIG=
202505261100 METAR WIHH 261100Z 23005KT 6000 SCT018 27/25 Q1009 NOSIG=
202505261030 METAR WIHH 261030Z 22004KT 6000 SCT018 27/25 Q1008 NOSIG=
202505261000 METAR WIHH 261000Z 20006KT 6000 SCT018 28/25 Q1010 NOSIG=
202505260930 METAR WIHH 260930Z 21005KT 6000 SCT018 28/25 Q1008 NOSIG=
202505260900 METAR WIHH 260900Z 20005KT 6000 SCT018 28/26 Q1008 RMK RA TO S=
202505260830 METAR WIHH 260830Z 20006KT 6000 SCT018 28/25 Q1008 NOSIG=
202505260800 METAR WIHH 260800Z 18005KT 6000 SCT018 29/25 Q1007 RMK RA TO S=
202505260730 METAR WIHH 260730Z 25003KT 6000 SCT018 29/25 Q1008 RMK RA TO S=
202505260700 METAR WIHH 260700Z 35003KT 6000 SCT018 29/25 Q1008 RMK RA TO S=
202505260630 METAR WIHH 260630Z 00000KT 6000 SCT018 29/25 Q1008 RMK RA TO NE=
202505260600 METAR WIHH 260600Z 16003KT 6000 SCT018 27/25 Q1009 RMK RA TO S=
202505260530 METAR WIHH 260530Z 17003KT 6000 SCT017 27/25 Q1009 RMK RA TO S=
202505260500 METAR WIHH 260500Z 30003KT 6000 SCT017 27/24 Q1009 RMK RA TO S=
202505260430 METAR WIHH 260430Z 00000KT 6000 SCT016 26/25 Q1010 RMK RA TO S=
202505260400 METAR WIHH 260400Z 10003KT 5000 -TSRA SCT016 FEW017CB 25/24 Q1010 RMK CB TO SE=
202505260330 METAR WIHH 260330Z 04004KT 4000 -RA SCT015 25/24 Q1011 NOSIG=
202505260300 METAR WIHH NIL=
202505260230 METAR WIHH 260230Z 32003KT 6000 SCT018 28/25 Q1011 RMK RA TO N AND W=
202505260200 METAR WIHH 260200Z 29003KT 6000 SCT018 28/24 Q1011 RMK RA TO N=
202505260130 METAR WIHH 260130Z 27003KT 6000 SCT018 28/24 Q1010 NOSIG=
202505260100 METAR WIHH 260100Z 23003KT 6000 SCT018 27/23 Q1010 RMK RA TO S=
202505260030 METAR WIHH 260030Z 21003KT 6000 SCT020 27/23 Q1009 NOSIG=
202505260000 METAR WIHH 260000Z 21004KT 6000 SCT020 26/24 Q1009 NOSIG=
202505252330 METAR WIHH 260000Z 21004KT 6000 SCT020 26/24 Q1009 NOSIG=
202505252300 METAR WIHH 252300Z 24005KT 3000 HZ SCT020 26/25 Q1008 NOSIG=
202505252230 METAR WIHH 252230Z 24008KT 3000 BR SCT020 26/25 Q1008 RMK RA TO SW=
202505252200 METAR WIHH 252200Z 27006KT 2000 BR SCT020 25/25 Q1008 RMK RA TO SW-W=
202505252130 METAR WIHH 252130Z 26003KT 2000 BR SCT020 25/25 Q1008 RMK RA TO SW=
202505252100 METAR WIHH 252100Z 00000KT 2000 BR SCT020 25/25 Q1007 RMK RA TO SW=
202505252030 METAR WIHH NIL=
202505252000 METAR WIHH NIL=
202505251930 METAR WIHH NIL=
202505251900 METAR WIHH NIL=
202505251830 METAR WIHH NIL=
202505251800 METAR WIHH NIL=
202505251730 METAR WIHH NIL=
202505251700 METAR WIHH 251700Z 23003KT 6000 FEW020 27/25 Q1010 NOSIG=
202505251630 METAR WIHH 251630Z 00000KT 6000 SCT020 28/25 Q1010 NOSIG=
202505251600 METAR WIHH 251600Z 00000KT 7000 SCT020 28/25 Q1010 NOSIG=
202505251530 METAR WIHH 251530Z 00000KT 7000 SCT020 28/25 Q1010 NOSIG=
202505251500 METAR WIHH 251500Z 00000KT 7000 SCT020 28/25 Q1010 NOSIG=
202505251430 METAR WIHH 251430Z 00000KT 7000 SCT020 28/25 Q1009 RMK RA TO S=
202505251400 METAR WIHH 251400Z 00000KT 7000 SCT020 28/25 Q1009 RMK RA TO SE=
202505251330 METAR WIHH 251330Z 33003KT 7000 SCT020 28/25 Q1009 NOSIG=
202505251300 METAR WIHH 251300Z 03003KT 7000 SCT020 28/25 Q1009 NOSIG=
202505251230 METAR WIHH 251230Z 33003KT 7000 FEW020 27/25 Q1008 NOSIG=
202505251200 METAR WIHH 251200Z 35003KT 7000 FEW020 27/25 Q1008 NOSIG=
202505251130 METAR WIHH 251130Z 27003KT 7000 FEW020 27/25 Q1007 NOSIG=
202505251100 METAR WIHH 251100Z 22003KT 7000 FEW020 28/25 Q1007 NOSIG=
202505251030 METAR WIHH 251030Z 29003KT 7000 FEW020 29/25 Q1007 NOSIG=
202505251000 METAR WIHH 251000Z 01003KT 7000 FEW020 30/24 Q1007 NOSIG=
202505250930 METAR WIHH 250930Z 02003KT 7000 SCT020 29/25 Q1007 NOSIG=
202505250900 METAR WIHH 250900Z 35003KT 7000 SCT020 29/25 Q1006 NOSIG=
202505250830 METAR WIHH 250830Z 34003KT 6000 SCT020 29/25 Q1006 NOSIG=
202505250800 METAR WIHH 250800Z 28003KT 6000 SCT020 28/25 Q1006 NOSIG=
202505250730 METAR WIHH 250730Z 30003KT 6000 SCT020 28/25 Q1007 NOSIG=
202505250700 METAR WIHH 250700Z 23003KT 6000 SCT020 27/25 Q1007 NOSIG=
202505250630 METAR WIHH 250630Z 05004KT 5000 -RA SCT018 27/25 Q1007 NOSIG=
202505250600 METAR WIHH 250600Z 03005KT 5000 -RA SCT017 26/25 Q1008 NOSIG=
202505250530 METAR WIHH 250530Z 34012KT 4000 HZ FEW016CB BKN017 27/25 Q1008 TEMPO FM0535 2000 FEW015CB BKN016 RMK CB AND RA TO NW-N=
202505250500 METAR WIHH 250500Z 15003KT 4000 HZ SCT018 FEW020CB 29/24 Q1009 RMK CB AND RA TO NW-N=
202505250430 METAR WIHH 250430Z 17003KT 5000 HZ SCT019 FEW020CB 30/24 Q1009 RMK CB TO N=
202505250400 METAR WIHH 250400Z 09003KT 4000 HZ SCT020 29/24 Q1009 NOSIG=
202505250330 METAR WIHH 250330Z 11003KT 4000 HZ SCT020 29/24 Q1010 NOSIG=
202505250300 METAR WIHH 250300Z 11004KT 3000 HZ SCT020 29/25 Q1010 NOSIG=
202505250230 METAR WIHH 250230Z 13004KT 3000 HZ FEW020 28/25 Q1010 NOSIG=
202505250200 METAR WIHH 250200Z 11004KT 3000 HZ FEW020 28/25 Q1010 NOSIG=
202505250130 METAR WIHH 250130Z 14004KT 2500 HZ FEW020 28/26 Q1009 NOSIG=
202505250100 METAR WIHH NIL=
202505250030 METAR WIHH 250030Z 06003KT 3000 BR FEW020 27/26 Q1008 NOSIG=
202505250000 METAR WIHH 250000Z 12003KT 3000 BR FEW020 26/25 Q1008 NOSIG=
202505242330 METAR WIHH 242330Z 19003KT 3000 BR FEW020 26/25 Q1008 NOSIG=
202505242300 METAR WIHH 242300Z 22003KT 3000 BR FEW020 25/25 Q1008 NOSIG=
202505242230 METAR WIHH 242230Z 21003KT 3000 BR FEW020 26/25 Q1008 NOSIG=
202505242200 METAR WIHH 242200Z 18003KT 5000 HZ FEW020 26/25 Q1007 NOSIG=
202505242130 METAR WIHH 242130Z 00000KT 5000 HZ FEW020 26/25 Q1007 NOSIG=
202505242100 METAR WIHH 242100Z 00000KT 4000 HZ SCT020 26/25 Q1007 NOSIG=
202505242030 METAR WIHH NIL=
202505242000 METAR WIHH NIL=
202505241930 METAR WIHH NIL=
202505241900 METAR WIHH NIL=
202505241830 METAR WIHH NIL=
202505241800 METAR WIHH NIL=
202505241730 METAR WIHH NIL=
202505241700 METAR WIHH 241700Z 00000KT 7000 SCT018 26/25 Q1009 NOSIG=
202505241630 METAR WIHH 241630Z 00000KT 7000 SCT018 27/25 Q1009 NOSIG=
202505241600 METAR WIHH 241600Z 01003KT 7000 SCT018 27/25 Q1009 NOSIG=
202505241530 METAR WIHH 241530Z 01003KT 7000 -RA SCT018 27/25 Q1009=
202505241500 METAR WIHH 241500Z 22003KT 7000 -RA SCT018 27/24 Q1008=
202505241430 METAR WIHH 241430Z 23005KT 8000 -RA SCT020 27/24 Q1008=
202505241400 METAR WIHH 241400Z 25005KT 8000 SCT020 28/23 Q1008 RMK RA TO NE=
202505241330 METAR WIHH NIL=
202505241300 METAR WIHH 241300Z 23003KT 9000 SCT020 28/24 Q1007 RMK RA TO NE=
202505241230 METAR WIHH 241230Z 24006KT 9000 SCT020 28/24 Q1007 RMK RA TO NE=
202505241200 METAR WIHH 241200Z 21004KT 9000 SCT018 28/25 Q1007 RMK RA TO N=
202505241130 METAR WIHH 241130Z 21004KT 9000 SCT018 28/25 Q1007 NOSIG=
202505241100 METAR WIHH 241100Z 24006KT 8000 SCT018 28/25 Q1006 NOSIG=
202505241030 METAR WIHH 241030Z 21006KT 8000 SCT018 29/25 Q1006 NOSIG=
202505241000 METAR WIHH NIL=
202505240930 METAR WIHH 240930Z 27006KT 7000 SCT018 30/24 Q1005 RMK RA TO S=
202505240900 METAR WIHH 240900Z 36005KT 7000 FEW017CB SCT018 30/24 Q1005 RMK CB AND RA TO SE-S=
202505240830 METAR WIHH 240830Z 32005KT 7000 FEW017CB SCT018 29/24 Q1005 RMK CB AND RA TO SE-S=
202505240800 METAR WIHH 240800Z 29006KT 7000 FEW017CB SCT018 29/23 Q1005 RMK CB AND RA TO S-SW=
202505240730 METAR WIHH 240730Z 25008KT 7000 FEW017CB SCT018 30/25 Q1005 RMK CB AND RA TO S=
202505240700 METAR WIHH 240700Z 31006KT 7000 FEW017CB SCT018 30/24 Q1005 TEMPO FM0730 4000 -TSRA RMK CB AND RA TO NW=
202505240630 METAR WIHH 240630Z 34008KT 7000 -RA FEW017CB SCT018 31/24 Q1005 TEMPO FM0800 4000 -TSRA RMK CB TO E AND W=
202505240600 METAR WIHH 240600Z 31005KT 7000 FEW017CB SCT018 32/23 Q1006 TEMPO FM0630 4000 -TSRA RMK CB AND RA TO W=
202505240530 METAR WIHH 240530Z 32005KT 8000 SCT018 33/23 Q1006 RMK RA TO W=
202505240500 METAR WIHH 240500Z 27006KT 8000 SCT018 32/23 Q1007 NOSIG=
202505240430 METAR WIHH 240430Z 32008KT 8000 SCT020 33/24 Q1007 NOSIG=
202505240400 METAR WIHH 240400Z 23008KT 8000 SCT020 32/24 Q1007 NOSIG=
202505240330 METAR WIHH 240330Z 19006KT 8000 SCT020 32/24 Q1008 NOSIG=
202505240300 METAR WIHH 240300Z 19008KT 7000 FEW020 31/24 Q1008 NOSIG=
202505240230 METAR WIHH 240230Z 23005KT 7000 FEW020 30/24 Q1008 NOSIG=
202505240200 METAR WIHH 240200Z 22004KT 7000 FEW020 29/25 Q1008 NOSIG=
202505240130 METAR WIHH 240130Z 23004KT 7000 FEW020 28/24 Q1008 NOSIG=
202505240100 METAR WIHH 240100Z 17004KT 7000 FEW020 27/24 Q1008 NOSIG=
202505240030 METAR WIHH 240030Z 18004KT 7000 FEW020 27/24 Q1008 NOSIG=
202505240000 METAR WIHH 240000Z 20004KT 7000 FEW020 25/24 Q1007 NOSIG=
202505232330 METAR WIHH 232330Z 19003KT 6000 FEW020 25/24 Q1007 NOSIG=
202505232300 METAR WIHH 232300Z 22004KT 6000 FEW020 25/24 Q1007 NOSIG=
202505232230 METAR WIHH 232230Z 18003KT 6000 FEW020 25/24 Q1006 NOSIG=
202505232200 METAR WIHH 232200Z 00000KT 6000 FEW020 25/24 Q1006 NOSIG=
202505232130 METAR WIHH 232130Z 00000KT 6000 FEW020 25/24 Q1006 NOSIG=
202505232100 METAR WIHH 232100Z 00000KT 7000 FEW020 25/24 Q1006 NOSIG=
202505232030 METAR WIHH NIL=
202505232000 METAR WIHH NIL=
202505231930 METAR WIHH NIL=
202505231900 METAR WIHH NIL=
202505231830 METAR WIHH NIL=
202505231800 METAR WIHH NIL=
202505231730 METAR WIHH 231730Z 16003KT 8000 FEW020 25/24 Q1008 NOSIG=
202505231700 METAR WIHH 231700Z 16003KT 8000 FEW020 25/24 Q1008 NOSIG=
202505231630 METAR WIHH 231630Z 22003KT 8000 FEW020 25/24 Q1008 NOSIG=
202505231600 METAR WIHH 231600Z 23003KT 8000 FEW020 25/24 Q1008 NOSIG=
202505231530 METAR WIHH 231530Z 25003KT 7000 FEW018 25/24 Q1008 NOSIG=
202505231500 METAR WIHH 231500Z 25003KT 7000 SCT018 25/24 Q1008 NOSIG=
202505231430 METAR WIHH 231430Z 25004KT 7000 SCT018 25/25 Q1008 NOSIG=
202505231400 METAR WIHH 231400Z 26003KT 6000 SCT018 25/24 Q1007 NOSIG=
202505231330 METAR WIHH 231330Z 28003KT 6000 SCT018 25/24 Q1007 NOSIG=
202505231300 METAR WIHH 231300Z 28003KT 6000 SCT018 25/24 Q1007 RMK RA TO S=
202505231230 METAR WIHH 231230Z 29003KT 6000 -RA SCT018 25/24 Q1007 NOSIG=
202505231200 METAR WIHH NIL=
202505231130 METAR WIHH 231130Z 24006KT 6000 -RA SCT018 25/24 Q1007 NOSIG=
202505231100 METAR WIHH 231100Z 21006KT 4000 -RA SCT015 25/24 Q1007 NOSIG=
202505231030 METAR WIHH 231030Z 29003KT 4000 -RA BKN015 25/24 Q1007 NOSIG=
202505231000 METAR WIHH NIL=
202505230930 METAR WIHH 230930Z 21004KT 3000 -TSRA BKN014 FEW017CB 25/24 Q1006 RMK CB TO N=
202505230900 METAR WIHH 230900Z 21006KT 1000 -TSRA BKN014 25/24 Q1006 TEMPO TL0945 3000 -RA SCT016 RMK CB OVER THE FIELD=
202505230830 METAR WIHH 230830Z 18007KT 3000 -TSRA FEW017CB BKN018 26/25 Q1006 RMK C B TO NW=
202505230800 METAR WIHH 230800Z 16005KT 5000 TS FEW017 SCT018CB 28/24 Q1005 TEMPO FM0815 2000 -TSRA BKN014 RMK CB AND RA TO SE-W=
202505230730 METAR WIHH NIL=
202505230700 METAR WIHH 230700Z 02004KT 6000 TS FEW017CB SCT018 28/25 Q1006 RMK CB AND RA TO E-W=
202505230630 METAR WIHH NIL=
202505230600 METAR WIHH 230600Z 34004KT 5000 -TSRA FEW017CB SCT018 28/24 Q1007 RMK CB TO N-SW AND SE=
202505230530 METAR WIHH 230530Z 35007KT 5000 -TSRA FEW017CB SCT018 28/25 Q1007 RMK CB TO NW AND SE=
202505230500 METAR WIHH 230500Z 35003KT 6000 FEW017CB SCT018 28/25 Q1008 RMK CB AND RA TO NW AND SE=
202505230430 METAR WIHH 230430Z 06003KT 6000 FEW017CB SCT018 29/24 Q1008 RMK CB AND RA TO NE=
202505230400 METAR WIHH 230400Z 32003KT 6000 FEW017CB SCT018 29/25 Q1008 RMK CB AND RA TO N=
202505230330 METAR WIHH 230330Z 28003KT 6000 SCT018 28/25 Q1008 NOSIG=
202505230300 METAR WIHH 230300Z 27003KT 6000 SCT018 27/25 Q1009 NOSIG=
202505230230 METAR WIHH 230230Z 16003KT 6000 SCT018 27/25 Q1009 NOSIG=
202505230200 METAR WIHH 230200Z 22003KT 6000 SCT018 27/25 Q1009 NOSIG=
202505230130 METAR WIHH 230130Z 20003KT 6000 SCT018 26/25 Q1008 NOSIG=
202505230100 METAR WIHH 230100Z 27005KT 6000 SCT018 26/25 Q1008 RMK RA TO NE=
202505230030 METAR WIHH 230030Z 26005KT 6000 SCT018 26/25 Q1008 RMK RA TO NE=
202505230000 METAR WIHH 230000Z 25003KT 5000 -RA BKN018 25/25 Q1008 NOSIG=
202505222330 METAR WIHH 222330Z 27004KT 5000 HZ BKN018 25/25 Q1008 TEMPO FM2345 4000 -RA RMK RA TO NW=
202505222300 METAR WIHH 222300Z 29004KT 5000 HZ SCT019 FEW020CB 25/25 Q1007 RMK CB AND RA TO N=
202505222230 METAR WIHH 222230Z 27005KT 5000 HZ SCT019 FEW020CB 25/25 Q1007 RMK CB AND RA TO N=
202505222200 METAR WIHH 222200Z 25005KT 5000 HZ SCT019 FEW020CB 25/25 Q1007 RMK CB AND RA TO NW=
202505222130 METAR WIHH NIL=
202505222100 METAR WIHH NIL=
202505222030 METAR WIHH NIL=
202505222000 METAR WIHH NIL=
202505221930 METAR WIHH NIL=
202505221900 METAR WIHH NIL=
202505221830 METAR WIHH NIL=
202505221800 METAR WIHH NIL=
202505221730 METAR WIHH NIL=
202505221700 METAR WIHH 221700Z 00000KT 6000 FEW020 26/25 Q1008 NOSIG=
202505221630 METAR WIHH 221630Z 14003KT 7000 FEW020 26/25 Q1008 NOSIG=
202505221600 METAR WIHH 221600Z 14003KT 7000 FEW020 27/25 Q1008 NOSIG=
202505221530 METAR WIHH 221530Z 18003KT 7000 SCT020 26/25 Q1009 NOSIG=
202505221500 METAR WIHH 221500Z 17004KT 7000 SCT020 26/25 Q1009 NOSIG=
202505221430 METAR WIHH 221430Z 15004KT 7000 SCT020 26/25 Q1009 NOSIG=
202505221400 METAR WIHH 221400Z 14005KT 7000 SCT020 26/25 Q1008 NOSIG=
202505221330 METAR WIHH 221330Z 17005KT 7000 SCT020 26/25 Q1008 NOSIG=
202505221300 METAR WIHH 221300Z 16005KT 7000 SCT020 27/25 Q1008 RMK RA TO SW=
202505221230 METAR WIHH 221230Z 15005KT 7000 SCT020 27/25 Q1008 RMK RA TO SW=
202505221200 METAR WIHH 221200Z 15007KT 6000 SCT020 28/25 Q1007 RMK RA TO SW=
202505221130 METAR WIHH 221130Z 06010KT 5000 -RA SCT018 FEW020CB 28/24 Q1007 RMK CB TO SW=
202505221100 METAR WIHH 221100Z 05010KT 5000 -TSRA SCT017 FEW018CB 28/25 Q1007 RMK CB TO S-SW=
202505221030 METAR WIHH 221030Z 04009KT 6000 -TS SCT018 FEW020CB 29/25 Q1006 RMK CB AND RA TO SE-SW=
202505221000 METAR WIHH 221000Z 03011KT 6000 SCT018 FEW020CB 30/25 Q1006 RMK CB AND RA TO S=
202505220930 METAR WIHH 220930Z 36005KT 7000 SCT018 FEW020CB 31/25 Q1006 RMK CB AND RA TO SE=
202505220900 METAR WIHH 220900Z 02009KT 7000 SCT018 31/24 Q1005 RMK CB AND RA TO SE-SW=
202505220830 METAR WIHH 220830Z 03007KT 7000 SCT018 FEW020CB 32/23 Q1005 RMK CB AND RA TO S=
202505220800 METAR WIHH 220800Z 02005KT 7000 SCT018 32/24 Q1005 RMK CB AND RA TO SE=
202505220730 METAR WIHH 220730Z 35006KT 7000 SCT018 32/24 Q1005 RMK RA TO SE=
202505220700 METAR WIHH NIL=
202505220630 METAR WIHH 220630Z 30004KT 7000 SCT018 31/23 Q1006 RMK RA TO SE=
202505220600 METAR WIHH NIL=
202505220530 METAR WIHH 220530Z 30004KT 7000 SCT018 31/24 Q1007 NOSIG=
202505220500 METAR WIHH 220500Z 34003KT 6000 SCT018 30/23 Q1007 NOSIG=
202505220430 METAR WIHH 220430Z 35005KT 6000 SCT018 30/23 Q1008 RMK RA TO S=
202505220400 METAR WIHH 220400Z 03006KT 5000 HZ SCT018 30/24 Q1009 RMK RA TO S=
202505220330 METAR WIHH 220330Z 36006KT 4000 HZ SCT018 28/25 Q1009 RMK RA TO W=
202505220300 METAR WIHH 220300Z 36006KT 4000 HZ SCT018 28/25 Q1009 RMK RA TO W=
202505220230 METAR WIHH 220230Z 33006KT 3000 HZ SCT018 FEW020CB 28/25 Q1009 RMK CB AND RA TO NW=
202505220200 METAR WIHH 220200Z 32005KT 3000 HZ SCT018 27/25 Q1009 NOSIG=
202505220130 METAR WIHH 220130Z 31003KT 3000 HZ SCT018 26/25 Q1009 NOSIG=
202505220100 METAR WIHH 220100Z 33003KT 3000 HZ SCT018 26/25 Q1009 NOSIG=
202505220030 METAR WIHH 220030Z 00000KT 3000 HZ SCT018 26/25 Q1009 NOSIG=
202505220000 METAR WIHH 220000Z 00000KT 3000 BR BKN018 26/25 Q1008 NOSIG=
202505212330 METAR WIHH 212330Z 21003KT 3000 BR BKN018 26/25 Q1008 NOSIG=
202505212300 METAR WIHH 212300Z 23003KT 3000 BR SCT020 26/25 Q1008 RMK RA TO N=
202505212230 METAR WIHH 212230Z 19003KT 6000 SCT020 26/25 Q1007 NOSIG=
202505212200 METAR WIHH NIL=
202505212130 METAR WIHH 212130Z 00000KT 6000 SCT020 26/25 Q1007 NOSIG=
202505212100 METAR WIHH 212100Z 00000KT 6000 SCT020 26/25 Q1007 NOSIG=
202505212030 METAR WIHH NIL=
202505212000 METAR WIHH NIL=
202505211930 METAR WIHH NIL=
202505211900 METAR WIHH NIL=
202505211830 METAR WIHH NIL=
202505211800 METAR WIHH NIL=
202505211730 METAR WIHH NIL=
202505211700 METAR WIHH 211700Z 00000KT 7000 SCT018 26/25 Q1009 NOSIG=
202505211630 METAR WIHH 211630Z 00000KT 8000 SCT018 27/25 Q1009 NOSIG=
202505211600 METAR WIHH 211600Z 00000KT 8000 SCT018 27/25 Q1009 NOSIG=
202505211530 METAR WIHH 211530Z 00000KT 8000 SCT018 27/25 Q1009 NOSIG=
202505211500 METAR WIHH 211500Z 00000KT 8000 SCT018 27/25 Q1009 NOSIG=
202505211430 METAR WIHH 211430Z 04003KT 8000 SCT018 27/25 Q1009 NOSIG=
202505211400 METAR WIHH 211400Z 17003KT 7000 SCT018 27/25 Q1009 NOSIG=
202505211330 METAR WIHH 211330Z 24003KT 7000 SCT018 26/25 Q1009 NOSIG=
202505211300 METAR WIHH 211300Z 24003KT 7000 SCT018 27/25 Q1008 NOSIG=
202505211230 METAR WIHH NIL=
202505211200 METAR WIHH 211200Z 00000KT 6000 SCT018 27/24 Q1008 NOSIG=
202505211130 METAR WIHH 211130Z 32003KT 4000 HZ SCT018 28/24 Q1008 RMK RA TO W=
202505211100 METAR WIHH 211100Z 07003KT 4000 HZ SCT017 28/25 Q1007 RMK RA TO N-NW=
202505211030 METAR WIHH 211030Z 11005KT 4000 HZ SCT017 28/25 Q1007 RMK RA TO NW-N=
202505211000 METAR WIHH 211000Z 13005KT 4000 HZ SCT017 28/25 Q1007 RMK RA TO W-N=
202505210930 METAR WIHH 210930Z 17005KT 4000 HZ SCT017 29/26 Q1006 RMK RA TO SW AND NW=
202505210900 METAR WIHH 210900Z 17005KT 4000 HZ SCT017 29/26 Q1006 RMK RA TO SW AND NW=
202505210830 METAR WIHH 210830Z 15007KT 4000 HZ SCT017 29/26 Q1006 RMK RA TO SE=
202505210800 METAR WIHH 210800Z 12006KT 4000 HZ SCT017 29/26 Q1006 RMK RA TO SE=
202505210730 METAR WIHH 210730Z 05005KT 4000 HZ SCT018 29/26 Q1006 RMK RA TO S=
202505210700 METAR WIHH 210700Z 19005KT 5000 HZ SCT018 29/26 Q1006 RMK RA TO S-SW=
202505210630 METAR WIHH 210630Z 02003KT 5000 HZ SCT018 29/25 Q1006 RMK RA TO NW=
202505210600 METAR WIHH 210600Z 23003KT 5000 HZ SCT018 29/26 Q1007 RMK RA TO E-S=
202505210530 METAR WIHH 210530Z 27003KT 5000 HZ SCT018 27/26 Q1008 RMK RA TO NW AND E=
202505210500 METAR WIHH 210500Z 29005KT 5000 -RA FEW017CB SCT018 26/25 Q1008 RMK CB TO NW=
202505210430 METAR WIHH 210430Z 23007KT 5000 -RA FEW016CB SCT017 26/25 Q1009 RMK CB TO NW=
202505210400 METAR WIHH 210400Z 22006KT 3000 -TSRA FEW016CB BKN017 26/25 Q1009 RMK CB TO NW=
202505210330 METAR WIHH 210330Z 13012KT 1000 TSRA BKN015 FEW016CB 27/25 Q1009 RMK CB TO S=
202505210300 METAR WIHH 210300Z 07006KT 4000 -RA FEW016CB BKN017 30/25 Q1009 RMK CB TO S=
202505210230 METAR WIHH 210230Z 02005KT 5000 HZ SCT018 30/25 Q1009 RMK RA TO S=
202505210200 METAR WIHH 210200Z 05005KT 5000 HZ SCT018 30/25 Q1009 RMK RA TO S=
202505210130 METAR WIHH 210130Z 35003KT 5000 HZ SCT020 30/25 Q1009 NOSIG=
202505210100 METAR WIHH 210100Z 27003KT 5000 HZ SCT020 29/25 Q1009 NOSIG=
202505210030 METAR WIHH 210030Z 00000KT 5000 HZ FEW020 27/25 Q1009 NOSIG=
202505210000 METAR WIHH 210000Z 00000KT 5000 HZ FEW020 27/25 Q1009 NOSIG=
202505202330 METAR WIHH 202330Z 00000KT 4000 HZ FEW020 27/25 Q1009 NOSIG=
202505202300 METAR WIHH NIL=
202505202230 METAR WIHH NIL=
202505202200 METAR WIHH NIL=
202505202130 METAR WIHH NIL=
202505202100 METAR WIHH NIL=
202505202030 METAR WIHH NIL=
202505202000 METAR WIHH NIL=
202505201930 METAR WIHH NIL=
202505201900 METAR WIHH NIL=
202505201830 METAR WIHH NIL=
202505201800 METAR WIHH NIL=
202505201730 METAR WIHH NIL=
202505201700 METAR WIHH NIL=
202505201630 METAR WIHH 201630Z 00000KT 7000 FEW020 28/25 Q1009 NOSIG=
202505201600 METAR WIHH 201600Z 00000KT 7000 FEW020 28/25 Q1009 NOSIG=
202505201530 METAR WIHH 201530Z 00000KT 7000 SCT020 27/25 Q1009 NOSIG=
202505201500 METAR WIHH NIL=
202505201430 METAR WIHH NIL=
202505201400 METAR WIHH NIL=
202505201330 METAR WIHH NIL=
202505201300 METAR WIHH NIL=
202505201230 METAR WIHH NIL=
202505201200 METAR WIHH 201200Z 08006KT 8000 FEW020 30/23 Q1008 NOSIG=
202505201130 METAR WIHH 201130Z 06006KT 8000 FEW020 30/23 Q1007 NOSIG=
202505201100 METAR WIHH 201100Z 06006KT 8000 SCT020 30/23 Q1007 NOSIG=
202505201030 METAR WIHH 201030Z 07008KT 8000 FEW020 30/23 Q1007 NOSIG=
202505201000 METAR WIHH 201000Z 06008KT 8000 FEW020 31/23 Q1006 NOSIG=
202505200930 METAR WIHH 200930Z 07008KT 8000 FEW020 32/23 Q1006 NOSIG=
202505200900 METAR WIHH 200900Z 06009KT 8000 SCT020 32/21 Q1006 NOSIG=
202505200830 METAR WIHH 200830Z 04007KT 8000 SCT020 33/21 Q1006 NOSIG=
202505200800 METAR WIHH 200800Z 06007KT 8000 SCT020 33/23 Q1006 NOSIG=
202505200730 METAR WIHH 200730Z 08006KT 8000 SCT020 32/22 Q1006 NOSIG=
202505200700 METAR WIHH 200700Z 09005KT 8000 SCT020 34/22 Q1007 NOSIG=
202505200630 METAR WIHH 200630Z 04006KT 8000 SCT020 33/23 Q1007 NOSIG=
202505200600 METAR WIHH 200600Z 04004KT 8000 SCT020 32/23 Q1007 NOSIG=
202505200530 METAR WIHH 200530Z 03004KT 7000 SCT020 32/24 Q1008 NOSIG=
202505200500 METAR WIHH 200500Z 02003KT 7000 SCT020 32/23 Q1008 NOSIG=
202505200430 METAR WIHH 200430Z 06005KT 7000 SCT020 32/23 Q1008 NOSIG=
202505200400 METAR WIHH 200400Z 03005KT 6000 SCT020 31/24 Q1009 NOSIG=
202505200330 METAR WIHH 200330Z 07004KT 6000 SCT020 31/24 Q1009 NOSIG=
202505200300 METAR WIHH 200300Z 03006KT 6000 SCT020 31/25 Q1009 NOSIG=
202505200230 METAR WIHH 200230Z 07006KT 6000 FEW020 31/25 Q1009 NOSIG=
202505200200 METAR WIHH 200200Z 11005KT 6000 FEW020 30/25 Q1009 NOSIG=
202505200130 METAR WIHH 200130Z 17003KT 4000 HZ SCT020 28/25 Q1010 NOSIG=
202505200100 METAR WIHH 200100Z 17003KT 4000 SCT020 28/25 Q1010 NOSIG=
202505200030 METAR WIHH 200030Z 00000KT 4000 BR SCT020 27/25 Q1010 NOSIG=
202505200000 METAR WIHH 200000Z 12003KT 4000 BR FEW020 26/24 Q1009 NOSIG=
202505192330 METAR WIHH 192330Z 16003KT 3000 BR FEW020 25/24 Q1009 NOSIG=
202505192300 METAR WIHH 192300Z 14003KT 3000 BR FEW020 25/24 Q1008 NOSIG=
202505192230 METAR WIHH 192230Z 26003KT 3000 BR FEW020 25/25 Q1008 NOSIG=
202505192200 METAR WIHH NIL=
202505192130 METAR WIHH 192130Z 00000KT 4000 HZ SCT018 25/24 Q1008 NOSIG=
202505192100 METAR WIHH 192100Z 04003KT 4000 HZ SCT018 25/24 Q1008 NOSIG=
202505192030 METAR WIHH NIL=
202505192000 METAR WIHH NIL=
202505191930 METAR WIHH NIL=
202505191900 METAR WIHH NIL=
202505191830 METAR WIHH NIL=
202505191800 METAR WIHH NIL=
202505191730 METAR WIHH NIL=
202505191700 METAR WIHH 191700Z VRB02KT 4800 BR SCT020 25/25 Q1009 NOSIG=
202505191630 METAR WIHH 191630Z VRB01KT 7000 SCT020 25/25 Q1009 NOSIG=
202505191600 METAR WIHH 191600Z 13003KT 7000 SCT020 25/24 Q1010 NOSIG=
202505191530 METAR WIHH 191530Z 14003KT 7000 SCT020 25/24 Q1010 NOSIG=
202505191500 METAR WIHH NIL=
202505191430 METAR WIHH NIL=
202505191400 METAR WIHH 191400Z 12005KT 6000 SCT018 26/24 Q1010 NOSIG=
202505191330 METAR WIHH 191330Z 09006KT 5000 HZ SCT018 26/24 Q1010 NOSIG=
202505191300 METAR WIHH 191300Z 12004KT 5000 HZ SCT018 26/25 Q1009 RMK RA TO SE=
202505191230 METAR WIHH 191230Z 10006KT 5000 HZ SCT018 26/25 Q1009 RMK RA TO SE=
202505191200 METAR WIHH 191200Z 11005KT 4000 -RA BKN018 27/26 Q1008 NOSIG=
202505191130 METAR WIHH 191130Z 36003KT 4000 -RA BKN018 27/26 Q1008 NOSIG=
202505191100 METAR WIHH 191100Z 03003KT 4000 BKN017 FEW018CB 28/26 Q1008 TEMPO TL1200 -RA RMK CB TO SE=
202505191030 METAR WIHH 191030Z 11003KT 5000 -TSRA BKN016 FEW017CB 28/25 Q1008 TEMPO TL1100 -RA RMK CB TO E=
202505191000 METAR WIHH 191000Z 08004KT 7000 -TSRA BKN015 FEW018CB 28/25 Q1007 TEMPO TL1030 -RA RMK CB TO N=
202505190930 METAR WIHH 190930Z 06006KT 4000 -TSRA BKN015 FEW017CB 28/25 Q1007 TEMPO TL1000 5000 -RA RMK CB TO W-N=
202505190900 METAR WIHH 190900Z 02007KT 4000 -TSRA FEW017CB SCT018 29/24 Q1007 RMK CB TO NW-NE=
202505190830 METAR WIHH 190830Z 12007KT 5000 TS FEW017CB SCT018 29/23 Q1007 TEMPO FM0900 3000 -TSRA=
202505190800 METAR WIHH 190800Z 13013KT 5000 TS FEW017CB SCT018 30/22 Q1007 TEMPO FM0830 3000 -TSRA FEW017CB SCT018 RMK CB AND RA TO E-SE=
202505190730 METAR WIHH 190730Z 35006KT 6000 TS SCT018 FEW020CB 33/24 Q1006 RMK CB AND RA TO SE-S=
202505190700 METAR WIHH 190700Z 33004KT 7000 SCT019 FEW020CB 33/23 Q1007 NOSIG RMK CB TO S=
202505190630 METAR WIHH NIL=
202505190600 METAR WIHH 190600Z 01005KT 7000 SCT020 33/23 Q1008 NOSIG=
202505190530 METAR WIHH 190530Z 35003KT 7000 SCT020 33/23 Q1008 NOSIG=
202505190500 METAR WIHH 190500Z 02003KT 7000 SCT020 32/23 Q1009 NOSIG=
202505190430 METAR WIHH 190430Z 31003KT 7000 SCT020 32/23 Q1010 NOSIG=
202505190400 METAR WIHH 190400Z 10003KT 7000 SCT020 31/23 Q1010 NOSIG=
202505190330 METAR WIHH 190330Z 12003KT 6000 SCT020 31/23 Q1010 NOSIG=
202505190300 METAR WIHH 190300Z 09003KT 6000 SCT018 30/23 Q1010 NOSIG=
202505190230 METAR WIHH 190230Z 14003KT 5000 HZ SCT020 29/25 Q1010 NOSIG=
202505190200 METAR WIHH 190200Z 00000KT 5000 HZ SCT018 27/25 Q1010 NOSIG=
202505190130 METAR WIHH 190130Z 00000KT 5000 HZ SCT018 27/25 Q1010 NOSIG=
202505190100 METAR WIHH 190100Z 00000KT 4000 HZ SCT018 27/25 Q1010 NOSIG=
202505190030 METAR WIHH 190030Z 00000KT 4000 BR SCT018 26/25 Q1009 NOSIG=
202505190000 METAR WIHH 190000Z 00000KT 4000 BR SCT018 25/25 Q1009 NOSIG=
202505182330 METAR WIHH 182330Z 12003KT 3000 BR SCT018 25/25 Q1009 NOSIG=
202505182300 METAR WIHH NIL=
202505182230 METAR WIHH 182230Z 00000KT 6000 SCT018 25/24 Q1008 NOSIG=
202505182200 METAR WIHH 182200Z 09004KT 6000 SCT018 25/24 Q1008 NOSIG=
202505182130 METAR WIHH 182130Z 09003KT 6000 SCT018 25/24 Q1008 NOSIG=
202505182100 METAR WIHH 182100Z 09003KT 6000 SCT018 25/24 Q1008 NOSIG=
202505182030 METAR WIHH NIL=
202505182000 METAR WIHH NIL=
202505181930 METAR WIHH NIL=
202505181900 METAR WIHH NIL=
202505181830 METAR WIHH NIL=
202505181800 METAR WIHH NIL=
202505181730 METAR WIHH NIL=
202505181700 METAR WIHH 181700Z 10003KT 7000 -RA SCT018 25/25 Q1010 NOSIG=
202505181630 METAR WIHH NIL=
202505181600 METAR WIHH 181600Z 09003KT 7000 -RA SCT018 25/25 Q1010 NOSIG=
202505181530 METAR WIHH 181530Z 09004KT 7000 -RA SCT018 25/25 Q1010 NOSIG=
202505181500 METAR WIHH 181500Z 12004KT 7000 -RA SCT018 25/25 Q1010 NOSIG=
202505181430 METAR WIHH NIL=
202505181400 METAR WIHH 181400Z 11004KT 7000 -RA SCT018 26/25 Q1010 NOSIG=
202505181330 METAR WIHH 181330Z 12004KT 7000 -RA FEW017CB SCT018 26/25 Q1010 RMK CB TO E=
202505181300 METAR WIHH 181300Z 12005KT 7000 -TSRA FEW017CB SCT018 26/25 Q1009 RMK CB TO E=
202505181230 METAR WIHH 181230Z 12005KT 7000 TS FEW017CB SCT018 26/25 Q1009 RMK CB AND RA TO E=
202505181200 METAR WIHH 181200Z 11007KT 7000 TS FEW017CB SCT018 25/24 Q1009 RMK CB AND RA TO S=
202505181130 METAR WIHH 181130Z 13006KT 7000 -TSRA FEW017CB SCT018 25/24 Q1005 RMK CB TO E-SE=
202505181100 METAR WIHH 181100Z 12006KT 6000 -TSRA FEW017CB SCT018 26/24 Q1008 RMK CB TO E-SE=
202505181030 METAR WIHH 181030Z 08005KT 6000 -TSRA FEW016CB SCT017 27/26 Q1007 RMK CB TO E-SE=
202505181000 METAR WIHH 181000Z 03006KT 5000 -TSRA FEW016CB SCT017 27/25 Q1007 RMK CB TO E-SE=
202505180930 METAR WIHH 180930Z 09010KT 4000 TSRA FEW015CB SCT016 25/24 Q1007 RMK CB TO E=
202505180900 METAR WIHH 180900Z 36005KT 1500 TSRA BKN015 FEW016CB 30/25 Q1006 TEMPO TL1000 3000 -TSRA RMK CB TO S=
202505180830 METAR WIHH 180830Z 01006KT 6000 TS FEW017CB SCT018 32/24 Q1006 RMK CB AND RA TO SW-NW=
202505180800 METAR WIHH NIL=
202505180730 METAR WIHH 180730Z 36005KT 7000 SCT018 33/25 Q1006 RMK RA TO NE AND E=
202505180700 METAR WIHH 180700Z 05009KT 7000 SCT018 33/24 Q1007 RMK RA TO N AND E=
202505180630 METAR WIHH 180630Z 05007KT 7000 SCT018 33/24 Q1007 RMK RA TO SE=
202505180600 METAR WIHH 180600Z 08005KT 7000 SCT018 33/23 Q1008 NOSIG=
202505180530 METAR WIHH 180530Z 15003KT 8000 SCT020 33/22 Q1008 NOSIG=
202505180500 METAR WIHH 180500Z 12005KT 8000 SCT020 33/22 Q1009 NOSIG=
202505180430 METAR WIHH 180430Z 10005KT 7000 SCT020 33/23 Q1009 NOSIG=
202505180400 METAR WIHH 180400Z 05005KT 7000 FEW020 32/23 Q1008 NOSIG=
202505180330 METAR WIHH 180330Z 12004KT 7000 NSC 31/23 Q1010 NOSIG=
202505180300 METAR WIHH 180300Z 13005KT 7000 NSC 31/25 Q1010 NOSIG=
202505180230 METAR WIHH 180230Z 08003KT 6000 NSC 30/24 Q1010 NOSIG=
202505180200 METAR WIHH NIL=
202505180130 METAR WIHH 180130Z 11003KT 5000 HZ NSC 28/26 Q1010 NOSIG=
202505180100 METAR WIHH 180100Z 09003KT 6000 FEW020 26/25 Q1010 NOSIG=
202505180030 METAR WIHH 180030Z 13003KT 6000 FEW020 26/25 Q1010 NOSIG=
202505180000 METAR WIHH 180000Z 12003KT 6000 FEW020 25/25 Q1011 NOSIG=
202505172330 METAR WIHH 172330Z 00000KT 6000 FEW020 25/24 Q1010 NOSIG=
202505172300 METAR WIHH 172300Z 00000KT 6000 FEW020 25/24 Q1010 NOSIG=
202505172230 METAR WIHH 172230Z 00000KT 6000 FEW020 25/24 Q1009 NOSIG=
202505172200 METAR WIHH 172200Z 00000KT 4000 BR FEW020 25/24 Q1009 NOSIG=
202505172130 METAR WIHH 172130Z 00000KT 4000 HZ FEW020 25/24 Q1009 NOSIG=
202505172100 METAR WIHH 172100Z 00000KT 6000 FEW020 25/25 Q1009 NOSIG=
202505172030 METAR WIHH NIL=
202505172000 METAR WIHH NIL=
202505171930 METAR WIHH NIL=
202505171900 METAR WIHH NIL=
202505171830 METAR WIHH NIL=
202505171800 METAR WIHH NIL=
202505171730 METAR WIHH 171730Z 00000KT 5000 HZ FEW020 25/24 Q1010 NOSIG=
202505171700 METAR WIHH 171700Z 00000KT 5000 HZ FEW020 25/24 Q1010 NOSIG=
202505171630 METAR WIHH 171630Z 00000KT 6000 FEW020 25/24 Q1010 NOSIG=
202505171600 METAR WIHH 171600Z 00000KT 6000 FEW020 25/24 Q1010 NOSIG=
202505171530 METAR WIHH 171530Z 00000KT 6000 FEW020 25/24 Q1010 NOSIG=
202505171500 METAR WIHH 171500Z 00000KT 7000 FEW020 25/24 Q1010 NOSIG=
202505171430 METAR WIHH 171430Z 00000KT 7000 FEW020 25/24 Q1010 NOSIG=
202505171400 METAR WIHH 171400Z 00000KT 7000 FEW020 25/24 Q1010 NOSIG=
202505171330 METAR WIHH 171330Z 00000KT 7000 SCT020 25/24 Q1010 NOSIG=
202505171300 METAR WIHH 171300Z 13003KT 7000 SCT018 25/24 Q1010 NOSIG=
202505171230 METAR WIHH 171230Z 13005KT 6000 -RA SCT018 25/24 Q1009 NOSIG=
202505171200 METAR WIHH 171200Z 10005KT 5000 -RA SCT018 25/24 Q1009 NOSIG=
202505171130 METAR WIHH NIL=
202505171100 METAR WIHH 171100Z 09005KT 5000 -RA FEW017CB SCT018 25/24 Q1009 RMK CB TO E=
202505171030 METAR WIHH NIL=
202505171000 METAR WIHH 171000Z 09007KT 5000 -RA FEW016CB SCT017 26/25 Q1009 RMK CB TO SE=
202505170930 METAR WIHH NIL=
202505170900 METAR WIHH 170900Z 12005KT 5000 HZ FEW014CB SCT017 26/25 Q1007 TEMPO FM0930 4000 RA RMK CB AND RA TO NE=
202505170830 METAR WIHH 170830Z 15004KT 5000 TSRA FEW017CB SCT017 26/25 Q1007 TEMPO FM0900 4000 -RA RMK CB TO S=
202505170800 METAR WIHH 170800Z 18004KT 5000 -TSRA FEW017CB SCT017 26/24 Q1007 TEMPO FM0830 4000 -RA RMK CB OTF=
202505170730 METAR WIHH 170730Z 30007KT 5000 -TSRA FEW017CB SCT017 28/24 Q1007 TEMPO FM0830 RMK CB OTF=
202505170700 METAR WIHH 170700Z 35007KT 5000 TS FEW017CB SCT018 30/25 Q1007 RMK CB AND RA TO W-N=
202505170630 METAR WIHH 170630Z 05003KT 6000 TS FEW017CB SCT020 33/22 Q1007 RMK CB AND RA TO N-NE=
202505170600 METAR WIHH 170600Z 27003KT 6000 FEW017CB SCT020 32/23 Q1007 RMK CB AND RA TO NW=
202505170530 METAR WIHH 170530Z 07004KT 6000 SCT020 32/23 Q1008 NOSIG=
202505170500 METAR WIHH 170500Z 09006KT 6000 SCT020 33/24 Q1009 NOSIG=
202505170430 METAR WIHH 170430Z 07004KT 6000 SCT020 31/24 Q1009 NOSIG=
202505170400 METAR WIHH 170400Z 10004KT 6000 SCT020 31/23 Q1010 NOSIG=
202505170330 METAR WIHH 170330Z 24003KT 5000 HZ SCT020 31/24 Q1010 NOSIG=
202505170300 METAR WIHH 170300Z 09003KT 5000 HZ FEW020 31/24 Q1010 NOSIG=
202505170230 METAR WIHH 170230Z 36003KT 4000 HZ FEW020 30/24 Q1010 NOSIG=
202505170200 METAR WIHH 170200Z 01003KT 4000 HZ FEW020 28/24 Q1011 NOSIG=
202505170130 METAR WIHH 170130Z 13003KT 4000 HZ FEW020 28/25 Q1009 NOSIG=
202505170100 METAR WIHH 170100Z 13003KT 4000 HZ FEW020 28/25 Q1010 NOSIG=
202505170030 METAR WIHH 170030Z 00000KT 3000 BR FEW020 26/25 Q1010 NOSIG=
202505170000 METAR WIHH 170000Z 00000KT 3000 BR FEW020 25/25 Q1010 NOSIG=
202505162330 METAR WIHH NIL=
202505162300 METAR WIHH 162300Z 00000KT 3000 BR FEW020 24/24 Q1010 NOSIG=
202505162230 METAR WIHH 162230Z 17003KT 4000 BR FEW020 25/24 Q1009 NOSIG=
202505162200 METAR WIHH 162200Z 12003KT 4000 BR FEW020 25/24 Q1009 NOSIG=
202505162130 METAR WIHH 162130Z 10003KT 4000 HZ FEW020 25/24 Q1009 NOSIG=
202505162100 METAR WIHH 162100Z 13003KT 4000 BR FEW020 25/24 Q1009 NOSIG=
202505162030 METAR WIHH NIL=
202505162000 METAR WIHH NIL=
202505161930 METAR WIHH NIL=
202505161900 METAR WIHH NIL=
202505161830 METAR WIHH NIL=
202505161800 METAR WIHH NIL=
202505161730 METAR WIHH NIL=
202505161700 METAR WIHH 161700Z 00000KT 4000 BR SCT020 26/25 Q1010 NOSIG=
202505161630 METAR WIHH 161630Z 00000KT 4000 BR SCT020 26/25 Q1010 NOSIG=
202505161600 METAR WIHH 161600Z 00000KT 4000 BR 26/25 Q1010 NOSIG=
202505161530 METAR WIHH 161530Z 00000KT 4000 BR SCT020 26/25 Q1010 NOSIG=
202505161500 METAR WIHH NIL=
202505161430 METAR WIHH NIL=
202505161400 METAR WIHH 161400Z 13004KT 4000 HZ 26/25 Q1010 RMK RA TO SE=
202505161330 METAR WIHH 161330Z 14005KT 4000 -RA SCT018 26/25 Q1010 NOSIG=
202505161300 METAR WIHH 161300Z 15005KT 5000 -RA SCT018 26/25 Q1010 NOSIG=
202505161230 METAR WIHH NIL=
202505161200 METAR WIHH NIL=
202505161130 METAR WIHH 161130Z 21005KT 6000 -RA FEW017CB SCT018 26/25 Q1008 RMK CB TO E=
202505161100 METAR WIHH 161100Z 13007KT 3000 -TSRA FEW016CB BKN017 26/25 Q1008 TEMPO TL1130 4000 -RA RMK CB TO N-E=
202505161030 METAR WIHH 161030Z 16006KT 1000 TSRA FEW015CB BKN016 26/25 Q1008 RMK CB OVER THE FIELD=
202505161000 METAR WIHH 161000Z 17008KT 5000 -TSRA FEW016CB BKN017 26/25 Q1008 RMK CB TO NE-SE=
202505160930 METAR WIHH 160930Z 15010KT 3000 TSRA FEW015CB BKN017 25/24 Q1007 RMK CB OVER THE FIELD=
202505160900 METAR WIHH 160900Z 18014KT 1000 TSRA FEW015CB BKN017 25/24 Q1007 TEMPO TL1000 4000 -RA RMK CB OVER THE FIELD=
202505160830 METAR WIHH 160830Z 18008KT 2000 -TSRA FEW017CB BKN018 29/25 Q1007 TEMPO TL0930 4000 -RA RMK CB TO SE-SW=
202505160800 METAR WIHH 160800Z 35008KT 6000 TS FEW018CB SCT020 31/25 Q1006 RMK CB AND RA TO E-SW=
202505160730 METAR WIHH 160730Z 33006KT 6000 FEW018CB SCT020 30/25 Q1007 RMK CB AND RA TO E AND SW=
202505160700 METAR WIHH 160700Z 34007KT 6000 TS FEW018CB SCT019 29/24 Q1007 RMK CB AND RA TO NE=
202505160630 METAR WIHH 160630Z 32007KT 6000 TS FEW018CB SCT020 31/25 Q1009 TEMPO FM0710 3000 -TSRA RMK CB AND RA TO NW AND E=
202505160600 METAR WIHH 160600Z 35006KT 6000 SCT020 33/24 Q1008 RMK RA TO N=
202505160530 METAR WIHH 160530Z 01006KT 6000 SCT020 32/25 Q1008 RMK RA TO NW=
202505160500 METAR WIHH 160500Z 20005KT 6000 SCT020 33/24 Q1008 NOSIG=
202505160430 METAR WIHH 160430Z 18004KT 6000 32/25 Q1009 NOSIG RMK RA TO NE=
202505160400 METAR WIHH 160400Z 14005KT 6000 SCT020 32/24 Q1009 NOSIG=
202505160330 METAR WIHH 160330Z 13005KT 6000 SCT020 32/25 Q1010 NOSIG=
202505160300 METAR WIHH NIL=
202505160230 METAR WIHH 160230Z 18004KT 5000 HZ FEW020 31/25 Q1010 NOSIG=
202505160200 METAR WIHH 160200Z 13004KT 5000 SCT020 29/25 Q1009 NOSIG=
202505160130 METAR WIHH 160130Z 13004KT 5000 HZ SCT020 29/25 Q1009 NOSIG=
202505160100 METAR WIHH 160100Z 16003KT 5000 HZ SCT018 28/25 Q1009 NOSIG=
202505160030 METAR WIHH 160030Z 13003KT 4000 HZ SCT018 27/25 Q1009 NOSIG=
202505160000 METAR WIHH 160000Z 12003KT 4000 HZ SCT018 27/25 Q1009 NOSIG=
202505152330 METAR WIHH 152330Z 10003KT 4000 HZ SCT018 26/25 Q1009 NOSIG=
202505152300 METAR WIHH 152300Z 09004KT 4000 HZ SCT018 26/25 Q1009 NOSIG=
202505152230 METAR WIHH 152230Z 09003KT 4000 HZ SCT018 26/25 Q1009 NOSIG=
202505152200 METAR WIHH 152200Z 00000KT 4000 HZ SCT018 26/25 Q1009 NOSIG=
202505152130 METAR WIHH 152130Z 09003KT 4000 HZ SCT018 26/25 Q1009 NOSIG=
202505152100 METAR WIHH NIL=
202505152030 METAR WIHH NIL=
202505152000 METAR WIHH NIL=
202505151930 METAR WIHH NIL=
202505151900 METAR WIHH NIL=
202505151830 METAR WIHH NIL=
202505151800 METAR WIHH NIL=
202505151730 METAR WIHH 151730Z 14003KT 6000 SCT018 26/25 Q1008 RMK RA TO NE=
202505151700 METAR WIHH 151700Z 00000KT 6000 SCT018 26/25 Q1008 RMK RA TO NE=
202505151630 METAR WIHH 151630Z 00000KT 6000 SCT018 26/25 Q1008 RMK RA TO E=
202505151600 METAR WIHH 151600Z 00000KT 6000 SCT018 26/25 Q1008 RMK RA TO NW=
202505151530 METAR WIHH 151530Z 00000KT 6000 SCT018 26/25 Q1008 RMK RA TO W-N=
202505151500 METAR WIHH NIL=
202505151430 METAR WIHH 151430Z 00000KT 6000 FEW016CB SCT017 26/25 Q1008 RMK CB TO SE=
202505151400 METAR WIHH 151400Z 00000KT 5000 -RA FEW016CB SCT017 26/25 Q1008 RMK CB TO N=
202505151330 METAR WIHH 151330Z 28003KT 5000 -RA FEW016CB SCT017 26/25 Q1008 RMK CB TO N=
202505151300 METAR WIHH 151300Z 26005KT 5000 -TSRA FEW016CB SCT017 26/25 Q1007 RMK CB TO N=
202505151230 METAR WIHH 151230Z 19010KT 2000 -TSRA FEW016CB SCT017 26/25 Q1007 RMK CB TO N=
202505151200 METAR WIHH 151200Z 05003KT 5000 TS FEW016CB 28/27 Q1007 RMK CB AND RA TO W=
202505151130 METAR WIHH 151130Z 12005KT 5000 TS FEW016CB SCT017 28/27 Q1007 RMK CB AND RA TO S=
202505151100 METAR WIHH 151100Z 04005KT 5000 RA FEW016CB SCT017 28/26 Q1007 RMK CB TO SW=
202505151030 METAR WIHH 151030Z 04010KT 4000 -TSRA FEW016CB SCT017 28/26 Q1007 RMK CB TO NE=
202505151000 METAR WIHH 151000Z 04006KT 5000 -TSRA FEW016CB SCT017 30/25 Q1006 RMK CB TO N=
202505150930 METAR WIHH NIL=
202505150900 METAR WIHH NIL=
202505150830 METAR WIHH 150830Z 36008KT 5000 HZ FEW017CB SCT018 32/24 Q1006 RMK CB AND RA TO S-SW=
202505150800 METAR WIHH 150800Z 02010KT 5000 HZ FEW017CB SCT018 32/24 Q1007 TEMPO FM0845 3000 -TSRA RMK CB AND RA TO SW AND RA TO E=
202505150730 METAR WIHH 150730Z 05012KT 5000 HZ FEW017CB SCT018 33/24 Q1006 TEMPO FM0745 3000 -TSRA RMK CB AND RA TO E-SE=
202505150700 METAR WIHH 150700Z 05006KT 5000 HZ FEW017CB SCT018 33/24 Q1007 TEMPO FM0720 3000 -TSRA RMK CB AND RA TO SE-S=
202505150630 METAR WIHH 150630Z 03007KT 5000 HZ FEW017CB SCT018 33/23 Q1007 TEMPO FM0700 3000 -TSRA RMK CB AND RA TO SE=
202505150600 METAR WIHH 150600Z 04005KT 6000 SCT018 33/23 Q1008 RMK RA TO SE=
202505150530 METAR WIHH 150530Z 04005KT 6000 SCT018 33/23 Q1008 RMK RA TO SE=
202505150500 METAR WIHH 150500Z 02005KT 6000 SCT018 33/22 Q1008 NOSIG=
202505150430 METAR WIHH 150430Z 36003KT 6000 SCT020 33/23 Q1009 NOSIG=
202505150400 METAR WIHH 150400Z 08003KT 6000 SCT020 33/22 Q1009 NOSIG=
202505150330 METAR WIHH 150330Z 12003KT 6000 FEW020 32/22 Q1010 NOSIG=
202505150300 METAR WIHH 150300Z 21003KT 6000 FEW020 32/23 Q1010 NOSIG=
202505150230 METAR WIHH 150230Z 25005KT 6000 FEW020 30/24 Q1010 NOSIG=
202505150200 METAR WIHH 150200Z 13005KT 6000 FEW020 30/25 Q1011 NOSIG=
202505150130 METAR WIHH 150130Z 10004KT 6000 FEW020 30/25 Q1011 NOSIG=
202505150100 METAR WIHH 150100Z 18003KT 6000 FEW020 28/23 Q1010 NOSIG=
202505150030 METAR WIHH 150030Z 24003KT 6000 FEW020 27/24 Q1010 NOSIG=
202505150000 METAR WIHH 150000Z 00000KT 6000 FEW020 25/23 Q1009 NOSIG=
202505142330 METAR WIHH 142330Z 00000KT 6000 FEW020 25/23 Q1009 NOSIG=
202505142300 METAR WIHH 142300Z 28003KT 6000 FEW020 25/23 Q1009 NOSIG=
202505142230 METAR WIHH 142230Z 00000KT 6000 FEW020 25/23 Q1009 NOSIG=
202505142200 METAR WIHH 142200Z 00000KT 6000 FEW020 25/24 Q1009 NOSIG=
202505142130 METAR WIHH 142130Z 00000KT 6000 FEW020 25/25 Q1009 NOSIG=
202505142100 METAR WIHH 142100Z 00000KT 6000 FEW020 25/25 Q1009 NOSIG=
202505142030 METAR WIHH NIL=
202505142000 METAR WIHH NIL=
202505141930 METAR WIHH NIL=
202505141900 METAR WIHH NIL=
202505141830 METAR WIHH NIL=
202505141800 METAR WIHH NIL=
202505141730 METAR WIHH NIL=
202505141700 METAR WIHH NIL=
202505141630 METAR WIHH 141630Z METAR WIHH 141600Z 00000KT 6000 FEW020 26/24 Q1011 NOSIG=
202505141600 METAR WIHH NIL=
202505141530 METAR WIHH 141530Z 00000KT 6000 FEW020 26/25 Q1011 NOSIG=
202505141500 METAR WIHH 141500Z 19003KT 6000 FEW020 26/25 Q1011 NOSIG=
202505141430 METAR WIHH 141430Z 00000KT 6000 FEW018 26/24 Q1011 NOSIG=
202505141400 METAR WIHH 141400Z 00000KT 6000 FEW018 27/24 Q1011 NOSIG=
202505141330 METAR WIHH 141330Z 22003KT 6000 FEW018 27/24 Q1011 NOSIG=
202505141300 METAR WIHH 141300Z 18003KT 6000 SCT018 27/24 Q1010 NOSIG=
202505141230 METAR WIHH NIL=
202505141200 METAR WIHH 141200Z 19005KT 6000 SCT018 27/24 Q1009 RMK RA TO S=
202505141130 METAR WIHH 141130Z 22007KT 5000 HZ FEW017CB SCT018 27/24 Q1008 RMK CB AND RA TO S=
202505141100 METAR WIHH 141100Z 00000KT 5000 TS FEW017CB SCT018 28/25 Q1008 RMK CB AND RA TO S=
202505141030 METAR WIHH 141030Z 31003KT 5000 TS FEW017CB SCT017 28/25 Q1008 RMK CB AND RA TO E AND S=
202505141000 METAR WIHH 141000Z 01003KT 5000 TS FEW017CB SCT017 30/25 Q1008 RMK CB AND TA TO E AND S=
202505140930 METAR WIHH 140930Z 02004KT 6000 FEW017CB SCT017 30/26 Q1007 RMK CB AND RA TO E=
202505140900 METAR WIHH NIL=
202505140830 METAR WIHH 140830Z 02007KT 6000 -TSRA FEW017CB SCT018 31/24 Q1007 RMK CB TO N-E=
202505140800 METAR WIHH 140800Z 00000KT 6000 FEW017CB SCT018 30/25 Q1007 RMK CB TO SE=
202505140730 METAR WIHH 140730Z 21003KT 6000 FEW017CB SCT018 30/24 Q1007 RMK CB TO SE=
202505140700 METAR WIHH 140700Z 31003KT 3000 -TSRA FEW017CB SCT017 26/23 Q1008 RMK CB TO N=
202505140630 METAR WIHH 140630Z 23003KT 4000 -RA SCT018 27/25 Q1008 NOSIG=
202505140600 METAR WIHH 140600Z 28003KT 5000 -RA SCT018 28/25 Q1008 NOSIG=
202505140530 METAR WIHH 140530Z 16007KT 5000 -RA SCT018 28/24 Q1009 NOSIG=
202505140500 METAR WIHH 140500Z 13008KT 2000 RA SCT018 31/24 Q1009 TEMPO TL0530 3000 -RA=
202505140430 METAR WIHH 140430Z 00000KT 5000 HZ SCT020 31/24 Q1010 NOSIG=
202505140400 METAR WIHH 140400Z 20003KT 5000 HZ SCT020 31/23 Q1010 NOSIG=
202505140330 METAR WIHH 140330Z 16003KT 6000 SCT020 31/24 Q1010 NOSIG=
202505140300 METAR WIHH 140300Z 05005KT 6000 FEW020 31/24 Q1010 NOSIG=
202505140230 METAR WIHH NIL=
202505140200 METAR WIHH 140200Z 00000KT 5000 HZ FEW020 28/25 Q1010 NOSIG=
202505140130 METAR WIHH 140130Z 00000KT 5000 HZ FEW020 26/24 Q1010 NOSIG=
202505140100 METAR WIHH 140100Z 00000KT 5000 HZ FEW020 26/24 Q1010 NOSIG=
202505140030 METAR WIHH 140030Z 00000KT 5000 HZ FEW020 26/24 Q1010 NOSIG=
202505140000 METAR WIHH 140000Z 00000KT 4000 BR FEW020 25/24 Q1009 NOSIG=
202505132330 METAR WIHH 132330Z 00000KT 4000 BR FEW020 25/24 Q1009 NOSIG=
202505132300 METAR WIHH 132300Z 00000KT 2000 BR FEW020 25/25 Q1009 NOSIG=
202505132230 METAR WIHH 132230Z 00000KT 2000 BR FEW020 25/24 Q1009 NOSIG=
202505132200 METAR WIHH 132200Z 00000KT 3000 BR FEW020 25/24 Q1009 NOSIG=
202505132130 METAR WIHH 132130Z 00000KT 3000 BR SCT020 25/24 Q1008 NOSIG=
202505132100 METAR WIHH 132100Z 25003KT 3000 BR SCT020 25/24 Q1008 NOSIG=
202505132030 METAR WIHH NIL=
202505132000 METAR WIHH NIL=
202505131930 METAR WIHH NIL=
202505131900 METAR WIHH NIL=
202505131830 METAR WIHH NIL=
202505131800 METAR WIHH NIL=
202505131730 METAR WIHH 131730Z 00000KT 5000 -RA BKN017 25/25 Q1011 NOSIG=
202505131700 METAR WIHH 131700Z 00000KT 5000 -RA BKN017 25/25 Q1011 NOSIG=
202505131630 METAR WIHH 131630Z 12004KT 5000 -RA BKN018 25/25 Q1011 NOSIG=
202505131600 METAR WIHH 131600Z 14003KT 5000 -RA BKN017 25/25 Q1011 RMK CB TO NE=
202505131530 METAR WIHH 131530Z 12006KT 5000 -TSRA BKN017 FEW018CB 25/25 Q1011 TEMPO TL1630 -RA RMK CB TO NE=
202505131500 METAR WIHH 131500Z 12006KT 5000 -TSRA BKN017 FEW018CB 25/25 Q1011 TEMPO TL1520 -RA RMK CB TO NW-NE=
202505131430 METAR WIHH 131430Z 11003KT 5000 -TSRA BKN017 FEW018CB 25/25 Q1011 TEMPO TL1530 -RA RMK CB TO N-NE=
202505131400 METAR WIHH 131400Z 14003KT 6000 -TSRA BKN017 FEW018CB 25/24 Q1011 TEMPO TL1430 -RA RMK CB TO N=
202505131330 METAR WIHH 131330Z 17003KT 6000 -TSRA BKN016 FEW018CB 25/24 Q1010 RMK CB TO NW-NE=
202505131300 METAR WIHH 131300Z 18004KT 5000 -TSRA FEW015CB BKN016 25/24 Q1010 TEMPO TL1330 -RA RMK CB TO NW-NE=
202505131230 METAR WIHH 131230Z 08007KT 5000 -TSRA FEW015CB BKN016 25/24 Q1010 TEMPO TL1300 -RA RMK CB TO N-E=
202505131200 METAR WIHH 131200Z 28009KT 2500 TSRA FEW014CB OVC015 25/24 Q1008 RMK CB OTF=
202505131130 METAR WIHH 131130Z 22017KT 3000 -TSRA BKN015 FEW017CB 27/25 Q1008 RMK CB TO SW-NW=
202505131100 METAR WIHH 131100Z 17006KT 4000 TS BKN017 FEW018CB 28/25 Q1007 RMK CB AND RA TO S-W=
202505131030 METAR WIHH 131030Z 08008KT 3000 -RA BKN017 FEW020CB 29/25 Q1006 RMK CB TO SW-W=
202505131000 METAR WIHH 131000Z 07015KT 5000 HZ SCT018 30/25 Q1006 RMK RA TO SW=
202505130930 METAR WIHH NIL=
202505130900 METAR WIHH 130900Z 10014KT 6000 SCT018 31/25 Q1005 RMK RA TO SE=
202505130830 METAR WIHH 130830Z 03007KT 7000 SCT020 33/23 Q1005 RMK RA TO SE=
202505130800 METAR WIHH NIL=
202505130730 METAR WIHH 130730Z 28009KT 8000 SCT020 33/23 Q1006 RMK RA TO NW-SE=
202505130700 METAR WIHH 130700Z 17006KT 8000 SCT020 33/21 Q1006 RMK RA TO SE=
202505130630 METAR WIHH 130630Z 28005KT 8000 SCT020 34/22 Q1007 NOSIG=
202505130600 METAR WIHH 130600Z 23010KT 8000 SCT020 34/23 Q1007 NOSIG=
202505130530 METAR WIHH 130530Z 22010KT 8000 SCT020 34/23 Q1008 NOSIG=
202505130500 METAR WIHH 130500Z 27006KT 8000 SCT020 33/23 Q1008 NOSIG=
202505130430 METAR WIHH 130430Z 29008KT 7000 SCT020 32/23 Q1009 NOSIG=
202505130400 METAR WIHH 130400Z 01005KT 7000 SCT020 32/23 Q1009 RMK RA TO SE=
202505130330 METAR WIHH 130330Z 22007KT 7000 SCT020 31/23 Q1009 NOSIG RMK RA TO SE=
202505130300 METAR WIHH 130300Z 28008KT 6000 SCT020 31/23 Q1009 NOSIG=
202505130230 METAR WIHH 130230Z 25004KT 6000 FEW020 30/23 Q1009 NOSIG=
202505130200 METAR WIHH 130200Z 21005KT 5000 HZ FEW020 29/24 Q1009 NOSIG=
202505130130 METAR WIHH 130130Z 21005KT 5000 HZ FEW020 29/24 Q1009 NOSIG=
202505130100 METAR WIHH 130100Z 16005KT 5000 FEW020 29/24 Q1009 NOSIG=
202505130030 METAR WIHH NIL=
202505130000 METAR WIHH 130000Z 00000KT 5000 HZ FEW020 27/25 Q1008 NOSIG=
202505122330 METAR WIHH 122330Z 00000KT 6000 FEW020 26/24 Q1008 NOSIG=
202505122300 METAR WIHH 122300Z 00000KT 6000 FEW020 26/24 Q1008 NOSIG=
202505122230 METAR WIHH 122230Z 00000KT 6000 FEW020 26/25 Q1007 NOSIG=
202505122200 METAR WIHH 122200Z 18003KT 6000 FEW020 26/24 Q1007 RMK RA TO SE=
202505122130 METAR WIHH 122130Z 15003KT 6000 FEW020 26/24 Q1007 NOSIG=
202505122100 METAR WIHH NIL=
202505122030 METAR WIHH NIL=
202505122000 METAR WIHH NIL=
202505121930 METAR WIHH NIL=
202505121900 METAR WIHH NIL=
202505121830 METAR WIHH NIL=
202505121800 METAR WIHH NIL=
202505121730 METAR WIHH NIL=
202505121700 METAR WIHH 121700Z 00000KT 9999 FEW022 27/25 Q1008 NOSIG=
202505121630 METAR WIHH 121630Z 00000KT 9999 FEW022 27/25 Q1008 NOSIG=
202505121600 METAR WIHH 121600Z 22004KT 9999 FEW022 27/25 Q1008 NOSIG=
202505121530 METAR WIHH 121530Z 22004KT 9999 FEW022 27/25 Q1008 NOSIG=
202505121500 METAR WIHH 121500Z 22004KT 9999 FEW022 27/25 Q1008 NOSIG=
202505121430 METAR WIHH NIL=
202505121400 METAR WIHH 121400Z 21003KT 9999 FEW022 28/24 Q1008 NOSIG=
202505121330 METAR WIHH 121330Z 25003KT 9999 FEW020 29/24 Q1007 NOSIG=
202505121300 METAR WIHH 121300Z 26004KT 9999 FEW020 29/24 Q1007 NOSIG=
202505121230 METAR WIHH 121230Z 26005KT 9999 FEW020 29/23 Q1007 NOSIG=
202505121200 METAR WIHH 121200Z 24004KT 8000 FEW020 29/24 Q1006 NOSIG=
202505121130 METAR WIHH 121130Z 22004KT 8000 FEW020 29/24 Q1006 NOSIG=
202505121100 METAR WIHH 121100Z 22003KT 8000 SCT020 30/24 Q1005 NOSIG=
202505121030 METAR WIHH 121030Z 24006KT 8000 SCT020 30/24 Q1004 NOSIG=
202505121000 METAR WIHH 121000Z 22008KT 8000 SCT020 31/24 Q1004 NOSIG=
202505120930 METAR WIHH 120930Z 24007KT 8000 SCT020 32/24 Q1004 NOSIG=
202505120900 METAR WIHH 120900Z 24010KT 8000 SCT020 31/23 Q1005 NOSIG=
202505120830 METAR WIHH 120830Z 24007KT 8000 SCT020 31/23 Q1005 NOSIG=
202505120800 METAR WIHH 120800Z 25010KT 8000 SCT020 31/23 Q1005 NOSIG=
202505120730 METAR WIHH 120730Z 25010KT 8000 SCT020 31/24 Q1005 NOSIG=
202505120700 METAR WIHH 120700Z 24012KT 7000 SCT020 31/24 Q1006 NOSIG=
202505120630 METAR WIHH 120630Z 28010KT 7000 SCT020 32/24 Q1006 NOSIG=
202505120600 METAR WIHH 120600Z 28005KT 7000 SCT020 32/24 Q1007 NOSIG=
202505120530 METAR WIHH 120530Z 25008KT 8000 SCT020 32/24 Q1007 NOSIG=
202505120500 METAR WIHH 120500Z 12003KT 6000 SCT020 31/23 Q1007 NOSIG=
202505120430 METAR WIHH 120430Z 12003KT 6000 SCT020 31/23 Q1007 NOSIG=
202505120400 METAR WIHH 120400Z 19003KT 6000 SCT020 31/23 Q1007 NOSIG=
202505120330 METAR WIHH 120330Z 12003KT 6000 SCT020 31/23 Q1008 NOSIG=
202505120300 METAR WIHH 120300Z 34003KT 6000 SCT020 30/24 Q1008 NOSIG=
202505120230 METAR WIHH 120230Z 21003KT 6000 SCT020 30/24 Q1008 NOSIG=
202505120200 METAR WIHH 120200Z 09003KT 7000 SCT020 29/24 Q1008 NOSIG=
202505120130 METAR WIHH 120130Z 06003KT 8000 SCT020 28/24 Q1008 NOSIG=
202505120100 METAR WIHH 120100Z 12003KT 8000 SCT020 27/24 Q1008 NOSIG=
202505120030 METAR WIHH 120030Z 14003KT 8000 SCT020 26/24 Q1008 NOSIG=
202505120000 METAR WIHH 120000Z 18003KT 8000 SCT020 25/24 Q1008 NOSIG=
202505112330 METAR WIHH 112330Z 22004KT 8000 SCT020 25/23 Q1008 NOSIG=
202505112300 METAR WIHH 112300Z 25003KT 8000 SCT020 25/23 Q1008 NOSIG=
202505112230 METAR WIHH 112230Z 24007KT 8000 SCT020 25/23 Q1008 NOSIG=
202505112200 METAR WIHH 112200Z 25007KT 8000 FEW020 26/23 Q1008 NOSIG=
202505112130 METAR WIHH 112130Z 26003KT 8000 FEW020 26/23 Q1008 NOSIG=
202505112100 METAR WIHH 112100Z 27004KT 8000 FEW020 26/24 Q1008 NOSIG=
202505112030 METAR WIHH NIL=
202505112000 METAR WIHH NIL=
202505111930 METAR WIHH NIL=
202505111900 METAR WIHH NIL=
202505111830 METAR WIHH NIL=
202505111800 METAR WIHH NIL=
202505111730 METAR WIHH NIL=
202505111700 METAR WIHH 111700Z 00000KT 6000 FEW020 26/24 Q1009 NOSIG=
202505111630 METAR WIHH 111630Z 00000KT 6000 FEW020 26/24 Q1009 NOSIG=
202505111600 METAR WIHH 111600Z 24003KT 6000 FEW020 26/24 Q1009 NOSIG=
202505111530 METAR WIHH 111530Z 00000KT 5000 HZ FEW020 26/25 Q1009 NOSIG=
202505111500 METAR WIHH 111500Z 00000KT 5000 HZ FEW020 26/25 Q1009 NOSIG=
202505111430 METAR WIHH 111430Z 00000KT 6000 FEW020 26/25 Q1009 NOSIG=
202505111400 METAR WIHH 111400Z 10003KT 7000 FEW020 26/24 Q1008 NOSIG=
202505111330 METAR WIHH 111330Z 10003KT 7000 FEW020 26/24 Q1008 NOSIG=
202505111300 METAR WIHH 111300Z 18004KT 7000 FEW020 26/25 Q1008 NOSIG=
202505111230 METAR WIHH 111230Z 15006KT 6000 SCT020 26/24 Q1007 NOSIG=
202505111200 METAR WIHH 111200Z 16006KT 6000 SCT020 27/23 Q1007 NOSIG=
202505111130 METAR WIHH NIL=
202505111100 METAR WIHH 111100Z 20007KT 6000 SCT020 27/24 Q1006 NOSIG=
202505111030 METAR WIHH 111030Z 25003KT 6000 27/26 Q1005 NOSIG=
202505111000 METAR WIHH 111000Z 23003KT 6000 SCT018 27/25 Q1005 NOSIG=
202505110930 METAR WIHH 110930Z 22003KT 6000 SCT018 27/25 Q1005 NOSIG=
202505110900 METAR WIHH 110900Z 16004KT 6000 -RA SCT018 26/24 Q1005=
202505110830 METAR WIHH 110830Z 32005KT 5000 -TSRA FEW017CB SCT018 26/24 Q1005 TEMPO TL0900 4000 -TSRA RMK CB TO E-S=
202505110800 METAR WIHH 110800Z 27010KT 4000 -TSRA FEW016CB BKN017 27/24 Q1005 TEMPO TL0810 1000 TSRA RMK CB OTF=
202505110730 METAR WIHH 110730Z 27004KT 5000 -TSRA FEW017CB SCT018 30/24 Q1005 TEMPO TL0745 1000 TSRA RMK CB TO W AND E=
202505110700 METAR WIHH 110700Z 12004KT 6000 TS SCT019 FEW020CB 30/24 Q1005 RMK CB AND RA TO SE-SW=
202505110630 METAR WIHH 110630Z 02003KT 6000 FEW017CB SCT020 33/23 Q1006 TEMPO FM0645 2000 TSRA RMK CB AND RA TO NW=
202505110600 METAR WIHH 110600Z 24003KT 7000 SCT020 33/23 Q1007 RMK RA TO NW AND NE=
202505110530 METAR WIHH 110530Z 24006KT 7000 SCT020 33/23 Q1007 RMK RA TO NE=
202505110500 METAR WIHH 110500Z 25005KT 7000 SCT020 33/23 Q1007 RMK RA TO NE=
202505110430 METAR WIHH 110430Z 24007KT 7000 SCT020 33/23 Q1008 NOSIG=
202505110400 METAR WIHH 110400Z 21004KT 6000 SCT020 32/22 Q1008 NOSIG=
202505110330 METAR WIHH 110330Z 11003KT 6000 SCT020 32/24 Q1009 NOSIG=
202505110300 METAR WIHH 110300Z 09003KT 6000 SCT020 31/24 Q1009 NOSIG=
202505110230 METAR WIHH 110230Z 05004KT 6000 FEW020 31/24 Q1009 NOSIG=
202505110200 METAR WIHH 110200Z 24003KT 6000 FEW020 30/24 Q1009 NOSIG=
202505110130 METAR WIHH 110130Z 23003KT 5000 HZ FEW020 30/24 Q1008 NOSIG=
202505110100 METAR WIHH 110100Z 25003KT 4000 HZ FEW020 29/25 Q1008 NOSIG=
202505110030 METAR WIHH 110030Z 23003KT 4000 HZ FEW020 28/25 Q1008 NOSIG=
202505110000 METAR WIHH 110000Z 11003KT 3000 BR FEW020 26/25 Q1008 NOSIG=
202505102330 METAR WIHH 110000Z 11003KT 3000 BR FEW020 26/25 Q1008 NOSIG=
202505102300 METAR WIHH 102300Z 00000KT 3000 BR SCT020 25/25 Q1008 NOSIG=
202505102230 METAR WIHH NIL=
202505102200 METAR WIHH 102200Z 00000KT 3000 BR SCT020 25/25 Q1007 NOSIG=
202505102130 METAR WIHH 102130Z 00000KT 3000 BR SCT020 25/25 Q1007 NOSIG=
202505102100 METAR WIHH 102100Z 00000KT 3000 BR SCT020 25/25 Q1007 NOSIG=
202505102030 METAR WIHH NIL=
202505102000 METAR WIHH NIL=
202505101930 METAR WIHH NIL=
202505101900 METAR WIHH NIL=
202505101830 METAR WIHH NIL=
202505101800 METAR WIHH NIL=
202505101730 METAR WIHH NIL=
202505101700 METAR WIHH 101700Z 14003KT 4000 HZ SCT020 26/25 Q1009 NOSIG=
202505101630 METAR WIHH 101630Z 00000KT 4000 HZ SCT020 26/25 Q1009 NOSIG=
202505101600 METAR WIHH 101600Z 00000KT 4000 HZ SCT020 26/25 Q1009 NOSIG=
202505101530 METAR WIHH 101530Z 00000KT 4000 HZ SCT020 26/25 Q1009 NOSIG=
202505101500 METAR WIHH 101500Z 16003KT 4000 HZ SCT020 26/25 Q1009 NOSIG=
202505101430 METAR WIHH 101430Z 13003KT 4000 HZ SCT020 26/25 Q1009 NOSIG=
202505101400 METAR WIHH 101400Z 13005KT 4000 HZ SCT018 27/25 Q1009 NOSIG=
202505101330 METAR WIHH 101330Z 13004KT 4000 HZ SCT018 27/25 Q1009 NOSIG=
202505101300 METAR WIHH 101300Z 11005KT 4000 HZ BKN017 27/25 Q1009 RMK RA TO E=
202505101230 METAR WIHH 101230Z 10005KT 4000 HZ BKN017 27/25 Q1008 RMK RA TO E=
202505101200 METAR WIHH 101200Z 09005KT 4000 -RA BKN017 FEW020CB 27/25 Q1008 RMK CB TO E=
202505101130 METAR WIHH 101130Z 18005KT 4000 TS BKN017 FEW018CB 27/25 Q1008 RMK CB AND RA TO NE-E=
202505101100 METAR WIHH 101100Z 20006KT 5000 TS BKN017 FEW018CB 27/25 Q1007 RMK CB AND RA TO S-NW=
202505101030 METAR WIHH 101030Z 15006KT 5000 TS BKN017 FEW018CB 27/25 Q1006 RMK CB AND RA TO SE-W=
202505101000 METAR WIHH 101000Z 14005KT 5000 TS BKN017 FEW018CB 27/25 Q1006 RMK CB AND RA TO E-SE=
202505100930 METAR WIHH 100930Z 12004KT 4000 TS BKN017 FEW018CB 27/25 Q1006 RMK CB AND RA TO S-SW=
202505100900 METAR WIHH 100900Z 17003KT 5000 TS BKN017 FEW018CB 27/25 Q1006 RMK CB AND RA TO S-SW=
202505100830 METAR WIHH 100830Z 20004KT 4000 TS BKN016 FEW017CB 26/25 Q1006 RMK CB AND RA TO S-SW=
202505100800 METAR WIHH 100800Z 06010KT 3000 -TSRA BKN016 FEW017CB 26/25 Q1005 RMK CB TO NE AND SE=
202505100730 METAR WIHH 100730Z 08010KT 2000 -TSRA BKN014 FEW016CB 27/25 Q1005 RMK CB TO NE AND SE=
202505100700 METAR WIHH 100700Z 09012KT 1500 -TSRA BKN015 FEW016CB 28/25 Q1005 RMK CB TO NE AND SE=
202505100630 METAR WIHH 100630Z 36010KT 3000 -TSRA BKN016 FEW018CB 30/25 Q1005 RMK CB TO E=
202505100600 METAR WIHH 100600Z 02010KT 5000 HZ SCT018 FEW020CB 33/25 Q1006 RMK CB TO E AND RA NW-E=
202505100530 METAR WIHH 100530Z 09005KT 5000 HZ SCT018 FEW020CB 34/24 Q1006 RMK CB AND RA TO E=
202505100500 METAR WIHH 100500Z 22006KT 5000 HZ SCT018 34/23 Q1006 RMK RA TO NE=
202505100430 METAR WIHH 100430Z 16005KT 5000 HZ SCT018 34/24 Q1007 NOSIG=
202505100400 METAR WIHH 100400Z 28005KT 5000 HZ SCT018 33/24 Q1008 NOSIG RMK RA TO SE=
202505100330 METAR WIHH 100330Z 27005KT 5000 HZ SCT018 33/25 Q1008 NOSIG=
202505100300 METAR WIHH 100300Z 24004KT 5000 HZ SCT018 32/25 Q1008 NOSIG=
202505100230 METAR WIHH 100230Z 10004KT 5000 HZ SCT018 32/25 Q1009 NOSIG=
202505100200 METAR WIHH 100200Z 09005KT 5000 HZ SCT018 31/25 Q1009 NOSIG=
202505100130 METAR WIHH 100130Z 09006KT 5000 HZ SCT018 30/25 Q1009 NOSIG=
202505100100 METAR WIHH 100100Z 00000KT 4000 HZ SCT018 29/25 Q1009 NOSIG=
202505100030 METAR WIHH 100030Z 00000KT 4000 HZ SCT018 28/25 Q1009 NOSIG=
202505100000 METAR WIHH 100000Z 260003T 4000 HZ SCT018 27/26 Q1008 NOSIG=
202505092330 METAR WIHH 092330Z 00000KT 4000 HZ SCT018 26/25 Q1008 NOSIG=
202505092300 METAR WIHH 092300Z 00000KT 4000 HZ SCT018 27/25 Q1008 NOSIG=
202505092230 METAR WIHH 092230Z 09004KT 5000 HZ SCT020 27/24 Q1007 NOSIG=
202505092200 METAR WIHH 092200Z 16005KT 5000 HZ SCT020 27/25 Q1007 NOSIG=
202505092130 METAR WIHH 092130Z 18004KT 5000 HZ SCT020 27/25 Q1007 NOSIG=
202505092100 METAR WIHH 092100Z 22003KT 5000 HZ SCT018 27/25 Q1007 NOSIG=
202505092030 METAR WIHH NIL=
202505092000 METAR WIHH NIL=
202505091930 METAR WIHH NIL=
202505091900 METAR WIHH NIL=
202505091830 METAR WIHH NIL=
202505091800 METAR WIHH NIL=
202505091730 METAR WIHH NIL=
202505091700 METAR WIHH 091700Z 18003KT 6000 SCT018 27/25 Q1009 RMK RA TO E=
202505091630 METAR WIHH 091630Z 21004KT 6000 SCT018 27/25 Q1009 RMK RA TO E=
202505091600 METAR WIHH 091600Z 23005KT 6000 TS FEW017CB SCT018 28/25 Q1009 RMK CB AND RA TO E=
202505091530 METAR WIHH 091530Z 25005KT 6000 TS FEW017CB SCT018 28/25 Q1009 TEMPO FM1545 3000 - TSRA RMK CB AND RA TO SE-S=
202505091500 METAR WIHH 091500Z 25005KT 6000 TS FEW017CB SCT018 28/25 Q1009 TEMPO FM1530 3000 - TSRA RMK CB AND RA TO SE-S=
202505091430 METAR WIHH 091430Z 28005KT 8000 TS FEWCB018 SCT020 28/25 Q1009 TEMPO FM1500 3000 - TSRA RMK CB AND RA TO S=
202505091400 METAR WIHH 091400Z 27006KT 8000 FEW020 29/26 Q1010 NOSIG=
202505091330 METAR WIHH 091330Z 25005KT 8000 FEW020 29/26 Q1009 NOSIG=
202505091300 METAR WIHH 091300Z 25005KT 8000 FEW020 29/25 Q1009 NOSIG=
202505091230 METAR WIHH 091230Z 27005KT 7000 FEW020 29/24 Q1008 NOSIG=
202505091200 METAR WIHH 091200Z 16005KT 7000 FEW020 30/24 Q1007 NOSIG=
202505091130 METAR WIHH 091130Z 17005KT 7000 FEW020 30/24 Q1007 NOSIG=
202505091100 METAR WIHH 091100Z 21005KT 7000 FEW020 30/24 Q1006 NOSIG=
202505091030 METAR WIHH 091030Z 16005KT 7000 FEW020 31/24 Q1006 NOSIG=
202505091000 METAR WIHH 091000Z 21005KT 7000 SCT020 32/25 Q1006 NOSIG=
202505090930 METAR WIHH 090930Z 19006KT 7000 SCT020 32/24 Q1006 NOSIG=
202505090900 METAR WIHH 090900Z 24006KT 7000 SCT020 32/24 Q1006 NOSIG=
202505090830 METAR WIHH 090830Z 25006KT 7000 SCT018 33/24 Q1005 NOSIG=
202505090800 METAR WIHH 090800Z 28008KT 7000 SCT018 32/25 Q1006 NOSIG=
202505090730 METAR WIHH 090730Z 24011KT 7000 SCT018 33/25 Q1006 NOSIG=
202505090700 METAR WIHH 090700Z 26010KT 7000 SCT018 33/23 Q1006 NOSIG=
202505090630 METAR WIHH 090630Z 24010KT 7000 SCT018 33/24 Q1007 NOSIG=
202505090600 METAR WIHH 090600Z 28009KT 7000 SCT018 33/24 Q1008 NOSIG=
202505090530 METAR WIHH 090530Z 26010KT 7000 SCT020 33/24 Q1008 NOSIG=
202505090500 METAR WIHH 090500Z 23010KT 7000 FEW020 32/25 Q1009 NOSIG=
202505090430 METAR WIHH 090430Z 30007KT 7000 FEW020 32/24 Q1009 NOSIG=
202505090400 METAR WIHH 090400Z 33008KT 6000 FEW020 32/25 Q1010 NOSIG=
202505090330 METAR WIHH 090330Z 22010KT 6000 FEW020 31/25 Q1010 NOSIG=
202505090300 METAR WIHH NIL=
202505090200 METAR WIHH 090200Z 23009KT 5000 HZ FEW020 29/24 Q1011 NOSIG=
202505090130 METAR WIHH 090130Z 24008KT 5000 HZ FEW020 28/24 Q1011 NOSIG=
202505090100 METAR WIHH 090100Z 24005KT 5000 HZ FEW020 28/24 Q1010 NOSIG DUPE=
202505090000 METAR WIHH 090000Z 25003KT 6000 FEW020 26/24 Q1009 NOSIG=
202505082300 METAR WIHH 082300Z 22003KT 6000 FEW020 25/24 Q1009 NOSIG=
202505082230 METAR WIHH 082230Z 23003KT 6000 FEW020 25/23 Q1008 NOSIG=
202505082200 METAR WIHH 082200Z 21003KT 6000 FEW020 25/23 Q1008 NOSIG=
202505082130 METAR WIHH NIL=
202505082100 METAR WIHH 082100Z 00000KT 5000 HZ FEW020 26/23 Q1008 NOSIG=
202505082030 METAR WIHH NIL=
202505082000 METAR WIHH NIL=
202505081930 METAR WIHH NIL=
202505081900 METAR WIHH NIL=
202505081830 METAR WIHH NIL=
202505081800 METAR WIHH NIL=
202505081730 METAR WIHH NIL=
202505081700 METAR WIHH 081700Z 00000KT 6000 SCT018 26/24 Q1010 NOSIG=
202505081630 METAR WIHH NIL=
202505081600 METAR WIHH 081600Z 20003KT 6000 SCT018 26/24 Q1010 NOSIG=
202505081530 METAR WIHH 081530Z 23004KT 5000 HZ SCT018 26/24 Q1010 RMK RA TO SW=
202505081500 METAR WIHH 081500Z 23004KT 5000 HZ SCT018 26/24 Q1010 RMK RA TO SW=
202505081430 METAR WIHH 081430Z 20005KT 5000 HZ SCT018 27/24 Q1010 RMK RA TO SW=
202505081400 METAR WIHH 081400Z 23003KT 6000 SCT018 27/24 Q1009 RMK RA TO NW=
202505081330 METAR WIHH NIL=
202505081300 METAR WIHH 081300Z 19004KT 6000 SCT018 28/25 Q1008 RMK RA TO S=
202505081230 METAR WIHH 081230Z 14003KT 6000 FEW017CB SCT018 27/24 Q1007 RMK CB AND RA TO S=
202505081200 METAR WIHH NIL=
202505081130 METAR WIHH 081130Z 20003KT 5000 FEW017CB BKN018 28/24 Q1007 TEMPO FM1140 3000 -TSRA RMK CB AND RA TO SE-SW=
202505081100 METAR WIHH 081100Z 30003KT 4000 -TS FEW017CB SCT018 30/25 Q1006 TEMPO FM1120 3000 -TSRA RMK CB AND RA TO SE-SW=
202505081030 METAR WIHH 081030Z 33006KT 4000 -TS FEW017CB SCT018 30/25 Q1006 TEMPO RMK CB AND RA TO SE-SW=
202505081000 METAR WIHH NIL=
202505080930 METAR WIHH 080930Z 04007KT 6000 FEW017CB SCT020 32/25 Q1004 RMK CB AND RA TO SW=
202505080900 METAR WIHH 080900Z 04007KT 6000 FEW017CB SCT020 32/25 Q1004 RMK CB AND RA TO SW=
202505080830 METAR WIHH 080830Z 05007KT 6000 FEW017CB SCT020 33/24 Q1004 RMK CB AND RA TO S=
202505080800 METAR WIHH NIL=
202505080730 METAR WIHH 080730Z 03009KT 6000 SCT020 33/24 Q1004 RMK RA TO SW=
202505080700 METAR WIHH 080700Z 02009KT 6000 SCT020 33/24 Q1005 RMK RA TO SW=
202505080630 METAR WIHH 080630Z 01008KT 6000 SCT020 33/24 Q1005 NOSIG=
202505080600 METAR WIHH 080600Z 04010KT 6000 SCT020 33/23 Q1006 NOSIG=
202505080530 METAR WIHH 080530Z 09006KT 6000 SCT020 34/24 Q1006 NOSIG=
202505080500 METAR WIHH NIL=
202505080400 METAR WIHH NIL=
202505080300 METAR WIHH NIL=
202505080230 METAR WIHH NIL=
202505080200 METAR WIHH NIL=
202505080100 METAR WIHH NIL=
202505080000 METAR WIHH NIL=
202505072300 METAR WIHH 072300Z 15003KT 4000 HZ FEW020 25/24 Q1007 NOSIG=
202505072230 METAR WIHH 072230Z 00000KT 4000 HZ FEW020 25/24 Q1007 NOSIG=
202505072200 METAR WIHH 072200Z 00000KT 3000 BR FEW020 25/24 Q1006 NOSIG=
202505072130 METAR WIHH 072130Z 00000KT 3000 BR FEW020 25/24 Q1006 NOSIG=
202505072100 METAR WIHH NIL=
202505072000 METAR WIHH NIL=
202505071930 METAR WIHH NIL=
202505071900 METAR WIHH NIL=
202505071830 METAR WIHH NIL=
202505071800 METAR WIHH NIL=
202505071730 METAR WIHH NIL=
202505071700 METAR WIHH NIL=
202505071630 METAR WIHH NIL=
202505071600 METAR WIHH NIL=
202505071530 METAR WIHH NIL=
202505071500 METAR WIHH NIL=
202505071400 METAR WIHH NIL=
202505071300 METAR WIHH NIL=
202505071200 METAR WIHH NIL=
202505071100 METAR WIHH NIL=
202505071000 METAR WIHH NIL=
202505070900 METAR WIHH NIL=
202505070800 METAR WIHH NIL=
202505070700 METAR WIHH NIL=
202505070630 METAR WIHH NIL=
202505070600 METAR WIHH 070600Z 26007KT 2000 TSRA BKN014 FEW017CB 29/25 Q1006 RMK CB TO SE-W=
202505070530 METAR WIHH NIL=
202505070500 METAR WIHH 070500Z 05009KT 6000 SCT018 FEW020CB 32/24 Q1007 RMK CB TO NW AND RA TO SE AND NW=
202505070400 METAR WIHH NIL=
202505070300 METAR WIHH NIL=
202505070200 METAR WIHH NIL=
202505070130 METAR WIHH 070130Z 11003KT 4000 HZ NSC 30/24 Q1009 NOSIG=
202505070100 METAR WIHH NIL=
202505070030 METAR WIHH 070030Z 17003KT 4000 HZ FEW020 27/25 Q1008 NOSIG=
202505070000 METAR WIHH NIL=
202505062330 METAR WIHH NIL=
202505062300 METAR WIHH 062300Z 00000KT 3000 BR FEW020 25/25 Q1007 NOSIG=
202505062230 METAR WIHH NIL=
202505062200 METAR WIHH 062200Z 00000KT 3000 BR FEW020 25/25 Q1007 NOSIG=
202505062130 METAR WIHH 062130Z 00000KT 3000 BR FEW020 25/25 Q1007 NOSIG=
202505062100 METAR WIHH NIL=
202505062030 METAR WIHH NIL=
202505062000 METAR WIHH NIL=
202505061900 METAR WIHH NIL=
202505061830 METAR WIHH NIL=
202505061800 METAR WIHH NIL=
202505061730 METAR WIHH NIL=
202505061700 METAR WIHH 061700Z 00000KT 7000 SCT018 25/24 Q1009 NOSIG=
202505061630 METAR WIHH 061630Z 00000KT 7000 SCT018 25/24 Q1009 NOSIG=
202505061600 METAR WIHH 061600Z 00000KT 7000 SCT018 25/24 Q1009 NOSIG=
202505061530 METAR WIHH 061530Z 25003KT 7000 SCT018 25/24 Q1009 NOSIG=
202505061500 METAR WIHH NIL=
202505061430 METAR WIHH 061430Z 20003KT 7000 SCT018 25/24 Q1009 NOSIG=
202505061400 METAR WIHH 061400Z 22003KT 7000 SCT018 25/24 Q1009 NOSIG=
202505061300 METAR WIHH NIL=
202505061200 METAR WIHH NIL=
202505061100 METAR WIHH NIL=
202505061000 METAR WIHH NIL=
202505060900 METAR WIHH 060900Z 01015KT 5000 TS FEW017CB SCT018 33/24 Q1006 TEMPO FM0920 3000 -TSRA RMK CB AND RA TO S-SW=
202505060830 METAR WIHH 060830Z 06010KT 6000 FEW017CB SCT018 33/24 Q1006 RMK CB AND RA TO S-SW=
202505060800 METAR WIHH 060800Z 04010KT 6000 FEW017CB SCT018 34/24 Q1005 RMK CB AND RA TO SW-W=
202505060730 METAR WIHH NIL=
202505060700 METAR WIHH NIL=
202505060630 METAR WIHH 060630Z 07015KT 6000 SCT018 34/24 Q1006 NOSIG=
202505060600 METAR WIHH 060600Z 05015KT 5000 HZ SCT018 34/24 Q1007 NOSIG=
202505060500 METAR WIHH NIL=
202505060430 METAR WIHH 060430Z 08004KT 5000 HZ SCT020 33/23 Q1009 NOSIG=
202505060400 METAR WIHH NIL=
202505060300 METAR WIHH 060300Z 07005KT 6000 FEW020 32/23 Q1010 NOSIG=
202505060230 METAR WIHH 060230Z 13003KT 6000 FEW020 31/24 Q1010 NOSIG=
202505060200 METAR WIHH 060200Z 14003KT 6000 NSC 30/24 Q1010 NOSIG=
202505060100 METAR WIHH NIL=
202505060000 METAR WIHH NIL=
202505052300 METAR WIHH 052300Z 16003KT 5000 HZ FEW020 25/24 Q1009 NOSIG=
202505052230 METAR WIHH 052230Z 00000KT 5000 HZ FEW020 25/24 Q1009 NOSIG=
202505052200 METAR WIHH 052200Z 00000KT 6000 FEW020 25/24 Q1008 NOSIG=
202505052130 METAR WIHH NIL=
202505052100 METAR WIHH NIL=
202505052030 METAR WIHH NIL=
202505052000 METAR WIHH NIL=
202505051930 METAR WIHH NIL=
202505051900 METAR WIHH NIL=
202505051830 METAR WIHH NIL=
202505051800 METAR WIHH NIL=
202505051730 METAR WIHH NIL=
202505051700 METAR WIHH 051700Z 00000KT 7000 FEW020 26/24 Q1010 NOSIG=
202505051630 METAR WIHH 051630Z 22003KT 7000 FEW020 26/24 Q1010 NOSIG=
202505051600 METAR WIHH 051600Z 27004KT 7000 FEW020 26/24 Q1011 NOSIG=
202505051530 METAR WIHH 051530Z 25003KT 7000 FEW020 26/24 Q1010 NOSIG=
202505051500 METAR WIHH 051500Z 00000KT 7000 FEW020 26/24 Q1011 NOSIG=
202505051430 METAR WIHH NIL=
202505051400 METAR WIHH 051400Z 18004KT 7000 SCT018 27/24 Q1010 NOSIG=
202505051330 METAR WIHH 051330Z 27003KT 7000 FEW017CB SCT018 27/24 Q1010 RMK CB TO S=
202505051300 METAR WIHH NIL=
202505051230 METAR WIHH 051230Z 23006KT 7000 SCT018 27/24 Q1008 RMK RA TO NW=
202505051200 METAR WIHH 051200Z 24006KT 6000 SCT018 27/23 Q1008 NOSIG=
202505051130 METAR WIHH 051130Z 24006KT 6000 FEW017CB 27/24 Q1008 RMK CB AND RA TO W=
202505051100 METAR WIHH NIL=
202505051030 METAR WIHH 051030Z 00000KT 6000 FEW017CB SCT018 28/26 Q1007 NOSIG=
202505051000 METAR WIHH 051000Z 00000KT 6000 TS FEW017CB SCT018 28/26 Q1006 RMK CB AND RA TO W=
202505050930 METAR WIHH 050930Z 24003KT 6000 FEW017CB SCT018 28/25 Q1006 RMK CB AND RA TO SW=
202505050900 METAR WIHH 050900Z 10010KT 3000 -TSRA FEW017CB SCT018 32/24 Q1005 RMK CB TO S=
202505050830 METAR WIHH 050830Z 36007KT 7000 -TS FEW017CB SCT020 33/24 Q1005 RMK CB AND RA TO SE=
202505050800 METAR WIHH 050800Z 07007KT 7000 SCT020 34/23 Q1005 NOSIG=
202505050700 METAR WIHH 050700Z 07007KT 7000 SCT020 34/22 Q1006 NOSIG=
202505050630 METAR WIHH 050630Z 06008KT 7000 SCT020 34/21 Q1007 NOSIG=
202505050600 METAR WIHH 050600Z 03010KT 7000 SCT020 34/21 Q1007 NOSIG=
202505050500 METAR WIHH 050500Z 07008KT 7000 SCT020 34/22 Q1008 NOSIG=
202505050430 METAR WIHH 050430Z 11008KT 7000 FEW020 34/22 Q1009 NOSIG=
202505050400 METAR WIHH NIL=
202505050330 METAR WIHH 050330Z 09007KT 6000 FEW020 32/22 Q1010 NOSIG=
202505050300 METAR WIHH 050300Z 10010KT 6000 NSC 32/22 Q1010 NOSIG=
202505050230 METAR WIHH 050230Z 10007KT 5000 HZ NCD 31/23 Q1011 NOSIG=
202505050200 METAR WIHH NIL=
202505050130 METAR WIHH 050130Z 11005KT 4000 HZ NSC 29/24 Q1011 NOSIG=
202505050100 METAR WIHH 050100Z 18003KT 4000 HZ NSC 28/25 Q1010 NOSIG=
202505050030 METAR WIHH NIL=
202505050000 METAR WIHH 050000Z 18003KT 3000 BR FEW020 26/25 Q1010 NOSIG=
202505042330 METAR WIHH 042330Z 15003KT 3000 BR FEW020 25/25 Q1010 NOSIG=
202505042300 METAR WIHH 042300Z 21003KT 3000 BR FEW020 25/25 Q1009 NOSIG=
202505042200 METAR WIHH 042200Z 00000KT 4000 FEW020 25/25 Q1009 NOSIG=
202505042130 METAR WIHH 042130Z 24005KT 5000 HZ SCT020 25/25 Q1008 NOSIG=
202505042100 METAR WIHH NIL=
202505042000 METAR WIHH NIL=
202505041930 METAR WIHH NIL=
202505041900 METAR WIHH NIL=
202505041800 METAR WIHH NIL=
202505041700 METAR WIHH NIL=
202505041630 METAR WIHH 041630Z 16003KT 6000 SCT020 27/25 Q1009 NOSIG=
202505041600 METAR WIHH 041600Z 18003KT 6000 SCT020 27/25 Q1009 NOSIG=
202505041530 METAR WIHH NIL=
202505041500 METAR WIHH 041500Z 18003KT 6000 SCT020 27/25 Q1009 NOSIG=
202505041430 METAR WIHH NIL=
202505041400 METAR WIHH 041400Z 21004KT 6000 SCT020 27/25 Q1009 NOSIG=
202505041330 METAR WIHH 041330Z 18004KT 6000 SCT020 27/25 Q1009 NOSIG=
202505041300 METAR WIHH NIL=
202505041230 METAR WIHH 041230Z 14004KT 7000 SCT018 28/24 Q1008 NOSIG=
202505041200 METAR WIHH 041200Z 27004KT 7000 SCT018 27/24 Q1008 NOSIG=
202505041130 METAR WIHH NIL=
202505041100 METAR WIHH 041100Z 18005KT 6000 SCT018 28/23 Q1007 RMK RA TO E AND S=
202505041030 METAR WIHH 041030Z 25008KT 6000 SCT018 FEW020CB 28/24 Q1007 RMK CB TO S AND RA TO S-W=
202505041000 METAR WIHH NIL=
202505040930 METAR WIHH 040930Z 05008KT 6000 SCT019 FEW020CB 31/24 Q1006 RMK CB AND RA TO SW-W=
202505040900 METAR WIHH 040900Z 03011KT 7000 SCT019 FEW020CB 32/24 Q1005 RMK CB AND RA TO SW-S=
202505040830 METAR WIHH 040830Z 04012KT 7000 SCT020 33/24 Q1005 RMK RA TO SW=
202505040800 METAR WIHH 040800Z 05008KT 7000 SCT020 33/23 Q1006 NOSIG RMK RA TO SW=
202505040730 METAR WIHH 040730Z 03007KT 7000 SCT020 32/23 Q1006 NOSIG=
202505040700 METAR WIHH NIL=
202505040630 METAR WIHH 040630Z 09009KT 7000 SCT020 31/24 Q1007 NOSIG=
202505040600 METAR WIHH NIL=
202505040500 METAR WIHH 040500Z 09004KT 7000 SCT020 30/24 Q1008 NOSIG=
202505040430 METAR WIHH NIL=
202505040400 METAR WIHH 040400Z 15006KT 7000 SCT020 29/24 Q1009 NOSIG=
202505040330 METAR WIHH 040330Z 11005KT 7000 SCT020 29/24 Q1009 NOSIG=
202505040300 METAR WIHH NIL=
202505040230 METAR WIHH 040230Z 11007KT 6000 SCT018 27/24 Q1010 RMK RA TO SW=
202505040200 METAR WIHH 040200Z 15006KT 6000 SCT018 26/24 Q1010 RMK RA TO S=
202505040100 METAR WIHH 040100Z 15005KT 6000 SCT018 25/23 Q1009 TEMPO FM0130 4000 -RA BKN015 RMK RA TO S=
202505040030 METAR WIHH 040030Z 17006KT 6000 SCT018 25/23 Q1010 TEMPO FM0100 4000 -RA BKN015 RMK RA TO S=
202505040000 METAR WIHH 040000Z 14008KT 6000 SSCT018 25/23 Q1009 RMK RA TO S=
202505032330 METAR WIHH 032330Z 13003KT 3000 HZ SCT018 26/25 Q1009 RMK RA TO S=
202505032300 METAR WIHH 032300Z 12006KT 3000 TS FEW016CB BKN017 26/25 Q1008 RMK CB AND RA TO S=
202505032230 METAR WIHH 032230Z 14004KT 4000 TS FEW017CB SCT018 26/25 Q1008 RMK CB AND RA TO E=
202505032200 METAR WIHH 032200Z 10004KT 4000 HZ SCT018 26/25 Q1007 RMK RA TO E=
202505032130 METAR WIHH NIL=
202505032100 METAR WIHH NIL=
202505032030 METAR WIHH NIL=
202505032000 METAR WIHH NIL=
202505031930 METAR WIHH NIL=
202505031900 METAR WIHH NIL=
202505031830 METAR WIHH NIL=
202505031800 METAR WIHH NIL=
202505031730 METAR WIHH NIL=
202505031700 METAR WIHH 031700Z 00000KT 6000 SCT018 26/25 Q1009 NOSIG=
202505031630 METAR WIHH 031630Z 00000KT 6000 SCT018 26/25 Q1009 NOSIG=
202505031600 METAR WIHH NIL=
202505031530 METAR WIHH 031530Z 16003KT 6000 SCT018 26/25 Q1009 NOSIG=
202505031500 METAR WIHH 031500Z 18003KT 6000 SCT018 26/25 Q1009 NOSIG=
202505031430 METAR WIHH NIL=
202505031400 METAR WIHH 031400Z 18003KT 6000 SCT018 26/25 Q1009 RMK RA TO S=
202505031330 METAR WIHH 031330Z 11004KT 5000 -RA SCT018 26/25 Q1009=
202505031300 METAR WIHH 031300Z 14004KT 5000 -RA SCT018 25/24 Q1008=
202505031230 METAR WIHH NIL=
202505031200 METAR WIHH 031200Z 12004KT 5000 -RA FEW016CB SCT017 25/24 Q1007 TEMPO TL1300 4000 -RA RMK CB TO E=
202505031130 METAR WIHH 031130Z 06005KT 5000 -TSRA FEW016CB SCT017 25/24 Q1007 TEMPO TL1230 4000 -RA RMK CB TO NE=
202505031100 METAR WIHH 031100Z 06005KT 5000 -TSRA FEW016CB SCT017 25/24 Q1007 TEMPO TL1130 5000 -TSRA RMK CB TO NE=
202505031030 METAR WIHH 031030Z 23008KT 5000 -TSRA FEW016CB SCT017 25/24 Q1007 TEMPO TL1100 5000 -TSRA RMK CB OTF=
202505031000 METAR WIHH 031000Z 22010KT 3000 -TSRA BKN015 FEW016CB 26/24 Q1006 TEMPO TL1030 3000 -TSRA RMK CB OTF=
202505030930 METAR WIHH 030930Z 24012KT 3000 -TSRA BKN015 FEW016CB 25/24 Q1006 TEMPO TL1000 3000 -TSRA RMK CB OTF=
202505030900 METAR WIHH 030900Z 18012KT 3000 -TSRA BKN015 FEW016CB 26/24 Q1006 TEMPO TL0930 3000 -TSRA RMK CB OTF=
202505030830 METAR WIHH NIL=
202505030800 METAR WIHH 030800Z 35012KT 3000 TSRA BKN015 FEW016CB 31/26 Q1005 TEMPO FM0820 1000 TSRA RMK CB TO SW-S=
202505030730 METAR WIHH 030730Z 03014KT 5000 TS FEW017CB SCT018 32/25 Q1005 TEMPO FM0740 2000 TSRA BKN015 FEW016CB RMK CB AND RA TO SE-W=
202505030700 METAR WIHH 030700Z 03012KT 6000 SCT018 33/25 Q1005 TEMPO FM0730 4000 -RA RMK RA TO W=
202505030630 METAR WIHH NIL=
202505030600 METAR WIHH 030600Z 04012KT 6000 SCT018 34/24 Q1006 NOSIG=
202505030530 METAR WIHH 030530Z 05007KT 7000 SCT018 34/24 Q1006 NOSIG=
202505030500 METAR WIHH 030500Z 03006KT 7000 SCT018 34/22 Q1007 NOSIG=
202505030430 METAR WIHH 030430Z 02006KT 7000 SCT020 33/22 Q1007 NOSIG=
202505030400 METAR WIHH 030400Z 10004KT 7000 FEW020 33/23 Q1008 NOSIG=
202505030330 METAR WIHH 030330Z 02005KT 6000 FEW020 32/23 Q1008 NOSIG=
202505030300 METAR WIHH 030300Z 06003KT 6000 FEW020 32/23 Q1008 NOSIG=
202505030200 METAR WIHH 030200Z 12003KT 6000 FEW020 30/24 Q1009 NOSIG=
202505030130 METAR WIHH 030130Z 18003KT 5000 HZ FEW020 29/24 Q1009 NOSIG=
202505030100 METAR WIHH NIL=
202505030030 METAR WIHH 030030Z 13003KT 4000 HZ FEW020 25/24 Q1009 NOSIG=
202505030000 METAR WIHH 030000Z 00000KT 4000 HZ FEW020 25/24 Q1009 NOSIG=
202505022330 METAR WIHH 022330Z 00000KT 4000 HZ FEW020 25/24 Q1009 NOSIG=
202505022300 METAR WIHH 022300Z 00000KT 4000 HZ FEW020 25/24 Q1009 NOSIG=
202505022230 METAR WIHH 022230Z 00000KT 4000 HZ 25/24 Q1009 NOSIG=
202505022200 METAR WIHH 022200Z 00000KT 4000 HZ FEW018 25/24 Q1008 NOSIG=
202505022130 METAR WIHH 022130Z 00000KT 4000 HZ FEW018 25/24 Q1008 NOSIG=
202505022100 METAR WIHH NIL=
202505022030 METAR WIHH NIL=
202505022000 METAR WIHH NIL=
202505021900 METAR WIHH NIL=
202505021830 METAR WIHH NIL=
202505021800 METAR WIHH NIL=
202505021730 METAR WIHH NIL=
202505021700 METAR WIHH NIL=
202505021630 METAR WIHH NIL=
202505021600 METAR WIHH 021600Z 07003KT 6000 SCT018 25/23 Q1009 RMK RA TO E=
202505021530 METAR WIHH 021530Z 07005KT 6000 SCT018 25/23 Q1009 RMK RA TO E=
202505021500 METAR WIHH 021500Z 10007KT 6000 SCT018 25/23 Q1010 RMK RA TO E=
202505021400 METAR WIHH NIL=
202505021330 METAR WIHH NIL=
202505021300 METAR WIHH NIL=
202505021200 METAR WIHH NIL=
202505021100 METAR WIHH NIL=
202505021000 METAR WIHH NIL=
202505020900 METAR WIHH NIL=
202505020800 METAR WIHH NIL=
202505020700 METAR WIHH NIL=
202505020600 METAR WIHH NIL=
202505020530 METAR WIHH 020530Z 27003KT 5000 HZ SCT018 32/24 Q1008 NOSIG=
202505020500 METAR WIHH NIL=
202505020400 METAR WIHH NIL=
202505020300 METAR WIHH NIL=
202505020200 METAR WIHH NIL=
202505020100 METAR WIHH 020100Z 24003KT 4000 HZ FEW020 28/25 Q1010 NOSIG=
202505020030 METAR WIHH NIL=
202505020000 METAR WIHH NIL=
202505012300 METAR WIHH NIL=
202505012230 METAR WIHH 012230Z 27003KT 5000 HZ SCT018 26/24 Q1009 NOSIG=
202505012200 METAR WIHH NIL=
202505012130 METAR WIHH NIL=
202505012100 METAR WIHH NIL=
202505012030 METAR WIHH NIL=
202505012000 METAR WIHH NIL=
202505011930 METAR WIHH NIL=
202505011900 METAR WIHH NIL=
202505011830 METAR WIHH NIL=
202505011800 METAR WIHH 011800Z 00000KT 7000 SCT018 27/25 Q1009 NOSIG=
202505011730 METAR WIHH 011730Z 00000KT 7000 SCT018 28/25 Q1010 RMK RA TO NW=
202505011700 METAR WIHH 011700Z 19005KT 7000 SCT018 28/25 Q1010 RMK RA TO NW=
202505011630 METAR WIHH NIL=
202505011600 METAR WIHH 011600Z 00000KT 7000 SCT018 28/24 Q1010 RMK RA TO NW=
202505011530 METAR WIHH 011530Z 19005KT 7000 SCT018 28/24 Q1010 RMK RA TO NW=
202505011500 METAR WIHH NIL=
202505011430 METAR WIHH 011430Z 14006KT 7000 SCT018 28/24 Q1010 RMK RA TO NW=
202505011400 METAR WIHH 011400Z 13006KT 7000 SCT018 28/24 Q1010 RMK RA TO S-SW=
202505011300 METAR WIHH NIL=
202505011230 METAR WIHH 011230Z 36005KT 7000 SCT020 30/24 Q1009 RMK RA TO SW=
202505011200 METAR WIHH NIL=
202505011100 METAR WIHH NIL=
202505011000 METAR WIHH NIL=
202505010930 METAR WIHH NIL=
202505010900 METAR WIHH NIL=
202505010800 METAR WIHH NIL=
202505010730 METAR WIHH NIL=
202505010700 METAR WIHH NIL=
202505010600 METAR WIHH NIL=
202505010530 METAR WIHH 010530Z 34005KT 6000 SCT020 35/23 Q1008 NOSIG=
202505010500 METAR WIHH NIL=
202505010400 METAR WIHH NIL=
202505010300 METAR WIHH 010300Z 11005KT 6000 SCT020 31/23 Q1010 NOSIG=
202505010230 METAR WIHH 010230Z 02005KT 5000 HZ FEW020 31/23 Q1011 NOSIG=
202505010200 METAR WIHH NIL=
202505010130 METAR WIHH 010130Z 17005KT 4000 HZ NSC 29/24 Q1010 NOSIG=
202505010100 METAR WIHH NIL=
202505010030 METAR WIHH 010030Z 00000KT 4000 HZ NSC 27/24 Q1010 NOSIG=
202505010000 METAR WIHH NIL=

# No short TAF reports from WIHH in databse.

###################################
#  large TAF from WIHH
###################################
202505312300 TAF WIHH 312300Z 0100/0200 10008KT 5000 HZ FEW020
                      BECMG 0102/0104 7000 SCT020
                      TEMPO 0109/0112 04014KT 4000 -RA SCT016 FEW017CB
                       BECMG 0113/0115 15003KT=
202505311700 TAF WIHH 311700Z 3118/0118 21003KT 5000 HZ FEW020
                      BECMG 0101/0103 07009KT 7000 SCT018=
202505311100 TAF WIHH 311100Z 3112/0112 14007KT 5000 HZ SCT018
                      BECMG 3121/3123 00000KT 3000 BR FEW020=
202505310500 TAF WIHH 310500Z 3106/0106 32010KT 7000 SCT020
                      TEMPO 3109/3113 27014KT 3000 -TSRA BKN016
                       FEW017CB
                      BECMG 3114/3116 16005KT=
202505302300 TAF WIHH 302300Z 3100/0100 12008KT 7000 SCT020
                      BECMG 3100/3102 5000 HZ FEW020
                      TEMPO 3112/3115 03010KT 4000 -RA FEW016CB
                       BKN018=
202505301700 TAF WIHH 301700Z 3018/3118 12005KT 8000 SCT020
                      TEMPO 3108/3111 03010KT 4000 -RA FEW016CB=
202505301100 TAF WIHH 301100Z 3012/3112 03006KT 6000 SCT020
                      TEMPO 3013/3016 27012KT 3000 -RA FEW016CB
                       BECMG 3018/3020 VRB02KT 5000 HZ FEW022=
202505300500 TAF WIHH 300500Z 3006/3106 04006KT 6000 SCT020
                      TEMPO 3010/3013 27010KT 3000 -TSRA FEW016CB
                       BKN018=
202505292300 TAF WIHH 292300Z 3000/3100 15006KT 7000 FEW020
                      TEMPO 3012/3015 24012KT 4000 -RA SCT017=
202505291700 TAF WIHH 291700Z 2918/3018 12005KT 6000 SCT018
                      TEMPO 2918/2920 3000 -RA FEW017CB
                      BECMG 2921/2923 4000 BR=
202505291100 TAF WIHH 291100Z 2912/3012 09006KT 6000 SCT018
                      TEMPO 2912/2914 3000 -RA FEW017CB=
202505290700 TAF AMD WIHH 290700Z 2907/3006 15006KT 6000 SCT018
                      TEMPO 2907/2910 09014KT 3000 -TSRA BKN016
                       FEW017CB
                      BECMG 2911/2913 5000 HZ=
202505290500 TAF WIHH 290500Z 2906/3006 15006KT 6000 SCT018=
202505282300 TAF WIHH 282300Z 2900/3000 21006KT 6000 FEW020
                      BECMG 2904/2906 34010KT SCT018
                      TEMPO 2913/2916 15012KT 4000 -TSRA BKN016
                       FEW017CB=
202505281700 TAF WIHH 281700Z 2818/2918 16003KT 6000 SCT020
                      BECMG 2821/2823 23004KT 4000 HZ FEW020=
202505281100 TAF WIHH 281100Z 2812/2912 15005KT 6000 SCT020
                      BECMG 2816/2818 00000KT 5000 HZ FEW020=
202505280500 TAF WIHH 280500Z 2806/2906 27012KT 7000 SCT018
                      TEMPO 2808/2810 32010KT 4000 -RA
                      BECMG 2812/2814 14005KT FEW022=
202505272300 TAF WIHH 272300Z 2800/2900 21008KT 7000 FEW020
                      BECMG 2805/2807 27015KT=
202505271700 TAF WIHH 271700Z 2718/2818 27006KT 8000 FEW020
                      BECMG 2804/2806 21012KT=
202505271100 TAF WIHH 271100Z 2712/2812 24008KT 7000 SCT020=
202505270500 TAF WIHH 270500Z 2706/2806 27010KT 7000 SCT018
                      BECMG 2707/2709 21015KT=
202505262300 TAF WIHH 262300Z 2700/2800 27006KT 6000 SCT018
                      TEMPO 2706/2709 32010KT 3000 -TSRA FEW016CB
                       BKN018
                      BECMG 2711/2713 20005KT 5000 HZ FEW020=
202505261700 TAF WIHH 261700Z 2618/2718 27006KT 6000 SCT018
                      BECMG 2621/2623 21005KT 5000 HZ FEW020
                      TEMPO 2704/2707 32010KT 3000 -RA FEW016CB
                       BKN018=
202505261100 TAF WIHH 261100Z 2612/2712 27006KT 6000 SCT018
                      BECMG 2620/2622 21005KT 5000 HZ FEW020=
202505260500 TAF WIHH 260500Z 2606/2706 27008KT 6000 SCT020
                      TEMPO 2606/2609 03010KT 3000 -RA FEW017CB
                       BKN018
                      BECMG 2611/2613 21005KT 5000 HZ FEW022=
202505252300 TAF WIHH 252300Z 2600/2700 26010KT 5000 HZ SCT018
                      TEMPO 2602/2604 4000 -RA
                      TEMPO 2606/2609 30012KT 3000 -TSRA BKN016
                       FEW018
                      BECMG 2611/2613 22005KT 6000 FEW020=
202505251700 TAF WIHH 251700Z 2518/2618 22003KT 6000 FEW022
                      BECMG 2521/2523 00000KT 4000 HZ SCT020=
202505251100 TAF WIHH 251100Z 2512/2612 26008KT 7000 FEW020
                      BECMG 2517/2519 00000KT 5000 HZ SCT020=
202505250500 TAF WIHH 250500Z 2506/2606 31012KT 5000 HZ SCT018
                      TEMPO 2506/2510 3000 -TSRA BKN016 FEW017CB
                       BECMG 2512/2514 23006KT=
202505242300 TAF WIHH 242300Z 2500/2600 03006KT 7000 SCT018
                      TEMPO 2508/2511 30015KT 3000 -TSRA BKN016
                       FEW017CB
                      BECMG 2513/2515 5000 HZ
                      TEMPO 2519/2522 4000 -RA BKN017=
202505241700 TAF WIHH 241700Z 2418/2518 24005KT 7000 SCT018
                      TEMPO 2423/2501 5000 HZ
                      TEMPO 2506/2509 32014KT 3000 -TSRA FEW017CB
                       BKN018=
202505241100 TAF WIHH 241100Z 2412/2512 27006KT 7000 SCT018=
202505240500 TAF WIHH 240500Z 2406/2506 24008KT 7000 SCT018
                      TEMPO 2407/2411 34015KT 3000 -TSRA BKN015
                       FEW017CB
                      BECMG 2413/2415 5000 HZ=
202505232300 TAF WIHH 232300Z 2400/2500 27008KT 7000 SCT020
                      BECMG 2400/2402 5000 HZ FEW020
                      TEMPO 2407/2411 35012KT 3000 -TSRA FEW015CB
                       BKN017
                      TEMPO 2315/2318 16006KT 4000 -RA BKN016=
202505231700 TAF WIHH 231700Z 2318/2418 14005KT 7000 FEW020
                      BECMG 2321/2323 27005KT 5000 HZ SCT018
                      TEMPO 2408/2411 35012KT 3000 -TSRA FEW015CB
                       BKN017=
202505231100 TAF WIHH 231100Z 2312/2412 15006KT 7000 SCT020
                      BECMG 2318/2320 27005KT 5000 HZ FEW022=
202505230500 TAF WIHH 230500Z 2306/2406 27006KT 6000 SCT020
                      TEMPO 2309/2312 03013KT 3000 -TSRA FEW017CB
                       BKN018
                      BECMG 2314/2316 15005KT 5000 HZ FEW022=
202505222300 TAF WIHH 222300Z 2300/2400 25006KT 5000 HZ SCT018
                      TEMPO 2300/2302 4000 -RA
                      TEMPO 2307/2311 15012KT 3000 -TSRA BKN016
                       FEW017CB=
202505221700 TAF WIHH 221700Z 2218/2318 21004KT 6000 FEW022
                      BECMG 2221/2223 00000KT 4000 HZ SCT018=
202505221100 TAF WIHH 221100Z 2212/2312 14007KT 6000 SCT018
                      TEMPO 2212/2214 4000 -RA FEW017CB
                      BECMG 2216/2218 22004KT 5000 HZ=
202505220500 TAF WIHH 220500Z 2206/2306 02010KT 6000 SCT018
                      TEMPO 2208/2212 26014KT 4000 -TSRA BKN016
                       FEW018CB
                      BECMG 2214/2216 16007KT 5000 HZ=
202505212300 TAF WIHH 212300Z 2200/2300 12006KT 6000 SCT018
                      TEMPO 2203/2205 4000 -RA
                      TEMPO 2207/2210 18012G22KT 2000 TSRA BKN015
                       FEW016CB
                      BECMG 2211/2213 5000 HZ
                      TEMPO 2214/2217 27010KT 3000 -RA BKN017=
202505211700 TAF WIHH 211700Z 2118/2218 09006KT 6000 SCT018
                      TEMPO 2119/2121 4000 -RA FEW017CB
                      TEMPO 2204/2207 15015KT 3000 -TSRA BKN015
                       FEW016CB
                      BECMG 2210/2212 5000 HZ=
202505211100 TAF WIHH 211100Z 2112/2212 15006KT 6000 SCT018
                      TEMPO 2112/2115 27014KT 3000 -TSRA FEW017CB
                       BKN018
                      BECMG 2116/2118 00000KT 5000 HZ=
202505210500 TAF WIHH 210500Z 2106/2206 12006KT 6000 SCT018
                      TEMPO 2107/2111 24015KT 3000 -TSRA BKN016
                       FEW017CB
                      BECMG 2113/2115 5000 HZ=
202505202300 TAF WIHH 202300Z 2100/2200 06008KT 7000 SCT020
                      TEMPO 2107/2111 35012KT 3000 -TSRA FEW016CB
                       BKN018
                      BECMG 2113/2115 VRB02KT 5000 HZ FEW022=
202505201700 TAF WIHH 201700Z 2018/2118 06005KT 7000 FEW020
                      TEMPO 2107/2110 35010KT 3000 -TSRA FEW016CB
                       BKN018=
202505201100 TAF WIHH 201100Z 2012/2112 04006KT 8000 SCT020
                      BECMG 2018/2020 VRB02KT 5000 HZ=
202505200500 TAF WIHH 200500Z 2006/2106 12008KT 6000 SCT018
                      TEMPO 2008/2012 35013KT 3000 -TSRA FEW015CB
                       BKN017
                      BECMG 2014/2016 VRB02KT 5000 HZ FEW018=
202505192300 TAF WIHH 192300Z 2000/2100 15006KT 4000 HZ FEW020
                      BECMG 2004/2006 04008KT 6000 SCT018
                      TEMPO 2008/2012 09014KT 3000 -TSRA BKN016
                       FEW017CB=
202505191700 TAF WIHH 191700Z 1918/2018 14003KT 6000 SCT018
                      BECMG 1921/1923 00000KT 4000 HZ FEW020=
202505191100 TAF WIHH 191100Z 1912/2012 14007KT 4000 -RA SCT018
                      BECMG 1916/1918 00000KT 5000 HZ FEW020=
202505190500 TAF WIHH 190500Z 1906/2006 34008KT 7000 SCT020
                      TEMPO 1908/1912 04012KT 3000 -TSRA FEW017CB
                       BKN018
                      BECMG 1914/1916 14005KT 5000 HZ FEW020=
202505182300 TAF WIHH 182300Z 1900/2000 12008KT 7000 SCT020
                      TEMPO 1908/1912 36013KT 3000 -TSRA BKN018
                       BECMG 1914/1916 05005KT 5000 HZ FEW022=
202505181700 TAF WIHH 181700Z 1818/1918 12005KT 7000 SCT020
                      TEMPO 1818/1821 4000 -RA BKN018
                      BECMG 1823/1901 05006KT 5000 HZ FEW022=
202505181100 TAF WIHH 181100Z 1812/1912 09006KT 7000 SCT020
                      BECMG 1817/1819 18003KT 5000 HZ FEW022=
202505180500 TAF WIHH 180500Z 1806/1906 12006KT 6000 SCT020
                      TEMPO 1808/1811 35013KT 3000 -TSRA FEW017CB
                       SCT018
                      BECMG 1813/1815 18005KT 5000 HZ FEW022=
202505172300 TAF WIHH 172300Z 1800/1900 10006KT 6000 FEW020
                      TEMPO 1809/1812 04012KT 3000 -TSRA FEW017CB
                       SCT018
                      BECMG 1814/1816 12005KT 5000 HZ=
202505171700 TAF WIHH 171700Z 1718/1818 15003KT 5000 HZ FEW020
                      TEMPO 1806/1810 09013KT 4000 -TSRA SCT016
                       FEW017CB=
202505171100 TAF WIHH 171100Z 1712/1812 14007KT 4000 -RA SCT018
                      BECMG 1715/1717 00000KT 5000 HZ FEW020=
202505170500 TAF WIHH 170500Z 1706/1806 06008KT 6000 SCT018
                      TEMPO 1708/1712 18010G22KT 3000 -TSRA BKN016
                       FEW017CB
                      BECMG 1714/1716 14005KT 5000 HZ FEW020=
202505162300 TAF WIHH 162300Z 1700/1800 13006KT 6000 SCT020
                      TEMPO 1708/1712 35010G20KT 3000 -TSRA FEW017
                       BECMG 1714/1716 18005KT 5000 HZ FEW022=
202505161700 TAF WIHH 161700Z 1618/1718 18006KT 6000 SCT020
                      TEMPO 1708/1711 35010G20KT 3000 -RA FEW015
                       BKN018=
202505161100 TAF WIHH 161100Z 1612/1712 18006KT 6000 SCT020
                      TEMPO 1612/1615 4000 -RA BKN015
                      BECMG 1617/1619 12005KT 5000 HZ FEW022=
202505160500 TAF WIHH 160500Z 1606/1706 13008KT 6000 SCT020
                      TEMPO 1607/1611 04013KT 3000 -TSRA BKN016
                       FEW017CB
                      BECMG 1613/1615 19005KT 5000 HZ=
202505152300 TAF WIHH 152300Z 1600/1700 08007KT 6000 SCT020
                      TEMPO 1607/1611 34014KT 3000 -TSRA BKN016
                       FEW017CB
                      BECMG 1613/1615 15004KT 5000 HZ=
202505151700 TAF WIHH 151700Z 1518/1618 14003KT 5000 HZ FEW020
                      BECMG 1600/1602 08007KT 6000 SCT018=
202505151100 TAF WIHH 151100Z 1512/1612 21007KT 4000 -TSRA SCT017 FEW018CB
                      BECMG 1515/1517 12003KT 5000 HZ SCT020=
202505150500 TAF WIHH 150500Z 1506/1606 03010KT 7000 SCT018
                      TEMPO 1507/1511 15014KT 3000 -TSRA BKN016
                       FEW017CB
                      BECMG 1512/1514 21005KT 5000 HZ=
202505142300 TAF WIHH 142300Z 1500/1600 16006KT 6000 SCT020
                      TEMPO 1506/1510 31010KT 3000 -TSRA FEW015CB
                       BKN018
                      BECMG 1512/1514 22005KT 5000 HZ FEW022=
202505141700 TAF WIHH 141700Z 1418/1518 19006KT 6000 SCT020
                      TEMPO 1508/1511 31010KT 3000 -TSRA FEW015CB
                       BKN018=
202505141100 TAF WIHH 141100Z 1412/1512 02006KT 6000 SCT020
                      BECMG 1416/1418 12005KT 5000 HZ=
202505140600 TAF AMD WIHH 140600Z 1406/1506 12008KT 6000 SCT020
                      TEMPO 1406/1410 22010G20KT 3000 -TSRA FEW015CB
                       BKN018
                      BECMG 1412/1414 28006KT 5000 HZ=
202505140500 TAF WIHH 140500Z 1406/1506 12008KT 6000 SCT020
                      TEMPO 1407/1410 22010G20KT 3000 -TSRA FEW015CB
                       BKN018
                      BECMG 1412/1414 28006KT 5000 HZ=
202505132300 TAF WIHH 132300Z 1400/1500 23006KT 3000 BR FEW020
                      BECMG 1402/1404 7000 SCT020
                      TEMPO 1407/1411 18014KT 3000 -TSRA BKN018
                       FEW018CB=
202505131700 TAF WIHH 131700Z 1318/1418 00000KT 5000 -RA BKN017
                      BECMG 1319/1321 12003KT 4000 HZ SCT018=
202505131130 TAF COR WIHH 131130Z 1312/1412 17010KT 3000 -TSRA BKN016 FEW017CB
                       BECMG 1314/1316 12004KT 4000 HZ SCT018=
202505131100 TAF WIHH 131100Z 1312/1412 12006KT 4000 HZ SCT018
                      BECMG 1321/1323 00000KT 3000 BR=
202505130500 TAF WIHH 130500Z 1306/1406 34010KT 7000 SCT018
                      TEMPO 1308/1311 16014KT 4000 -TSRA BKN016
                       FEW017CB
                      BECMG 1313/1315 12005KT 5000 HZ=
202505122300 TAF WIHH 122300Z 1300/1400 24006KT 6000 SCT020
                      TEMPO 1306/1310 28012KT 4000 -TSRA FEW015CB
                       BKN017
                      BECMG 1312/1314 5000 HZ FEW022=
202505121700 TAF WIHH 121700Z 1218/1318 22006KT 8000 SCT020
                      BECMG 1221/1223 10005KT 5000 HZ FEW022
                      TEMPO 1307/1310 28012KT 4000 -TSRA FEW015CB
                       BKN017=
202505121100 TAF WIHH 121100Z 1212/1312 24006KT 8000 SCT020
                      BECMG 1221/1223 10005KT 5000 HZ=
202505120500 TAF WIHH 120500Z 1206/1306 19008KT 7000 SCT020
                      TEMPO 1208/1211 27013KT 3000 -TSRA FEW016CB
                       BKN018
                      BECMG 1213/1215 10005KT 5000 HZ=
202505112300 TAF WIHH 112300Z 1200/1300 15006KT 6000 SCT020
                      TEMPO 1207/1211 24012G23KT 2000 TSRA BKN015
                       FEW016CB
                      BECMG 1213/1215 5000 HZ=
202505111700 TAF WIHH 111700Z 1118/1218 21005KT 6000 SCT018
                      TEMPO 1207/1210 30015KT 3000 -TSRA BKN016
                       FEW017CB=
202505111100 TAF WIHH 111100Z 1112/1212 24006KT 6000 SCT018
                      BECMG 1117/1119 00000KT 5000 HZ FEW020=
202505110500 TAF WIHH 110500Z 1106/1206 24006KT 6000 SCT018
                      TEMPO 1107/1111 18012G22KT 2000 TSRA BKN015
                       FEW017
                      BECMG 1113/1115 5000 HZ=
202505102300 TAF WIHH 102300Z 1100/1200 23008KT 3000 BR FEW020
                      BECMG 1102/1104 6000 SCT018
                      TEMPO 1108/1111 18014KT 2000 -TSRA BKN016
                       FEW018=
202505101700 TAF WIHH 101700Z 1018/1118 16004KT 4000 HZ SCT020
                      BECMG 1020/1022 00000KT 3000 BR FEW022=
202505101100 TAF WIHH 101100Z 1012/1112 23006KT 4000 TS BKN017 FEW018CB
                      BECMG 1016/1018 16004KT 3000 BR SCT020=
202505100500 TAF WIHH 100500Z 1006/1106 02010KT 6000 SCT018
                      TEMPO 1008/1012 23012KT 3000 -TSRA BKN016
                       FEW017CB
                      BECMG 1014/1016 17005KT 5000 HZ=
202505092300 TAF WIHH 092300Z 1000/1100 21006KT 6000 SCT020
                      TEMPO 1007/1011 15012G22KT 3000 -TSRA BKN015
                       FEW017CB
                      BECMG 1013/1015 5000 HZ=
202505091700 TAF WIHH 091700Z 0918/1018 18005KT 6000 SCT018
                      TEMPO 0918/0920 3000 -RA
                      BECMG 0921/0923 00000KT 4000 BR=
202505091100 TAF WIHH 091100Z 0912/1012 15006KT 6000 SCT020
                      TEMPO 0915/0918 4000 -RA BKN018
                      BECMG 0919/0921 00000KT 5000 HZ=
202505090500 TAF WIHH 090500Z 0906/1006 12006KT 6000 SCT018
                      TEMPO 0908/0912 24015KT 3000 -TSRA BKN016
                       FEW017CB
                      BECMG 0913/0915 5000 HZ=
202505082300 TAF WIHH 082300Z 0900/1000 13006KT 6000 SCT018
                      BECMG 0900/0902 5000 HZ FEW020
                      TEMPO 0909/0912 33012KT 3000 -TSRA FEW017CB
                       BKN018=
202505081700 TAF WIHH 081700Z 0818/0918 18005KT 6000 SCT020
                      TEMPO 0908/0911 33012KT 3000 -TSRA FEW017CB
                       BKN018=
202505081100 TAF WIHH 081100Z 0812/0912 04008KT 6000 SCT020
                      TEMPO 0812/0815 4000 -TSRA FEW016CB BKN018
                       BECMG 0817/0819 18006KT 5000 HZ=
202505080500 TAF WIHH 080500Z 0806/0906 13008KT 6000 SCT020
                      TEMPO 0807/0810 31013KT 3000 -TSRA FEW015CB
                       BKN017
                      BECMG 0812/0814 18006KT 5000 HZ=
202505072300 TAF WIHH 072300Z 0800/0900 15005KT 4000 HZ FEW020
                      BECMG 0802/0804 04008KT 6000 SCT018
                      TEMPO 0807/0811 35012KT 3000 -TSRA BKN016
                       FEW017CB=
202505071700 TAF WIHH 071700Z 0718/0818 20003KT 3000 BR FEW020
                      BECMG 0800/0802 04008KT 5000 HZ SCT018=
202505071100 TAF WIHH 071100Z 0712/0812 20005KT 5000 HZ SCT018
                      BECMG 0719/0721 00000KT 4000 BR=
202505070550 TAF AMD WIHH 070550Z 0706/0806 02010KT 6000 SCT018
                      TEMPO 0706/0710 3000 -TSRA BKN016 FEW018CB
                       BECMG 0712/0714 20004KT 5000 HZ=
202505070500 TAF WIHH 070500Z 0706/0806 02010KT 7000 SCT018
                      TEMPO 0708/0712 16012G22KT 3000 -TSRA BKN016
                       FEW018CB
                      BECMG 0713/0715 20004KT 5000 HZ=
202505062300 TAF WIHH 062300Z 0700/0800 12006KT 7000 SCT020
                      TEMPO 0709/0712 18012G22KT 3000 -TSRA BKN016
                       FEW017CB
                      BECMG 0713/0715 5000 HZ=
202505061700 TAF WIHH 061700Z 0618/0718 15005KT 6000 SCT018
                      BECMG 0623/0701 00000KT 5000 HZ
                      TEMPO 0707/0710 09015KT 3000 -TSRA BKN016
                       FEW017CB=
202505061100 TAF WIHH 061100Z 0612/0712 12006KT 6000 SCT018
                      TEMPO 0612/0615 06012KT 3000 -TSRA BKN015
                       FEW017CB
                      BECMG 0616/0618 00000KT 5000 HZ=
202505060500 TAF WIHH 060500Z 0606/0706 15006KT 6000 SCT018
                      TEMPO 0610/0613 09015KT 3000 -TSRA FEW017CB
                       BECMG 0614/0616 5000 HZ=
202505052300 TAF WIHH 052300Z 0600/0700 10006KT 6000 SCT020
                      BECMG 0600/0602 5000 HZ FEW020
                      TEMPO 0610/0613 03013KT 3000 -TSRA FEW016CB
                       BKN018=
202505051700 TAF WIHH 051700Z 0518/0618 24005KT 6000 SCT020
                      BECMG 0522/0600 10008KT 5000 HZ FEW020
                      TEMPO 0610/0613 03013KT 4000 -TSRA FEW016CB
                       BKN018=
202505051100 TAF WIHH 051100Z 0512/0612 18006KT 6000 SCT020
                      BECMG 0522/0600 5000 HZ FEW020=
202505050500 TAF WIHH 050500Z 0506/0606 11008KT 6000 SCT020
                      TEMPO 0508/0511 03013KT 4000 -TSRA FEW016CB
                       BKN018=
202505042300 TAF WIHH 042300Z 0500/0600 22006KT 5000 HZ FEW020
                      BECMG 0502/0504 05010KT 7000 SCT018
                      TEMPO 0509/0512 14012KT 4000 -TSRA BKN016
                       FEW018CB=
202505041700 TAF WIHH 041700Z 0418/0518 19003KT 6000 SCT018
                      BECMG 0421/0423 00000KT 4000 HZ FEW020=
202505041100 TAF WIHH 041100Z 0412/0512 16005KT 6000 SCT018
                      TEMPO 0412/0414 4000 -RA
                      BECMG 0415/0417 00000KT 5000 HZ=
202505040500 TAF WIHH 040500Z 0406/0506 35010KT 7000 SCT020
                      TEMPO 0407/0411 16012KT 3000 -TSRA FEW017CB
                       BKN018
                      BECMG 0413/0415 00000KT 5000 HZ=
202505032300 TAF WIHH 032300Z 0400/0500 15006KT 6000 SCT018
                      TEMPO 0400/0402 4000 -RA FEW017CB
                      TEMPO 0408/0412 21014G22KT 2000 TSRA BKN015
                       FEW016CB
                      BECMG 0414/0416 5000 HZ=
202505031700 TAF WIHH 031700Z 0318/0418 18005KT 6000 SCT018
                      TEMPO 0319/0322 03010KT 3000 -RA FEW017CB
                       BKN018
                      BECMG 0323/0401 00000KT 3000 BR=
202505031100 TAF WIHH 031100Z 0312/0412 15006KT 6000 SCT018
                      TEMPO 0312/0315 4000 -TSRA FEW017CB
                      TEMPO 0318/0322 30010KT 3000 -TSRA BKN016
                       FEW017CB
                      BECMG 0323/0401 00000KT 3000 BR=
202505030500 TAF WIHH 030500Z 0306/0406 12006KT 7000 SCT018
                      TEMPO 0309/0313 23015G22KT 2000 TSRA BKN014
                       FEW017CB
                      TEMPO 0318/0322 4000 -TSRA FEW017CB BKN018=
202505022300 TAF WIHH 022300Z 0300/0400 10006KT 7000 SCT018
                      BECMG 0300/0302 5000 HZ FEW020
                      TEMPO 0308/0311 02012KT 3000 -TSRA FEW016CB
                       BKN018
                      TEMPO 0315/0318 4000 -RA BKN016=
202505021700 TAF WIHH 021700Z 0218/0318 10005KT 6000 SCT020
                      TEMPO 0307/0310 3000 -TSRA FEW016CB BKN018=
202505021200 TAF AMD WIHH 021200Z 0212/0312 35008KT 6000 SCT020
                      TEMPO 0212/0215 3000 -TSRA FEW016CB BKN018
                       BECMG 0217/0219 18006KT 5000 HZ=
202505021100 TAF WIHH 021100Z 0212/0312 35008KT 6000 SCT020
                      BECMG 0214/0216 18006KT 5000 HZ=
202505020500 TAF WIHH 020500Z 0206/0306 27006KT 6000 SCT020
                      TEMPO 0209/0212 02013KT 4000 -RA FEW017CB
                       BECMG 0214/0216 18006KT 5000 HZ=
202505012300 TAF WIHH 012300Z 0200/0300 04010KT 7000 SCT018
                      TEMPO 0210/0212 35012KT 5000 -RA
                      BECMG 0213/0215 17006KT=
202505011700 TAF WIHH 011700Z 0118/0218 14003KT 5000 HZ FEW020
                      BECMG 0201/0203 04008KT 7000 SCT018=
202505011100 TAF WIHH 011100Z 0112/0212 17005KT 7000 SCT020
                      BECMG 0120/0122 00000KT 4000 HZ FEW022=
202505010500 TAF WIHH 010500Z 0106/0206 05010KT 7000 SCT018
                      TEMPO 0109/0112 22012KT 4000 -RA
                      BECMG 0113/0115 28006KT FEW020=
