##########################################################
# Query made at 05/04/2026 14:11:28 UTC
# Time interval: from 04/01/2026 00:00  to 04/30/2026 23:59  UTC
##########################################################

##########################################################
# WIHH, Jakarta Halim Perdanakusuma (Indonesia)
# WMO index: 96747. WIGOS ID: Unknown
# Latitude 06-15S. Longitude 106-54E. Altitude 30 m.
##########################################################

###################################
#  METAR/SPECI from WIHH
###################################
202604302330 METAR WIHH 302330Z 00000KT 6000 FEW020 25/24 Q1010 NOSIG=
202604302300 METAR WIHH 302300Z 14003KT 7000 FEW020 25/24 Q1010 NOSIG=
202604302230 METAR WIHH 302230Z 00000KT 7000 FEW020 25/24 Q1009 NOSIG=
202604302200 METAR WIHH 302200Z 17002KT 7000 FEW020 24/24 Q1009 NOSIG=
202604302130 METAR WIHH 302130Z 00000KT 6000 FEW020 25/25 Q1009 NOSIG=
202604302100 METAR WIHH 302100Z 00000KT 6000 FEW020 25/25 Q1009 NOSIG=
202604302030 METAR WIHH 302030Z 00000KT 6000 FEW020 25/25 Q1009 NOSIG=
202604302000 METAR WIHH 302000Z 00000KT 7000 FEW020 25/25 Q1009 NOSIG=
202604301930 METAR WIHH 301930Z 00000KT 8000 FEW020 25/25 Q1010 NOSIG=
202604301900 METAR WIHH 301900Z 00000KT 8000 FEW020 25/25 Q1010 NOSIG=
202604301830 METAR WIHH 301830Z 00000KT 8000 FEW020 25/25 Q1011 NOSIG=
202604301800 METAR WIHH 301800Z 00000KT 8000 FEW020 25/25 Q1011 NOSIG=
202604301730 METAR WIHH 301730Z 00000KT 7000 SCT020 25/25 Q1011 NOSIG=
202604301700 METAR WIHH 301700Z 00000KT 7000 SCT020 25/25 Q1012 NOSIG=
202604301630 METAR WIHH 301630Z 00000KT 8000 SCT020 25/25 Q1012 NOSIG=
202604301600 METAR WIHH 301600Z 00000KT 8000 SCT020 25/25 Q1012 NOSIG=
202604301530 METAR WIHH 301530Z 00000KT 8000 SCT020 25/25 Q1012 NOSIG=
202604301500 METAR WIHH 301500Z 00000KT 8000 SCT020 25/24 Q1012 NOSIG=
202604301430 METAR WIHH 301430Z 00000KT 8000 BKN017 25/24 Q1012 NOSIG=
202604301400 METAR WIHH 301400Z 00000KT 8000 BKN017 25/24 Q1012 NOSIG=
202604301330 METAR WIHH 301330Z 14002KT 8000 BKN018 25/24 Q1012 RMK RA TO S=
202604301300 METAR WIHH 301300Z 19003KT 8000 TS FEW017CB BKN018 24/24 Q1012 RMK CB AND RA TO S=
202604301230 METAR WIHH 301230Z 19006KT 6000 -TSRA FEW017CB BKN018 24/24 Q1011 RMK CB TO S=
202604301200 METAR WIHH 301200Z 25006KT 5000 -TSRA FEW017CB BKN018 24/24 Q1011 RMK CB TO S=
202604301130 METAR WIHH 301130Z 20013KT 5000 -TSRA FEW017CB BKN018 25/24 Q1011 TEM PO TL1230 3000 -TSRA BKN015 RMK CB TO S=
202604301100 METAR WIHH 301100Z 22014KT 5000 TS FEW017CB BKN018 25/24 Q1010 TEMPO FM1130 3000 TSRA BKN015 RMK CB AND RA TO S AND W=
202604301030 METAR WIHH 301030Z 18015KT 4000 TS FEW017CB BKN018 27/23 Q1009 TEMPO FM1045 2000 TSRA BKN015 RMK CB AND RA TO S=
202604301000 METAR WIHH 301000Z 05007KT 6000 TS SCT017 FEW018CB 31/25 Q1009 RMK CB AND RA TO S=
202604300930 METAR WIHH 300930Z 35007KT 7000 TS SCT017 FEW018CB 31/25 Q1008 RMK CB AND RA TO S=
202604300900 METAR WIHH 300900Z 34010KT 7000 TS SCT017 FEW018CB 32/25 Q1007 RMK CB AND RA TO S=
202604300830 METAR WIHH 300830Z 28005KT 6000 -TSRA SCT017 FEW018CB 28/27 Q1007 RMK CB TO S=
202604300800 METAR WIHH 300800Z 28006KT 7000 -RA SCT017 FEW018CB 28/24 Q1007 RMK CB TO S=
202604300730 METAR WIHH 300730Z 01007KT 5000 -TSRA SCT017 FEW018CB 31/25 Q1007 TEM PO TL0800 3000 -TSRA BKN016 RMK CB TO NW=
202604300700 METAR WIHH 300700Z 33003KT 7000 SCT017 34/24 Q1007 RMK RA TO NW=
202604300630 METAR WIHH 300630Z 01008KT 7000 SCT017 34/23 Q1008 RMK RA TO NW=
202604300600 METAR WIHH 300600Z 10008KT 7000 SCT018 34/23 Q1008 RMK RA TO NW=
202604300530 METAR WIHH 300530Z 13003KT 7000 SCT018 34/24 Q1008 RMK RA TO NW=
202604300500 METAR WIHH 300500Z 14004KT 7000 SCT017 34/24 Q1009 NOSIG=
202604300430 METAR WIHH 300430Z 11006KT 7000 SCT017 32/23 Q1010 RMK RA TO NW=
202604300400 METAR WIHH 300400Z 15008KT 6000 SCT017 33/24 Q1010 RMK RA TO NW=
202604300330 METAR WIHH 300330Z 14006KT 6000 SCT017 32/25 Q1010 NOSIG=
202604300300 METAR WIHH 300300Z 08006KT 5000 HZ SCT017 30/24 Q1011 RMK RA TO SW=
202604300230 METAR WIHH 300230Z 10005KT 5000 HZ SCT018 31/24 Q1011 NOSIG=
202604300200 METAR WIHH 300200Z 03003KT 5000 HZ SCT015 30/25 Q1010 NOSIG=
202604300130 METAR WIHH 300130Z 10004KT 4000 HZ SCT018 30/25 Q1010 NOSIG=
202604300100 METAR WIHH 300100Z 16003KT 4000 HZ SCT018 29/26 Q1010 NOSIG=
202604300030 METAR WIHH 300030Z 00000KT 4000 HZ SCT018 28/24 Q1010 NOSIG=
202604300000 METAR WIHH NIL=
202604292330 METAR WIHH 292330Z 00000KT 5000 HZ SCT018 26/25 Q1009 NOSIG=
202604292300 METAR WIHH 292300Z 00000KT 5000 HZ SCT018 26/24 Q1009 NOSIG=
202604292230 METAR WIHH 292230Z 00000KT 6000 SCT018 27/24 Q1009 NOSIG=
202604292200 METAR WIHH 292200Z 00000KT 6000 SCT018 26/24 Q1009 NOSIG=
202604292130 METAR WIHH 292130Z 00000KT 6000 SCT018 26/25 Q1009 NOSIG=
202604292100 METAR WIHH 292100Z 00000KT 6000 SCT018 26/24 Q1008 NOSIG=
202604292030 METAR WIHH 292030Z 16003KT 6000 SCT017 26/24 Q1009 NOSIG=
202604292000 METAR WIHH 292000Z 00000KT 6000 SCT017 27/24 Q1008 NOSIG=
202604291930 METAR WIHH 291930Z 10003KT 7000 SCT017 28/24 Q1008 RMK RA TO S=
202604291900 METAR WIHH 291900Z 12003KT 7000 SCT017 28/25 Q1009 NOSIG RMK RA TO SE=
202604291830 METAR WIHH 291830Z 04003KT 7000 SCT017 28/25 Q1009 TEMPO=
202604291800 METAR WIHH 291800Z 03003KT 7000 SCT017 28/24 Q1010 NOSIG=
202604291730 METAR WIHH 291730Z 00000KT 7000 SCT017 29/25 Q1010 NOSIG=
202604291700 METAR WIHH 291700Z 04003KT 7000 SCT017 29/25 Q1010 NOSIG=
202604291630 METAR WIHH 291630Z 04006KT 7000 SCT017 29/25 Q1010 NOSIG=
202604291600 METAR WIHH 291600Z 05005KT 7000 SCT017 29/25 Q1010 NOSIG=
202604291530 METAR WIHH 291530Z 03005KT 7000 SCT017 30/25 Q1010 NOSIG=
202604291500 METAR WIHH 291500Z 00000KT 7000 SCT017 30/25 Q1010 NOSIG=
202604291430 METAR WIHH 291430Z 08003KT 7000 SCT017 30/25 Q1011 NOSIG=
202604291400 METAR WIHH 291400Z 05003KT 7000 SCT017 30/25 Q1010 NOSIG=
202604291330 METAR WIHH 291330Z 02004KT 6000 SCT017 30/25 Q1010 NOSIG=
202604291300 METAR WIHH 291300Z 03003KT 6000 SCT017 30/25 Q1009 NOSIG=
202604291230 METAR WIHH 291230Z 03003KT 6000 SCT017 30/25 Q1009 RMK RA TO SE=
202604291200 METAR WIHH 291200Z 03005KT 6000 SCT017 30/25 Q1008 RMK RA TO SE=
202604291130 METAR WIHH 291130Z 04007KT 6000 SCT017 30/25 Q1008 RMK RA TO SE=
202604291100 METAR WIHH 291100Z 03008KT 7000 SCT017 30/25 Q1008 RMK RA TO SW=
202604291030 METAR WIHH 291030Z 03007KT 6000 SCT017 31/24 Q1007 RMK RA TO SW=
202604291000 METAR WIHH 291000Z 02008KT 7000 SCT017 31/24 Q1007 RMK RA TO SW=
202604290930 METAR WIHH 290930Z 04009KT 7000 SCT017 31/24 Q1006 RMK RA TO SW=
202604290900 METAR WIHH 290900Z 02010KT 7000 SCT017 32/24 Q1006 RMK RA TO SW=
202604290830 METAR WIHH 290830Z 04014KT 7000 SCT017 32/24 Q1006 RMK RA TO SW=
202604290800 METAR WIHH 290800Z 02017KT 7000 SCT017 33/24 Q1006 RMK RA TO SW=
202604290730 METAR WIHH 290730Z 02016KT 7000 SCT017 34/24 Q1006 RMK RA TO SW=
202604290700 METAR WIHH 290700Z 03014KT 7000 SCT017 34/24 Q1006 NOSIG=
202604290630 METAR WIHH 290630Z 03010KT 7000 SCT017 34/23 Q1007 NOSIG=
202604290600 METAR WIHH 290600Z 02010KT 7000 SCT017 34/24 Q1007 NOSIG=
202604290530 METAR WIHH 290530Z 04010KT 6000 SCT017 34/24 Q1007 NOSIG RMK RA TO SW=
202604290500 METAR WIHH 290500Z 03010KT 6000 SCT017 33/24 Q1008 NOSIG=
202604290430 METAR WIHH 290430Z 04010KT 5000 HZ SCT017 34/24 Q1008 NOSIG=
202604290400 METAR WIHH 290400Z 03010KT 5000 HZ SCT017 34/25 Q1009 NOSIG=
202604290330 METAR WIHH 290330Z 03008KT 5000 HZ SCT018 32/24 Q1009 NOSIG=
202604290300 METAR WIHH 290300Z 09008KT 5000 HZ FEW018 32/24 Q1009 NOSIG=
202604290230 METAR WIHH 290230Z 09006KT 5000 HZ FEW018 32/24 Q1010 NOSIG=
202604290200 METAR WIHH 290200Z 10007KT 4000 HZ FEW018 31/25 Q1010 NOSIG=
202604290130 METAR WIHH 290130Z 09005KT 4000 HZ SCT018 30/25 Q1010 NOSIG=
202604290100 METAR WIHH 290100Z 12002KT 4000 HZ SCT018 29/25 Q1009 NOSIG=
202604290030 METAR WIHH 290030Z 17003KT 3000 HZ SCT018 27/26 Q1009 NOSIG=
202604290000 METAR WIHH 290000Z 19003KT 4000 HZ SCT018 26/25 Q1009 NOSIG=
202604282330 METAR WIHH 282330Z 18003KT 4000 HZ SCT018 26/25 Q1009 NOSIG=
202604282300 METAR WIHH 282300Z 12003KT 4000 HZ SCT018 26/25 Q1008 NOSIG=
202604282230 METAR WIHH 282230Z 13002KT 4000 HZ SCT018 25/25 Q1008 NOSIG=
202604282200 METAR WIHH 282200Z 15003KT 5000 HZ SCT018 25/24 Q1007 NOSIG=
202604282130 METAR WIHH 282130Z 18003KT 5000 HZ SCT018 25/24 Q1007 NOSIG=
202604282100 METAR WIHH 282100Z 00000KT 5000 HZ FEW020 26/25 Q1007 NOSIG=
202604282030 METAR WIHH 282030Z 15003KT 5000 HZ FEW020 26/25 Q1008 NOSIG=
202604282000 METAR WIHH 282000Z 00000KT 6000 FEW020 26/25 Q1008 NOSIG=
202604281930 METAR WIHH 281930Z 00000KT 6000 FEW020 26/25 Q1008 NOSIG=
202604281900 METAR WIHH 281900Z 14002KT 6000 FEW020 27/26 Q1009 NOSIG=
202604281830 METAR WIHH 281830Z 16001KT 6000 FEW020 27/25 Q1009 NOSIG=
202604281800 METAR WIHH 281800Z 00000KT 6000 FEW020 27/25 Q1009 NOSIG=
202604281730 METAR WIHH 281730Z 00000KT 6000 FEW020 27/25 Q1009 NOSIG=
202604281700 METAR WIHH 281700Z 16003KT 6000 FEW020 27/25 Q1009 NOSIG=
202604281630 METAR WIHH 281630Z 16003KT 7000 SCT018 28/25 Q1010 NOSIG=
202604281600 METAR WIHH 281600Z 15003KT 7000 SCT018 27/25 Q1010 NOSIG=
202604281530 METAR WIHH 281530Z 14003KT 7000 SCT020 28/25 Q1010 NOSIG=
202604281500 METAR WIHH 281500Z 15003KT 7000 SCT018 28/25 Q1010 NOSIG=
202604281430 METAR WIHH 281430Z 18003KT 8000 SCT018 28/25 Q1009 NOSIG=
202604281400 METAR WIHH 281400Z 09003KT 8000 SCT015 29/24 Q1009 NOSIG=
202604281330 METAR WIHH 281330Z 04005KT 8000 SCT015 29/25 Q1008 RMK RA TO S=
202604281300 METAR WIHH 281300Z 02005KT 8000 BKN015 29/25 Q1008 RMK RA TO S=
202604281230 METAR WIHH 281230Z 01005KT 8000 TS BKN015 29/25 Q1007 RMK CB AND RA TO S=
202604281200 METAR WIHH 281200Z 02003KT 8000 TS BKN015 FEW017CB 29/24 Q1007 RMK CB AND RA TO S=
202604281130 METAR WIHH 281130Z 03005KT 8000 BKN015 FEW017CB 29/24 Q1007 RMK CB AND RA TO S=
202604281100 METAR WIHH 281100Z 02006KT 8000 BKN015 FEW017CB 30/24 Q1007 RMK CB AND RA TO S=
202604281030 METAR WIHH 281030Z 02008KT 8000 SCT015 30/24 Q1007 RMK RA TO SW=
202604281000 METAR WIHH NIL=
202604280930 METAR WIHH 280930Z 04008KT 8000 SCT015 31/25 Q1006 RMK RA TO SW=
202604280900 METAR WIHH 280900Z 02012KT 8000 SCT015 31/25 Q1006 RMK RA TO W=
202604280830 METAR WIHH 280830Z 05009KT 8000 SCT015 32/25 Q1006 NOSIG=
202604280800 METAR WIHH 280800Z 04009KT 8000 SCT015 32/25 Q1005 NOSIG=
202604280730 METAR WIHH 280730Z 03010KT 8000 SCT015 32/25 Q1006 NOSIG=
202604280700 METAR WIHH 280700Z 02010KT 8000 SCT015 32/25 Q1006 NOSIG=
202604280630 METAR WIHH 280630Z 34010KT 8000 SCT015 35/24 Q1007 NOSIG=
202604280600 METAR WIHH 280600Z 35008KT 8000 SCT015 35/24 Q1007 NOSIG=
202604280530 METAR WIHH 280530Z 05008KT 6000 SCT015 33/24 Q1008 NOSIG=
202604280500 METAR WIHH 280500Z 12008KT 6000 SCT015 33/23 Q1008 NOSIG=
202604280430 METAR WIHH 280430Z 02006KT 6000 SCT015 32/24 Q1009 NOSIG=
202604280400 METAR WIHH 280400Z 03004KT 6000 SCT015 32/24 Q1009 NOSIG=
202604280330 METAR WIHH 280330Z 23003KT 6000 SCT015 31/25 Q1010 NOSIG=
202604280300 METAR WIHH 280300Z 05004KT 6000 SCT015 30/25 Q1010 NOSIG=
202604280230 METAR WIHH 280230Z 16003KT 5000 HZ SCT015 30/25 Q1010 NOSIG=
202604280200 METAR WIHH 280200Z 13004KT 5000 HZ SCT015 29/26 Q1010 NOSIG=
202604280130 METAR WIHH 280130Z 17005KT 4000 HZ BKN015 27/26 Q1010 RMK RA TO W=
202604280100 METAR WIHH 280100Z 12005KT 3000 -RA BKN017 26/25 Q1011 NOSIG=
202604280030 METAR WIHH 280030Z 33002KT 4000 BR BKN017 25/25 Q1010 TEMPO FM0100 50 00 -RA RMK RA TO SE AND NW=
202604280000 METAR WIHH 280000Z 33002KT 3000 -TSRA BKN017 FEW018CB 25/24 Q1010 TEM PO TL0040 5000 -TSRA RMK CB TO NW=
202604272330 METAR WIHH 272330Z 33002KT 4000 -TSRA BKN017 FEW018CB 26/24 Q1009 TEMPO TL0000 5000 -TSRA RMK CB TO NE - E=
202604272300 METAR WIHH 272300Z 06007KT 4000 TS BKN017 FEW018CB 26/23 Q1009 TEMPO FM2310 3000 -TSRA RMK CB AND RA TO NE - E=
202604272230 METAR WIHH 272230Z 04009KT 5000 HZ SCT017 FEW018CB 27/24 Q1008 TEMPO FM2310 4000 -TSRA BKN016 RMK CB AND RA TO NE - E=
202604272200 METAR WIHH 272200Z 00000KT 5000 HZ SCT017 FEW018CB 27/24 Q1008 TEMPO FM2310 4000 -TSRA BKN016 RMK CB AND RA TO NE - E=
202604272130 METAR WIHH 272130Z 03003KT 5000 HZ SCT017 27/23 Q1007 RMK RA TO NE-E=
202604272100 METAR WIHH 272100Z 00000KT 5000 HZ SCT017 26/23 Q1007 RMK RA TO NE=
202604272030 METAR WIHH 272030Z 30003KT 6000 SCT017 FEW018CB 27/25 Q1008 RMK CB AND RA TO NE=
202604272000 METAR WIHH 272000Z 27003KT 5000 HZ SCT017 FEW018CB 27/25 Q1008 RMK CB AND RA TO NE=
202604271930 METAR WIHH 271930Z 00000KT 5000 HZ SCT017 FEW018CB 27/25 Q1008 RMK CB AND RA TO NE=
202604271900 METAR WIHH 271900Z 00000KT 5000 HZ SCT017 FEW018CB 28/25 Q1009 RMK CB AND RA TO NW=
202604271830 METAR WIHH 271830Z 00000KT 5000 HZ SCT017 FEW018CB 28/25 Q1009 RMK CB AND RA TO NW=
202604271800 METAR WIHH 271800Z 18004KT 5000 HZ SCT017 FEW018CB 28/25 Q1009 RMK CB AND RA TO NW=
202604271730 METAR WIHH 271730Z 00000KT 6000 SCT017 FEW018CB 28/25 Q1009 RMK CB AND RA TO NW=
202604271700 METAR WIHH 271700Z 00000KT 6000 SCT017 FEW018CB 28/25 Q1009 RMK CB AND RA TO NW=
202604271630 METAR WIHH 271630Z 00000KT 6000 FEW020 28/25 Q1010 NOSIG=
202604271600 METAR WIHH 271600Z 00000KT 6000 FEW020 28/25 Q1010 NOSIG=
202604271530 METAR WIHH 271530Z 00000KT 7000 FEW020 29/25 Q1010 NOSIG=
202604271500 METAR WIHH 271500Z 00000KT 7000 FEW020 28/25 Q1009 NOSIG=
202604271430 METAR WIHH 271430Z 00000KT 7000 FEW020 29/25 Q1009 NOSIG=
202604271400 METAR WIHH 271400Z 13002KT 7000 FEW020 29/24 Q1009 NOSIG=
202604271330 METAR WIHH NIL=
202604271300 METAR WIHH 271300Z 17003KT 8000 FEW020 29/24 Q1007 NOSIG=
202604271230 METAR WIHH 271230Z 00000KT 8000 29/25 Q1007 NOSIG=
202604271200 METAR WIHH 271200Z 00000KT 8000 SCT020 30/24 Q1007 NOSIG=
202604271130 METAR WIHH 271130Z 33003KT 8000 SCT018 30/24 Q1007 NOSIG=
202604271100 METAR WIHH 271100Z 33003KT 7000 SCT017 31/23 Q1007 NOSIG=
202604271030 METAR WIHH 271030Z 33005KT 8000 SCT017 32/23 Q1006=
202604271000 METAR WIHH 271000Z 34006KT 8000 SCT017 33/22 Q1006 NOSIG=
202604270930 METAR WIHH 270930Z 03003KT 8000 SCT017 33/22 Q1006 NOSIG=
202604270900 METAR WIHH 270900Z 01006KT 8000 SCT017 34/22 Q1005 NOSIG=
202604270830 METAR WIHH 270830Z 36008KT 7000 SCT017 34/23 Q1005 NOSIG RMK RA TO S=
202604270800 METAR WIHH 270800Z 33008KT 7000 SCT017 34/23 Q1006 NOSIG=
202604270730 METAR WIHH 270730Z 03002KT 7000 SCT017 35/23 Q1006 NOSIG=
202604270700 METAR WIHH 270700Z 03008KT 7000 SCT017 35/24 Q1006 NOSIG=
202604270630 METAR WIHH 270630Z 04009KT 7000 SCT017 34/24 Q1006 NOSIG=
202604270600 METAR WIHH 270600Z 03005KT 7000 SCT018 34/24 Q1007 NOSIG=
202604270530 METAR WIHH 270530Z 34004KT 7000 SCT018 35/23 Q1007 NOSIG=
202604270500 METAR WIHH 270500Z 03005KT 7000 SCT018 34/23 Q1008 NOSIG=
202604270430 METAR WIHH 270430Z 09007KT 7000 SCT018 34/23 Q1008 NOSIG=
202604270400 METAR WIHH 270400Z 21003KT 7000 FEW018 34/22 Q1009 NOSIG=
202604270330 METAR WIHH 270330Z 12005KT 6000 FEW020 33/23 Q1009 NOSIG=
202604270300 METAR WIHH 270300Z 15003KT 5000 HZ FEW020 33/23 Q1010 NOSIG=
202604270230 METAR WIHH 270230Z 17002KT 5000 HZ FEW020 32/24 Q1010 NOSIG=
202604270200 METAR WIHH 270200Z 15004KT 5000 HZ FEW020 31/25 Q1010 NOSIG=
202604270130 METAR WIHH 270130Z 25003KT 7000 FEW020 30/24 Q1010 NOSIG=
202604270100 METAR WIHH 270100Z 17004KT 7000 FEW020 28/24 Q1010 NOSIG=
202604270030 METAR WIHH 270030Z 17007KT 7000 FEW020 27/24 Q1010 NOSIG=
202604270000 METAR WIHH 270000Z 22003KT 7000 FEW020 27/24 Q1009 NOSIG=
202604262330 METAR WIHH 262330Z 16004KT 7000 FEW020 27/24 Q1009 NOSIG=
202604262300 METAR WIHH 262300Z 14004KT 7000 FEW020 26/24 Q1009 NOSIG=
202604262230 METAR WIHH 262230Z 00000KT 7000 FEW020 26/23 Q1008 NOSIG=
202604262200 METAR WIHH NIL=
202604262130 METAR WIHH 262130Z 20005KT 6000 FEW020 26/23 Q1007 NOSIG=
202604262100 METAR WIHH 262100Z 20003KT 6000 FEW020 26/23 Q1009 NOSIG=
202604262030 METAR WIHH 262030Z 00000KT 6000 FEW020 26/23 Q1008 NOSIG=
202604262000 METAR WIHH 262000Z 20003KT 6000 FEW020 26/23 Q1008 NOSIG=
202604261930 METAR WIHH 261930Z 00000KT 6000 FEW020 26/23 Q1009 NOSIG=
202604261900 METAR WIHH 261900Z 19002KT 6000 FEW020 26/24 Q1009 NOSIG=
202604261830 METAR WIHH 261830Z 22003KT 8000 FEW020 26/24 Q1009 NOSIG=
202604261800 METAR WIHH 261800Z 00000KT 8000 FEW020 26/24 Q1010 NOSIG=
202604261730 METAR WIHH 261730Z 00000KT 8000 FEW020 27/24 Q1010 NOSIG=
202604261700 METAR WIHH 261700Z 00000KT 8000 FEW020 27/24 Q1010 NOSIG=
202604261630 METAR WIHH 261630Z 00000KT 8000 FEW020 27/26 Q1010 NOSIG=
202604261600 METAR WIHH 261600Z 00000KT 8000 FEW020 27/26 Q1010 NOSIG=
202604261530 METAR WIHH 261530Z 19003KT 9999 FEW020 27/26 Q1010 NOSIG=
202604261500 METAR WIHH 261500Z 20003KT 9999 FEW020 27/25 Q1010 NOSIG=
202604261430 METAR WIHH 261430Z 19005KT 9999 FEW020 28/25 Q1010 NOSIG=
202604261400 METAR WIHH 261400Z 00000KT 9999 FEW020 27/25 Q1010 NOSIG=
202604261330 METAR WIHH 261330Z 27010KT 9999 SCT020 28/23 Q1009 NOSIG=
202604261300 METAR WIHH 261300Z 34003KT 9999 SCT020 29/25 Q1009 NOSIG=
202604261230 METAR WIHH 261230Z 02003KT 9999 SCT019 29/25 Q1009 NOSIG=
202604261200 METAR WIHH 261200Z 00000KT 9999 SCT019 29/25 Q1009 NOSIG=
202604261130 METAR WIHH 261130Z 36004KT 8000 SCT018 30/25 Q1008 RMK RA TO SE=
202604261100 METAR WIHH 261100Z 34005KT 7000 SCT018 30/24 Q1007 RMK RA TO SE=
202604261030 METAR WIHH 261030Z 34005KT 7000 SCT018 31/24 Q1007 RMK RA TO S=
202604261000 METAR WIHH 261000Z 35008KT 7000 SCT018 32/25 Q1007 RMK RA TO S-SW=
202604260930 METAR WIHH 260930Z 03008KT 7000 SCT018 32/24 Q1006 RMK RA TO S-SW=
202604260900 METAR WIHH 260900Z 33005KT 7000 TS FEW017CB SCT018 33/24 Q1006 RMK CB AND RA TO S-SW=
202604260830 METAR WIHH 260830Z 34007KT 7000 FEW017CB SCT018 33/25 Q1006 RMK C B AND RA TO S=
202604260800 METAR WIHH 260800Z 36010KT 7000 TS FEW017CB SCT018 33/25 Q1006 RMK CB AND RA TO SW=
202604260730 METAR WIHH 260730Z 04010KT 7000 SCT017 34/25 Q1006 RMK RA TO SW=
202604260700 METAR WIHH 260700Z 34010KT 7000 SCT017 34/24 Q1007 RMK RA TO SW=
202604260630 METAR WIHH 260630Z 03010KT 7000 SCT017 34/23 Q1007 RMK RA TO SW=
202604260600 METAR WIHH 260600Z 04011KT 8000 SCT017 34/23 Q1007 NOSIG=
202604260530 METAR WIHH 260530Z 02004KT 8000 SCT018 35/23 Q1007 NOSIG=
202604260500 METAR WIHH 260500Z 06006KT 8000 SCT018 34/24 Q1008 NOSIG=
202604260430 METAR WIHH 260430Z 06006KT 8000 SCT018 33/23 Q1009 NOSIG=
202604260400 METAR WIHH 260400Z 07007KT 8000 SCT018 33/23 Q1009 NOSIG=
202604260330 METAR WIHH 260330Z 17004KT 8000 SCT018 33/23 Q1010 NOSIG=
202604260300 METAR WIHH 260300Z 09003KT 7000 SCT018 32/24 Q1010 NOSIG=
202604260230 METAR WIHH 260230Z 15003KT 7000 SCT018 31/23 Q1010 NOSIG=
202604260200 METAR WIHH 260200Z 18003KT 7000 SCT020 30/25 Q1010 NOSIG=
202604260130 METAR WIHH 260130Z 00000KT 6000 FEW020 31/25 Q1010 NOSIG=
202604260100 METAR WIHH 260100Z 00000KT 6000 FEW020 30/23 Q1010 NOSIG=
202604260030 METAR WIHH 260030Z 00000KT 6000 FEW020 29/25 Q1010 NOSIG=
202604260000 METAR WIHH 260000Z 00000KT 4000 BR NSC 27/27 Q1009 NOSIG=
202604252330 METAR WIHH 252330Z 00000KT 4000 BR NSC 26/26 Q1009 NOSIG=
202604252300 METAR WIHH 252300Z 00000KT 5000 HZ FEW020 26/25 Q1009 NOSIG=
202604252230 METAR WIHH 252230Z 00000KT 6000 FEW020 26/25 Q1009 NOSIG=
202604252200 METAR WIHH 252200Z 15003KT 6000 FEW020 26/25 Q1009 NOSIG=
202604252130 METAR WIHH 252130Z 18001KT 9999 FEW020 27/25 Q1009 NOSIG=
202604252100 METAR WIHH 252100Z 00000KT 9999 FEW020 27/25 Q1008 NOSIG=
202604252030 METAR WIHH 252030Z 15003KT 9999 FEW020 27/25 Q1008 NOSIG=
202604252000 METAR WIHH 252000Z 16001KT 9999 FEW020 27/25 Q1008 NOSIG=
202604251930 METAR WIHH 251930Z 00000KT 9999 FEW020 27/25 Q1009 NOSIG=
202604251900 METAR WIHH 251900Z 00000KT 9999 FEW020 27/25 Q1009 NOSIG=
202604251830 METAR WIHH 251830Z 15002KT 9999 FEW020 27/25 Q1009 NOSIG=
202604251800 METAR WIHH 251800Z 14005KT 9999 FEW020 27/25 Q1009 NOSIG=
202604251730 METAR WIHH 251730Z 00000KT 9999 FEW020 28/25 Q1010 NOSIG=
202604251700 METAR WIHH 251700Z 05008KT 9999 FEW020 28/25 Q1010 NOSIG=
202604251630 METAR WIHH 251630Z 00000KT 9999 SCT020 28/25 Q1010 NOSIG=
202604251600 METAR WIHH 251600Z 00000KT 9999 SCT020 28/25 Q1010 NOSIG=
202604251530 METAR WIHH 251530Z 00000KT 9999 SCT020 28/25 Q1010 NOSIG=
202604251500 METAR WIHH 251500Z 04003KT 9999 SCT020 28/25 Q1010 NOSIG=
202604251430 METAR WIHH 251430Z 04008KT 9999 SCT020 29/25 Q1010 NOSIG=
202604251400 METAR WIHH 251400Z 03010KT 9999 SCT020 29/25 Q1011 NOSIG=
202604251330 METAR WIHH 251330Z 04010KT 9999 SCT015 29/25 Q1010 NOSIG=
202604251300 METAR WIHH 251300Z 03009KT 9999 SCT015 29/25 Q1010 NOSIG=
202604251230 METAR WIHH 251230Z 06010KT 9999 SCT015 29/25 Q1010 NOSIG=
202604251200 METAR WIHH 251200Z 05010KT 9999 SCT015 30/25 Q1009 NOSIG=
202604251130 METAR WIHH 251130Z 06010KT 9999 SCT015 30/25 Q1009 NOSIG=
202604251100 METAR WIHH 251100Z 06008KT 9999 SCT015 30/25 Q1008 NOSIG=
202604251030 METAR WIHH 251030Z 07010KT 9999 SCT015 30/25 Q1008 NOSIG=
202604251000 METAR WIHH 251000Z 05015KT 9999 SCT018 31/24 Q1008 NOSIG=
202604250930 METAR WIHH 250930Z 03015KT 9999 SCT018 32/24 Q1007 NOSIG=
202604250900 METAR WIHH 250900Z 07015KT 9999 SCT018 32/24 Q1007 NOSIG=
202604250830 METAR WIHH 250830Z 03015KT 9999 SCT018 33/24 Q1007 NOSIG=
202604250800 METAR WIHH 250800Z 04015KT 9999 SCT018 33/23 Q1007 NOSIG=
202604250730 METAR WIHH 250730Z 09015KT 9999 SCT018 34/23 Q1007 NOSIG=
202604250700 METAR WIHH 250700Z 07015KT 9999 SCT018 34/23 Q1007 NOSIG=
202604250630 METAR WIHH 250630Z 04015KT 9999 SCT018 35/22 Q1007 NOSIG=
202604250600 METAR WIHH 250600Z 04012KT 9999 SCT018 35/22 Q1008 NOSIG=
202604250530 METAR WIHH 250530Z 06013KT 9999 FEW018 34/22 Q1008 NOSIG=
202604250500 METAR WIHH 250500Z 04013KT 9999 FEW020 34/22 Q1008 NOSIG=
202604250430 METAR WIHH 250430Z 05013KT 9999 FEW020 35/22 Q1009 NOSIG=
202604250400 METAR WIHH 250400Z 07015KT 8000 FEW020 33/22 Q1009 NOSIG=
202604250330 METAR WIHH 250330Z 05011KT 8000 SCT020 34/22 Q1010 NOSIG=
202604250300 METAR WIHH 250300Z 06012KT 8000 SCT020 32/22 Q1010 NOSIG=
202604250230 METAR WIHH 250230Z 10008KT 8000 FEW020 32/23 Q1010 NOSIG=
202604250200 METAR WIHH 250200Z 12009KT 8000 FEW020 31/23 Q1010 NOSIG=
202604250130 METAR WIHH 250130Z 10008KT 6000 FEW020 30/24 Q1010 NOSIG=
202604250100 METAR WIHH 250100Z 12005KT 6000 FEW020 30/24 Q1010 NOSIG=
202604250030 METAR WIHH 250030Z 00000KT 5000 HZ FEW020 29/25 Q1010 NOSIG=
202604250000 METAR WIHH 250000Z 00000KT 6000 FEW020 28/26 Q1010 NOSIG=
202604242330 METAR WIHH 242330Z 00000KT 5000 BR FEW020 26/26 Q1010 NOSIG=
202604242300 METAR WIHH 242300Z 15002KT 4000 BR FEW020 25/25 Q1009 NOSIG=
202604242230 METAR WIHH 242230Z 15002KT 6000 FEW020 25/25 Q1009 NOSIG=
202604242200 METAR WIHH 242200Z 00000KT 6000 FEW020 26/26 Q1008 NOSIG=
202604242130 METAR WIHH 242130Z 23002KT 6000 FEW020 26/26 Q1008 NOSIG=
202604242100 METAR WIHH 242100Z 00000KT 6000 FEW020 26/26 Q1008 NOSIG=
202604242030 METAR WIHH 242030Z 00000KT 6000 FEW020 26/26 Q1008 NOSIG=
202604242000 METAR WIHH 242000Z 00000KT 6000 FEW020 27/26 Q1009 NOSIG=
202604241930 METAR WIHH 241930Z 00000KT 9000 FEW020 27/26 Q1009 NOSIG=
202604241900 METAR WIHH 241900Z 00000KT 9999 FEW020 27/26 Q1009 NOSIG=
202604241830 METAR WIHH 241830Z 00000KT 9000 FEW020 26/26 Q1009 NOSIG=
202604241800 METAR WIHH 241800Z 00000KT 9999 FEW020 27/26 Q1009 NOSIG=
202604241730 METAR WIHH 241730Z 00000KT 7000 SCT018 28/26 Q1009 NOSIG=
202604241700 METAR WIHH 241700Z 17002KT 7000 FEW018 28/26 Q1009 NOSIG=
202604241630 METAR WIHH 241630Z 14004KT 9000 SCT018 28/26 Q1009 NOSIG=
202604241600 METAR WIHH 241600Z 09006KT 9999 FEW020 29/26 Q1009 NOSIG=
202604241530 METAR WIHH 241530Z 08007KT 9999 FEW020 29/26 Q1009 NOSIG=
202604241500 METAR WIHH 241500Z 02006KT 9999 FEW020 29/26 Q1009 NOSIG=
202604241430 METAR WIHH 241430Z 05010KT 9999 FEW020 30/26 Q1009 NOSIG=
202604241400 METAR WIHH 241400Z 06007KT 9999 FEW020 30/26 Q1009 NOSIG=
202604241330 METAR WIHH 241330Z 06005KT 9999 FEW020 30/26 Q1009 NOSIG=
202604241300 METAR WIHH 241300Z 04007KT 9999 FEW020 30/25 Q1009 NOSIG=
202604241230 METAR WIHH 241230Z 06009KT 9000 FEW020 30/25 Q1008 NOSIG=
202604241200 METAR WIHH 241200Z 03010KT 9999 FEW020 30/25 Q1008 NOSIG=
202604241130 METAR WIHH 241130Z 04008KT 9999 FEW020 30/24 Q1008 NOSIG=
202604241100 METAR WIHH 241100Z 05010KT 9999 FEW019 31/24 Q1007 NOSIG=
202604241030 METAR WIHH 241030Z 05008KT 9999 FEW019 31/24 Q1007 NOSIG=
202604241000 METAR WIHH 241000Z 03012KT 9999 FEW019 32/23 Q1006 NOSIG=
202604240930 METAR WIHH 240930Z 03012KT 9999 SCT019 33/24 Q1006 NOSIG=
202604240900 METAR WIHH 240900Z 06012KT 9999 SCT017 33/23 Q1005 NOSIG=
202604240830 METAR WIHH 240830Z 04008KT 9999 SCT017 34/23 Q1005 NOSIG=
202604240800 METAR WIHH 240800Z 03012KT 1000 SCT017 34/23 Q1005 NOSIG=
202604240730 METAR WIHH 240730Z 05012KT 9999 SCT017 34/23 Q1005 NOSIG=
202604240700 METAR WIHH 240700Z 06010KT 9999 SCT017 33/23 Q1006 NOSIG=
202604240630 METAR WIHH 240630Z 05008KT 9999 SCT017 34/23 Q1006 NOSIG=
202604240600 METAR WIHH 240600Z 06010KT 9999 SCT017 33/23 Q1007 NOSIG=
202604240530 METAR WIHH 240530Z 06009KT 9999 SCT017 33/23 Q1007 NOSIG=
202604240500 METAR WIHH 240500Z 05012KT 9999 SCT017 32/23 Q1008 NOSIG=
202604240430 METAR WIHH 240430Z 04007KT 9999 SCT017 33/24 Q1008 NOSIG=
202604240400 METAR WIHH 240400Z 06012KT 8000 SCT017 33/24 Q1008 NOSIG=
202604240330 METAR WIHH 240330Z 03012KT 7000 SCT017 32/23 Q1009 NOSIG=
202604240300 METAR WIHH 240300Z 06010KT 7000 SCT019 32/23 Q1009 NOSIG=
202604240230 METAR WIHH 240230Z 08007KT 6000 FEW020 31/24 Q1009 NOSIG=
202604240200 METAR WIHH 240200Z 07009KT 6000 FEW020 31/24 Q1009 NOSIG=
202604240130 METAR WIHH 240130Z 09010KT 6000 FEW020 30/24 Q1009 NOSIG=
202604240100 METAR WIHH 240100Z 09006KT 5000 HZ FEW020 29/24 Q1009 NOSIG=
202604240030 METAR WIHH 240030Z 09006KT 4000 HZ FEW020 28/25 Q1009 NOSIG=
202604240000 METAR WIHH 240000Z 10006KT 3000 HZ FEW020 27/25 Q1008 NOSIG=
202604232330 METAR WIHH 232330Z 09005KT 3000 HZ FEW020 26/25 Q1008 NOSIG=
202604232300 METAR WIHH 232300Z 13004KT 3000 HZ FEW020 26/25 Q1008 NOSIG=
202604232230 METAR WIHH 232230Z 11004KT 4000 HZ FEW020 26/25 Q1007 NOSIG=
202604232200 METAR WIHH 232200Z 11004KT 4000 HZ FEW020 26/25 Q1007 NOSIG=
202604232130 METAR WIHH 232130Z 14003KT 4000 HZ FEW020 26/25 Q1007 NOSIG=
202604232100 METAR WIHH 232100Z 12003KT 5000 HZ FEW020 26/25 Q1007 NOSIG=
202604232030 METAR WIHH 232030Z 13003KT 5000 HZ FEW020 26/25 Q1007 NOSIG=
202604232000 METAR WIHH 232000Z 12004KT 4000 HZ FEW020 27/25 Q1007 NOSIG=
202604231930 METAR WIHH 231930Z 10003KT 4000 HZ FEW020 27/25 Q1007 NOSIG=
202604231900 METAR WIHH 231900Z 14005KT 3000 HZ FEW020 27/25 Q1008 NOSIG=
202604231830 METAR WIHH 231830Z 13003KT 3000 BR FEW020 27/26 Q1008 NOSIG=
202604231800 METAR WIHH 231800Z 15001KT 5000 HZ FEW020 27/26 Q1008 NOSIG=
202604231730 METAR WIHH 231730Z 00000KT 5000 HZ FEW020 27/26 Q1009 NOSIG=
202604231700 METAR WIHH 231700Z 00000KT 5000 HZ FEW020 28/26 Q1009 NOSIG=
202604231630 METAR WIHH 231630Z 00000KT 5000 HZ SCT020 28/26 Q1009 NOSIG=
202604231600 METAR WIHH 231600Z 00000KT 8000 SCT020 27/26 Q1009 NOSIG=
202604231530 METAR WIHH 231530Z 00000KT 8000 SCT020 27/26 Q1009 NOSIG=
202604231500 METAR WIHH 231500Z 13005KT 8000 SCT020 28/25 Q1009 NOSIG=
202604231430 METAR WIHH 231430Z 13004KT 8000 SCT020 27/25 Q1009 NOSIG=
202604231400 METAR WIHH 231400Z 00000KT 8000 SCT020 28/25 Q1009 NOSIG=
202604231330 METAR WIHH 231330Z 06005KT 8000 SCT020 29/25 Q1009 NOSIG=
202604231300 METAR WIHH 231300Z 06006KT 8000 SCT020 29/25 Q1008 NOSIG=
202604231230 METAR WIHH 231230Z 05005KT 8000 SCT020 29/25 Q1008 NOSIG=
202604231200 METAR WIHH 231200Z 01005KT 7000 SCT020 29/25 Q1007 NOSIG=
202604231130 METAR WIHH 231130Z 01005KT 7000 SCT020 29/25 Q1007 NOSIG=
202604231100 METAR WIHH 231100Z 04007KT 6000 SCT018 30/25 Q1006 NOSIG=
202604231030 METAR WIHH 231030Z 04007KT 6000 SCT018 30/25 Q1006 NOSIG=
202604231000 METAR WIHH 231000Z 03007KT 6000 SCT018 30/25 Q1006 NOSIG=
202604230930 METAR WIHH 230930Z 05006KT 6000 SCT016 30/25 Q1006 RMK RA TO SW=
202604230900 METAR COR WIHH 230900Z 03008KT 5000 HZ SCT015 FEW017CB 35/25 Q1005 RMK CB AND RA TO SW=
202604230800 METAR WIHH 230800Z 04006KT 5000 -RA BKN015 FEW016CB 32/24 Q1005 TEMPO TL0900 3000 -TSRA RMK CB TO N AND W=
202604230730 METAR WIHH 230730Z 04008KT 6000 BKN015 FEW017CB 32/24 Q1005 TEMPO FM0740 3000 -TSRA BKN015 FEW017CB RMK CB AND RA TO N=
202604230700 METAR WIHH 230700Z 03006KT 6000 33/24 Q1006 TEMPO FM0800 3000 RMK RA TO NE AND S=
202604230630 METAR WIHH 230630Z 07010KT 6000 BKN015 30/23 Q1006 NOSIG RMK RA TO NE AND S=
202604230600 METAR WIHH 230600Z 03012KT 6000 BKN015 31/24 Q1007 RMK RA TO S=
202604230530 METAR WIHH 230530Z 09005KT 5000 HZ SCT015 31/24 Q1007 NOSIG=
202604230500 METAR WIHH 230500Z 09008KT 5000 HZ SCT014 31/23 Q1007 NOSIG=
202604230430 METAR WIHH 230430Z 05008KT 5000 HZ 31/24 Q1008 NOSIG=
202604230400 METAR WIHH 230400Z 06008KT 5000 SCT014 31/25 Q1009 NOSIG=
202604230330 METAR WIHH 230330Z 09008KT 4000 HZ SCT014 30/25 Q1009 NOSIG=
202604230300 METAR WIHH 230300Z 08006KT 3000 SCT014 29/25 Q1009 NOSIG=
202604230230 METAR WIHH 230230Z 10008KT 3000 HZ SCT015 29/25 Q1009 NOSIG=
202604230200 METAR WIHH 230200Z 11008KT 4000 HZ SCT015 29/25 Q1009 NOSIG=
202604230130 METAR WIHH 230130Z 10006KT 5000 HZ SCT020 28/24 Q1009 NOSIG=
202604230100 METAR WIHH 230100Z 12003KT 5000 HZ SCT020 28/24 Q1009 NOSIG=
202604230030 METAR WIHH 230030Z 10003KT 5000 HZ SCT020 27/24 Q1009 NOSIG=
202604230000 METAR WIHH 230000Z 00000KT 6000 SCT020 26/24 Q1009 NOSIG=
202604222330 METAR WIHH 222330Z 00000KT 6000 SCT020 25/24 Q1009 NOSIG=
202604222300 METAR WIHH 222300Z 00000KT 6000 SCT018 25/24 Q1008 NOSIG=
202604222230 METAR WIHH 222230Z 00000KT 6000 SCT018 25/24 Q1008 NOSIG=
202604222200 METAR WIHH 222200Z 00000KT 6000 SCT017 25/24 Q1008 NOSIG=
202604222130 METAR WIHH 222130Z 00000KT 6000 SCT017 25/24 Q1007 NOSIG=
202604222100 METAR WIHH 222100Z 26003KT 6000 SCT017 25/24 Q1007 NOSIG=
202604222030 METAR WIHH 222030Z 26001KT 7000 SCT018 26/25 Q1008 NOSIG=
202604222000 METAR WIHH 222000Z 24002KT 7000 SCT018 26/25 Q1008 NOSIG=
202604221930 METAR WIHH 221930Z 22002KT 7000 SCT018 26/25 Q1008 NOSIG=
202604221900 METAR WIHH 221900Z 23001KT 7000 SCT018 26/25 Q1009 NOSIG=
202604221830 METAR WIHH 221830Z 24003KT 7000 SCT018 26/25 Q1009 NOSIG=
202604221800 METAR WIHH 221800Z 00000KT 7000 SCT020 26/25 Q1009 NOSIG=
202604221730 METAR WIHH 221730Z 22003KT 7000 SCT020 26/23 Q1010 NOSIG=
202604221700 METAR WIHH 221700Z 24003KT 7000 SCT018 26/25 Q1009 NOSIG=
202604221630 METAR WIHH 221630Z 20001KT 7000 SCT017 26/25 Q1010 NOSIG=
202604221600 METAR WIHH 221600Z 26003KT 7000 FEW015CB SCT017 25/24 Q1010 RMK CB TO S=
202604221530 METAR WIHH 221530Z 18002KT 7000 -RA FEW015CB SCT017 26/24 Q1010 RMK C B TO S=
202604221500 METAR WIHH 221500Z 03002KT 9999 TS FEW015CB SCT017 30/24 Q1010 RMK CB AND RA TO S=
202604221430 METAR WIHH 221430Z 03007KT 9999 TS FEW015CB SCT017 30/24 Q1010 RMK CB AND RA TO S=
202604221400 METAR WIHH 221400Z 03005KT 9999 FEW015CB SCT017 30/25 Q1009 RMK CB AND RA TO S=
202604221330 METAR WIHH 221330Z 03003KT 9999 FEW015CB SCT017 30/25 Q1009 RMK CB AN D RA TO S=
202604221300 METAR WIHH 221300Z 34006KT 9999 FEW015CB SCT017 30/25 Q1009 RMK CB AND RA TO S=
202604221230 METAR WIHH 221230Z 02007KT 8000 SCT019 30/24 Q1008 NOSIG=
202604221200 METAR WIHH 221200Z 02007KT 8000 SCT019 30/24 Q1008 NOSIG=
202604221130 METAR WIHH 221130Z 33005KT 9999 SCT016 31/24 Q1007 NOSIG=
202604221100 METAR WIHH 221100Z 34005KT 7000 SCT016 31/23 Q1007 NOSIG=
202604221030 METAR WIHH 221030Z 36008KT 7000 SCT016 31/23 Q1006 NOSIG=
202604221000 METAR WIHH 221000Z 02007KT 7000 SCT016 32/23 Q1006 NOSIG=
202604220930 METAR WIHH 220930Z 02010KT 7000 SCT016 32/23 Q1005 NOSIG=
202604220900 METAR WIHH 220900Z 01005KT 6000 SCT016 33/23 Q1005 NOSIG=
202604220830 METAR WIHH 220830Z 34006KT 7000 SCT016 33/24 Q1005 NOSIG=
202604220800 METAR WIHH 220800Z 35005KT 7000 SCT016 33/24 Q1005 NOSIG=
202604220730 METAR WIHH 220730Z 35007KT 7000 SCT016 34/24 Q1005 NOSIG=
202604220700 METAR WIHH 220700Z 35010KT 8000 SCT016 34/23 Q1006 NOSIG=
202604220630 METAR WIHH 220630Z 25004KT 8000 SCT016 35/21 Q1006 NOSIG=
202604220600 METAR WIHH 220600Z 16004KT 8000 SCT016 35/21 Q1006 NOSIG=
202604220530 METAR WIHH 220530Z 15004KT 8000 SCT016 34/23 Q1007 NOSIG=
202604220500 METAR WIHH 220500Z 15003KT 8000 SCT016 33/22 Q1008 NOSIG=
202604220430 METAR WIHH 220430Z 22008KT 7000 SCT018 33/23 Q1008 NOSIG=
202604220400 METAR WIHH 220400Z 36004KT 7000 SCT018 33/23 Q1009 NOSIG=
202604220330 METAR WIHH 220330Z 32007KT 7000 SCT018 33/24 Q1009 NOSIG=
202604220300 METAR WIHH 220300Z 28008KT 7000 SCT018 32/24 Q1009 NOSIG=
202604220230 METAR WIHH 220230Z 27008KT 6000 SCT018 31/24 Q1010 NOSIG=
202604220200 METAR WIHH 220200Z 27010KT 6000 SCT018 30/25 Q1010 NOSIG=
202604220130 METAR WIHH 220130Z 24007KT 5000 HZ FEW020 30/25 Q1009 NOSIG=
202604220100 METAR WIHH 220100Z 25003KT 5000 HZ FEW020 29/25 Q1009 NOSIG=
202604220030 METAR WIHH 220030Z 20002KT 5000 HZ SCT020 28/25 Q1009 NOSIG=
202604220000 METAR WIHH 220000Z 25003KT 5000 HZ SCT020 26/25 Q1009 NOSIG=
202604212330 METAR WIHH 212330Z 26003KT 4000 BR SCT018 25/25 Q1008 NOSIG=
202604212300 METAR WIHH 212300Z 00000KT 3000 BR SCT018 25/25 Q1008 NOSIG=
202604212230 METAR WIHH 212230Z 00000KT 4000 BR SCT018 25/25 Q1008 NOSIG=
202604212200 METAR WIHH 212200Z 27003KT 4000 SCT020 25/25 Q1007 NOSIG=
202604212130 METAR WIHH NIL=
202604212100 METAR WIHH 212100Z 23002KT 5000 HZ SCT020 25/24 Q1008 NOSIG=
202604212030 METAR WIHH 212030Z 22002KT 5000 HZ SCT020 26/24 Q1008 NOSIG=
202604212000 METAR WIHH 212000Z 21001KT 5000 HZ SCT020 25/24 Q1008 NOSIG=
202604211930 METAR WIHH 211930Z 21002KT 5000 HZ SCT020 25/24 Q1008 NOSIG=
202604211900 METAR WIHH 211900Z 24003KT 5000 HZ SCT020 26/25 Q1008 NOSIG=
202604211830 METAR WIHH 211830Z 23002KT 5000 HZ SCT020 26/24 Q1009 NOSIG=
202604211800 METAR WIHH 211800Z 21003KT 5000 HZ SCT020 26/25 Q1009 NOSIG=
202604211730 METAR WIHH 211730Z 20001KT 5000 HZ SCT020 26/25 Q1010 NOSIG=
202604211700 METAR WIHH 211700Z 18002KT 7000 FEW020 26/25 Q1010 NOSIG=
202604211630 METAR WIHH 211630Z 23002KT 7000 FEW020 26/25 Q1010 NOSIG=
202604211600 METAR WIHH 211600Z 21003KT 7000 SCT020 27/25 Q1009 NOSIG=
202604211530 METAR WIHH 211530Z 00000KT 7000 SCT020 27/25 Q1009 NOSIG=
202604211500 METAR WIHH 211500Z 25001KT 7000 SCT020 28/25 Q1010 NOSIG=
202604211430 METAR WIHH 211430Z 27003KT 7000 FEW020 28/25 Q1010 NOSIG=
202604211400 METAR WIHH 211400Z 25003KT 7000 FEW020 28/25 Q1009 NOSIG=
202604211330 METAR WIHH 211330Z 24004KT 7000 FEW018 28/24 Q1009 NOSIG=
202604211300 METAR WIHH 211300Z 18005KT 7000 FEW018 28/24 Q1009 NOSIG=
202604211230 METAR WIHH 211230Z 23003KT 7000 SCT018 28/25 Q1008 NOSIG=
202604211200 METAR WIHH 211200Z 18003KT 7000 SCT018 29/25 Q1007 NOSIG=
202604211130 METAR WIHH 211130Z 36002KT 7000 SCT018 29/24 Q1007 NOSIG=
202604211100 METAR WIHH 211100Z 32002KT 7000 SCT018 30/24 Q1006 NOSIG=
202604211030 METAR WIHH 211030Z 32003KT 7000 SCT018 30/24 Q1006 NOSIG=
202604211000 METAR WIHH 211000Z 34004KT 7000 SCT018 31/24 Q1006 NOSIG=
202604210930 METAR WIHH 210930Z 33004KT 7000 SCT018 32/25 Q1006 NOSIG=
202604210900 METAR WIHH 210900Z 02006KT 7000 SCT018 32/24 Q1005 NOSIG=
202604210830 METAR WIHH 210830Z 02006KT 6000 SCT018 32/24 Q1005 NOSIG=
202604210800 METAR WIHH 210800Z 03007KT 5000 HZ SCT018 32/24 Q1005 NOSIG=
202604210730 METAR WIHH 210730Z 36002KT 5000 HZ SCT017 FEW018CB 31/23 Q1006 RMK CB AND RA TO W=
202604210700 METAR WIHH 210700Z 25004KT 5000 TS SCT016 FEW017CB 28/22 Q1007 RMK CB AND RA TO W=
202604210630 METAR WIHH 210630Z 27012KT 5000 TS BKN016 FEW017CB 28/23 Q1007 TEMPO FM0645 3000 -TSRA RMK CB AND RA TO SW-W=
202604210600 METAR WIHH 210600Z 05007KT 5000 HZ BKN017 33/23 Q1007 TEMPO FM0620 30 00 -RA RMK RA TO S AND W=
202604210530 METAR WIHH 210530Z 24003KT 6000 SCT017 33/24 Q1007 RMK RA TO W=
202604210500 METAR WIHH 210500Z 05003KT 6000 SCT019 33/24 Q1008 RMK RA TO NW=
202604210430 METAR WIHH 210430Z 05003KT 6000 SCT019 33/23 Q1008 NOSIG=
202604210400 METAR WIHH 210400Z 06005KT 7000 SCT019 34/24 Q1009 NOSIG=
202604210330 METAR WIHH 210330Z 08004KT 7000 SCT020 33/23 Q1009 NOSIG=
202604210300 METAR WIHH 210300Z 09003KT 6000 FEW020 32/24 Q1009 NOSIG=
202604210230 METAR WIHH 210230Z 13003KT 6000 FEW020 32/23 Q1009 NOSIG=
202604210200 METAR WIHH 210200Z 06003KT 6000 FEW020 31/23 Q1009 NOSIG=
202604210130 METAR WIHH 210130Z 07003KT 6000 FEW020 30/23 Q1009 NOSIG=
202604210100 METAR WIHH 210100Z 00000KT 5000 HZ FEW020 30/25 Q1009 NOSIG=
202604210030 METAR WIHH 210030Z 10003KT 5000 HZ FEW020 29/25 Q1009 NOSIG=
202604210000 METAR WIHH 210000Z 07003KT 5000 HZ FEW020 27/25 Q1009 NOSIG=
202604202330 METAR WIHH 202330Z 02003KT 5000 HZ FEW020 26/25 Q1008 NOSIG=
202604202300 METAR WIHH 202300Z 18003KT 4000 BR FEW020 26/25 Q1008 NOSIG=
202604202230 METAR WIHH 202230Z 17003KT 4000 FEW020 25/25 Q1008 NOSIG=
202604202200 METAR WIHH 202200Z 00000KT 4000 BR FEW020 26/25 Q1008 NOSIG=
202604202130 METAR WIHH 202130Z 13003KT 6000 FEW020 26/25 Q1008 NOSIG=
202604202100 METAR WIHH 202100Z 12003KT 6000 FEW020 26/25 Q1008 NOSIG=
202604202030 METAR WIHH 202030Z 13003KT 7000 FEW020 26/24 Q1009 NOSIG=
202604202000 METAR WIHH 202000Z 00000KT 7000 FEW020 26/24 Q1009 NOSIG=
202604201930 METAR WIHH 201930Z 00000KT 7000 FEW020 26/25 Q1009 NOSIG=
202604201900 METAR WIHH 201900Z 10003KT 7000 FEW020 26/25 Q1009 NOSIG=
202604201830 METAR WIHH 201830Z 00000KT 7000 FEW020 26/25 Q1009 NOSIG=
202604201800 METAR WIHH 201800Z 12003KT 7000 FEW020 26/25 Q1010 NOSIG=
202604201730 METAR WIHH 201730Z 00000KT 8000 FEW020 26/25 Q1010 NOSIG=
202604201700 METAR WIHH 201700Z 00000KT 7000 FEW020 27/25 Q1010 NOSIG=
202604201630 METAR WIHH 201630Z 15003KT 7000 FEW020 27/25 Q1010 NOSIG=
202604201600 METAR WIHH 201600Z 13003KT 7000 FEW020 27/25 Q1010 NOSIG=
202604201530 METAR WIHH 201530Z 17003KT 7000 FEW020 27/25 Q1010 NOSIG=
202604201500 METAR WIHH 201500Z 12003KT 8000 FEW020 28/25 Q1009 NOSIG=
202604201430 METAR WIHH 201430Z 12004KT 8000 FEW020 28/25 Q1009 NOSIG=
202604201400 METAR WIHH 201400Z 10004KT 8000 FEW020 29/24 Q1009 NOSIG=
202604201330 METAR WIHH 201330Z 05005KT 8000 FEW020 29/24 Q1008 NOSIG=
202604201300 METAR WIHH 201300Z 04003KT 8000 FEW020 29/24 Q1008 NOSIG=
202604201230 METAR WIHH 201230Z 06005KT 8000 FEW020 29/24 Q1008 NOSIG=
202604201200 METAR WIHH 201200Z 07008KT 8000 FEW020 29/24 Q1007 NOSIG=
202604201130 METAR WIHH 201130Z 04010KT 8000 FEW020 30/24 Q1008 NOSIG=
202604201100 METAR WIHH 201100Z 02010KT 8000 FEW020 30/23 Q1007 NOSIG=
202604201030 METAR WIHH 201030Z 05010KT 9000 FEW020 31/23 Q1007 NOSIG=
202604201000 METAR WIHH 201000Z 01011KT 8000 FEW020 32/23 Q1006 NOSIG=
202604200930 METAR WIHH 200930Z 05010KT 7000 SCT020 33/22 Q1006 NOSIG=
202604200900 METAR WIHH 200900Z 06013KT 7000 SCT020 33/22 Q1006 NOSIG=
202604200830 METAR WIHH 200830Z 05012KT 7000 SCT020 33/23 Q1006 NOSIG=
202604200800 METAR WIHH 200800Z 06011KT 7000 SCT017 33/22 Q1006 NOSIG=
202604200730 METAR WIHH 200730Z 05010KT 6000 SCT017 34/23 Q1006 NOSIG=
202604200700 METAR WIHH 200700Z 03010KT 6000 SCT017 34/23 Q1007 NOSIG=
202604200630 METAR WIHH 200630Z 03011KT 6000 SCT017 33/23 Q1007 NOSIG=
202604200600 METAR WIHH 200600Z 06011KT 6000 SCT017 33/23 Q1008 NOSIG=
202604200530 METAR WIHH 200530Z 04010KT 6000 SCT018 33/23 Q1008 NOSIG=
202604200500 METAR WIHH 200500Z 08007KT 6000 SCT017 33/22 Q1008 NOSIG=
202604200430 METAR WIHH 200430Z 02006KT 6000 SCT017 33/23 Q1009 NOSIG=
202604200400 METAR WIHH 200400Z 10006KT 6000 SCT017 32/24 Q1009 NOSIG=
202604200330 METAR WIHH 200330Z 10005KT 6000 SCT017 32/24 Q1010 NOSIG=
202604200300 METAR WIHH 200300Z 34006KT 6000 SCT017 31/24 Q1010 NOSIG=
202604200230 METAR WIHH 200230Z 07006KT 6000 SCT018 31/24 Q1010 NOSIG=
202604200200 METAR WIHH 200200Z 11005KT 6000 SCT020 30/24 Q1010 NOSIG=
202604200130 METAR WIHH 200130Z 06005KT 6000 SCT020 30/24 Q1010 NOSIG=
202604200100 METAR WIHH 200100Z 09003KT 6000 SCT020 29/25 Q1010 NOSIG=
202604200030 METAR WIHH 200030Z 15003KT 6000 SCT020 28/25 Q1010 NOSIG=
202604200000 METAR WIHH 200000Z 16003KT 6000 SCT020 27/25 Q1010 NOSIG=
202604192330 METAR WIHH 192330Z 15003KT 6000 SCT020 26/25 Q1009 NOSIG=
202604192300 METAR WIHH 192300Z 00000KT 6000 SCT020 26/25 Q1009 NOSIG=
202604192230 METAR WIHH 192230Z 00000KT 8000 SCT020 26/24 Q1009 NOSIG=
202604192200 METAR WIHH 192200Z 00000KT 8000 SCT020 26/24 Q1008 NOSIG=
202604192130 METAR WIHH 192130Z 00000KT 8000 SCT020 26/24 Q1008 NOSIG=
202604192100 METAR WIHH 192100Z 00000KT 8000 SCT020 26/24 Q1008 NOSIG=
202604192030 METAR WIHH 192030Z 00000KT 8000 SCT020 26/23 Q1009 NOSIG=
202604192000 METAR WIHH 192000Z 00000KT 8000 SCT020 26/23 Q1009 NOSIG=
202604191930 METAR WIHH 191930Z 13003KT 8000 SCT020 26/23 Q1009 NOSIG=
202604191900 METAR WIHH 191900Z 00000KT 7000 SCT020 26/23 Q1009 NOSIG=
202604191830 METAR WIHH 191830Z 15003KT 8000 SCT020 26/23 Q1010 NOSIG=
202604191800 METAR WIHH 191800Z 00000KT 8000 SCT020 26/23 Q1010 NOSIG=
202604191730 METAR WIHH 191730Z 00000KT 8000 SCT018 26/23 Q1010 NOSIG=
202604191700 METAR WIHH 191700Z 14004KT 8000 SCT018 26/23 Q1010 NOSIG=
202604191630 METAR WIHH 191630Z 12002KT 8000 SCT018 26/23 Q1010 NOSIG=
202604191600 METAR WIHH 191600Z 00000KT 8000 FEW017CB SCT018 26/23 Q1010 RMK CB AND RA TO SW=
202604191530 METAR WIHH 191530Z 00000KT 8000 FEW016CB BKN018 26/23 Q1010 RMK CB AND RA TO SW=
202604191500 METAR WIHH 191500Z 23005KT 8000 FEW016CB BKN018 25/24 Q1010 RMK CB AND RA TO SW=
202604191430 METAR WIHH 191430Z 18005KT 8000 FEW016CB BKN018 25/23 Q1010 RMK CB AND RA TO S=
202604191400 METAR WIHH 191400Z 21007KT 8000 FEW016CB BKN018 25/23 Q1010 RMK CB AN D RA TO S=
202604191330 METAR WIHH 191330Z 21007KT 8000 -RA FEW016CB BKN018 25/24 Q1010 RMK CB TO S=
202604191300 METAR WIHH 191300Z 21011KT 8000 -RA FEW016CB BKN018 26/24 Q1010 RMK C B TO S=
202604191230 METAR WIHH 191230Z 19013KT 9999 FEW016CB SCT018 29/24 Q1009 RMK CB AND RA TO S=
202604191200 METAR WIHH 191200Z 04008KT 9999 FEW016CB SCT018 30/24 Q1009 RMK CB AND RA TO S=
202604191130 METAR WIHH 191130Z 03008KT 8000 FEW015CB SCT017 30/24 Q1008 RMK CB AND RA TO S=
202604191100 METAR WIHH 191100Z 35008KT 8000 FEW015CB SCT017 30/24 Q1007 RMK CB AN D RA TO S=
202604191030 METAR WIHH 191030Z 33010KT 8000 SCT015 FEW017CB 30/24 Q1007 RMK CB AND RA TO SW=
202604191000 METAR WIHH 191000Z 03013KT 8000 SCT015 31/24 Q1007 RMK RA TO S=
202604190930 METAR WIHH 190930Z 02015KT 8000 SCT015 32/24 Q1006 RMK RA TO S=
202604190900 METAR WIHH 190900Z 03015KT 8000 SCT015 32/24 Q1006 NOSIG=
202604190830 METAR WIHH 190830Z 04012KT 8000 SCT015 32/25 Q1006 NOSIG=
202604190800 METAR WIHH 190800Z 03009KT 8000 SCT015 33/25 Q1006 NOSIG=
202604190730 METAR WIHH 190730Z 04010KT 8000 SCT015 33/24 Q1006 NOSIG=
202604190700 METAR WIHH 190700Z 07010KT 8000 SCT015 34/23 Q1007 NOSIG=
202604190630 METAR WIHH 190630Z 07012KT 8000 SCT015 34/23 Q1007 NOSIG=
202604190600 METAR WIHH 190600Z 10012KT 8000 SCT015 33/23 Q1008 NOSIG=
202604190530 METAR WIHH 190530Z 07012KT 8000 SCT015 33/23 Q1008 NOSIG=
202604190500 METAR WIHH 190500Z 05010KT 8000 SCT015 33/23 Q1009 NOSIG=
202604190430 METAR WIHH 190430Z 04010KT 8000 SCT015 33/23 Q1009 NOSIG=
202604190400 METAR WIHH 190400Z 08010KT 8000 SCT015 33/23 Q1010 NOSIG=
202604190330 METAR WIHH 190330Z 06008KT 8000 SCT015 32/23 Q1010 NOSIG=
202604190300 METAR WIHH 190300Z 05008KT 6000 SCT020 32/23 Q1011 NOSIG=
202604190230 METAR WIHH 190230Z 07005KT 6000 SCT020 31/23 Q1011 NOSIG=
202604190200 METAR WIHH 190200Z 06011KT 5000 HZ FEW020 31/23 Q1011 NOSIG=
202604190130 METAR WIHH 190130Z 10006KT 5000 HZ FEW020 30/25 Q1011 NOSIG=
202604190100 METAR WIHH 190100Z 10006KT 5000 HZ FEW020 29/25 Q1010 NOSIG=
202604190030 METAR WIHH 190030Z 00000KT 5000 HZ FEW020 28/25 Q1010 NOSIG=
202604190000 METAR WIHH 190000Z 00000KT 5000 HZ FEW020 27/25 Q1010 NOSIG=
202604182330 METAR WIHH 182330Z 00000KT 4000 BR SCT020 25/25 Q1009 NOSIG=
202604182300 METAR WIHH 182300Z 00000KT 6000 SCT020 25/24 Q1009 NOSIG=
202604182230 METAR WIHH 182230Z 00000KT 6000 SCT020 25/25 Q1009 NOSIG=
202604182200 METAR WIHH 182200Z 00000KT 7000 SCT020 25/25 Q1009 NOSIG=
202604182130 METAR WIHH 182130Z 16002KT 7000 SCT020 25/25 Q1009 NOSIG=
202604182100 METAR WIHH 182100Z 19002KT 8000 SCT020 26/25 Q1009 NOSIG=
202604182030 METAR WIHH 182030Z 00000KT 8000 SCT020 25/25 Q1009 NOSIG=
202604182000 METAR WIHH 182000Z 20002KT 8000 FEW020 25/25 Q1009 NOSIG=
202604181930 METAR WIHH 181930Z 00000KT 9999 FEW020 26/25 Q1009 NOSIG=
202604181900 METAR WIHH 181900Z 00000KT 9999 FEW020 26/24 Q1009 NOSIG=
202604181830 METAR WIHH 181830Z 00000KT 9999 FEW020 26/24 Q1010 NOSIG=
202604181800 METAR WIHH 181800Z 00000KT 9999 FEW020 26/24 Q1010 NOSIG=
202604181730 METAR WIHH 181730Z 00000KT 9999 FEW020 26/24 Q1010 NOSIG=
202604181700 METAR WIHH 181700Z 00000KT 9999 FEW020 26/24 Q1010 NOSIG=
202604181630 METAR WIHH 181630Z 00000KT 9999 FEW020 26/24 Q1010 NOSIG=
202604181600 METAR WIHH 181600Z 18002KT 9999 FEW020 26/24 Q1011 NOSIG=
202604181530 METAR WIHH 181530Z 22003KT 9999 SCT020 26/24 Q1011 NOSIG=
202604181500 METAR WIHH 181500Z 18004KT 9999 SCT020 27/24 Q1011 NOSIG=
202604181430 METAR WIHH 181430Z 19005KT 9999 SCT020 27/23 Q1011 NOSIG=
202604181400 METAR WIHH 181400Z 25007KT 9999 SCT020 27/23 Q1010 NOSIG=
202604181330 METAR WIHH 181330Z 21007KT 9999 SCT020 27/24 Q1010 NOSIG=
202604181300 METAR WIHH 181300Z 03003KT 9999 SCT020 30/24 Q1010 NOSIG=
202604181230 METAR WIHH 181230Z 03002KT 9999 SCT020 30/24 Q1010 NOSIG=
202604181200 METAR WIHH 181200Z 04004KT 9999 SCT020 30/24 Q1009 NOSIG=
202604181130 METAR WIHH 181130Z 04005KT 9999 SCT020 30/24 Q1008 NOSIG=
202604181100 METAR WIHH 181100Z 05006KT 8000 SCT020 31/24 Q1007 NOSIG=
202604181030 METAR WIHH 181030Z 04008KT 8000 SCT020 31/23 Q1007 NOSIG=
202604181000 METAR WIHH 181000Z 05010KT 8000 SCT018 31/24 Q1007 NOSIG=
202604180930 METAR WIHH 180930Z 03012KT 8000 SCT018 32/24 Q1007 NOSIG=
202604180900 METAR WIHH 180900Z 04012KT 8000 SCT018 32/24 Q1006 NOSIG=
202604180830 METAR WIHH 180830Z 04010KT 8000 SCT018 33/24 Q1006 NOSIG=
202604180800 METAR WIHH 180800Z 05010KT 8000 SCT018 33/23 Q1006 NOSIG=
202604180730 METAR WIHH 180730Z 07010KT 9000 FEW018 33/23 Q1006 NOSIG=
202604180700 METAR WIHH 180700Z 04013KT 9000 FEW018 33/23 Q1007 NOSIG=
202604180630 METAR WIHH 180630Z 07012KT 8000 SCT018 33/23 Q1007 NOSIG=
202604180600 METAR WIHH 180600Z 06012KT 8000 SCT018 33/23 Q1008 NOSIG=
202604180530 METAR WIHH 180530Z 04012KT 8000 SCT018 34/23 Q1008 NOSIG=
202604180500 METAR WIHH 180500Z 06012KT 7000 SCT018 33/23 Q1009 NOSIG=
202604180430 METAR WIHH 180430Z 04012KT 7000 SCT018 32/24 Q1009 NOSIG=
202604180400 METAR WIHH 180400Z 06007KT 7000 SCT018 32/24 Q1010 NOSIG=
202604180330 METAR WIHH 180330Z 06008KT 7000 SCT018 32/24 Q1010 NOSIG=
202604180300 METAR WIHH 180300Z 11007KT 7000 SCT018 32/24 Q1010 NOSIG=
202604180230 METAR WIHH 180230Z 11007KT 7000 SCT018 31/25 Q1010 NOSIG=
202604180200 METAR WIHH 180200Z 08007KT 6000 SCT018 30/25 Q1010 NOSIG=
202604180130 METAR WIHH 180130Z 09005KT 6000 FEW020 30/25 Q1010 NOSIG=
202604180100 METAR WIHH 180100Z 11005KT 6000 FEW020 30/25 Q1010 NOSIG=
202604180030 METAR WIHH 180030Z 12004KT 5000 HZ FEW020 29/24 Q1009 NOSIG=
202604180000 METAR WIHH 180000Z 07004KT 4000 HZ FEW020 28/25 Q1009 NOSIG=
202604172330 METAR WIHH 172330Z 09002KT 3000 HZ FEW020 27/25 Q1009 NOSIG=
202604172300 METAR WIHH 172300Z 00000KT 5000 HZ FEW020 26/25 Q1008 NOSIG=
202604172230 METAR WIHH 172230Z 09002KT 5000 HZ FEW020 27/25 Q1008 NOSIG=
202604172200 METAR WIHH 172200Z 11003KT 5000 HZ FEW020 27/25 Q1008 NOSIG=
202604172130 METAR WIHH 172130Z 14003KT 5000 HZ FEW020 26/25 Q1008 NOSIG=
202604172100 METAR WIHH 172100Z 19004KT 6000 FEW020 26/25 Q1008 NOSIG=
202604172030 METAR WIHH 172030Z 08004KT 6000 FEW020 26/25 Q1008 NOSIG=
202604172000 METAR WIHH 172000Z 08004KT 6000 FEW020 27/25 Q1008 NOSIG=
202604171930 METAR WIHH 171930Z 09003KT 6000 FEW020 27/25 Q1008 NOSIG=
202604171900 METAR WIHH 171900Z 08003KT 7000 FEW020 27/25 Q1008 NOSIG=
202604171830 METAR WIHH 171830Z 23004KT 6000 25/25 Q1009 NOSIG RMK RA TO N AND SW=
202604171800 METAR WIHH 171800Z 00000KT 7000 FEW020 27/26 Q1010 NOSIG=
202604171730 METAR WIHH 171730Z 00000KT 7000 SCT020 27/26 Q1010 NOSIG=
202604171700 METAR WIHH 171700Z 00000KT 7000 SCT020 28/26 Q1010 NOSIG=
202604171630 METAR WIHH 171630Z 12004KT 7000 FEW020 28/26 Q1010 NOSIG=
202604171600 METAR WIHH 171600Z 13004KT 8000 FEW020 28/26 Q1010 NOSIG=
202604171530 METAR WIHH 171530Z 15005KT 8000 FEW020 28/26 Q1010 NOSIG=
202604171500 METAR WIHH 171500Z 12005KT 8000 FEW020 29/25 Q1010 NOSIG=
202604171430 METAR WIHH 171430Z 10006KT 8000 FEW020 29/25 Q1010 NOSIG=
202604171400 METAR WIHH 171400Z 08006KT 7000 FEW020 29/25 Q1009 NOSIG=
202604171330 METAR WIHH 171330Z 09006KT 7000 SCT020 29/25 Q1009 NOSIG=
202604171300 METAR WIHH 171300Z 05006KT 7000 SCT018 29/25 Q1009 NOSIG=
202604171230 METAR WIHH 171230Z 06005KT 7000 SCT018 30/25 Q1008 NOSIG=
202604171200 METAR WIHH 171200Z 06008KT 7000 SCT017 30/25 Q1008 NOSIG=
202604171130 METAR WIHH 171130Z 06008KT 6000 SCT016 FEW017CB 30/25 Q1008 RMK CB AND RA TO S=
202604171100 METAR WIHH 171100Z 06009KT 6000 SCT016 FEW017CB 30/24 Q1007 RMK CB AN D RA TO S=
202604171030 METAR WIHH 171030Z 06010KT 6000 SCT016 FEW017CB 31/24 Q1007 NOSIG RMK CB AND RA TO S=
202604171000 METAR WIHH 171000Z 08011KT 6000 SCT016 FEW017CB 31/24 Q1007 RMK CB AND RA TO SE-SW=
202604170930 METAR WIHH 170930Z 07013KT 6000 SCT016 FEW017CB 32/23 Q1006 RMK CB AND RA TO SW=
202604170900 METAR WIHH 170900Z 05011KT 5000 TS SCT016 FEW017CB 32/23 Q1006 RMK CB AND RA TO SW=
202604170830 METAR WIHH 170830Z 06010KT 6000 SCT016 33/23 Q1006 RMK CB AND RA TO SE=
202604170800 METAR WIHH 170800Z 06010KT 7000 SCT016 33/23 Q1006 RMK CB AND RA TO SE=
202604170730 METAR WIHH 170730Z 07011KT 7000 SCT017 33/23 Q1006 RMK RA TO SE=
202604170700 METAR WIHH 170700Z 07011KT 6000 SCT017 FEW018CB 33/24 Q1007 RMK CB AN D RA TO SW=
202604170630 METAR WIHH 170630Z 04011KT 6000 SCT017 FEW018CB 33/23 Q1008 RMK CB AND RA TO SW=
202604170600 METAR WIHH 170600Z 06010KT 6000 SCT017 FEW018CB 33/24 Q1008 RMK CB AND RA TO SW=
202604170530 METAR WIHH 170530Z 07011KT 6000 SCT017 33/24 Q1009 NOSIG=
202604170500 METAR WIHH 170500Z 06011KT 6000 SCT017 32/23 Q1009 NOSIG=
202604170430 METAR WIHH 170430Z 06011KT 7000 SCT017 33/24 Q1009 NOSIG=
202604170400 METAR WIHH 170400Z 09008KT 7000 SCT017 32/24 Q1010 NOSIG=
202604170330 METAR WIHH 170330Z 10010KT 7000 SCT020 32/24 Q1010 NOSIG=
202604170300 METAR WIHH 170300Z 07008KT 7000 SCT020 31/23 Q1010 NOSIG=
202604170230 METAR WIHH 170230Z 08005KT 6000 SCT020 30/24 Q1011 NOSIG=
202604170200 METAR WIHH 170200Z 12005KT 6000 SCT020 28/24 Q1011 NOSIG=
202604170130 METAR WIHH 170130Z 09007KT 6000 SCT020 27/24 Q1011 NOSIG=
202604170100 METAR WIHH 170100Z 11005KT 6000 SCT020 27/24 Q1011 NOSIG=
202604170030 METAR WIHH 170030Z 12004KT 6000 SCT020 26/24 Q1010 NOSIG=
202604170000 METAR WIHH 170000Z 10004KT 6000 SCT020 26/24 Q1010 NOSIG=
202604162330 METAR WIHH 162330Z 10004KT 6000 SCT020 26/25 Q1010 NOSIG=
202604162300 METAR WIHH 162300Z 09003KT 6000 SCT020 26/25 Q1009 NOSIG=
202604162230 METAR WIHH 162230Z 12003KT 6000 SCT016 25/25 Q1009 NOSIG=
202604162200 METAR WIHH 162200Z 24003KT 6000 SCT016 25/25 Q1009 NOSIG=
202604162130 METAR WIHH 162130Z 00000KT 6000 SCT016 25/25 Q1010 NOSIG=
202604162100 METAR WIHH 162100Z 25003KT 6000 SCT016 25/25 Q1010 NOSIG=
202604162030 METAR WIHH 162030Z 24003KT 6000 SCT016 25/25 Q1010 NOSIG=
202604162000 METAR WIHH 162000Z 23003KT 6000 SCT016 25/25 Q1009 NOSIG=
202604161930 METAR WIHH 161930Z 23003KT 6000 SCT016 25/25 Q1009 NOSIG=
202604161900 METAR WIHH 161900Z 21003KT 6000 SCT016 25/24 Q1009 NOSIG RMK NIL=
202604161830 METAR WIHH 161830Z 23004KT 6000 BKN017 25/25 Q1009 RMK RA TO N AND SW=
202604161800 METAR WIHH 161800Z 20004KT 6000 BKN017 25/25 Q1010 RMK RA TO S=
202604161730 METAR WIHH 161730Z 23003KT 6000 SCT018 25/25 Q1010 RMK RA TO S=
202604161700 METAR WIHH 161700Z 18001KT 6000 BKN017 26/25 Q1011 RMK RA TO S=
202604161630 METAR WIHH 161630Z 20002KT 4000 BR BKN017 25/25 Q1011 RMK CB AND RA TO S=
202604161600 METAR WIHH 161600Z 20007KT 6000 TS BKN016 FEW017CB 26/23 Q1011 RMK CB AND RA TO S=
202604161530 METAR WIHH 161530Z 21008KT 5000 -TSRA BKN014 FEW016CB 25/25 Q1011 RMK CB TO SW=
202604161500 METAR WIHH 161500Z 15006KT 3000 -TSRA BKN014 FEW016CB 26/25 Q1011 RMK CB TO S=
202604161430 METAR WIHH 161430Z 28006KT 5000 -TSRA BKN015 25/25 Q1010 RMK CB TO S=
202604161400 METAR WIHH 161400Z 21010KT 5000 -TSRA BKN015 25/25 Q1010 RMK CB TO S=
202604161330 METAR WIHH 161330Z 18006KT 6000 -TSRA BKN015 FEW017CB 27/24 Q1010 RMK RA TO S=
202604161300 METAR WIHH 161300Z 22004KT 6000 TS SCT015 FEW017CB 27/24 Q1009 RMK CB AND RA TO S=
202604161230 METAR WIHH 161230Z 21010KT 6000 TS SCT015 FEW017CB 27/24 Q1009 RMK CB AND RA TO S=
202604161200 METAR WIHH 161200Z 19010KT 6000 TS SCT015 SCT017CB 28/25 Q1008 RMK CB AND RA TO S=
202604161130 METAR WIHH 161130Z 06005KT 6000 TS SCT015 FEW017CB 30/24 Q1008 RMK CB AND RA TO SW=
202604161100 METAR WIHH 161100Z 05008KT 4000 TS SCT015 FEW017CB 30/24 Q1007 RMK CB AND RA TO S=
202604161030 METAR WIHH 161030Z 03006KT 4000 TS SCT015 FEW017CB 31/24 Q1007 RMK CB AND RA TO S=
202604161000 METAR WIHH 161000Z 05012KT 6000 TS SCT015 FEW017CB 31/23 Q1007 RMK CB AND RA TO S=
202604160930 METAR WIHH 160930Z 03010KT 6000 SCT015 32/24 Q1006 RMK RA TO S=
202604160900 METAR WIHH 160900Z 03010KT 6000 SCT018 33/24 Q1005 TEMPO FM0930 21010 KT 3000 -TSRA BKN015 FEW017CB RMK RA TO S=
202604160830 METAR WIHH 160830Z 03011KT 6000 BKN015 33/24 Q1006 TEMPO FM0930 21010KT 3000 -TSRA FEW017CB RMK RA TO SW=
202604160800 METAR WIHH 160800Z 07010KT 6000 SCT018 33/24 Q1006 RMK RA TO W=
202604160730 METAR WIHH 160730Z 05010KT 6000 SCT018 33/24 Q1006 RMK RA TO W=
202604160700 METAR WIHH 160700Z 08008KT 6000 SCT018 33/24 Q1007 RMK RA TO W=
202604160630 METAR WIHH 160630Z 10007KT 6000 SCT018 34/23 Q1007 NOSIG=
202604160600 METAR WIHH 160600Z 06008KT 5000 HZ SCT018 33/23 Q1008 NOSIG=
202604160530 METAR WIHH 160530Z 08006KT 5000 HZ SCT018 32/23 Q1008 NOSIG=
202604160500 METAR WIHH 160500Z 07004KT 5000 HZ SCT018 33/23 Q1009 NOSIG=
202604160430 METAR WIHH 160430Z 05004KT 5000 HZ SCT018 33/23 Q1009 NOSIG=
202604160400 METAR WIHH 160400Z 07004KT 5000 HZ SCT018 32/23 Q1010 NOSIG=
202604160330 METAR WIHH 160330Z 06005KT 6000 SCT018 32/24 Q1010 NOSIG=
202604160300 METAR WIHH 160300Z 14005KT 6000 SCT020 31/24 Q1010 NOSIG=
202604160230 METAR WIHH 160230Z 14003KT 6000 FEW020 31/24 Q1010 NOSIG=
202604160200 METAR WIHH 160200Z 08005KT 6000 FEW002 30/25 Q1010 NOSIG=
202604160130 METAR WIHH 160130Z 14003KT 5000 HZ FEW020 29/24 Q1010 NOSIG=
202604160100 METAR WIHH 160100Z 12003KT 5000 HZ FEW020 29/25 Q1010 NOSIG=
202604160030 METAR WIHH 160030Z 13003KT 5000 HZ FEW020 27/25 Q1010 NOSIG=
202604160000 METAR WIHH 160000Z 12003KT 4000 BR FEW020 26/25 Q1009 NOSIG=
202604152330 METAR WIHH 152330Z 00000KT 4000 BR SCT020 25/25 Q1009 NOSIG=
202604152300 METAR WIHH 152300Z 00000KT 3000 BR SCT018 25/25 Q1009 NOSIG=
202604152230 METAR WIHH 152230Z 00000KT 4000 BR SCT018 25/25 Q1009 NOSIG=
202604152200 METAR WIHH 152200Z 00000KT 4000 BR SCT018 25/25 Q1009 NOSIG=
202604152130 METAR WIHH 152130Z 14003KT 6000 SCT018 26/25 Q1009 NOSIG=
202604152100 METAR WIHH 152100Z 17002KT 6000 SCT018 26/25 Q1009 NOSIG=
202604152030 METAR WIHH 152030Z 19002KT 6000 SCT018 26/25 Q1009 NOSIG=
202604152000 METAR WIHH 152000Z 00000KT 6000 SCT018 25/25 Q1010 NOSIG=
202604151930 METAR WIHH 151930Z 00000KT 6000 SCT018 25/25 Q1010 NOSIG=
202604151900 METAR WIHH 151900Z 00000KT 6000 SCT018 25/25 Q1010 NOSIG=
202604151830 METAR WIHH 151830Z 00000KT 6000 SCT018 25/25 Q1010 NOSIG=
202604151800 METAR WIHH 151800Z 00000KT 6000 SCT018 25/25 Q1010 NOSIG=
202604151730 METAR WIHH 151730Z 00000KT 6000 SCT018 26/25 Q1011 NOSIG=
202604151700 METAR WIHH 151700Z 00000KT 6000 SCT018 26/25 Q1011 NOSIG=
202604151630 METAR WIHH 151630Z 27003KT 6000 SCT018 26/25 Q1011 RMK RA TO NW=
202604151600 METAR WIHH 151600Z 22001KT 6000 SCT018 26/25 Q1011 NOSIG=
202604151530 METAR WIHH 151530Z 16002KT 6000 SCT017 26/25 Q1011 NOSIG=
202604151500 METAR WIHH 151500Z 24004KT 6000 SCT017 26/25 Q1010 NOSIG=
202604151430 METAR WIHH 151430Z 24003KT 6000 SCT017 25/25 Q1010 NOSIG=
202604151400 METAR WIHH 151400Z 25003KT 6000 SCT017 25/25 Q1010 RMK RA TO E AND S=
202604151330 METAR WIHH 151330Z 21004KT 6000 SCT017 25/25 Q1010 RMK RA TO NE AND S=
202604151300 METAR WIHH 151300Z 22001KT 6000 FEW017CB SCT018 25/25 Q1010 RMK CB AND RA TO NE=
202604151230 METAR WIHH 151230Z 20005KT 6000 BKN017 25/25 Q1009 RMK RA TO NE=
202604151200 METAR WIHH 151200Z 21003KT 5000 TS SCT016 FEW017CB 25/24 Q1009 RMK CB TO NW=
202604151130 METAR WIHH 151130Z 22006KT 5000 -TSRA BKN015 FEW017CB 25/25 Q1008 RMK CB TO W=
202604151100 METAR WIHH 151100Z 20030KT 0500 +TSRA BKN011 FEW016CB 27/25 Q1009 TEMPO TL1130 2000 -TSRA RMK CB OVER THE FIELD=
202604151030 METAR WIHH 151030Z 20010KT 4000 TS BKN016 FEW017CB 28/25 Q1008 RMK CB AND RA TO SW=
202604151000 METAR WIHH 151000Z 03003KT 4000 TS BKN016 FEW017CB 30/25 Q1007 RMK CB AND RA TO SW-W=
202604150930 METAR WIHH 150930Z 03005KT 6000 TS FEW017CB SCT018 30/25 Q1007 RMK CB AND RA TO SW=
202604150900 METAR WIHH 150900Z 04006KT 6000 SCT017 30/25 Q1007 RMK RA TO S=
202604150830 METAR WIHH 150830Z 02008KT 6000 FEW017CB SCT018 31/25 Q1006 NOSIG RMK CB AND RA TO S=
202604150800 METAR WIHH 150800Z 03006KT 6000 -RA FEW017CB SCT018 30/25 Q1006 RMK C B TO SE=
202604150730 METAR WIHH 150730Z 02005KT 5000 -RA SCT016 FEW017CB 30/25 Q1007 RMK CB TO E-SE=
202604150700 METAR WIHH 150700Z 01004KT 4000 -TSRA BKN016 FEW017CB 28/25 Q1007 TEM PO TL0730 3000 -TSRA RMK CB TO NE-SE=
202604150630 METAR WIHH 150630Z 06012KT 4000 -TSRA BKN016 FEW017CB 29/25 Q1007 TEM PO TL0700 3000 -TSRA RMK CB TO NE=
202604150600 METAR WIHH 150600Z 04012KT 2000 RA BKN016 FEW018CB 32/23 Q1008 RMK CB TO NE=
202604150530 METAR WIHH 150530Z 34007KT 6000 SCT017 FEW018CB 32/23 Q1008 TEMPO TL0600 3000 -TSRA RMK CB TO S=
202604150500 METAR WIHH 150500Z 34007KT 7000 SCT017 32/23 Q1009 RMK RA TO N=
202604150430 METAR WIHH 150430Z 35003KT 7000 SCT020 33/23 Q1009 NOSIG=
202604150400 METAR WIHH 150400Z 25003KT 7000 SCT020 32/23 Q1010 NOSIG=
202604150330 METAR WIHH 150330Z 23003KT 7000 SCT020 32/22 Q1010 NOSIG=
202604150300 METAR WIHH NIL=
202604150230 METAR WIHH 150230Z 06003KT 7000 FEW020 31/22 Q1010 NOSIG=
202604150200 METAR WIHH 150200Z 28003KT 7000 FEW020 30/24 Q1010 NOSIG=
202604150130 METAR WIHH 150130Z 26003KT 6000 FEW020 29/24 Q1010 NOSIG=
202604150100 METAR WIHH 150100Z 25003KT 6000 FEW020 28/25 Q1010 NOSIG=
202604150030 METAR WIHH 150030Z 20004KT 5000 HZ FEW020 26/25 Q1010 NOSIG=
202604150000 METAR WIHH 150000Z 23003KT 3000 BR FEW020 26/25 Q1010 NOSIG=
202604142330 METAR WIHH 142330Z 00000KT 3000 BR FEW020 25/25 Q1009 NOSIG=
202604142300 METAR WIHH 142300Z 13004KT 4000 BR FEW020 24/24 Q1009 NOSIG=
202604142230 METAR WIHH 142230Z 00000KT 6000 FEW020 25/24 Q1009 NOSIG=
202604142200 METAR WIHH 142200Z 25005KT 6000 SCT020 25/24 Q1008 NOSIG=
202604142130 METAR WIHH 142130Z 25005KT 6000 SCT020 25/24 Q1009 NOSIG=
202604142100 METAR WIHH 142100Z 26005KT 6000 SCT020 25/24 Q1009 NOSIG=
202604142030 METAR WIHH 142030Z 26003KT 6000 SCT020 25/24 Q1009 NOSIG=
202604142000 METAR WIHH 142000Z 25003KT 6000 SCT020 25/24 Q1009 NOSIG=
202604141930 METAR WIHH 141930Z 20003KT 6000 SCT020 25/24 Q1010 NOSIG=
202604141900 METAR WIHH 141900Z 00000KT 6000 SCT020 25/24 Q1010 NOSIG=
202604141830 METAR WIHH 141830Z 00000KT 6000 SCT020 25/24 Q1010 NOSIG=
202604141800 METAR WIHH 141800Z 00000KT 6000 SCT020 24/24 Q1010 NOSIG=
202604141730 METAR WIHH 141730Z 00000KT 6000 SCT020 25/24 Q1010 NOSIG=
202604141700 METAR WIHH 141700Z 00000KT 6000 SCT020 25/24 Q1011 NOSIG=
202604141630 METAR WIHH 141630Z 00000KT 6000 SCT020 25/24 Q1011 NOSIG=
202604141600 METAR WIHH 141600Z 00000KT 6000 SCT020 25/24 Q1011 NOSIG=
202604141530 METAR WIHH 141530Z 08003KT 6000 SCT020 25/24 Q1011 NOSIG=
202604141500 METAR WIHH 141500Z 08004KT 6000 SCT020 25/24 Q1011 NOSIG=
202604141430 METAR WIHH 141430Z 13004KT 6000 SCT020 25/24 Q1011 NOSIG=
202604141400 METAR WIHH 141400Z 13006KT 6000 SCT017 25/24 Q1011 RMK RA TO SE=
202604141330 METAR WIHH 141330Z 12008KT 6000 SCT017 25/24 Q1011 RMK RA TO SE=
202604141300 METAR WIHH 141300Z 09003KT 6000 SCT017 25/24 Q1010 RMK RA TO SE=
202604141230 METAR WIHH 141230Z 09003KT 6000 -RA SCT017 FEW018CB 25/24 Q1010 RMK CB TO E=
202604141200 METAR WIHH 141200Z 10007KT 6000 -RA SCT017 FEW018CB 25/24 Q1010 RMK CB TO SE=
202604141130 METAR WIHH 141130Z 18006KT 4000 -TSRA BKN015 FEW017CB 24/23 Q1009 RMK CB TO S=
202604141100 METAR WIHH NIL=
202604141000 METAR WIHH NIL=
202604140900 METAR WIHH NIL=
202604140800 METAR WIHH NIL=
202604140700 METAR WIHH NIL=
202604140600 METAR WIHH NIL=
202604140500 METAR WIHH 140500Z 03012KT 7000 SCT020 33/24 Q1009 NOSIG=
202604140430 METAR WIHH 140430Z 06008KT 6000 SCT018 33/23 Q1010 NOSIG=
202604140400 METAR WIHH 140400Z 06008KT 6000 SCT020 33/23 Q1010 NOSIG=
202604140330 METAR WIHH 140330Z 08007KT 6000 SCT020 33/23 Q1011 NOSIG=
202604140300 METAR WIHH 140300Z 01005KT 7000 FEW020 32/24 Q1011 NOSIG=
202604140230 METAR WIHH 140230Z 05003KT 7000 FEW020 32/25 Q1011 NOSIG=
202604140200 METAR WIHH 140200Z 08007KT 7000 FEW020 31/24 Q1011 NOSIG=
202604140130 METAR WIHH 140130Z 13003KT 6000 FEW020 31/25 Q1011 NOSIG=
202604140100 METAR WIHH 140100Z 08005KT 6000 FEW020 30/25 Q1011 NOSIG=
202604140030 METAR WIHH 140030Z 00000KT 6000 FEW020 29/24 Q1011 NOSIG=
202604140000 METAR WIHH 140000Z 00000KT 6000 FEW020 28/24 Q1010 NOSIG=
202604132330 METAR WIHH 132330Z 00000KT 6000 FEW020 27/24 Q1010 NOSIG=
202604132300 METAR WIHH 132300Z 00000KT 6000 FEW020 27/24 Q1010 NOSIG=
202604132230 METAR WIHH 132230Z 00000KT 6000 SCT018 27/24 Q1009 NOSIG=
202604132200 METAR WIHH 132200Z 00000KT 6000 SCT018 27/24 Q1009 NOSIG=
202604132130 METAR WIHH 132130Z 00000KT 6000 SCT018 27/24 Q1009 NOSIG=
202604132100 METAR WIHH 132100Z 00000KT 6000 SCT018 27/26 Q1009 NOSIG=
202604132030 METAR WIHH 132030Z 00000KT 6000 SCT020 27/25 Q1009 NOSIG=
202604132000 METAR WIHH 132000Z 00000KT 6000 SCT020 27/25 Q1010 NOSIG=
202604131930 METAR WIHH 131930Z 00000KT 6000 SCT020 27/25 Q1010 NOSIG=
202604131900 METAR WIHH 131900Z 00000KT 6000 SCT020 27/25 Q1010 NOSIG=
202604131830 METAR WIHH 131830Z 00000KT 6000 SCT020 27/25 Q1010 NOSIG=
202604131800 METAR WIHH 131800Z 12003KT 6000 SCT020 27/25 Q1010 NOSIG=
202604131730 METAR WIHH 131730Z 12004KT 6000 SCT020 27/25 Q1010 NOSIG=
202604131700 METAR WIHH 131700Z 00000KT 6000 BKN018 27/25 Q1011 NOSIG=
202604131630 METAR WIHH 131630Z 21003KT 6000 BKN018 27/26 Q1011 NOSIG=
202604131600 METAR WIHH 131600Z 00000KT 6000 BKN018 27/26 Q1011 NOSIG=
202604131530 METAR WIHH 131530Z 20003KT 6000 BKN018 27/26 Q1011 RMK RA TO E=
202604131500 METAR WIHH 131500Z 20004KT 6000 BKN018 27/26 Q1011 RMK RA TO SW=
202604131430 METAR WIHH 131430Z 19004KT 6000 FEW016CB BKN018 27/26 Q1011 RMK CB AN D RA TO S=
202604131400 METAR WIHH 131400Z 18005KT 8000 TS FEW016CB BKN018 29/25 Q1011 RMK CB AND RA TO S=
202604131330 METAR WIHH 131330Z 20005KT 8000 TS FEW016CB BKN018 30/24 Q1011 RMK CB AND RA TO SW=
202604131300 METAR WIHH 131300Z 08005KT 8000 TS FEW016CB BKN018 30/24 Q1011 RMK CB AND RA TO SW=
202604131230 METAR WIHH 131230Z 00000KT 8000 TS FEW017CB BKN018 30/24 Q1011 RMK CB AND RA TO S=
202604131200 METAR WIHH 131200Z 05005KT 8000 FEW016CB SCT018 30/24 Q1010 RMK CB AND RA TO S=
202604131130 METAR WIHH 131130Z 03005KT 8000 TS FEW017CB SCT018 30/24 Q1009 RMK CB TO S=
202604131100 METAR WIHH 131100Z 07008KT 8000 SCT018 30/24 Q1008 RMK RA TO NW=
202604131030 METAR WIHH 131030Z 05008KT 8000 FEW017CB SCT018 30/24 Q1008 RMK RA TO NW=
202604131000 METAR WIHH 131000Z 02012KT 8000 FEW017CB SCT018 32/24 Q1008 RMK CB AND RA TO SW=
202604130930 METAR WIHH 130930Z 04009KT 8000 TS FEW016CB SCT018 32/23 Q1007 RMK CB AND RA TO SW=
202604130900 METAR WIHH 130900Z 07012KT 8000 TS FEW016CB SCT018 33/23 Q1007 RMK CB AND RA TO NW=
202604130830 METAR WIHH 130830Z 09015KT 8000 TS FEW016 SCT018 33/23 Q1007 RMK CB AND RA TO NW=
202604130815 SPECI WIHH 130815Z 04015KT 8000 FEW016CB SCT018 33/23 Q1007 RMK CB AND RA TO NW=
202604130800 METAR WIHH 130800Z 07010KT 8000 SCT018 33/23 Q1007 RMK RA TO NW=
202604130730 METAR WIHH 130730Z 07012KT 8000 SCT018 34/24 Q1007 RMK RA TO NW=
202604130700 METAR WIHH 130700Z 06006KT 8000 SCT018 33/23 Q1008 NOSIG=
202604130630 METAR WIHH 130630Z 04007KT 8000 SCT018 33/23 Q1008 NOSIG=
202604130600 METAR WIHH 130600Z 03005KT 8000 SCT018 33/23 Q1008 NOSIG=
202604130530 METAR WIHH 130530Z 07008KT 8000 SCT018 33/24 Q1009 NOSIG=
202604130500 METAR WIHH 130500Z 06012KT 8000 SCT018 33/24 Q1010 NOSIG=
202604130430 METAR WIHH 130430Z 03005KT 8000 SCT018 33/24 Q1010 NOSIG=
202604130400 METAR WIHH 130400Z 03008KT 8000 SCT018 32/24 Q1011 NOSIG=
202604130330 METAR WIHH 130330Z 13004KT 8000 SCT018 32/24 Q1011 NOSIG=
202604130300 METAR WIHH 130300Z 13004KT 8000 FEW018 32/24 Q1011 NOSIG=
202604130230 METAR WIHH 130230Z 12004KT 8000 FEW020 31/24 Q1012 NOSIG=
202604130200 METAR WIHH 130200Z 09004KT 8000 FEW020 31/24 Q1012 NOSIG=
202604130130 METAR WIHH 130130Z 12005KT 6000 FEW020 30/24 Q1011 NOSIG=
202604130100 METAR WIHH 130100Z 14003KT 5000 HZ FEW020 29/24 Q1011 NOSIG=
202604130030 METAR WIHH 130030Z 13003KT 5000 HZ FEW020 28/25 Q1011 NOSIG=
202604130000 METAR WIHH 130000Z 00000KT 4000 BR FEW020 26/26 Q1011 NOSIG=
202604122330 METAR WIHH 122330Z 06003KT 4000 BR FEW020 25/25 Q1011 NOSIG=
202604122300 METAR WIHH 122300Z 00000KT 3000 BR FEW020 25/25 Q1010 NOSIG=
202604122230 METAR WIHH 122230Z 18003KT 4000 BR FEW020 25/25 Q1010 NOSIG=
202604122200 METAR WIHH 122200Z 19003KT 4000 BR FEW020 25/25 Q1009 NOSIG=
202604122130 METAR WIHH 122130Z 00000KT 4000 BR FEW020 25/25 Q1009 NOSIG=
202604122100 METAR WIHH 122100Z 17003KT 4000 BR SCT018 25/25 Q1009 NOSIG=
202604122030 METAR WIHH 122030Z 00000KT 6000 SCT018 26/25 Q1010 NOSIG=
202604122000 METAR WIHH 122000Z 00000KT 6000 SCT018 26/25 Q1010 NOSIG=
202604121930 METAR WIHH 121930Z 00000KT 6000 SCT018 26/24 Q1010 NOSIG=
202604121900 METAR WIHH 121900Z 00000KT 6000 SCT018 26/24 Q1010 NOSIG=
202604121830 METAR WIHH 121830Z 00000KT 6000 SCT018 26/25 Q1010 NOSIG=
202604121800 METAR WIHH 121800Z 00000KT 6000 SCT018 26/25 Q1010 NOSIG=
202604121730 METAR WIHH 121730Z 00000KT 6000 SCT020 26/25 Q1011 NOSIG=
202604121700 METAR WIHH 121700Z 00000KT 6000 SCT018 26/25 Q1011 NOSIG=
202604121630 METAR WIHH 121630Z 00000KT 6000 SCT018 26/25 Q1011 NOSIG=
202604121600 METAR WIHH 121600Z 16003KT 7000 SCT018 26/25 Q1012 NOSIG=
202604121530 METAR WIHH 121530Z 15003KT 7000 SCT018 25/25 Q1012 NOSIG=
202604121500 METAR WIHH 121500Z 17003KT 7000 SCT018 25/25 Q1011 NOSIG=
202604121430 METAR WIHH 121430Z 18003KT 7000 SCT018 26/25 Q1011 RMK RA TO NW=
202604121400 METAR WIHH 121400Z 09004KT 7000 SCT018 26/25 Q1011 RMK RA TO NE-N=
202604121330 METAR WIHH 121330Z 35003KT 7000 FEW017CB SCT018 26/25 Q1011 TEMPO FM1340 3000 -RA RMK CB AND RA TO SW-NW=
202604121300 METAR WIHH 121300Z 07003KT 7000 FEW017CB SCT018 26/25 Q1011 TEMPO FM1 320 3000 -TSRA RMK CB AND RA TO SW-NW=
202604121230 METAR WIHH 121230Z 09003KT 7000 SCT017 25/25 Q1010 RMK RA TO N=
202604121200 METAR WIHH 121200Z 27003KT 7000 SCT017 25/25 Q1009 NOSIG=
202604121130 METAR WIHH 121130Z 13004KT 7000 BKN017 25/24 Q1008 NOSIG=
202604121100 METAR WIHH 121100Z 27007KT 7000 -RA FEW017CB SCT018 25/24 Q1008 RMK CB TO NE=
202604121030 METAR WIHH 121030Z 36007KT 6000 -TSRA SCT016 FEW017CB 24/24 Q1008 RMK CB TO N-E=
202604121000 METAR WIHH 121000Z 09004KT 4000 -TSRA BKN015 FEW017CB 24/22 Q1008 TEMPO TL1020 4000 -RA RMK CB TO N - E=
202604120930 METAR WIHH 120930Z 18018KT 0500 +TSRA BKN014 FEW016CB 28/23 Q1008 TEMPO TL1000 3000 -TSRA RMK CB OVER THE FIELD=
202604120900 METAR WIHH 120900Z 02008KT 7000 SCT016 FEW017CB 33/24 Q1006 TEMPO FM0905 3000 -TSRA BKN015 FEW016CB RMK CB AND RA SE-SW=
202604120840 SPECI WIHH 120840Z 02008KT 7000 TS SCT017 FEW018CB 34/24 Q1006 RMK CB AND RA TO S=
202604120830 METAR WIHH 120830Z 02007KT 8000 SCT018 34/25 Q1006 RMK RA TO S=
202604120800 METAR WIHH 120800Z 36003KT 8000 SCT018 34/24 Q1006 RMK RA TO S=
202604120730 METAR WIHH 120730Z 32004KT 8000 SCT018 34/24 Q1006 NOSIG=
202604120700 METAR WIHH 120700Z 01005KT 8000 SCT018 33/24 Q1007 NOSIG=
202604120630 METAR WIHH 120630Z 32003KT 7000 SCT018 33/24 Q1007 NOSIG=
202604120600 METAR WIHH 120600Z 18004KT 7000 SCT018 34/22 Q1008 NOSIG=
202604120530 METAR WIHH 120530Z 21003KT 8000 SCT018 34/23 Q1008 NOSIG=
202604120500 METAR WIHH 120500Z 22008KT 8000 SCT020 34/22 Q1009 NOSIG=
202604120430 METAR WIHH 120430Z 19004KT 8000 FEW020 33/22 Q1009 NOSIG=
202604120400 METAR WIHH 120400Z 20006KT 8000 FEW020 33/23 Q1010 NOSIG=
202604120330 METAR WIHH 120330Z 18003KT 8000 FEW020 32/23 Q1011 NOSIG=
202604120300 METAR WIHH 120300Z 12003KT 7000 FEW020 31/23 Q1012 NOSIG=
202604120230 METAR WIHH 120230Z 18005KT 8000 FEW020 30/23 Q1012 NOSIG=
202604120200 METAR WIHH 120200Z 16003KT 8000 FEW020 29/23 Q1012 NOSIG=
202604120130 METAR WIHH 120130Z 15003KT 8000 FEW020 28/24 Q1012 NOSIG=
202604120100 METAR WIHH 120100Z 00000KT 8000 FEW020 29/24 Q1012 NOSIG=
202604120030 METAR WIHH 120030Z 00000KT 8000 FEW020 26/24 Q1011 NOSIG=
202604120000 METAR WIHH 120000Z 00000KT 7000 FEW020 24/24 Q1011 NOSIG=
202604112330 METAR WIHH 112330Z 00000KT 8000 FEW020 24/24 Q1011 NOSIG=
202604112300 METAR WIHH 112300Z 21002KT 8000 FEW020 24/24 Q1010 NOSIG=
202604112230 METAR WIHH 112230Z 27005KT 8000 FEW020 24/24 Q1010 NOSIG=
202604112200 METAR WIHH 112200Z 27004KT 8000 FEW020 24/23 Q1010 NOSIG=
202604112130 METAR WIHH 112130Z 26004KT 8000 FEW020 24/23 Q1010 NOSIG=
202604112100 METAR WIHH 112100Z 26003KT 8000 FEW020 24/24 Q1010 NOSIG=
202604112030 METAR WIHH 112030Z 24003KT 8000 FEW020 24/24 Q1010 NOSIG=
202604112000 METAR WIHH 112000Z 22003KT 8000 SCT020 25/24 Q1011 NOSIG=
202604111930 METAR WIHH 111930Z 21003KT 8000 SCT020 25/25 Q1011 NOSIG=
202604111900 METAR WIHH 111900Z 00000KT 7000 SCT018 25/25 Q1011 NOSIG=
202604111830 METAR WIHH 111830Z 24003KT 7000 SCT018 25/25 Q1011 NOSIG=
202604111800 METAR WIHH 111800Z 00000KT 7000 SCT018 25/25 Q1011 NOSIG=
202604111730 METAR WIHH 111730Z 00000KT 7000 SCT018 25/25 Q1012 NOSIG=
202604111700 METAR WIHH 111700Z 17003KT 7000 -RA SCT016 25/23 Q1012 NOSIG=
202604111630 METAR WIHH 111630Z 00000KT 7000 SCT016 25/25 Q1012 RMK RA TO S=
202604111600 METAR WIHH 111600Z 00000KT 7000 SCT016 26/25 Q1013 RMK RA TO S=
202604111530 METAR WIHH 111530Z 14003KT 6000 SCT016 26/25 Q1013 RMK RA TO E=
202604111500 METAR WIHH 111500Z 16005KT 5000 -RA BKN016 26/25 Q1013 NOSIG=
202604111430 METAR WIHH 111430Z 14005KT 4000 -RA BKN016 26/25 Q1013 NOSIG=
202604111400 METAR WIHH 111400Z 12004KT 4000 -RA BKN016 26/26 Q1013 NOSIG=
202604111330 METAR WIHH 111330Z 12005KT 4000 -RA BKN016 26/26 Q1012 TEMPO TL1430 5 000 -RA SCT017=
202604111300 METAR WIHH 111300Z 15005KT 4000 -TSRA BKN016 FEW017CB 27/26 Q1012 TEMPO TL1400 5000 -RA RMK CB TO SE=
202604111230 METAR WIHH 111230Z 15005KT 4000 -TSRA BKN016 FEW017CB 27/26 Q1011 TEMPO TL1330 3000 -TSRA RMK CB TO S=
202604111200 METAR WIHH 111200Z 16005KT 4000 -TSRA BKN016 FEW017CB 27/27 Q1010 TEM PO TL1300 2000 -TSRA RMK CB TO S=
202604111130 METAR WIHH 111130Z 16004KT 4000 -TSRA BKN016 FEW017CB 27/27 Q1010 TEMPO TL1230 2000 -TSRA RMK CB TO S=
202604111100 METAR WIHH 111100Z 24004KT 4000 TS BKN016 FEW017CB 27/26 Q1009 RMK CB TO S=
202604111030 METAR WIHH 111030Z 18004KT 5000 HZ SCT016 FEW017CB 27/26 Q1009 RMK CB AND RA TO S=
202604111000 METAR WIHH 111000Z 26004KT 6000 TS SCT016 FEW017CB 27/26 Q1008 RMK CB AND RA TO S=
202604110930 METAR WIHH 110930Z 25006KT 5000 -TSRA SCT015 FEW017CB 27/26 Q1008 RMK CB TO S=
202604110900 METAR WIHH 110900Z 23006KT 3000 -TSRA BKN015 FEW017CB 27/26 Q1008 RMK CB TO E AND S=
202604110830 METAR WIHH 110830Z 24015KT 3000 -TSRA BKN015 FEW017CB 30/24 Q1008 RMK CB OTF=
202604110800 METAR WIHH 110800Z 34008KT 4000 -TS BKN016 FEW017CB 33/24 Q1007 RMK CB AND RA TO S TL W=
202604110730 METAR WIHH 110730Z 34007KT 4000 -TSRA 32/25 Q1008 RMK CB TO E AND W=
202604110705 SPECI WIHH 110705Z 35007KT 4000 -RA SCT016 FEW017CB 32/24 Q1008 RMK CB TO NW AND E=
202604110700 METAR WIHH 110700Z 04007KT 6000 SCT017 FEW018CB 33/24 Q1008 TEMPO FM0 745 3000 -TSRA BKN015 RMK CB AND RA TO W AND SE=
202604110630 METAR WIHH 110630Z 02006KT 7000 SCT017 34/24 Q1008 NOSIG=
202604110600 METAR WIHH 110600Z 32004KT 7000 SCT017 34/22 Q1009 NOSIG=
202604110530 METAR WIHH 110530Z 33003KT 7000 SCT018 33/22 Q1009 NOSIG=
202604110500 METAR WIHH 110500Z 27003KT 7000 SCT017 34/23 Q1010 NOSIG=
202604110430 METAR WIHH 110430Z 21005KT 7000 SCT016 33/23 Q1010 NOSIG=
202604110400 METAR WIHH 110400Z 30005KT 7000 SCT019 32/23 Q1011 NOSIG=
202604110300 METAR WIHH 110300Z 12003KT 7000 SCT019 32/24 Q1012 NOSIG=
202604110230 METAR WIHH 110230Z 12004KT 7000 FEW019 31/24 Q1012 NOSIG=
202604110200 METAR WIHH 110200Z 12004KT 6000 FEW020 30/24 Q1012 NOSIG=
202604110130 METAR WIHH 110130Z 12003KT 4000 HZ FEW020 30/24 Q1012 NOSIG=
202604110100 METAR WIHH 110100Z 16003KT 4000 HZ FEW020 29/24 Q1012 NOSIG=
202604110030 METAR WIHH 110030Z 00000KT 4000 HZ FEW020 26/24 Q1012 NOSIG=
202604110000 METAR WIHH NIL=
202604102330 METAR WIHH 102330Z 00000KT 4000 BR FEW020 25/25 Q1011 NOSIG=
202604102300 METAR WIHH 102300Z 00000KT 5000 BR FEW020 25/25 Q1011 NOSIG=
202604102230 METAR WIHH 102230Z 15004KT 8000 FEW020 25/24 Q1011 NOSIG=
202604102200 METAR WIHH 102200Z 00000KT 8000 FEW020 25/24 Q1010 NOSIG=
202604102130 METAR WIHH 102130Z 00000KT 8000 FEW000 25/24 Q1010 NOSIG=
202604102100 METAR WIHH 102100Z 11003KT 7000 FEW020 26/24 Q1010 NOSIG=
202604102030 METAR WIHH 102030Z 11003KT 7000 FEW020 26/24 Q1010 NOSIG=
202604102000 METAR WIHH 102000Z 12003KT 7000 FEW020 26/24 Q1010 NOSIG=
202604101930 METAR WIHH 101930Z 00000KT 8000 FEW020 26/24 Q1011 NOSIG=
202604101900 METAR WIHH 101900Z 00000KT 8000 FEW020 26/24 Q1011 NOSIG=
202604101830 METAR WIHH 101830Z 00000KT 8000 FEW020 26/24 Q1011 NOSIG=
202604101800 METAR WIHH 101800Z 00000KT 8000 FEW020 26/24 Q1012 NOSIG=
202604101730 METAR WIHH 101730Z 00000KT 8000 FEW020 26/24 Q1012 NOSIG=
202604101700 METAR WIHH 101700Z 00000KT 8000 FEW020 26/24 Q1012 NOSIG=
202604101630 METAR WIHH 101630Z 00000KT 8000 FEW020 26/24 Q1012 NOSIG=
202604101600 METAR WIHH 101600Z 00000KT 8000 FEW020 26/24 Q1012 NOSIG=
202604101530 METAR WIHH 101530Z 00000KT 8000 FEW020 27/23 Q1012 NOSIG=
202604101500 METAR WIHH 101500Z 00000KT 8000 FEW020 27/23 Q1013 NOSIG=
202604101430 METAR WIHH 101430Z 12005KT 8000 SCT020 28/23 Q1013 NOSIG=
202604101400 METAR WIHH 101400Z 10005KT 8000 SCT020 28/23 Q1013 NOSIG=
202604101330 METAR WIHH 101330Z 14006KT 8000 SCT020 28/23 Q1013 NOSIG=
202604101300 METAR WIHH 101300Z 13004KT 8000 SCT020 28/23 Q1012 NOSIG=
202604101230 METAR WIHH 101230Z 12005KT 8000 SCT018 29/23 Q1012 NOSIG=
202604101200 METAR WIHH 101200Z 15005KT 7000 SCT018 29/23 Q1011 NOSIG=
202604101130 METAR WIHH 101130Z 17005KT 7000 SCT018 29/23 Q1011 NOSIG=
202604101100 METAR WIHH 101100Z 19007KT 7000 SCT018 30/23 Q1010 NOSIG=
202604101030 METAR WIHH 101030Z 24010KT 7000 SCT018 31/22 Q1010 RMK RA TO S=
202604101000 METAR WIHH 101000Z 25010KT 7000 SCT018 31/21 Q1009 RMK RA TO S=
202604100930 METAR WIHH 100930Z 25008KT 7000 SCT018 30/24 Q1008 RMK RA TO S=
202604100900 METAR WIHH 100900Z 25010KT 8000 SCT018 31/24 Q1008 RMK RA TO S=
202604100830 METAR WIHH 100830Z 23006KT 7000 SCT017 FEW018CB 30/24 Q1008 RMK CB AND RA TO S=
202604100800 METAR WIHH 100800Z 24006KT 7000 SCT017 FEW018CB 30/23 Q1008 RMK CB AND RA TO N AND S=
202604100730 METAR WIHH 100730Z 27010KT 7000 TS SCT017 FEW018CB 31/24 Q1008 TEMPO FM0800 3000 -TSRA RMK CB AND RA TO NW-W=
202604100700 METAR WIHH 100700Z 34013KT 7000 SCT018 33/25 Q1008 RMK RA TO NW=
202604100630 METAR WIHH 100630Z 22005KT 7000 SCT018 34/25 Q1009 RMK RA TO NW=
202604100600 METAR WIHH 100600Z 27010KT 7000 SCT018 34/24 Q1010 RMK RA TO N=
202604100530 METAR WIHH 100530Z 26010KT 9999 SCT018 33/23 Q1010 NOSIG=
202604100500 METAR WIHH 100500Z 23010KT 9999 FEW018 33/23 Q1011 NOSIG=
202604100430 METAR WIHH 100430Z 26012KT 9999 FEW018 32/23 Q1012 NOSIG=
202604100400 METAR WIHH 100400Z 23010KT 9999 FEW020 32/24 Q1012 NOSIG=
202604100330 METAR WIHH 100330Z 25015KT 9999 FEW020 32/23 Q1012 NOSIG=
202604100300 METAR WIHH 100300Z 21010KT 9999 FEW020 31/23 Q1012 NOSIG=
202604100230 METAR WIHH 100230Z 27008KT 9999 FEW020 31/24 Q1012 NOSIG=
202604100200 METAR WIHH 100200Z 24008KT 8000 FEW020 30/24 Q1012 NOSIG=
202604100130 METAR WIHH 100130Z 24008KT 8000 FEW020 30/23 Q1012 NOSIG=
202604100100 METAR WIHH 100100Z 26006KT 7000 FEW020 29/24 Q1012 NOSIG=
202604100030 METAR WIHH 100030Z 25003KT 6000 FEW020 28/24 Q1012 NOSIG=
202604100000 METAR WIHH 100000Z 22003KT 6000 FEW020 26/24 Q1012 NOSIG=
202604092330 METAR WIHH 092330Z 23003KT 6000 FEW020 25/24 Q1011 NOSIG=
202604092300 METAR WIHH 092300Z 21003KT 6000 FEW020 24/24 Q1011 NOSIG=
202604092230 METAR WIHH 092230Z 29003KT 8000 NSC 24/24 Q1011 NOSIG=
202604092200 METAR WIHH 092200Z 27003KT 8000 NSC 24/24 Q1010 NOSIG=
202604092130 METAR WIHH 092130Z 18003KT 8000 NSC 24/24 Q1010 NOSIG=
202604092100 METAR WIHH 092100Z 23004KT 8000 NSC 25/24 Q1010 NOSIG=
202604092030 METAR WIHH 092030Z 25003KT 8000 FEW020 25/24 Q1010 NOSIG=
202604092000 METAR WIHH 092000Z 00000KT 8000 FEW020 25/23 Q1011 NOSIG=
202604091930 METAR WIHH 091930Z 00000KT 8000 FEW020 25/23 Q1011 NOSIG=
202604091900 METAR WIHH 091900Z 00000KT 8000 FEW020 25/23 Q1011 NOSIG=
202604091830 METAR WIHH 091830Z 00000KT 9999 NSC 26/23 Q1011 NOSIG=
202604091800 METAR WIHH 091800Z 00000KT 9999 NSC 26/23 Q1011 NOSIG=
202604091730 METAR WIHH 091730Z 24004KT 9999 NSC 26/23 Q1011 NOSIG=
202604091700 METAR WIHH 091700Z 27004KT 9999 NSC 26/23 Q1012 NOSIG=
202604091630 METAR WIHH 091630Z 25006KT 9999 NSC 27/23 Q1012 NOSIG=
202604091600 METAR WIHH 091600Z 25007KT 9999 NSC 27/23 Q1012 NOSIG=
202604091530 METAR WIHH 091530Z 24004KT 9999 NSC 27/23 Q1012 NOSIG=
202604091500 METAR WIHH 091500Z 24003KT 9999 NSC 27/23 Q1012 NOSIG=
202604091430 METAR WIHH 091430Z 25003KT 9999 FEW020 27/23 Q1011 NOSIG=
202604091400 METAR WIHH 091400Z 24005KT 9999 FEW020 27/23 Q1011 NOSIG=
202604091330 METAR WIHH 091330Z 24007KT 9999 FEW020 28/23 Q1011 NOSIG=
202604091300 METAR WIHH 091300Z 24010KT 9999 + FEW020 28/23 Q1011 NOSIG=
202604091230 METAR WIHH 091230Z 24010KT 9999 FEW020 28/23 Q1011 NOSIG=
202604091200 METAR WIHH 091200Z 25008KT 9999 FEW020 28/23 Q1010 NOSIG=
202604091130 METAR WIHH 091130Z 24005KT 9999 FEW020 28/23 Q1010 NOSIG=
202604091100 METAR WIHH 091100Z 24010KT 9999 FEW020 29/23 Q1010 NOSIG=
202604091030 METAR WIHH 091030Z 24010KT 9999 FEW020 29/23 Q1009 NOSIG=
202604091000 METAR WIHH 091000Z 24008KT 9999 FEW020 29/23 Q1009 NOSIG=
202604090930 METAR WIHH 090930Z 24015KT 9999 FEW020 29/23 Q1009 NOSIG=
202604090900 METAR WIHH 090900Z 25015KT 9999 SCT020 30/23 Q1009 NOSIG=
202604090830 METAR WIHH 090830Z 24008KT 9999 SCT020 29/23 Q1009 NOSIG=
202604090800 METAR WIHH 090800Z 27015KT 9999 SCT020 29/23 Q1009 NOSIG=
202604090730 METAR WIHH 090730Z 23015KT 9999 SCT020 29/23 Q1009 NOSIG=
202604090700 METAR WIHH 090700Z 27015KT 7000 SCT018 30/23 Q1011 NOSIG=
202604090630 METAR WIHH 090630Z 27015KT 7000 SCT018 30/24 Q1010 RMK RA TO S=
202604090600 METAR WIHH 090600Z 26015KT 7000 SCT018 31/24 Q1011 RMK RA TO S=
202604090530 METAR WIHH 090530Z 27010KT 8000 SCT018 31/24 Q1011 RMK RA TO S=
202604090500 METAR WIHH 090500Z 26012KT 8000 SCT020 30/24 Q1011 NOSIG=
202604090430 METAR WIHH 090430Z 22015KT 8000 SCT020 30/25 Q1012 NOSIG=
202604090400 METAR WIHH 090400Z 25015KT 8000 SCT020 31/24 Q1012 NOSIG=
202604090330 METAR WIHH 090330Z 25012KT 8000 SCT020 31/23 Q1012 NOSIG=
202604090300 METAR WIHH 090300Z 23012KT 8000 SCT020 30/24 Q1012 NOSIG=
202604090230 METAR WIHH 090230Z 24015KT 8000 SCT020 30/23 Q1012 NOSIG=
202604090200 METAR WIHH 090200Z 25011KT 7000 SCT020 28/23 Q1012 NOSIG=
202604090130 METAR WIHH 090130Z 27012KT 7000 SCT020 28/23 Q1012 NOSIG=
202604090100 METAR WIHH 090100Z 23010KT 6000 SCT020 27/24 Q1012 NOSIG=
202604090030 METAR WIHH 090030Z 23005KT 5000 HZ FEW020 27/25 Q1012 NOSIG=
202604090000 METAR WIHH 090000Z 25003KT 4000 BR FEW020 26/26 Q1011 NOSIG=
202604082330 METAR WIHH 082330Z 00000KT 4000 BR FEW017 24/24 Q1011 NOSIG=
202604082300 METAR WIHH 082300Z 00000KT 3000 BR FEW017 24/24 Q1010 NOSIG=
202604082230 METAR WIHH 082230Z 19004KT 3000 BR FEW017 24/24 Q1010 NOSIG=
202604082200 METAR WIHH 082200Z 11004KT 2000 BR FEW017 25/25 Q1010 NOSIG=
202604082130 METAR WIHH 082130Z 00000KT 2000 BR SCT017 25/25 Q1010 NOSIG=
202604082100 METAR WIHH 082100Z 00000KT 3000 BR FEW030 25/25 Q1010 NOSIG=
202604082030 METAR WIHH 082030Z 00000KT 3000 FEW020 26/25 Q1009 NOSIG=
202604082000 METAR WIHH 082000Z 00000KT 3000 FEW020 26/25 Q1010 NOSIG=
202604081930 METAR WIHH 081930Z 00000KT 3000 FEW020 26/25 Q1010 NOSIG=
202604081900 METAR WIHH 081900Z 00000KT 4000 FEW020 26/26 Q1010 NOSIG=
202604081830 METAR WIHH 081830Z 00000KT 4000 FEW020 26/26 Q1011 NOSIG=
202604081800 METAR WIHH 081800Z 00000KT 4000 BR FEW020 26/26 Q1011 NOSIG=
202604081730 METAR WIHH 081730Z 00000KT 4000 BR FEW020 26/26 Q1011 NOSIG=
202604081700 METAR WIHH 081700Z 00000KT 4000 BR SCT020 25/25 Q1012 NOSIG=
202604081630 METAR WIHH 081630Z 00000KT 4000 BR SCT020 25/25 Q1012 NOSIG=
202604081600 METAR WIHH 081600Z 00000KT 4000 BR SCT020 26/25 Q1012 NOSIG=
202604081530 METAR WIHH 081530Z 00000KT 4000 BR SCT020 27/25 Q1012 NOSIG=
202604081500 METAR WIHH 081500Z 00000KT 6000 SCT020 26/26 Q1012 NOSIG=
202604081430 METAR WIHH 081430Z 00000KT 7000 SCT020 26/25 Q1011 NOSIG=
202604081400 METAR WIHH 081400Z 00000KT 7000 SCT020 26/25 Q1011 NOSIG=
202604081330 METAR WIHH 081330Z 25003KT 6000 SCT020 26/25 Q1011 NOSIG RMK RA TO W=
202604081300 METAR WIHH 081300Z 00000KT 6000 SCT020 26/26 Q1011 NOSIG=
202604081230 METAR WIHH 081230Z 00000KT 7000 SCT019 26/26 Q1011 NOSIG=
202604081200 METAR WIHH 081200Z 00000KT 7000 SCT018 26/26 Q1011 NOSIG=
202604081130 METAR WIHH 081130Z 00000KT 6000 -RA BKN016 26/26 Q1010 NOSIG=
202604081100 METAR WIHH 081100Z 00000KT 5000 -RA BKN017 26/26 Q1010 NOSIG=
202604081030 METAR WIHH 081030Z 00000KT 5000 -TSRA BKN015 FEW017CB 27/26 Q1009 RMK CB TO SE=
202604081000 METAR WIHH 081000Z 00000KT 5000 SCT015 FEW017CB 26/26 Q1009 TEMPO TL1100 4000 -TSRA BKN016 RMK CB TO S=
202604080930 METAR WIHH 080930Z 06003KT 5000 -TSRA SCT015 FEW017CB 27/26 Q1009 RMK CB TO E=
202604080900 METAR WIHH 080900Z 27007KT 5000 -TSRA SCT015 FEW017CB 26/25 Q1009 RMK CB TO N=
202604080830 METAR WIHH 080830Z 00000KT 5000 -TSRA SCT017 FEW018CB 26/25 Q1008 RMK CB TO NW=
202604080800 METAR WIHH 080800Z 24005KT 6000 -TSRA SCT016 FEW017CB 26/25 Q1008 RMK CB TO NW=
202604080730 METAR WIHH 080730Z 27006KT 4000 -TSRA SCT016 FEW017CB 25/24 Q1009 RMK CB TO SW=
202604080700 METAR WIHH 080700Z 27008KT 1000 TSRA BKN015 FEW017CB 27/25 Q1009 TEMPO TL0800 4000 -TSRA RMK CB OTF=
202604080630 METAR WIHH 080630Z 36007KT 6000 -TSRA SCT016 FEW017CB 31/24 Q1009 NOS IG RMK CB TO NW=
202604080602 SPECI WIHH 080602Z 06007KT 6000 -RA SCT017 32/26 Q1009=
202604080600 METAR WIHH 080600Z 06005KT 6000 SCT017 33/24 Q1009 RMK RA TO E AND NW=
202604080530 METAR WIHH 080530Z 08003KT 7000 SCT017 33/22 Q1009 RMK RA TO NW=
202604080500 METAR WIHH 080500Z 15003KT 7000 SCT018 33/22 Q1010 NOSIG=
202604080430 METAR WIHH 080430Z 20005KT 7000 SCT020 33/23 Q1011 NOSIG=
202604080400 METAR WIHH 080400Z 06005KT 7000 SCT020 34/23 Q1011 NOSIG=
202604080330 METAR WIHH 080330Z 27006KT 7000 SCT020 34/23 Q1011 NOSIG=
202604080300 METAR WIHH 080300Z 23006KT 8000 SCT020 31/23 Q1012 NOSIG=
202604080230 METAR WIHH 080230Z 29003KT 8000 FEW022 31/22 Q1012 NOSIG=
202604080200 METAR WIHH 080200Z 26005KT 8000 FEW022 30/23 Q1012 NOSIG=
202604080130 METAR WIHH 080130Z 26008KT 8000 FEW022 29/24 Q1012 NOSIG=
202604080100 METAR WIHH 080100Z 24008KT 8000 FEW020 28/24 Q1011 NOSIG=
202604080030 METAR WIHH 080030Z 24008KT 8000 FEW022 27/24 Q1011 NOSIG=
202604080000 METAR WIHH 080000Z 26003KT 8000 FEW022 25/24 Q1011 NOSIG=
202604072330 METAR WIHH 072330Z 29003KT 8000 FEW022 25/24 Q1011 NOSIG=
202604072300 METAR WIHH 072300Z 27003KT 8000 FEW020 25/24 Q1010 NOSIG=
202604072230 METAR WIHH 072230Z 24005KT 8000 FEW020 25/24 Q1010 NOSIG=
202604072200 METAR WIHH 072200Z 24005KT 8000 FEW020 24/24 Q1010 NOSIG=
202604072130 METAR WIHH 072130Z 26005KT 8000 FEW020 25/23 Q1010 NOSIG=
202604072100 METAR WIHH 072100Z 27004KT 7000 FEW020 25/24 Q1010 NOSIG=
202604072030 METAR WIHH 072030Z 26003KT 7000 FEW020 25/24 Q1010 NOSIG=
202604072000 METAR WIHH 072000Z 00000KT 7000 FEW020 25/24 Q1010 NOSIG=
202604071930 METAR WIHH 071930Z 25003KT 7000 FEW020 25/24 Q1010 NOSIG=
202604071900 METAR WIHH 071900Z 00000KT 7000 SCT020 25/24 Q1010 NOSIG=
202604071830 METAR WIHH 071830Z VRB02KT 7000 SCT020 25/24 Q1010 NOSIG=
202604071800 METAR WIHH 071800Z 00000KT 6000 SCT020 25/24 Q1010 NOSIG=
202604071730 METAR WIHH 071730Z VRB02KT 6000 SCT020 25/25 Q1011 NOSIG=
202604071700 METAR WIHH 071700Z 00000KT 6000 SCT020 25/25 Q1011 NOSIG=
202604071630 METAR WIHH 071630Z 00000KT 6000 SCT020 26/25 Q1011 NOSIG=
202604071600 METAR WIHH 071600Z 00000KT 6000 SCT020 26/25 Q1011 NOSIG=
202604071530 METAR WIHH 071530Z 00000KT 6000 SCT020 26/25 Q1011 NOSIG=
202604071500 METAR WIHH 071500Z 00000KT 6000 SCT020 26/25 Q1011 NOSIG=
202604071430 METAR WIHH 071430Z 22003KT 6000 SCT020 27/24 Q1011 NOSIG=
202604071400 METAR WIHH 071400Z 24003KT 7000 SCT018 27/24 Q1011 NOSIG=
202604071330 METAR WIHH 071330Z 20003KT 7000 SCT018 27/24 Q1011 NOSIG=
202604071300 METAR WIHH 071300Z 20003KT 7000 SCT018 28/24 Q1010 NOSIG=
202604071230 METAR WIHH 071230Z 33003KT 7000 SCT018 28/24 Q1009 NOSIG=
202604071200 METAR WIHH 071200Z 35003KT 7000 SCT018 28/24 Q1009 NOSIG=
202604071130 METAR WIHH 071130Z 30004KT 7000 SCT018 29/23 Q1009 NOSIG=
202604071100 METAR WIHH 071100Z 34004KT 7000 SCT018 30/23 Q1009 NOSIG=
202604071030 METAR WIHH 071030Z 30004KT 7000 SCT018 30/23 Q1008 NOSIG=
202604071000 METAR WIHH 071000Z 32004KT 7000 SCT018 32/22 Q1008 NOSIG=
202604070930 METAR WIHH 070930Z 02004KT 7000 SCT018 32/22 Q1007 RMK RA TO SE=
202604070900 METAR WIHH 070900Z 33004KT 7000 SCT018 32/23 Q1007 RMK RA TO E=
202604070830 METAR WIHH 070830Z 04005KT 6000 SCT018 31/23 Q1007 RMK RA TO S=
202604070800 METAR WIHH 070800Z 07003KT 6000 FEW017CB SCT018 30/24 Q1008 RMK CB AND RA TO S=
202604070730 METAR WIHH 070730Z 21007KT 6000 TS SCT016 FEW017CB 27/24 Q1008 RMK CB AND RA TO S=
202604070700 METAR WIHH 070700Z 25008KT 2000 -TSRA BKN016 FEW017CB 25/25 Q1009 RMK CB TO S=
202604070630 METAR WIHH 070630Z 11008KT 4000 -TSRA BKN016 FEW017CB 28/23 Q1009 RMK CB TO SW=
202604070600 METAR WIHH 070600Z 07008KT 5000 -TSRA SCT016 30/22 Q1009 RMK CB TO NE=
202604070542 SPECI WIHH 070542Z 07008KT 5000 TS FEW017CB SCT018 31/24 Q1009 RMK CB AND RA TO NE-E=
202604070530 METAR WIHH 070530Z 19004KT 6000 FEW017CB SCT018 32/23 Q1010 RMK CB AND RA TO NE AND SW=
202604070500 METAR WIHH 070500Z 33005KT 6000 SCT017 32/23 Q1010 RMK RA TO N AND E=
202604070430 METAR WIHH 070430Z 21003KT 6000 SCT018 32/24 Q1011 NOSIG=
202604070400 METAR WIHH 070400Z 17005KT 6000 SCT018 32/23 Q1011 NOSIG=
202604070330 METAR WIHH 070330Z 04003KT 6000 SCT020 32/24 Q1011 NOSIG=
202604070300 METAR WIHH 070300Z 35003KT 6000 SCT020 31/24 Q1012 NOSIG=
202604070230 METAR WIHH 070230Z 22003KT 6000 FEW020 30/24 Q1012 NOSIG=
202604070200 METAR WIHH 070200Z 27003KT 5000 HZ FEW020 30/24 Q1012 NOSIG=
202604070130 METAR WIHH 070130Z 25004KT 5000 HZ NSC 29/25 Q1011 NOSIG=
202604070100 METAR WIHH 070100Z 21004KT 5000 HZ FEW020 28/24 Q1011 NOSIG=
202604070030 METAR WIHH 070030Z 23003KT 5000 HZ FEW020 27/24 Q1011 NOSIG=
202604070000 METAR WIHH 070000Z 26003KT 4000 BR FEW020 25/25 Q1011 NOSIG=
202604062330 METAR WIHH 062330Z 27003KT 4000 BR FEW020 24/24 Q1011 NOSIG=
202604062300 METAR WIHH 062300Z 00000KT 4000 BR FEW020 25/24 Q1010 NOSIG=
202604062230 METAR WIHH 062230Z 23004KT 4000 BR FEW020 25/24 Q1010 NOSIG=
202604062200 METAR WIHH 062200Z 24003KT 4000 BR SCT020 24/24 Q1010 NOSIG=
202604062130 METAR WIHH 062130Z 21004KT 6000 SCT020 25/24 Q1010 NOSIG=
202604062100 METAR WIHH 062100Z 23004KT 6000 SCT020 25/24 Q1010 NOSIG=
202604062030 METAR WIHH 062030Z 24004KT 6000 SCT020 25/25 Q1010 NOSIG=
202604062000 METAR WIHH 062000Z 23005KT 6000 SCT020 25/25 Q1010 NOSIG=
202604061930 METAR WIHH 061930Z 00000KT 6000 SCT020 25/25 Q1010 NOSIG=
202604061900 METAR WIHH 061900Z 00000KT 6000 SCT020 25/25 Q1010 NOSIG=
202604061830 METAR WIHH 061830Z 00000KT 6000 SCT020 25/25 Q1010 NOSIG=
202604061800 METAR WIHH 061800Z 22003KT 6000 SCT020 25/25 Q1010 NOSIG=
202604061730 METAR WIHH 061730Z 00000KT 6000 SCT020 25/25 Q1010 NOSIG=
202604061700 METAR WIHH 061700Z 00000KT 6000 SCT018 26/25 Q1011 NOSIG=
202604061630 METAR WIHH 061630Z 00000KT 6000 SCT018 26/25 Q1011 NOSIG=
202604061600 METAR WIHH 061600Z 00000KT 6000 SCT016 26/25 Q1011 NOSIG=
202604061530 METAR WIHH 061530Z 13003KT 6000 SCT018 27/25 Q1011 NOSIG=
202604061500 METAR WIHH 061500Z 00000KT 6000 SCT018 27/25 Q1011 NOSIG=
202604061430 METAR WIHH 061430Z 16003KT 6000 SCT018 26/25 Q1011 NOSIG=
202604061400 METAR WIHH 061400Z 14003KT 6000 SCT018 26/25 Q1011 NOSIG=
202604061330 METAR WIHH 061330Z 00000KT 6000 SCT018 26/25 Q1011 NOSIG=
202604061300 METAR WIHH 061300Z 18003KT 6000 SCT018 26/25 Q1011 NOSIG=
202604061230 METAR WIHH 061230Z 22003KT 6000 SCT018 26/25 Q1011 NOSIG=
202604061200 METAR WIHH 061200Z 25003KT 6000 SCT018 26/24 Q1010 NOSIG=
202604061130 METAR WIHH 061130Z 25004KT 6000 SCT017 27/24 Q1010 NOSIG=
202604061100 METAR WIHH 061100Z 26006KT 6000 SCT017 27/24 Q1010 RMK RA TO S=
202604061030 METAR WIHH 061030Z 23003KT 6000 SCT017 27/25 Q1009 RMK RA TO N=
202604061000 METAR WIHH 061000Z 22003KT 6000 SCT017 28/25 Q1008 NOSIG RMK RA TO NE=
202604060930 METAR WIHH 060930Z 15004KT 6000 SCT017 28/24 Q1008 NOSIG=
202604060900 METAR WIHH 060900Z 17003KT 6000 SCT017 28/24 Q1008 RMK RA TO SE=
202604060830 METAR WIHH 060830Z 32003KT 5000 TS SCT016 FEW017CB 27/23 Q1008 RMK CB AND RA TO SE=
202604060800 METAR WIHH 060800Z 30003KT 5000 TS SCT016 FEW017CB 26/23 Q1008 RMK CB AND RA TO SE AND RA TO W=
202604060730 METAR WIHH 060730Z 27005KT 4000 -TSRA SCT016 FEW017CB 25/23 Q1008 RMK CB TO N-W=
202604060700 METAR WIHH 060700Z 34006KT 2000 -TSRA SCT016 FEW017CB 28/25 Q1008 RMK CB TO N-NW=
202604060630 METAR WIHH 060630Z 29004KT 4000 -RA SCT017 FEW018CB 28/25 Q1009 RMK CB TO NW=
202604060605 SPECI WIHH 060605Z 05004KT 6000 -RA BKN017 FEW018CB 32/24 Q1009 RMK CB TO N=
202604060600 METAR WIHH 060600Z 34003KT 6000 SCT017 FEW018CB 32/23 Q1009 TEMPO FM0610 3000 -TSRA RMK CB AND RA TO NE-E=
202604060530 METAR WIHH 060530Z 09003KT 7000 SCT017 34/23 Q1009 RMK RA TO N=
202604060500 METAR WIHH 060500Z 10004KT 7000 SCT018 33/21 Q1010 RMK RA TO NW=
202604060430 METAR WIHH 060430Z 11005KT 7000 SCT018 32/23 Q1011 NOSIG=
202604060400 METAR WIHH 060400Z 20003KT 7000 SCT018 32/23 Q1011 NOSIG=
202604060330 METAR WIHH 060330Z 23003KT 7000 SCT018 32/22 Q1012 NOSIG=
202604060300 METAR WIHH 060300Z 30004KT 7000 SCT018 32/23 Q1012 NOSIG=
202604060230 METAR WIHH 060230Z 20006KT 7000 SCT020 31/24 Q1012 NOSIG=
202604060200 METAR WIHH 060200Z 23003KT 7000 SCT018 30/24 Q1012 NOSIG=
202604060130 METAR WIHH 060130Z 22004KT 6000 SCT017 29/24 Q1011 NOSIG=
202604060100 METAR WIHH 060100Z 21005KT 6000 SCT017 28/24 Q1011 NOSIG=
202604060030 METAR WIHH 060030Z 24006KT 6000 SCT020 27/24 Q1011 NOSIG=
202604060000 METAR WIHH 060000Z 24005KT 6000 SCT020 26/24 Q1011 NOSIG=
202604052330 METAR WIHH 052330Z 23003KT 6000 SCT018 25/24 Q1010 NOSIG=
202604052300 METAR WIHH 052300Z 00000KT 6000 SCT017 24/23 Q1010 NOSIG RMK RA TO N=
202604052230 METAR WIHH 052230Z 00000KT 6000 SCT017 24/23 Q1010 NOSIG=
202604052200 METAR WIHH 052200Z 00000KT 6000 SCT017 24/23 Q1010 NOSIG=
202604052130 METAR WIHH 052130Z 22004KT 6000 SCT018 24/23 Q1010 NOSIG=
202604052100 METAR WIHH 052100Z 22004KT 6000 SCT018 24/23 Q1010 NOSIG=
202604052030 METAR WIHH 052030Z 22003KT 6000 SCT018 24/23 Q1010 NOSIG=
202604052000 METAR WIHH 052000Z 00000KT 6000 SCT018 24/24 Q1010 NOSIG=
202604051930 METAR WIHH 051930Z 21003KT 6000 SCT018 25/24 Q1010 NOSIG=
202604051900 METAR WIHH 051900Z 00000KT 7000 SCT018 24/23 Q1010 NOSIG=
202604051830 METAR WIHH 051830Z VRB02KT 8000 SCT018 25/24 Q1010 NOSIG=
202604051800 METAR WIHH 051800Z 00000KT 8000 SCT018 25/24 Q1010 NOSIG=
202604051730 METAR WIHH 051730Z VRB02KT 8000 SCT020 25/24 Q1011 NOSIG=
202604051700 METAR WIHH 051700Z 00000KT 8000 SCT020 25/24 Q1011 NOSIG=
202604051630 METAR WIHH 051630Z 00000KT 8000 SCT018 25/24 Q1011 NOSIG=
202604051600 METAR WIHH 051600Z 00000KT 8000 SCT018 25/24 Q1011 NOSIG=
202604051530 METAR WIHH 051530Z 00000KT 8000 SCT018 25/24 Q1011 NOSIG=
202604051500 METAR WIHH 051500Z 22004KT 8000 SCT018 25/24 Q1011 NOSIG=
202604051430 METAR WIHH 051430Z 21005KT 8000 SCT018 25/23 Q1011 RMK RA TO NW=
202604051400 METAR WIHH 051400Z 23007KT 7000 SCT017 FEW018CB 26/23 Q1011 RMK CB AN D RA TO NW=
202604051330 METAR WIHH 051330Z 22009KT 7000 SCT017 FEW018CB 26/23 Q1011 RMK CB AND RA TO NW=
202604051300 METAR WIHH 051300Z 23008KT 7000 TS SCT016 FEW017CB 26/23 Q1010 RMK CB AND RA TO W=
202604051230 METAR WIHH 051230Z 20009KT 6000 TS SCT016 FEW017CB 26/21 Q1010 RMK CB AND RA TO NW=
202604051200 METAR WIHH 051200Z 24008KT 6000 SCT016 FEW017CB 27/23 Q1010 RMK CB AND RA TO W=
202604051130 METAR WIHH 051130Z 25010KT 6000 SCT016 FEW017CB 27/23 Q1009 RMK CB AND RA TO W=
202604051100 METAR WIHH 051100Z 24005KT 6000 SCT017 FEW018CB 28/22 Q1009 RMK CB AND RA TO W=
202604051030 METAR WIHH 051030Z 03006KT 6000 SCT010 30/23 Q1008 RMK RA TO SW-W=
202604051000 METAR WIHH 051000Z 17003KT 7000 SCT017 30/22 Q1007 RMK RA TO SW-W=
202604050930 METAR WIHH 050930Z 15005KT 7000 SCT017 30/21 Q1007 RMK RA TO SW-W=
202604050900 METAR WIHH 050900Z 13011KT 7000 SCT017 31/21 Q1007 RMK RA TO SW=
202604050830 METAR WIHH 050830Z 06015KT 6000 SCT015 FEW017CB 34/23 Q1006 RMK CB AND RA TO S=
202604050800 METAR WIHH 050800Z 07011KT 7000 SCT015 FEW017CB 33/23 Q1006 RMK CB AND RA TO SE=
202604050730 METAR WIHH 050730Z 08010KT 6000 SCT015 FEW017CB 33/22 Q1006 RMK CB AN D RA TO SE=
202604050700 METAR WIHH 050700Z 05011KT 6000 SCT015 FEW017CB 33/22 Q1007 RMK CB AND RA TO W=
202604050630 METAR WIHH 050630Z 08006KT 7000 SCT017 FEW018CB 34/23 Q1007 RMK CB AND RA TO W=
202604050600 METAR WIHH 050600Z 04011KT 7000 SCT017 33/23 Q1008 RMK RA TO W=
202604050530 METAR WIHH 050530Z 07011KT 6000 SCT017 33/22 Q1008 RMK CB AND RA TO W=
202604050500 METAR WIHH 050500Z 14008KT 6000 TS SCT017 FEW018CB 32/24 Q1009 RMK CB AND RA TO SW=
202604050430 METAR WIHH 050430Z 06012KT 7000 SCT020 32/23 Q1010 NOSIG=
202604050400 METAR WIHH 050400Z 06012KT 6000 SCT017 FEW018CB 32/23 Q1009 RMK CB AND RA TO SE=
202604050330 METAR WIHH 050330Z 06012KT 7000 SCT020 32/23 Q1010 NOSIG=
202604050300 METAR WIHH 050300Z 07012KT 7000 SCT020 30/23 Q1010 NOSIG=
202604050230 METAR WIHH 050230Z 05011KT 7000 SCT020 31/23 Q1010 NOSIG=
202604050200 METAR WIHH 050200Z 08009KT 7000 SCT020 31/21 Q1010 NOSIG=
202604050130 METAR WIHH 050130Z 06008KT 7000 FEW022 30/24 Q1009 NOSIG=
202604050100 METAR WIHH 050100Z 09006KT 7000 FEW022 29/24 Q1009 NOSIG=
202604050030 METAR WIHH 050030Z 13003KT 6000 FEW022 28/24 Q1009 NOSIG=
202604050000 METAR WIHH 050000Z 09003KT 6000 FEW022 27/24 Q1009 NOSIG=
202604042330 METAR WIHH 042330Z 00000KT 5000 FEW020 25/24 Q1009 NOSIG=
202604042300 METAR WIHH 042300Z 00000KT 4000 BR FEW020 24/24 Q1008 NOSIG=
202604042230 METAR WIHH 042230Z 00000KT 5000 HZ SCT020 25/24 Q1008 NOSIG=
202604042200 METAR WIHH 042200Z 00000KT 5000 HZ SCT020 25/24 Q1008 NOSIG=
202604042130 METAR WIHH 042130Z 00000KT 6000 SCT020 25/24 Q1008 NOSIG=
202604042100 METAR WIHH 042100Z 00000KT 6000 SCT020 25/24 Q1008 NOSIG=
202604042030 METAR WIHH 042030Z 00000KT 6000 SCT020 25/24 Q1008 NOSIG=
202604042000 METAR WIHH 042000Z 00000KT 6000 FEW020 25/24 Q1009 NOSIG=
202604041930 METAR WIHH 041930Z 00000KT 6000 FEW020 25/24 Q1009 NOSIG=
202604041900 METAR WIHH 041900Z 00000KT 6000 FEW020 25/23 Q1009 NOSIG=
202604041830 METAR WIHH 041830Z 00000KT 6000 FEW020 25/24 Q1009 NOSIG=
202604041800 METAR WIHH 041800Z 00000KT 6000 SCT020 26/25 Q1009 NOSIG=
202604041730 METAR WIHH 041730Z 00000KT 6000 SCT020 26/25 Q1009 NOSIG=
202604041700 METAR WIHH 041700Z 00000KT 7000 SCT020 25/24 Q1010 NOSIG=
202604041630 METAR WIHH 041630Z 00000KT 7000 SCT020 25/24 Q1010 NOSIG=
202604041600 METAR WIHH 041600Z 00000KT 7000 SCT020 25/24 Q1010 NOSIG=
202604041530 METAR WIHH 041530Z 00000KT 7000 SCT020 25/24 Q1010 NOSIG=
202604041500 METAR WIHH 041500Z 15003KT 7000 SCT020 25/24 Q1010 NOSIG=
202604041430 METAR WIHH 041430Z 00000KT 7000 SCT020 25/24 Q1010 NOSIG=
202604041400 METAR WIHH 041400Z 00000KT 7000 SCT020 25/24 Q1010 NOSIG=
202604041330 METAR WIHH 041330Z 21003KT 7000 SCT020 25/24 Q1009 NOSIG=
202604041300 METAR WIHH 041300Z 24003KT 6000 SCT020 25/24 Q1009 NOSIG=
202604041230 METAR WIHH 041230Z 24003KT 6000 SCT018 25/24 Q1009 NOSIG=
202604041200 METAR WIHH 041200Z 17002KT 6000 SCT018 25/24 Q1008 RMK RA TO W=
202604041130 METAR WIHH 041130Z 15004KT 6000 SCT017 25/24 Q1008 RMK RA TO W=
202604041100 METAR WIHH 041100Z 21004KT 6000 SCT016 FEW017CB 25/24 Q1008 RMK CB AND RA TO W-NW=
202604041030 METAR WIHH 041030Z 21005KT 5000 -TSRA SCT016 FEW017CB 25/24 Q1008 TEMPO TL1100 4000 -RA RMK CB TO SW=
202604041000 METAR WIHH 041000Z 21010KT 3000 -TSRA BKN015 FEW017CB 26/24 Q1008 TEMPO TL1030 4000 -TSRA RMK CB TO S-SW=
202604040930 METAR WIHH 040930Z 21010KT 5000 TS FEW017CB SCT018 26/24 Q1007 RMK CB AND RA TO S-SW=
202604040900 METAR WIHH 040900Z 03008KT 5000 TS FEW017CB SCT018 31/24 Q1007 RMK CB AND RA TO S-SW=
202604040830 METAR WIHH 040830Z 03010KT 7000 TS FEW017CB SCT018 31/23 Q1006 RMK CB AND RA TO S-SW=
202604040800 METAR WIHH 040800Z 01012KT 7000 TS FEW017CB SCT018 32/24 Q1006 RMK CB AND RA TO S-SW=
202604040730 METAR WIHH 040730Z 03015KT 7000 FEW017CB SCT018 32/24 Q1006 RMK CB AN D RA TO S-SW=
202604040700 METAR WIHH 040700Z 05008KT 7000 FEW017CB SCT018 33/24 Q1006 RMK CB AND RA TO S=
202604040630 METAR WIHH 040630Z 03010KT 8000 SCT018 33/24 Q1006 RMK RA TO S=
202604040600 METAR WIHH 040600Z 03010KT 8000 SCT018 32/24 Q1006 RMK RA TO S=
202604040530 METAR WIHH 040530Z 03008KT 8000 SCT018 32/24 Q1007 NOSIG=
202604040500 METAR WIHH 040500Z 03006KT 9999 SCT018 33/24 Q1008 NOSIG=
202604040430 METAR WIHH 040430Z 09010KT 9999 SCT018 33/24 Q1009 NOSIG=
202604040400 METAR WIHH 040400Z 06010KT 9999 SCT018 33/24 Q1009 NOSIG=
202604040330 METAR WIHH 040330Z 02009KT 9999 SCT018 32/24 Q1009 NOSIG=
202604040300 METAR WIHH 040300Z 09007KT 9999 FEW020 31/24 Q1010 NOSIG=
202604040230 METAR WIHH 040230Z 06010KT 9999 FEW020 31/24 Q1010 NOSIG=
202604040200 METAR WIHH 040200Z 07004KT 9999 FEW020 30/25 Q1010 NOSIG=
202604040130 METAR WIHH 040130Z 18004KT 9999 FEW020 29/25 Q1009 NOSIG=
202604040100 METAR WIHH 040100Z 17004KT 7000 FEW020 28/25 Q1009 NOSIG=
202604040030 METAR WIHH 040030Z 18005KT 7000 FEW020 27/25 Q1009 NOSIG=
202604040000 METAR WIHH 040000Z 21003KT 7000 SCT020 25/24 Q1009 NOSIG=
202604032330 METAR WIHH 032330Z 22003KT 7000 SCT020 24/24 Q1009 NOSIG=
202604032300 METAR WIHH 032300Z 00000KT 6000 SCT018 24/24 Q1009 NOSIG=
202604032230 METAR WIHH 032230Z 26005KT 6000 SCT017 24/24 Q1009 NOSIG=
202604032200 METAR WIHH 032200Z 28005KT 6000 SCT017 24/24 Q1009 RMK RA TO NE=
202604032130 METAR WIHH 032130Z 18005KT 6000 SCT017 24/23 Q1008 RMK RA TO NE=
202604032100 METAR WIHH 032100Z 17005KT 6000 SCT017 24/23 Q1008 RMK RA TO NE=
202604032030 METAR WIHH 032030Z 15004KT 6000 SCT017 24/23 Q1008 NOSIG=
202604032000 METAR WIHH 032000Z 00000KT 6000 SCT017 24/23 Q1009 NOSIG=
202604031930 METAR WIHH 031930Z 00000KT 6000 SCT017 24/23 Q1009 NOSIG=
202604031900 METAR WIHH 031900Z 00000KT 6000 SCT017 24/23 Q1009 RMK RA TO S=
202604031830 METAR WIHH 031830Z 00000KT 6000 SCT017 24/23 Q1009 NOSIG=
202604031800 METAR WIHH 031800Z 25007KT 5000 -TSRA BKN015 FEW017CB 24/23 Q1010 RMK CB OVER THE FIELD=
202604031730 METAR WIHH 031730Z 27006KT 5000 -TSRA BKN015 FEW017CB 24/23 Q1010 RMK CB OVER THE FIELD=
202604031709 SPECI WIHH 031709Z 26010KT 3000 TSRA BKN015 FEW017CB 25/24 Q1011 RMK CB OVER THE FIELD=
202604031700 METAR WIHH 031700Z 24007KT 5000 TS SCT016 FEW017CB 26/26 Q1010 RMK CB AND RA TO NE AND NW=
202604031630 METAR WIHH 031630Z 21003KT 5000 TS SCT016 FEW017CB 27/27 Q1011 RMK CB TO W=
202604031600 METAR WIHH 031600Z 26003KT 5000 TS SCT016 FEW017CB 27/27 Q1011 RMK RA TO W=
202604031530 METAR WIHH 031530Z 07004KT 5000 -TSRA SCT016 FEW017CB 28/27 Q1011 RMK CB TO W=
202604031500 METAR WIHH 031500Z 05005KT 5000 -TSRA SCT016 FEW017CB 28/27 Q1011 RMK CB TO W-NW=
202604031430 METAR WIHH 031430Z 07006KT 5000 -TSRA SCT016 FEW017CB 29/26 Q1011 RMK CB TO W-NW=
202604031412 SPECI WIHH 031412Z 05007KT 6000 -TSRA SCT016 FEW017CB 29/26 Q1010 RMK CB TO SW-W=
202604031400 METAR WIHH 031400Z 06008KT 6000 SCT016 FEW017CB 29/26 Q1010 RMK CB AN D RA TO SW-W=
202604031342 SPECI WIHH 031342Z 07008KT 5000 -RA BKN016 FEW017CB 29/26 Q1010 RMK CB TO SW-W=
202604031330 METAR WIHH 031330Z 06006KT 5000 -TSRA BKN015 FEW017CB 29/26 Q1010 TEMPO TL1430 4000 -RA RMK CB TO S-W=
202604031300 METAR WIHH 031300Z 14010KT 5000 -TSRA BKN015 FEW017CB 29/25 Q1010 TEMPO TL1400 3000 -TSRA RMK CB OVER THE FIELD=
202604031230 METAR WIHH 031230Z 09010KT 6000 TS BKN016 FEW017CB 29/25 Q1009 TEMPO FM1300 3000 -TSRA RMK CB AND RA TO SE-SW=
202604031200 METAR WIHH 031200Z 05010KT 6000 TS BKN016 FEW017CB 30/24 Q1008 TEMPO FM1230 3000 -TSRA RMK CB AND RA TO SE-SW=
202604031130 METAR WIHH 031130Z 04015KT 6000 TS BKN016 FEW017CB 30/24 Q1008 TEMPO FM1230 3000 -TSRA RMK CB AND RA TO S-SW=
202604031100 METAR WIHH 031100Z 05013KT 6000 TS BKN016 FEW017CB 30/23 Q1007 RMK CB AND RA TO S-SW=
202604031037 SPECI WIHH 031037Z 04015KT 7000 TS FEW017CB SCT018 31/24 Q1007 RMK CB AND RA TO SW=
202604031030 METAR WIHH 031030Z 05010KT 7000 FEW017CB SCT018 31/24 Q1007 RMK CB AND RA TO SW=
202604031000 METAR WIHH 031000Z 05012KT 7000 SCT018 32/24 Q1006 RMK RA TO S-SW=
202604030930 METAR WIHH 030930Z 06010KT 7000 SCT018 32/24 Q1006 RMK RA TO SW=
202604030900 METAR WIHH 030900Z 04010KT 8000 SCT018 33/23 Q1006 NOSIG=
202604030830 METAR WIHH 030830Z 03012KT 8000 SCT018 34/23 Q1006 NOSIG=
202604030800 METAR WIHH 030800Z 08010KT 8000 SCT018 33/23 Q1006 NOSIG=
202604030730 METAR WIHH 030730Z 03012KT 7000 SCT018 33/23 Q1007 NOSIG=
202604030700 METAR WIHH 030700Z 06007KT 7000 SCT018 33/22 Q1007 NOSIG=
202604030630 METAR WIHH 030630Z 06006KT 7000 SCT018 34/23 Q1007 NOSIG=
202604030600 METAR WIHH 030600Z 12007KT 7000 SCT018 33/22 Q1008 NOSIG=
202604030530 METAR WIHH 030530Z 05007KT 7000 SCT018 33/22 Q1008 NOSIG=
202604030500 METAR WIHH 030500Z 04006KT 8000 SCT018 33/22 Q1009 NOSIG=
202604030430 METAR WIHH 030430Z 07006KT 8000 SCT018 33/22 Q1009 NOSIG=
202604030400 METAR WIHH 030400Z 31003KT 8000 SCT020 33/22 Q1010 NOSIG=
202604030330 METAR WIHH 030330Z 12003KT 8000 SCT020 33/23 Q1010 NOSIG=
202604030300 METAR WIHH 030300Z 09005KT 8000 32/23 Q1011 NOSIG=
202604030230 METAR WIHH 030230Z 17003KT 8000 FEW020 31/23 Q1011 NOSIG=
202604030200 METAR WIHH 030200Z 25004KT 7000 FEW020 30/23 Q1011 NOSIG=
202604030130 METAR WIHH 030130Z 00000KT 6000 FEW020 30/23 Q1011 NOSIG=
202604030100 METAR WIHH 030100Z 00000KT 6000 FEW020 28/23 Q1011 NOSIG=
202604030030 METAR WIHH 030030Z 00000KT 5000 HZ FEW020 27/24 Q1011 NOSIG=
202604030000 METAR WIHH 030000Z 00000KT 5000 HZ FEW020 26/24 Q1010 NOSIG=
202604022330 METAR WIHH 022330Z 00000KT 4000 BR FEW020 24/24 Q1010 NOSIG=
202604022300 METAR WIHH 022300Z 17004KT 4000 BR FEW020 24/24 Q1010 NOSIG=
202604022230 METAR WIHH 022230Z 00000KT 6000 FEW020 24/24 Q1010 NOSIG=
202604022200 METAR WIHH 022200Z 18003KT 6000 FEW020 24/24 Q1010 NOSIG=
202604022130 METAR WIHH 022130Z 00000KT 6000 SCT020 24/24 Q1009 NOSIG=
202604022100 METAR WIHH 022100Z 00000KT 6000 SCT020 24/24 Q1009 NOSIG=
202604022030 METAR WIHH 022030Z 00000KT 6000 SCT020 24/23 Q1009 NOSIG=
202604022000 METAR WIHH 022000Z 00000KT 6000 SCT020 24/23 Q1010 NOSIG=
202604021930 METAR WIHH 021930Z 00000KT 6000 SCT020 24/23 Q1010 NOSIG=
202604021900 METAR WIHH 021900Z 00000KT 6000 SCT020 24/23 Q1011 NOSIG=
202604021830 METAR WIHH 021830Z 00000KT 6000 SCT020 24/23 Q1011 NOSIG=
202604021800 METAR WIHH 021800Z 14003KT 7000 SCT020 24/23 Q1011 NOSIG=
202604021730 METAR WIHH 021730Z 00000KT 7000 SCT020 24/23 Q1011 NOSIG=
202604021700 METAR WIHH 021700Z 00000KT 7000 SCT020 24/23 Q1011 NOSIG=
202604021630 METAR WIHH 021630Z 00000KT 7000 SCT020 24/23 Q1011 NOSIG=
202604021600 METAR WIHH 021600Z 13004KT 7000 SCT017 24/23 Q1012 NOSIG=
202604021530 METAR WIHH 021530Z 13006KT 7000 SCT017 24/23 Q1012 RMK RA TO SE=
202604021500 METAR WIHH 021500Z 12004KT 7000 SCT017 24/23 Q1013 RMK RA TO SE=
202604021430 METAR WIHH 021430Z 13004KT 7000 SCT016 24/23 Q1013 RMK RA TO SE=
202604021400 METAR WIHH 021400Z 12005KT 6000 TS SCT016 FEW017CB 24/23 Q1013 RMK CB TO SE=
202604021330 METAR WIHH 021330Z 14006KT 6000 -RA SCT016 FEW017CB 25/24 Q1012 RMK C B TO SE=
202604021300 METAR WIHH 021300Z 14006KT 4000 -TSRA SCT015 FEW016CB 25/23 Q1012 RMK CB TO SE=
202604021230 METAR WIHH 021230Z 16006KT 3000 -TSRA SCT015 FEW016CB 25/24 Q1012 RMK CB TO S=
202604021200 METAR WIHH 021200Z 11006KT 3000 -TSRA SCT015 FEW016CB 25/24 Q1011 RMK CB TO SE=
202604021130 METAR WIHH 021130Z 15008KT 3000 -TSRA SCT015 FEW016CB 25/23 Q1010 RMK CB TO SE=
202604021100 METAR WIHH 021100Z 16008KT 2000 -TSRA SCT015 FEW016CB 25/24 Q1010 RMK CCB TO SE=
202604021030 METAR WIHH 021030Z 19008KT 2000 -TSRA SCT015 FEW016CB 26/24 Q1009 RMK CB TO SE=
202604021000 METAR WIHH 021000Z 17010KT 2000 -TSRA SCT015 29/25 Q1009 RMK CB TO S=
202604020930 METAR WIHH 020930Z 20010KT 2000 -TSRA SCT015 FEW016CB 27/25 Q1009 RMK CB TO S=
202604020900 METAR WIHH 020900Z 01010KT 3000 -TSRA SCT015 FEW016CB 31/24 Q1008 TEMPO FM0915 2000 TSRA BKN014 RMK CB TO S=
202604020830 METAR WIHH 020830Z 01012KT 3000 -TSRA SCT016 FEW017CB 32/24 Q1008 TEMPO FM0900 2000 -TSRA BKN013 RMK CB TO S=
202604020800 METAR WIHH 020800Z 03011KT 4000 TS SCT016 FEW017CB 32/23 Q1007 TEMPO FM0830 3000 -TSRA BKN014 RMK CB AND RA TO SE=
202604020730 METAR WIHH 020730Z 03009KT 3000 TS SCT016 FEW017CB 33/24 Q1008 TEMPO FM0800 3000 -TSRA BKN014 RMK CB AND RA TO SW=
202604020700 METAR WIHH 020700Z 03012KT 5000 HZ SCT016 FEW017CB 33/24 Q1008 TEMPO FM0800 4000 -TSRA BKN014 RMK CB AND RA TO SW=
202604020630 METAR WIHH 020630Z 03008KT 6000 SCT017 33/24 Q1009 NOSIG=
202604020600 METAR WIHH 020600Z 01007KT 6000 SCT017 34/23 Q1009 NOSIG=
202604020530 METAR WIHH 020530Z 02007KT 6000 SCT017 33/23 Q1010 NOSIG=
202604020500 METAR WIHH 020500Z 02006KT 6000 SCT017 33/23 Q1010 NOSIG=
202604020430 METAR WIHH 020430Z 02009KT 6000 SCT018 33/23 Q1011 NOSIG=
202604020400 METAR WIHH 020400Z 02005KT 6000 SCT020 33/22 Q1011 NOSIG=
202604020330 METAR WIHH 020330Z 04007KT 6000 SCT020 32/23 Q1012 NOSIG=
202604020300 METAR WIHH 020300Z 12005KT 6000 SCT020 31/23 Q1012 NOSIG=
202604020230 METAR WIHH 020230Z 08004KT 6000 SCT020 31/23 Q1012 NOSIG=
202604020200 METAR WIHH 020200Z 00000KT 6000 FEW020 30/24 Q1012 NOSIG=
202604020130 METAR WIHH 020130Z 22003KT 6000 FEW020 30/25 Q1011 NOSIG=
202604020100 METAR WIHH 020100Z 15003KT 5000 HZ FEW020 29/24 Q1011 NOSIG=
202604020030 METAR WIHH 020030Z 20003KT 5000 BR FEW020 27/25 Q1011 NOSIG=
202604020000 METAR WIHH 020000Z 21003KT 4000 BR SCT018 25/25 Q1011 NOSIG=
202604012330 METAR WIHH 012330Z 35003KT 3000 BR FEW020 25/25 Q1010 NOSIG=
202604012300 METAR COR WIHH 012300Z 35003KT 3000 BR SCT018 24/24 Q1010 NOSIG=
202604012230 METAR WIHH 012230Z 00000KT 4000 BR SCT018 24/24 Q1010 NOSIG=
202604012200 METAR WIHH NIL=
202604012130 METAR WIHH 012130Z 00000KT 6000 SCT018 25/24 Q1010 NOSIG=
202604012100 METAR WIHH 012100Z 00000KT 6000 SCT018 25/24 Q1010 NOSIG=
202604012030 METAR WIHH 012030Z 00000KT 6000 SCT018 25/24 Q1010 NOSIG=
202604012000 METAR WIHH 012000Z 00000KT 6000 SCT018 25/24 Q1010 NOSIG=
202604011930 METAR WIHH 011930Z 00000KT 6000 SCT018 25/24 Q1010 NOSIG=
202604011900 METAR WIHH 011900Z 00000KT 6000 SCT018 25/24 Q1010 NOSIG=
202604011830 METAR WIHH 011830Z 00000KT 6000 SCT018 25/24 Q1011 NOSIG=
202604011800 METAR WIHH 011800Z 00000KT 7000 SCT018 25/24 Q1011 NOSIG=
202604011730 METAR WIHH 011730Z 00000KT 7000 SCT018 25/24 Q1011 NOSIG=
202604011700 METAR WIHH 011700Z 15003KT 7000 SCT018 25/24 Q1011 NOSIG=
202604011630 METAR WIHH 011630Z 12003KT 7000 SCT018 25/24 Q1012 NOSIG=
202604011600 METAR WIHH 011600Z 18003KT 7000 SCT018 25/24 Q1012 NOSIG=
202604011530 METAR WIHH 011530Z 13003KT 7000 SCT018 26/24 Q1012 NOSIG=
202604011500 METAR WIHH 011500Z 15003KT 6000 SCT017 25/25 Q1012 NOSIG=
202604011430 METAR WIHH 011430Z 00000KT 6000 SCT017 25/25 Q1012 NOSIG RMK RA TO SE=
202604011400 METAR WIHH 011400Z 00000KT 6000 SCT017 25/24 Q1011 RMK RA TO SE=
202604011330 METAR WIHH 011330Z 18003KT 6000 SCT017 25/24 Q1011 RMK RA TO E=
202604011300 METAR WIHH 011300Z 18003KT 6000 SCT017 25/24 Q1011 NOSIG RMK RA TO E=
202604011230 METAR WIHH 011230Z 28005KT 6000 SCT017 25/24 Q1010 RMK RA TO E=
202604011200 METAR WIHH 011200Z 28005KT 4000 -RA BKN016 25/24 Q1010 NOSIG=
202604011130 METAR WIHH 011130Z 23010KT 5000 -RA BKN016 26/24 Q1009 NOSIG=
202604011111 SPECI WIHH 011111Z 24010KT 6000 -RA BKN016 27/25 Q1009=
202604011100 METAR WIHH 011100Z 26010KT 6000 SCT016 28/23 Q1009 RMK RA TO SW-W=
202604011030 METAR WIHH 011030Z 25006KT 6000 SCT017 29/24 Q1008 RMK RA TO S-W=
202604011000 METAR WIHH 011000Z 36004KT 6000 SCT017 31/23 Q1007 RMK RA TO SW-W=
202604010930 METAR WIHH 010930Z 03007KT 6000 SCT016 FEW017CB 32/23 Q1007 RMK CB AN D RA TO SW=
202604010900 METAR WIHH 010900Z 02008KT 6000 SCT018 32/24 Q1007 RMK CB AND RA TO S W=
202604010830 METAR WIHH 010830Z 07010KT 6000 TS FEW017CB SCT018 33/23 Q1007 RMK CB AND RA TO S-SW=
202604010800 METAR WIHH 010800Z 04010KT 7000 FEW017CB SCT018 33/23 Q1007 RMK CB AND RA TO S=
202604010730 METAR WIHH 010730Z 01010KT 7000 FEW017 SCT018 34/23 Q1007 RMK CB AND RA TO SE=
202604010700 METAR WIHH 010700Z 03008KT 6000 FEW017 SCT018CB 33/23 Q1008 RMK CB AN D RA TO SE=
202604010630 METAR WIHH 010630Z 05007KT 6000 SCT017 FEW018CB 33/22 Q1008 RMK CB AN D RA TO SE=
202604010600 METAR WIHH 010600Z 08010KT 6000 SCT017 FEW018CB 34/22 Q1009 RMK CB AN D RA TO SE=
202604010530 METAR WIHH 010530Z 07013KT 6000 SCT018 33/22 Q1009 NOSIG=
202604010500 METAR WIHH 010500Z 05013KT 7000 SCT018 32/22 Q1010 NOSIG=
202604010430 METAR WIHH 010430Z 04008KT 7000 SCT018 33/23 Q1010 NOSIG=
202604010400 METAR WIHH 010400Z 07008KT 7000 SCT018 33/22 Q1011 NOSIG=
202604010330 METAR WIHH 010330Z 07006KT 7000 SCT018 32/23 Q1011 NOSIG=
202604010300 METAR WIHH 010300Z 11005KT 7000 SCT020 32/24 Q1011 NOSIG=
202604010230 METAR WIHH 010230Z 12010KT 6000 SCT020 31/24 Q1011 NOSIG=
202604010200 METAR WIHH 010200Z 08010KT 6000 SCT020 30/24 Q1011 NOSIG=
202604010130 METAR WIHH 010130Z 09007KT 5000 HZ SCT020 29/25 Q1011 NOSIG=
202604010100 METAR WIHH 010100Z 09006KT 4000 HZ SCT020 25/25 Q1011 NOSIG=
202604010030 METAR WIHH 010030Z 11005KT 4000 HZ SCT020 27/25 Q1010 NOSIG=
202604010000 METAR WIHH 010000Z 15003KT 3000 HZ SCT020 26/25 Q1010 NOSIG=

# No short TAF reports from WIHH in databse.

###################################
#  large TAF from WIHH
###################################
202604302300 TAF WIHH 302300Z 0100/0200 06006KT 7000 SCT020
                      TEMPO 0108/0111 34015KT 3000 -TSRA FEW017CB
                       BKN018=
202604301700 TAF WIHH 301700Z 3018/0118 09005KT 7000 SCT020
                      BECMG 3022/0100 00000KT 4000 BR FEW020=
202604301100 TAF WIHH 301100Z 3012/0112 15006KT 6000 SCT018
                      TEMPO 3012/3015 06015KT 3000 -TSRA BKN015
                       FEW017CB
                      BECMG 3016/3018 5000 HZ=
202604300500 TAF WIHH 300500Z 3006/0106 12006KT 7000 SCT018
                      TEMPO 3007/3010 03015KT 3000 -TSRA BKN015
                       FEW017CB=
202604292300 TAF WIHH 292300Z 3000/0100 09005KT 7000 SCT018
                      TEMPO 3007/3011 03012KT 3000 -TSRA FEW015CB
                       BKN016
                      BECMG 3013/3015 16005KT 5000 HZ=
202604291700 TAF WIHH 291700Z 2918/3018 13005KT 7000 SCT018
                      BECMG 2921/2923 19003KT 5000 HZ FEW020
                      TEMPO 3008/3011 03012KT 3000 -TSRA FEW015CB
                       BKN016=
202604291100 TAF WIHH 291100Z 2912/3012 02008KT 8000 SCT018
                      BECMG 2919/2921 15005KT 5000 HZ=
202604290500 TAF WIHH 290500Z 2906/3006 09008KT 6000 SCT018
                      TEMPO 2909/2912 02015KT 3000 -TSRA SCT016
                       FEW017CB
                      BECMG 2914/2916 15005KT 8000 FEW020=
202604282300 TAF WIHH 282300Z 2900/3000 09008KT 7000 FEW020
                      TEMPO 2909/2912 18015KT 3000 -TSRA SCT016
                       FEW017CB
                      BECMG 2914/2916 05006KT 5000 HZ SCT020=
202604281700 TAF WIHH 281700Z 2818/2918 15003KT 6000 SCT018
                      BECMG 2820/2822 00000KT 5000 HZ FEW020=
202604281100 TAF WIHH 281100Z 2812/2912 16008KT 8000 SCT018
                      BECMG 2820/2822 00000KT 5000 HZ FEW020=
202604280500 TAF WIHH 280500Z 2806/2906 02008KT 7000 SCT016
                      TEMPO 2809/2812 18015KT 3000 -TSRA BKN015
                       FEW017CB
                      BECMG 2814/2816 14005KT 6000 SCT020=
202604272300 TAF WIHH 272300Z 2800/2900 09007KT 6000 SCT018
                      TEMPO 2800/2802 15015KT 3000 -TSRA BKN016
                       FEW017CB
                      BECMG 2803/2805 5000 HZ
                      TEMPO 2809/2812 4000 -RA FEW017CB=
202604271700 TAF WIHH 271700Z 2718/2818 06005KT 7000 SCT020
                      BECMG 2722/2800 00000KT 4000 BR FEW020
                      TEMPO 2808/2811 15014KT 4000 -RA BKN017=
202604271100 TAF WIHH 271100Z 2712/2812 09006KT 7000 SCT018
                      BECMG 2718/2720 00000KT 5000 HZ FEW020=
202604270500 TAF WIHH 270500Z 2706/2806 12007KT 7000 SCT018
                      TEMPO 2709/2712 03015KT 3000 -TSRA BKN015
                       FEW017CB=
202604262300 TAF WIHH 262300Z 2700/2800 06008KT 6000 SCT020
                      TEMPO 2707/2710 34015KT 4000 -TSRA FEW016CB
                       BKN018
                      BECMG 2712/2714 19005KT 8000 FEW022=
202604261700 TAF WIHH 261700Z 2618/2718 06005KT 8000 SCT018
                      BECMG 2621/2623 15005KT 5000 HZ FEW020=
202604261100 TAF WIHH 261100Z 2612/2712 04008KT 8000 SCT020
                      BECMG 2621/2623 15005KT 5000 HZ FEW020=
202604260500 TAF WIHH 260500Z 2606/2706 06010KT 6000 SCT020
                      TEMPO 2609/2612 4000 -RA BKN016 FEW017CB
                       BECMG 2614/2616 15005KT 8000 FEW020=
202604252300 TAF WIHH 252300Z 2600/2700 36007KT 8000 FEW020
                      TEMPO 2608/2611 16015KT 4000 -RA BKN016 FEW017CB
                       BECMG 2612/2614 10005KT 6000 SCT018=
202604251700 TAF WIHH 251700Z 2518/2618 14003KT 8000 SCT018
                      BECMG 2520/2522 00000KT 5000 HZ FEW020=
202604251100 TAF WIHH 251100Z 2512/2612 14008KT 9999 SCT018
                      BECMG 2518/2520 09005KT 8000 FEW020=
202604250500 TAF WIHH 250500Z 2506/2606 03016KT 9000 FEW020
                      TEMPO 2507/2510 09012KT 4000 -TSRA FEW017CB
                       SCT018
                      BECMG 2512/2514 14008KT=
202604242300 TAF WIHH 242300Z 2500/2600 03006KT 7000 FEW020
                      TEMPO 2508/2511 15015KT 3000 -TSRA BKN016
                       FEW017CB
                      BECMG 2512/2514 5000 HZ SCT018=
202604241700 TAF WIHH 241700Z 2418/2518 12005KT 7000 SCT020
                      TEMPO 2507/2510 06015KT 3000 -RA FEW017CB
                       BKN018=
202604241100 TAF WIHH 241100Z 2412/2512 09006KT 8000 SCT020
                      BECMG 2418/2420 00000KT 5000 HZ FEW020=
202604240500 TAF WIHH 240500Z 2406/2506 12006KT 7000 SCT018
                      TEMPO 2408/2411 06015KT 3000 -TSRA BKN016
                       FEW017CB=
202604232300 TAF WIHH 232300Z 2400/2500 09008KT 6000 SCT018
                      TEMPO 2407/2411 03012KT 3000 -TSRA BKN016
                       FEW017CB
                      BECMG 2413/2415 15005KT 5000 HZ FEW020
                      TEMPO 2418/2421 VRB03KT 4000 -RA SCT016=
202604231700 TAF WIHH 231700Z 2318/2418 22005KT 7000 SCT018
                      BECMG 2322/2400 11003KT 5000 HZ FEW020=
202604231100 TAF WIHH 231100Z 2312/2412 03008KT 8000 SCT018
                      BECMG 2322/2400 11003KT 5000 HZ FEW020=
202604230500 TAF WIHH 230500Z 2306/2406 09008KT 5000 HZ SCT018
                      TEMPO 2308/2311 02015KT 3000 -TSRA BKN016
                       FEW017CB
                      TEMPO 2314/2318 22007KT 4000 -TSRA
                      BECMG 2320/2322 11003KT 3000 BR SCT015=
202604222300 TAF WIHH 222300Z 2300/2400 09008KT 8000 FEW020
                      TEMPO 2309/2312 02015KT 3000 -TSRA BKN016
                       FEW017CB
                      BECMG 2314/2316 22005KT 6000 SCT018=
202604221700 TAF WIHH 221700Z 2218/2318 22003KT 7000 SCT018
                      BECMG 2220/2222 00000KT 5000 HZ FEW020=
202604221100 TAF WIHH 221100Z 2212/2312 16008KT 8000 SCT018
                      BECMG 2220/2222 00000KT 5000 HZ FEW020=
202604220500 TAF WIHH 220500Z 2206/2306 34010KT 7000 SCT018
                      TEMPO 2207/2210 27015KT 3000 -TSRA BKN016
                       FEW017CB
                      TEMPO 2211/2214 4000 -RA
                      BECMG 2215/2217 18005KT 6000 SCT020=
202604212300 TAF WIHH 212300Z 2200/2300 21006KT 7000 SCT020
                      TEMPO 2208/2211 27015KT 3000 -TSRA BKN016
                       FEW017CB=
202604211700 TAF WIHH 211700Z 2118/2218 21005KT 7000 FEW020
                      BECMG 2123/2201 00000KT 5000 HZ
                      TEMPO 2207/2210 12015KT 3000 -TSRA BKN016
                       FEW017CB=
202604211100 TAF WIHH 211100Z 2112/2212 33005KT 7000 SCT020
                      BECMG 2116/2118 00000KT 5000 HZ=
202604210500 TAF WIHH 210500Z 2106/2206 09006KT 7000 SCT018
                      TEMPO 2109/2112 15015KT 3000 -TSRA FEW016CB
                       BKN017
                      BECMG 2113/2115 5000 HZ=
202604202300 TAF WIHH 202300Z 2100/2200 12005KT 7000 FEW020
                      TEMPO 2108/2111 05010KT 3000 -TSRA FEW016CB
                       BKN017
                      BECMG 2113/2115 17005KT 5000 HZ SCT018=
202604201700 TAF WIHH 201700Z 2018/2118 12005KT 8000 SCT018
                      BECMG 2021/2023 21005KT 5000 HZ FEW020=
202604201100 TAF WIHH 201100Z 2012/2112 05006KT 8000 SCT018
                      BECMG 2021/2023 21005KT 5000 HZ FEW020=
202604200500 TAF WIHH 200500Z 2006/2106 07008KT 7000 SCT020
                      TEMPO 2009/2012 33012KT 3000 -TSRA FEW016CB
                       BKN018
                      BECMG 2014/2016 21005KT 5000 HZ=
202604192300 TAF WIHH 192300Z 2000/2100 08007KT 8000 FEW020
                      BECMG 2004/2006 03012KT SCT018
                      TEMPO 2013/2016 16015KT 4000 -TSRA BKN016
                       FEW017CB
                      BECMG 2017/2019 00000KT 5000 HZ=
202604191700 TAF WIHH 191700Z 1918/2018 20003KT 7000 SCT018
                      BECMG 1921/1923 00000KT 5000 HZ FEW020=
202604191250 TAF AMD WIHH 191250Z 1913/2012 20006KT 8000 SCT018
                      TEMPO 1913/1915 18012KT 3000 -TSRA BKN016
                       FEW017CB
                      BECMG 1918/1920 00000KT 5000 HZ FEW020=
202604191100 TAF WIHH 191100Z 1912/2012 20006KT 8000 SCT018
                      BECMG 1918/1920 00000KT 5000 HZ FEW020=
202604190500 TAF WIHH 190500Z 1906/2006 02010KT 7000 SCT016
                      TEMPO 1909/1912 34015KT 3000 -RA BKN015 FEW017CB
                       BECMG 1913/1915 21005KT 5000 HZ SCT018=
202604182300 TAF WIHH 182300Z 1900/2000 09006KT 7000 FEW020
                      TEMPO 1909/1912 18015KT 3000 -TSRA FEW017CB
                       SCT018=
202604181700 TAF WIHH 181700Z 1818/1918 15006KT 8000 FEW020
                      BECMG 1822/1900 00000KT 5000 HZ=
202604181100 TAF WIHH 181100Z 1812/1912 06008KT 7000 SCT020
                      BECMG 1818/1820 00000KT 5000 HZ=
202604180500 TAF WIHH 180500Z 1806/1906 09008KT 7000 SCT018
                      TEMPO 1809/1812 15015KT 3000 -TSRA BKN015
                       FEW017CB
                      BECMG 1814/1816 00000KT 5000 HZ=
202604172301 TAF WIHH 172301Z 1800/1900 12008KT 7000 SCT020
                      TEMPO 1808/1811 06013KT 3000 -TSRA FEW016CB
                       BKN017
                      TEMPO 1812/1815 4000 -RA BKN015
                      BECMG 1817/1818 00000KT 5000 HZ=
202604172300 TAF AMD WIHH 180130Z 1802/1900 12008KT 7000 SCT020
                      TEMPO 1808/1811 06013KT 3000 -TSRA FEW016CB
                       BKN017
                      TEMPO 1812/1815 4000 -RA BKN015
                      BECMG 1817/1819 00000KT 5000 HZ=
202604171700 TAF WIHH 171700Z 1718/1818 12005KT 7000 SCT020
                      BECMG 1722/1800 VRB02KT 5000 HZ FEW022
                      TEMPO 1807/1810 06013KT 3000 -TSRA FEW017CB
                       BKN018=
202604171100 TAF WIHH 171100Z 1712/1812 06008KT 6000 SCT020
                      TEMPO 1713/1716 23010KT 3000 -RA FEW017CB
                       BKN018
                      BECMG 1718/1720 VRB02KT 5000 HZ=
202604170500 TAF WIHH 170500Z 1706/1806 03008KT 7000 SCT020
                      TEMPO 1708/1711 21015KT 3000 -TSRA BKN015
                       FEW017CB
                      TEMPO 1712/1715 4000 -RA BKN018
                      BECMG 1716/1718 VRB02KT 5000 HZ=
202604162300 TAF WIHH 162300Z 1700/1800 09006KT 7000 SCT020
                      TEMPO 1708/1711 14015KT 3000 -TSRA BKN015
                       FEW017CB
                      TEMPO 1712/1715 22010KT 4000 -RA
                      BECMG 1716/1718 00000KT 5000 HZ=
202604161700 TAF WIHH 161700Z 1618/1718 22003KT 4000 BR SCT018
                      BECMG 1701/1703 09007KT 7000 FEW020=
202604161100 TAF WIHH 161100Z 1612/1712 16005KT 6000 SCT018
                      TEMPO 1612/1616 4000 -RA BKN015 FEW017CB
                       BECMG 1617/1619 21003KT 5000 HZ=
202604160500 TAF WIHH 160500Z 1606/1706 03010KT 7000 SCT018
                      TEMPO 1608/1612 06015KT 3000 -TSRA BKN016
                       FEW017CB
                      BECMG 1616/1618 21003KT 5000 HZ=
202604152300 TAF WIHH 152300Z 1600/1700 12006KT 7000 SCT018
                      TEMPO 1608/1611 21014G25KT 3000 -TSRA BKN015
                       FEW017CB
                      TEMPO 1613/1615 4000 -RA
                      BECMG 1617/1619 00000KT 5000 HZ=
202604151700 TAF WIHH 151700Z 1518/1618 15005KT 6000 SCT020
                      BECMG 1622/1700 00000KT 4000 BR FEW020
                      TEMPO 1606/1609 21015KT 3000 -TSRA FEW017CB
                       BKN018=
202604151100 TAF WIHH 151100Z 1512/1612 12006KT 6000 SCT018
                      TEMPO 1512/1515 4000 -RA FEW017CB BKN018=
202604150500 TAF WIHH 150500Z 1506/1606 15006KT 7000 SCT018
                      TEMPO 1507/1510 24012G25KT 3000 -TSRA BKN015
                       FEW017CB
                      TEMPO 1512/1515 4000 -RA BKN018
                      BECMG 1517/1519 00000KT 5000 HZ=
202604142300 TAF WIHH 142300Z 1500/1600 08005KT 6000 SCT020
                      TEMPO 1508/1511 17015KT 3000 -TSRA FEW015CB
                       BKN016
                      TEMPO 1512/1515 09005KT 4000 -RA BKN018
                      BECMG 1517/1519 26005KT 8000=
202604141700 TAF WIHH 141700Z 1418/1518 08005KT 8000 SCT020
                      BECMG 1422/1500 VRB02KT 5000 HZ FEW022
                      TEMPO 1509/1512 17015KT 3000 -TSRA FEW015CB
                       BKN017=
202604141100 TAF WIHH 141100Z 1412/1512 03008KT 7000 SCT020
                      TEMPO 1412/1415 18005KT 4000 -RA BKN018
                      BECMG 1418/1420 VRB02KT 5000 HZ=
202604140500 TAF WIHH 140500Z 1406/1506 08008KT 7000 SCT020
                      TEMPO 1408/1411 02015KT 3000 -TSRA FEW015CB
                       BKN016
                      TEMPO 1413/1416 20005KT 4000 -RA BKN018=
202604132300 TAF WIHH 132300Z 1400/1500 08007KT 7000 FEW020
                      TEMPO 1408/1411 16015KT 3000 -TSRA BKN015
                       FEW016CB
                      TEMPO 1413/1416 23004KT 4000 -RA BKN016=
202604131700 TAF WIHH 131700Z 1318/1418 23010KT 6000 SCT018
                      TEMPO 1318/1321 4000 -RA BKN016
                      BECMG 1321/1323 00000KT 4000 HZ FEW020=
202604131100 TAF WIHH 131100Z 1312/1412 22005KT 7000 SCT017
                      TEMPO 1316/1319 24012KT 4000 -RA BKN016 FEW017CB
                       BECMG 1320/1322 00000KT 5000 HZ FEW020=
202604130500 TAF WIHH 130500Z 1306/1406 03008KT 7000 SCT018
                      TEMPO 1308/1312 15016KT 3000 -TSRA BKN016
                       FEW017CB
                      TEMPO 1313/1315 4000 -RA SCT017=
202604122300 TAF WIHH 122300Z 1300/1400 15006KT 7000 FEW020
                      TEMPO 1307/1310 21015KT 3000 -TSRA BKN016
                       FEW017CB
                      TEMPO 1312/1314 4000 -RA SCT017=
202604121700 TAF WIHH 121700Z 1218/1318 18005KT 6000 SCT020
                      BECMG 1222/1300 00000KT 4000 BR FEW020
                      TEMPO 1308/1311 24015KT 3000 -TSRA BKN016
                       FEW017CB=
202604121100 TAF WIHH 121100Z 1212/1312 21006KT 7000 SCT018
                      TEMPO 1212/1214 4000 -RA FEW017CB=
202604120500 TAF WIHH 120500Z 1206/1306 22008KT 8000 FEW020
                      TEMPO 1210/1213 15012KT 4000 -RA BKN016
                      BECMG 1215/1217 5000 HZ SCT018=
202604112300 TAF WIHH 112300Z 1200/1300 28007KT 8000 FEW020
                      TEMPO 1206/1210 12015KT 3000 -TSRA BKN015
                       FEW017CB
                      TEMPO 1212/1215 4000 -RA BKN016
                      BECMG 1216/1218 00000KT 5000 HZ SCT018=
202604111700 TAF WIHH 111700Z 1118/1218 24003KT 6000 SCT018
                      BECMG 1121/1123 00000KT 4000 BR FEW020=
202604111100 TAF WIHH 111100Z 1112/1212 18007KT 5000 HZ SCT018
                      TEMPO 1112/1115 3000 -TSRA SCT016 FEW017CB
                       BECMG 1118/1120 00000KT 4000 BR FEW020=
202604110500 TAF WIHH 110500Z 1106/1206 30010KT 7000 SCT018
                      TEMPO 1107/1111 21015KT 3000 -TSRA BKN015
                       FEW016CB
                      BECMG 1112/1114 15005KT 6000 SCT020=
202604102300 TAF WIHH 102300Z 1100/1200 24006KT 7000 FEW020
                      TEMPO 1108/1111 21015KT 3000 -TSRA BKN015
                       FEW017CB=
202604101700 TAF WIHH 101700Z 1018/1118 15006KT 7000 FEW020
                      TEMPO 1107/1110 24014KT 3000 -TSRA BKN016
                       FEW017CB=
202604101100 TAF WIHH 101100Z 1012/1112 21006KT 7000 SCT018
                      TEMPO 1012/1015 4000 -RA BKN017=
202604100500 TAF WIHH 100500Z 1006/1106 24008KT 8000 FEW020
                      TEMPO 1008/1011 21014KT 4000 -RA BKN016 FEW017CB=
202604092300 TAF WIHH 092300Z 1000/1100 21006KT 8000 FEW020
                      TEMPO 1007/1010 21014KT 3000 -TSRA BKN016
                       FEW017CB=
202604091700 TAF WIHH 091700Z 0918/1018 24006KT 8000 FEW020
                      TEMPO 1006/1009 21014KT 3000 -TSRA BKN016
                       FEW017CB=
202604091100 TAF WIHH 091100Z 0912/1012 24006KT 8000 SCT020=
202604090500 TAF WIHH 090500Z 0906/1006 21008KT 7000 SCT018
                      TEMPO 0907/0911 27015G22KT 3000 -TSRA BKN015
                       FEW017CB
                      BECMG 0913/0915 00000KT 5000 HZ FEW020=
202604082300 TAF WIHH 082300Z 0900/1000 20006KT 6000 SCT020
                      TEMPO 0904/0906 26015KT 3000 -RA SCT016
                      TEMPO 0908/0912 2000 -TSRA BKN015 FEW017CB
                       BECMG 0914/0916 00000KT 5000 HZ SCT018=
202604081700 TAF WIHH 081700Z 0818/0918 00000KT 4000 BR FEW020
                      BECMG 0901/0903 23006KT 7000 SCT020=
202604081100 TAF WIHH 081100Z 0812/0912 17005KT 7000 SCT018
                      BECMG 0817/0819 00000KT 5000 HZ FEW020=
202604080500 TAF WIHH 080500Z 0806/0906 35008KT 7000 SCT018
                      TEMPO 0807/0811 23015KT 3000 -TSRA BKN016
                       FEW017CB
                      BECMG 0812/0814 17005KT 5000 HZ SCT020=
202604072300 TAF WIHH 072300Z 0800/0900 27006KT 7000 FEW020
                      TEMPO 0807/0810 07015KT 3000 -TSRA FEW015CB
                       BKN016
                      TEMPO 0812/0815 20005KT 4000 -RA SCT018=
202604071700 TAF WIHH 071700Z 0718/0818 24005KT 7000 SCT020
                      BECMG 0722/0800 VRB02KT 5000 HZ
                      TEMPO 0807/0810 07015KT 3000 -TSRA FEW015CB
                       BKN017=
202604071100 TAF WIHH 071100Z 0712/0812 34006KT 7000 SCT020
                      BECMG 0721/0723 23003KT 5000 HZ=
202604070500 TAF WIHH 070500Z 0706/0806 13006KT 6000 SCT020
                      TEMPO 0707/0710 34015KT 3000 -TSRA SCT016
                       FEW017CB
                      BECMG 0712/0714 22004KT 5000 HZ=
202604062300 TAF WIHH 062300Z 0700/0800 05006KT 7000 FEW020
                      TEMPO 0706/0709 34015KT 3000 -TSRA SCT016
                       FEW017CB
                      BECMG 0711/0713 22004KT 6000 SCT018=
202604061700 TAF WIHH 061700Z 0618/0718 16003KT 5000 HZ SCT018
                      BECMG 0621/0623 00000KT 4000 BR FEW020=
202604061100 TAF WIHH 061100Z 0612/0712 23004KT 6000 SCT018
                      BECMG 0616/0618 00000KT 5000 HZ FEW020=
202604060500 TAF WIHH 060500Z 0606/0706 36010KT 7000 SCT018
                      TEMPO 0608/0612 06015KT 3000 -TSRA FEW015CB
                       BKN017
                      BECMG 0614/0616 16005KT 6000 SCT020=
202604052300 TAF WIHH 052300Z 0600/0700 13008KT 7000 SCT020
                      TEMPO 0608/0611 06015KT 3000 -TSRA FEW015CB
                       BKN017
                      BECMG 0613/0615 22005KT 5000 HZ
                      TEMPO 0621/0700 4000 -RA BKN018=
202604051700 TAF WIHH 051700Z 0518/0618 13005KT 8000 SCT020
                      BECMG 0522/0600 VRB02KT 5000 HZ FEW022
                      TEMPO 0608/0611 06015KT 3000 -TSRA FEW015CB
                       BKN017=
202604051100 TAF WIHH 051100Z 0512/0612 15006KT 6000
                      TEMPO 0513/0516 21010KT 3000 -RA FEW016CB
                       BKN017
                      BECMG 0518/0520 07003KT 5000 HZ=
202604050501 TAF WIHH 050501Z 0506/0606 06010KT 7000 SCT020
                      TEMPO 0506/0509 21015KT 3000 TSRA FEW016CB
                       BKN017
                      BECMG 0511/0513 15003KT 5000 HZ=
202604050500 TAF WIHH 050500Z 0506/0606 06010KT 7000 SCT020
                      TEMPO 0506/0509 21015KT 3000 TSRA FEW016CB
                       BKN017
                      BECMG 0511/0513 15003 5000 HZ=
202604042300 TAF WIHH 042300Z 0500/0600 21005KT 7000 SCT020
                      TEMPO 0509/0512 15015KT 2000 TSRA BKN015
                       FEW017CB
                      TEMPO 0516/0519 09006KT 3000 -RA BKN016
                      BECMG 0521/0523 4000 BR SCT018=
202604041700 TAF WIHH 041700Z 0418/0518 24005KT 7000 FEW020
                      BECMG 0420/0423 05005KT 5000 HZ SCT020=
202604041100 TAF WIHH 041100Z 0412/0512 24005KT 6000 SCT016 FEW017CB
                      TEMPO 0412/0415 18008KT 4000 -TSRA BKN015
                       FEW017CB
                      BECMG 0417/0419 05005KT 7000 SCT020=
202604040500 TAF WIHH 040500Z 0406/0506 02008KT 8000 SCT018
                      TEMPO 0408/0412 09015G20KT 2000 TSRA BKN015
                       FEW016CB
                      TEMPO 0414/0418 18007KT -RA 3000 BKN016
                      BECMG 0420/0422 00000KT 5000 HZ SCT017=
202604032301 TAF WIHH 032301Z 0400/0500 23007KT 7000 SCT020
                      TEMPO 0408/0412 03012G20KT 2000 TSRA BKN016
                       FEW017CB
                      TEMPO 0414/0418 12006KT 3000 -RA BKN015
                      BECMG 0420/0422 00000KT 4000 BR SCT018=
202604032300 TAF WIHH 032300Z 0400/0500 23007KT 7000 SCT020
                      TEMPO 0408/0412 03012G20KT 2000 TSRA BKN016
                       FEW017CB
                      TEMPO 0414/0418 12006KT -RA 3000 BKN015
                      BECMG 0420/0422 00000KT 4000 BR SCT018=
202604031700 TAF WIHH 031700Z 0318/0418 23006KT 5000 TS SCT016 FEW017CB
                      TEMPO 0318/0321 17008KT 3000 -TSRA BKN015
                       FEW017CB
                      BECMG 0323/0402 08005KT 4000 BR SCT018=
202604031100 TAF WIHH 031100Z 0312/0412 04010KT 6000 TS SCT016 FEW018CB
                      TEMPO 0312/0315 14015G20KT 3000 -TSRA BKN015
                       FEW017CB
                      BECMG 0317/0319 00000KT 7000 SCT020=
202604030500 TAF WIHH 030500Z 0306/0406 03007KT 8000 SCT018
                      TEMPO 0307/0312 15015KT 2000 TSRA BKN015
                       FEW017CB
                      TEMPO 0314/0315 24007KT 3000 -RA BKN016
                      BECMG 0316/0318 00000KT 6000 SCT020=
202604022301 TAF WIHH 022301Z 0300/0400 08006KT 7000 FEW020
                      TEMPO 0307/0311 13015KT 2000 TSRA BKN016
                       FEW017CB
                      TEMPO 0312/0315 22008KT 4000 -RA BKN015
                      BECMG 0316/0318 00000KT 5000 HZ SCT018=
202604022300 TAF WIHH 022300Z 0300/0400 08006KT 7000 FEW020
                      TEMPO 0307/0311 13015KT 2000 TSRA BKN016
                       FEW017CB
                      TEMPO 0312/0315 22008KT -RA 4000 BKN015
                      BECMG 0316/0318 00000KT 5000 HZ SCT018=
202604021700 TAF WIHH 021700Z 0218/0318 14003KT 5000 HZ SCT020
                      BECMG 0221/0223 00000KT 3000 BR FEW020=
202604021100 TAF WIHH 021100Z 0212/0312 16008KT 4000 -TSRA BKN015 FEW016CB
                      BECMG 0215/0217 20003KT 5000 HZ SCT020=
202604020500 TAF WIHH 020500Z 0206/0306 01010KT 7000 SCT018
                      TEMPO 0207/0211 14015KT 2000 TSRA BKN016
                       FEW017CB
                      BECMG 0213/0215 17005KT 6000 SCT020
                      BECMG 0221/0223 00000KT 3000 BR FEW020=
202604012300 TAF WIHH 012300Z 0200/0300 08005KT 7000 SCT020
                      TEMPO 0209/0212 24010KT 3000 -TSRA FEW016CB
                       BKN018
                      BECMG 0213/0215 18003KT 5000 HZ=
202604011700 TAF WIHH 011700Z 0118/0218 18005KT 7000 SCT020
                      BECMG 0122/0200 VRB03KT 5000 HZ
                      TEMPO 0208/0211 24010KT 3000 -TSRA FEW016CB
                       BKN018=
202604011100 TAF WIHH 011100Z 0112/0212 04006KT 6000 SCT020
                      TEMPO 0112/0115 22008KT 4000 -RA FEW015CB
                       BKN017
                      BECMG 0117/0119 12003KT 5000 HZ=
202604010500 TAF WIHH 010500Z 0106/0206 07008KT 8000 SCT020
                      TEMPO 0107/0110 18012KT 3000 -TSRA FEW015CB
                       BKN017
                      BECMG 0112/0114 12003KT 5000 HZ=
