##########################################################
# Query made at 05/04/2026 14:29:37 UTC
# Time interval: from 01/01/2023 00:00  to 01/31/2023 23:59  UTC
##########################################################

##########################################################
# WIHH, Jakarta Halim Perdanakusuma (Indonesia)
# WMO index: 96747. WIGOS ID: Unknown
# Latitude 06-15S. Longitude 106-54E. Altitude 30 m.
##########################################################

###################################
#  METAR/SPECI from WIHH
###################################
202301312330 METAR WIHH NIL=
202301312300 METAR WIHH NIL=
202301312230 METAR WIHH NIL=
202301312200 METAR WIHH NIL=
202301312130 METAR WIHH NIL=
202301312100 METAR WIHH NIL=
202301312030 METAR WIHH NIL=
202301312000 METAR WIHH NIL=
202301311930 METAR WIHH NIL=
202301311900 METAR WIHH NIL=
202301311830 METAR WIHH NIL=
202301311800 METAR WIHH NIL=
202301311730 METAR WIHH NIL=
202301311700 METAR WIHH NIL=
202301311630 METAR WIHH NIL=
202301311600 METAR WIHH NIL=
202301311530 METAR WIHH NIL=
202301311500 METAR WIHH NIL=
202301311430 METAR WIHH NIL=
202301311400 METAR WIHH NIL=
202301311330 METAR WIHH NIL=
202301311300 METAR WIHH NIL=
202301311230 METAR WIHH NIL=
202301311200 METAR WIHH NIL=
202301311130 METAR WIHH NIL=
202301311100 METAR WIHH NIL=
202301311030 METAR WIHH NIL=
202301311000 METAR WIHH NIL=
202301310930 METAR WIHH NIL=
202301310900 METAR WIHH 310900Z 26005KT 6000 SCT018 28/24 Q1005 NOSIG=
202301310830 METAR WIHH 310830Z 25004KT 6000 SCT018 28/25 Q1005 NOSIG=
202301310800 METAR WIHH 310800Z 30003KT 6000 SCT018 28/25 Q1005 NOSIG=
202301310730 METAR WIHH 310730Z 32006KT 5000 HZ SCT018 28/25 Q1006 NOSIG=
202301310700 METAR WIHH 310700Z 31003KT 5000 HZ SCT018 27/25 Q1006 RMK RA TO N=
202301310630 METAR WIHH 310630Z 29003KT 4000 -RA SCT016 27/25 Q1007 NOSIG=
202301310600 METAR WIHH 310600Z 30003KT 5000 HZ SCT016 27/25 Q1007 RMK RA TO NE=
202301310530 METAR WIHH 310530Z 28003KT 4000 -RA BKN016 26/25 Q1008 NOSIG=
202301310500 METAR WIHH 310500Z 30005KT 6000 SCT018 30/24 Q1008 RMK RA TO W=
202301310430 METAR WIHH 310430Z 32005KT 6000 SCT018 29/23 Q1008 NOSIG=
202301310400 METAR WIHH 310400Z 28006KT 6000 SCT018 30/24 Q1009 NOSIG=
202301310330 METAR WIHH 310330Z 34005KT 6000 SCT018 30/24 Q1009 NOSIG=
202301310300 METAR WIHH 310300Z 28006KT 6000 SCT018 30/24 Q1009 NOSIG=
202301310230 METAR WIHH 310230Z 28007KT 6000 SCT018 29/24 Q1009 NOSIG=
202301310200 METAR WIHH 310200Z 29007KT 5000 HZ SCT018 28/24 Q1009 NOSIG=
202301310130 METAR WIHH 310130Z 27003KT 5000 HZ SCT020 28/23 Q1009 NOSIG=
202301310100 METAR WIHH 310100Z 25004KT 5000 HZ SCT020 27/23 Q1009 NOSIG=
202301310030 METAR WIHH 310030Z 27005KT 5000 HZ SCT020 27/22 Q1009 NOSIG=
202301310000 METAR WIHH NIL=
202301302330 METAR WIHH NIL=
202301302300 METAR WIHH NIL=
202301302230 METAR WIHH NIL=
202301302200 METAR WIHH NIL=
202301302130 METAR WIHH NIL=
202301302100 METAR WIHH NIL=
202301302030 METAR WIHH NIL=
202301302000 METAR WIHH NIL=
202301301930 METAR WIHH NIL=
202301301900 METAR WIHH NIL=
202301301830 METAR WIHH NIL=
202301301800 METAR WIHH NIL=
202301301730 METAR WIHH NIL=
202301301700 METAR WIHH NIL=
202301301630 METAR WIHH NIL=
202301301600 METAR WIHH NIL=
202301301530 METAR WIHH NIL=
202301301500 METAR WIHH NIL=
202301301430 METAR WIHH NIL=
202301301400 METAR WIHH NIL=
202301301330 METAR WIHH NIL=
202301301300 METAR WIHH NIL=
202301301230 METAR WIHH NIL=
202301301200 METAR WIHH NIL=
202301301130 METAR WIHH NIL=
202301301100 METAR WIHH NIL=
202301301030 METAR WIHH NIL=
202301301000 METAR WIHH NIL=
202301300930 METAR WIHH 300930Z 33005KT 6000 SCT020 29/24 Q1006 NOSIG=
202301300900 METAR WIHH 300900Z 33005KT 6000 SCT020 30/23 Q1006 NOSIG=
202301300830 METAR WIHH 300830Z 33008KT 6000 SCT020 30/24 Q1006 NOSIG=
202301300800 METAR WIHH 300800Z 36008KT 6000 SCT020 30/24 Q1006 NOSIG=
202301300730 METAR WIHH 300730Z 33008KT 6000 SCT020 31/22 Q1007 NOSIG=
202301300700 METAR WIHH 300700Z 33008KT 6000 SCT020 31/22 Q1007 NOSIG=
202301300630 METAR WIHH 300630Z 33008KT 6000 SCT020 31/22 Q1007 NOSIG=
202301300600 METAR WIHH 300600Z 24008KT 6000 SCT020 31/22 Q1008 NOSIG=
202301300530 METAR WIHH 300530Z 34010KT 6000 SCT019 31/23 Q1009 NOSIG=
202301300500 METAR WIHH 300500Z 30008KT 6000 SCT019 30/23 Q1009 NOSIG=
202301300430 METAR WIHH 300430Z 30010KT 6000 SCT019 29/23 Q1010 NOSIG=
202301300400 METAR WIHH 300400Z 30008KT 6000 SCT019 29/23 Q1010 NOSIG=
202301300330 METAR WIHH 300330Z 27008KT 6000 SCT019 28/24 Q1010 NOSIG=
202301300300 METAR WIHH 300300Z 27008KT 6000 SCT018 26/24 Q1010 NOSIG=
202301300230 METAR WIHH 300230Z 24008KT 5000 HZ SCT018 26/24 Q1010 RMK RA TO SE=
202301300200 METAR WIHH 300200Z 33008KT 4000 -RA BKN017 26/24 Q1010 NOSIG=
202301300130 METAR WIHH 300130Z 27003KT 5000 -RA SCT018 26/24 Q1010 NOSIG=
202301300100 METAR WIHH 300100Z 25006KT 5000 HZ SCT018 27/23 Q1010 RMK RA TO NW=
202301300030 METAR WIHH 300030Z 24003KT 6000 FEW020 27/23 Q1010 NOSIG=
202301300000 METAR WIHH NIL=
202301292330 METAR WIHH NIL=
202301292300 METAR WIHH NIL=
202301292230 METAR WIHH NIL=
202301292200 METAR WIHH NIL=
202301292130 METAR WIHH NIL=
202301292100 METAR WIHH NIL=
202301292030 METAR WIHH NIL=
202301292000 METAR WIHH NIL=
202301291930 METAR WIHH NIL=
202301291900 METAR WIHH NIL=
202301291830 METAR WIHH NIL=
202301291800 METAR WIHH NIL=
202301291730 METAR WIHH NIL=
202301291700 METAR WIHH NIL=
202301291630 METAR WIHH NIL=
202301291600 METAR WIHH NIL=
202301291530 METAR WIHH NIL=
202301291500 METAR WIHH NIL=
202301291430 METAR WIHH NIL=
202301291400 METAR WIHH NIL=
202301291330 METAR WIHH NIL=
202301291300 METAR WIHH NIL=
202301291230 METAR WIHH NIL=
202301291200 METAR WIHH NIL=
202301291130 METAR WIHH NIL=
202301291100 METAR WIHH NIL=
202301291030 METAR WIHH NIL=
202301291000 METAR WIHH NIL=
202301290930 METAR WIHH NIL=
202301290900 METAR WIHH NIL=
202301290830 METAR WIHH NIL=
202301290800 METAR WIHH NIL=
202301290730 METAR WIHH NIL=
202301290700 METAR WIHH NIL=
202301290630 METAR WIHH NIL=
202301290600 METAR WIHH NIL=
202301290530 METAR WIHH NIL=
202301290500 METAR WIHH NIL=
202301290430 METAR WIHH NIL=
202301290400 METAR WIHH NIL=
202301290330 METAR WIHH NIL=
202301290300 METAR WIHH NIL=
202301290230 METAR WIHH NIL=
202301290200 METAR WIHH NIL=
202301290130 METAR WIHH NIL=
202301290100 METAR WIHH NIL=
202301290030 METAR WIHH NIL=
202301290000 METAR WIHH NIL=
202301282330 METAR WIHH NIL=
202301282300 METAR WIHH NIL=
202301282230 METAR WIHH NIL=
202301282200 METAR WIHH NIL=
202301282130 METAR WIHH NIL=
202301282100 METAR WIHH NIL=
202301282030 METAR WIHH NIL=
202301282000 METAR WIHH NIL=
202301281930 METAR WIHH NIL=
202301281900 METAR WIHH NIL=
202301281830 METAR WIHH NIL=
202301281800 METAR WIHH NIL=
202301281730 METAR WIHH NIL=
202301281700 METAR WIHH NIL=
202301281630 METAR WIHH NIL=
202301281600 METAR WIHH NIL=
202301281530 METAR WIHH NIL=
202301281500 METAR WIHH NIL=
202301281430 METAR WIHH NIL=
202301281400 METAR WIHH NIL=
202301281330 METAR WIHH NIL=
202301281300 METAR WIHH NIL=
202301281230 METAR WIHH NIL=
202301281200 METAR WIHH NIL=
202301281130 METAR WIHH NIL=
202301281100 METAR WIHH NIL=
202301281030 METAR WIHH NIL=
202301281000 METAR WIHH NIL=
202301280930 METAR WIHH NIL=
202301280900 METAR WIHH NIL=
202301280830 METAR WIHH NIL=
202301280800 METAR WIHH NIL=
202301280730 METAR WIHH NIL=
202301280700 METAR WIHH NIL=
202301280630 METAR WIHH NIL=
202301280600 METAR WIHH NIL=
202301280530 METAR WIHH NIL=
202301280500 METAR WIHH NIL=
202301280430 METAR WIHH NIL=
202301280400 METAR WIHH NIL=
202301280330 METAR WIHH NIL=
202301280300 METAR WIHH NIL=
202301280230 METAR WIHH NIL=
202301280200 METAR WIHH NIL=
202301280130 METAR WIHH NIL=
202301280100 METAR WIHH NIL=
202301280030 METAR WIHH NIL=
202301280000 METAR WIHH NIL=
202301272330 METAR WIHH NIL=
202301272300 METAR WIHH NIL=
202301272230 METAR WIHH NIL=
202301272200 METAR WIHH NIL=
202301272130 METAR WIHH NIL=
202301272100 METAR WIHH NIL=
202301272030 METAR WIHH NIL=
202301272000 METAR WIHH NIL=
202301271930 METAR WIHH NIL=
202301271900 METAR WIHH NIL=
202301271830 METAR WIHH NIL=
202301271800 METAR WIHH NIL=
202301271730 METAR WIHH NIL=
202301271700 METAR WIHH NIL=
202301271630 METAR WIHH NIL=
202301271600 METAR WIHH NIL=
202301271530 METAR WIHH NIL=
202301271500 METAR WIHH NIL=
202301271430 METAR WIHH NIL=
202301271400 METAR WIHH NIL=
202301271330 METAR WIHH NIL=
202301271300 METAR WIHH NIL=
202301271230 METAR WIHH NIL=
202301271200 METAR WIHH NIL=
202301271130 METAR WIHH NIL=
202301271100 METAR WIHH NIL=
202301271030 METAR WIHH NIL=
202301271000 METAR WIHH NIL=
202301270930 METAR WIHH 270930Z 31004KT 5000 -RA SCT018 29/23 Q1005 NOSIG=
202301270900 METAR WIHH 270900Z 27003KT 6000 -RA SCT018 29/24 Q1005 NOSIG=
202301270830 METAR WIHH 270830Z 26004KT 6000 -RA SCT018 29/23 Q1005 NOSIG=
202301270800 METAR WIHH 270800Z 36004KT 6000 SCT018 29/24 Q1005 NOSIG=
202301270730 METAR WIHH 270730Z 27004KT 6000 SCT018 29/23 Q1005 NOSIG=
202301270700 METAR WIHH NIL=
202301270600 METAR WIHH NIL=
202301270500 METAR WIHH NIL=
202301270400 METAR WIHH NIL=
202301270300 METAR WIHH NIL=
202301270200 METAR WIHH NIL=
202301270100 METAR WIHH 270100Z 27003KT 5000 HZ BKN017 27/25 Q1009 NOSIG=
202301270030 METAR WIHH 270030Z 27003KT 5000 HZ BKN017 27/25 Q1009 NOSIG=
202301270000 METAR WIHH 270000Z 22003KT 5000 HZ BKN017 26/26 Q1008 NOSIG=
202301262330 METAR WIHH NIL=
202301262300 METAR WIHH NIL=
202301262230 METAR WIHH NIL=
202301262200 METAR WIHH NIL=
202301262130 METAR WIHH NIL=
202301262100 METAR WIHH NIL=
202301262030 METAR WIHH NIL=
202301262000 METAR WIHH NIL=
202301261930 METAR WIHH NIL=
202301261900 METAR WIHH NIL=
202301261830 METAR WIHH NIL=
202301261800 METAR WIHH NIL=
202301261730 METAR WIHH NIL=
202301261700 METAR WIHH NIL=
202301261630 METAR WIHH NIL=
202301261600 METAR WIHH NIL=
202301261530 METAR WIHH NIL=
202301261500 METAR WIHH NIL=
202301261430 METAR WIHH NIL=
202301261400 METAR WIHH NIL=
202301261330 METAR WIHH NIL=
202301261300 METAR WIHH NIL=
202301261230 METAR WIHH NIL=
202301261200 METAR WIHH NIL=
202301261130 METAR WIHH NIL=
202301261100 METAR WIHH NIL=
202301261030 METAR WIHH NIL=
202301261000 METAR WIHH NIL=
202301260930 METAR WIHH NIL=
202301260900 METAR WIHH 260900Z 30005KT 5000 -RA SCT018 28/25 Q1005=
202301260830 METAR WIHH 260830Z 32006KT 5000 HZ FEW017CB SCT018 30/25 Q1005 RMK CB AND RA TO NE=
202301260800 METAR WIHH 260800Z 24006KT 5000 HZ FEW017CB SCT018 30/25 Q1005 RMK CB AND RA TO NE=
202301260730 METAR WIHH 260730Z 20005KT 5000 -RA SCT018 28/25 Q1005 NOSIG=
202301260700 METAR WIHH 260700Z 30005KT 6000 SCT018 32/23 Q1006 RMK RA TO S=
202301260630 METAR WIHH 260630Z 25008KT 6000 SCT018 31/23 Q1006 RMK RA TO SW=
202301260600 METAR WIHH 260600Z 31005KT 6000 SCT018 30/23 Q1007 RMK RA TO SE=
202301260530 METAR WIHH 260530Z 28007KT 6000 SCT018 30/23 Q1007 RMK RA TO SW=
202301260500 METAR WIHH 260500Z 29007KT 6000 SCT018 31/24 Q1008 RMK RA TO W=
202301260430 METAR WIHH 260430Z 27007KT 6000 SCT018 29/24 Q1008 RMK RA TO SE=
202301260400 METAR WIHH 260400Z 26005KT 6000 SCT018 29/24 Q1008 RMK RA TO E=
202301260330 METAR WIHH 260330Z 27012KT 6000 SCT018 29/23 Q1009 RMK RA TO NE=
202301260300 METAR WIHH NIL=
202301260230 METAR WIHH NIL=
202301260200 METAR WIHH NIL=
202301260130 METAR WIHH NIL=
202301260100 METAR WIHH NIL=
202301260030 METAR WIHH NIL=
202301260000 METAR WIHH NIL=
202301252330 METAR WIHH NIL=
202301252300 METAR WIHH NIL=
202301252230 METAR WIHH NIL=
202301252200 METAR WIHH NIL=
202301252130 METAR WIHH NIL=
202301252100 METAR WIHH NIL=
202301252030 METAR WIHH NIL=
202301252000 METAR WIHH NIL=
202301251930 METAR WIHH NIL=
202301251900 METAR WIHH NIL=
202301251830 METAR WIHH NIL=
202301251800 METAR WIHH NIL=
202301251730 METAR WIHH NIL=
202301251700 METAR WIHH NIL=
202301251630 METAR WIHH NIL=
202301251600 METAR WIHH NIL=
202301251530 METAR WIHH NIL=
202301251500 METAR WIHH NIL=
202301251430 METAR WIHH NIL=
202301251400 METAR WIHH NIL=
202301251330 METAR WIHH NIL=
202301251300 METAR WIHH NIL=
202301251230 METAR WIHH NIL=
202301251200 METAR WIHH NIL=
202301251130 METAR WIHH NIL=
202301251100 METAR WIHH NIL=
202301251030 METAR WIHH NIL=
202301251000 METAR WIHH NIL=
202301250930 METAR WIHH NIL=
202301250900 METAR WIHH 250900Z 25014KT 6000 SCT018 26/22 Q1006 NOSIG=
202301250830 METAR WIHH 250830Z 27015KT 6000 SCT018 26/23 Q1007 RMK RA TO SE=
202301250800 METAR WIHH 250800Z 24019KT 6000 SCT017 26/23 Q1007 RMK RA TO SW=
202301250730 METAR WIHH 250730Z 24017KT 6000 SCT015 27/23 Q1007 RMK RA TO S=
202301250700 METAR WIHH 250700Z 25017KT 6000 SCT015 28/21 Q1007 RMK RA TO S=
202301250630 METAR WIHH 250630Z 26018KT 6000 SCT015 28/21 Q1007 RMK RA TO SW=
202301250600 METAR WIHH 250600Z 29016KT 6000 SCT015 29/21 Q1007 RMK RA TO SW=
202301250530 METAR WIHH 250530Z 25014KT 6000 SCT018 29/21 Q1008 NOSIG=
202301250500 METAR WIHH 250500Z 25012KT 6000 SCT018 28/22 Q1008 RMK RA TO S=
202301250430 METAR WIHH 250430Z 26012KT 6000 SCT018 27/22 Q1008 RMK RA TO S=
202301250400 METAR WIHH 250400Z 28012KT 6000 SCT018 27/22 Q1009 NOSIG=
202301250330 METAR WIHH 250330Z 23011KT 6000 SCT018 26/23 Q1009 NOSIG=
202301250300 METAR WIHH NIL=
202301250230 METAR WIHH NIL=
202301250200 METAR WIHH 250200Z 25013KT 6000 SCT015 25/23 Q1009 RMK RA TO SW AND NE=
202301250130 METAR WIHH 250130Z 25012KT 6000 SCT018 26/23 Q1008 RMK RA TO SW=
202301250100 METAR WIHH 250100Z 25012KT 6000 SCT018 26/23 Q1008 NOSIG=
202301250030 METAR WIHH 250030Z 26012KT 6000 SCT018 26/23 Q1008 NOSIG=
202301250000 METAR WIHH NIL=
202301242330 METAR WIHH NIL=
202301242300 METAR WIHH NIL=
202301242230 METAR WIHH NIL=
202301242200 METAR WIHH NIL=
202301242130 METAR WIHH NIL=
202301242100 METAR WIHH NIL=
202301242030 METAR WIHH NIL=
202301242000 METAR WIHH NIL=
202301241930 METAR WIHH NIL=
202301241900 METAR WIHH NIL=
202301241830 METAR WIHH NIL=
202301241800 METAR WIHH NIL=
202301241730 METAR WIHH NIL=
202301241700 METAR WIHH NIL=
202301241630 METAR WIHH NIL=
202301241600 METAR WIHH NIL=
202301241530 METAR WIHH NIL=
202301241500 METAR WIHH NIL=
202301241430 METAR WIHH NIL=
202301241400 METAR WIHH NIL=
202301241330 METAR WIHH NIL=
202301241300 METAR WIHH NIL=
202301241230 METAR WIHH NIL=
202301241200 METAR WIHH NIL=
202301241130 METAR WIHH NIL=
202301241100 METAR WIHH NIL=
202301241030 METAR WIHH NIL=
202301241000 METAR WIHH NIL=
202301240930 METAR WIHH NIL=
202301240900 METAR WIHH 240900Z 25018KT 7000 SCT018 32/22 Q1004 NOSIG=
202301240830 METAR WIHH 240830Z 27017KT 7000 SCT018 32/22 Q1004 NOSIG=
202301240800 METAR WIHH 240800Z 28015KT 7000 SCT018 32/21 Q1004 NOSIG=
202301240730 METAR WIHH 240730Z 28015KT 7000 SCT018 32/22 Q1004 NOSIG=
202301240700 METAR WIHH 240700Z 27017KT 7000 SCT018 33/22 Q1005 NOSIG=
202301240630 METAR WIHH 240630Z 24015KT 7000 SCT018 32/22 Q1005 NOSIG=
202301240600 METAR WIHH 240600Z 24015KT 7000 SCT018 32/24 Q1006 NOSIG=
202301240530 METAR WIHH 240530Z 28012KT 7000 SCT018 32/23 Q1006 NOSIG=
202301240500 METAR WIHH 240500Z 28010KT 7000 SCT018 31/24 Q1007 NOSIG=
202301240430 METAR WIHH 240430Z 25010KT 7000 SCT018 30/24 Q1007 NOSIG=
202301240400 METAR WIHH 240400Z 25012KT 7000 SCT018 30/24 Q1007 NOSIG=
202301240330 METAR WIHH 240330Z 25015KT 7000 SCT018 29/24 Q1007 NOSIG=
202301240300 METAR WIHH 240300Z 27007KT 7000 SCT018 29/25 Q1008 NOSIG=
202301240230 METAR WIHH 240230Z 25006KT 7000 SCT018 28/24 Q1008 NOSIG=
202301240200 METAR WIHH 240200Z 26006KT 7000 SCT016 28/24 Q1008 NOSIG=
202301240130 METAR WIHH 240130Z 24010KT 7000 SCT016 27/24 Q1008 NOSIG=
202301240100 METAR WIHH 240100Z 26008KT 7000 SCT016 27/24 Q1008 NOSIG=
202301240030 METAR WIHH 240030Z 25008KT 7000 FEW020 27/24 Q1007 NOSIG=
202301240000 METAR WIHH NIL=
202301232330 METAR WIHH NIL=
202301232300 METAR WIHH NIL=
202301232230 METAR WIHH NIL=
202301232200 METAR WIHH NIL=
202301232130 METAR WIHH NIL=
202301232100 METAR WIHH NIL=
202301232030 METAR WIHH NIL=
202301232000 METAR WIHH NIL=
202301231930 METAR WIHH NIL=
202301231900 METAR WIHH NIL=
202301231830 METAR WIHH NIL=
202301231800 METAR WIHH NIL=
202301231730 METAR WIHH NIL=
202301231700 METAR WIHH NIL=
202301231630 METAR WIHH NIL=
202301231600 METAR WIHH NIL=
202301231530 METAR WIHH NIL=
202301231500 METAR WIHH NIL=
202301231430 METAR WIHH NIL=
202301231400 METAR WIHH NIL=
202301231330 METAR WIHH NIL=
202301231300 METAR WIHH NIL=
202301231230 METAR WIHH NIL=
202301231200 METAR WIHH NIL=
202301231130 METAR WIHH NIL=
202301231100 METAR WIHH NIL=
202301231030 METAR WIHH NIL=
202301231000 METAR WIHH NIL=
202301230930 METAR WIHH NIL=
202301230900 METAR WIHH NIL=
202301230830 METAR WIHH NIL=
202301230800 METAR WIHH NIL=
202301230730 METAR WIHH NIL=
202301230700 METAR WIHH NIL=
202301230630 METAR WIHH NIL=
202301230600 METAR WIHH NIL=
202301230530 METAR WIHH NIL=
202301230500 METAR WIHH NIL=
202301230430 METAR WIHH NIL=
202301230400 METAR WIHH NIL=
202301230330 METAR WIHH NIL=
202301230300 METAR WIHH NIL=
202301230230 METAR WIHH NIL=
202301230200 METAR WIHH NIL=
202301230130 METAR WIHH NIL=
202301230100 METAR WIHH NIL=
202301230030 METAR WIHH NIL=
202301230000 METAR WIHH NIL=
202301222330 METAR WIHH NIL=
202301222300 METAR WIHH NIL=
202301222230 METAR WIHH NIL=
202301222200 METAR WIHH NIL=
202301222130 METAR WIHH NIL=
202301222100 METAR WIHH NIL=
202301222030 METAR WIHH NIL=
202301222000 METAR WIHH NIL=
202301221930 METAR WIHH NIL=
202301221900 METAR WIHH NIL=
202301221830 METAR WIHH NIL=
202301221800 METAR WIHH NIL=
202301221730 METAR WIHH NIL=
202301221700 METAR WIHH NIL=
202301221630 METAR WIHH NIL=
202301221600 METAR WIHH NIL=
202301221530 METAR WIHH NIL=
202301221500 METAR WIHH NIL=
202301221430 METAR WIHH NIL=
202301221400 METAR WIHH NIL=
202301221330 METAR WIHH NIL=
202301221300 METAR WIHH NIL=
202301221230 METAR WIHH NIL=
202301221200 METAR WIHH NIL=
202301221130 METAR WIHH NIL=
202301221100 METAR WIHH NIL=
202301221030 METAR WIHH NIL=
202301221000 METAR WIHH NIL=
202301220930 METAR WIHH NIL=
202301220900 METAR WIHH NIL=
202301220830 METAR WIHH NIL=
202301220800 METAR WIHH NIL=
202301220730 METAR WIHH NIL=
202301220700 METAR WIHH NIL=
202301220630 METAR WIHH NIL=
202301220600 METAR WIHH NIL=
202301220530 METAR WIHH NIL=
202301220500 METAR WIHH NIL=
202301220430 METAR WIHH NIL=
202301220400 METAR WIHH NIL=
202301220330 METAR WIHH NIL=
202301220300 METAR WIHH NIL=
202301220230 METAR WIHH NIL=
202301220200 METAR WIHH NIL=
202301220130 METAR WIHH NIL=
202301220100 METAR WIHH NIL=
202301220030 METAR WIHH NIL=
202301220000 METAR WIHH NIL=
202301212330 METAR WIHH NIL=
202301212300 METAR WIHH NIL=
202301212230 METAR WIHH NIL=
202301212200 METAR WIHH NIL=
202301212130 METAR WIHH NIL=
202301212100 METAR WIHH NIL=
202301212030 METAR WIHH NIL=
202301212000 METAR WIHH NIL=
202301211930 METAR WIHH NIL=
202301211900 METAR WIHH NIL=
202301211830 METAR WIHH NIL=
202301211800 METAR WIHH NIL=
202301211730 METAR WIHH NIL=
202301211700 METAR WIHH NIL=
202301211630 METAR WIHH NIL=
202301211600 METAR WIHH NIL=
202301211530 METAR WIHH NIL=
202301211500 METAR WIHH NIL=
202301211430 METAR WIHH NIL=
202301211400 METAR WIHH NIL=
202301211330 METAR WIHH NIL=
202301211300 METAR WIHH NIL=
202301211230 METAR WIHH NIL=
202301211200 METAR WIHH NIL=
202301211130 METAR WIHH NIL=
202301211100 METAR WIHH NIL=
202301211030 METAR WIHH NIL=
202301211000 METAR WIHH NIL=
202301210930 METAR WIHH NIL=
202301210900 METAR WIHH NIL=
202301210830 METAR WIHH NIL=
202301210800 METAR WIHH NIL=
202301210730 METAR WIHH NIL=
202301210700 METAR WIHH NIL=
202301210630 METAR WIHH NIL=
202301210600 METAR WIHH NIL=
202301210530 METAR WIHH NIL=
202301210500 METAR WIHH NIL=
202301210430 METAR WIHH NIL=
202301210400 METAR WIHH NIL=
202301210330 METAR WIHH NIL=
202301210300 METAR WIHH NIL=
202301210230 METAR WIHH NIL=
202301210200 METAR WIHH NIL=
202301210130 METAR WIHH NIL=
202301210100 METAR WIHH NIL=
202301210030 METAR WIHH NIL=
202301210000 METAR WIHH NIL=
202301202330 METAR WIHH NIL=
202301202300 METAR WIHH NIL=
202301202230 METAR WIHH NIL=
202301202200 METAR WIHH NIL=
202301202130 METAR WIHH NIL=
202301202100 METAR WIHH NIL=
202301202030 METAR WIHH NIL=
202301202000 METAR WIHH NIL=
202301201930 METAR WIHH NIL=
202301201900 METAR WIHH NIL=
202301201830 METAR WIHH NIL=
202301201800 METAR WIHH NIL=
202301201730 METAR WIHH NIL=
202301201700 METAR WIHH NIL=
202301201630 METAR WIHH NIL=
202301201600 METAR WIHH NIL=
202301201530 METAR WIHH NIL=
202301201500 METAR WIHH NIL=
202301201430 METAR WIHH NIL=
202301201400 METAR WIHH NIL=
202301201330 METAR WIHH NIL=
202301201300 METAR WIHH NIL=
202301201230 METAR WIHH NIL=
202301201200 METAR WIHH NIL=
202301201130 METAR WIHH NIL=
202301201100 METAR WIHH NIL=
202301201030 METAR WIHH NIL=
202301201000 METAR WIHH NIL=
202301200930 METAR WIHH 200930Z 25009KT 5000 -RA FEW018CB SCT018 28/24 Q1007 RMK CB TO N=
202301200900 METAR WIHH 200900Z 24008KT 5000 -RA SCT018 31/22 Q1006 NOSIG=
202301200830 METAR WIHH 200830Z 26008KT 5000 HZ SCT018 31/22 Q1006 RMK RA TO E AND W=
202301200800 METAR WIHH 200800Z 29006KT 6000 SCT018 31/22 Q1007 RMK RA TO E AND W=
202301200730 METAR WIHH 200730Z 28006KT 6000 SCT018 31/22 Q1007 RMK RA TO E=
202301200700 METAR WIHH 200700Z 27007KT 6000 SCT018 31/22 Q1008 RMK RA TO E=
202301200630 METAR WIHH 200630Z 24009KT 6000 SCT018 32/23 Q1008 RMK RA TO E=
202301200600 METAR WIHH 200600Z 27012KT 6000 SCT018 32/22 Q1008 RMK RA TO E=
202301200530 METAR WIHH NIL=
202301200500 METAR WIHH 200500Z 30006KT 5000 HZ SCT018 30/23 Q1009 RMK RA TO NE AND SW=
202301200430 METAR WIHH 200430Z 28006KT 6000 SCT018 31/23 Q1010 TEMPO FM0500 5000 -RA BKN017 RMK RA TO NW=
202301200400 METAR WIHH 200400Z 27006KT 6000 SCT018 31/23 Q1010 RMK RA TO NE AND SE=
202301200330 METAR WIHH 200330Z 26006KT 6000 SCT018 30/23 Q1010 NOSIG=
202301200300 METAR WIHH NIL=
202301200230 METAR WIHH 200230Z 23008KT 6000 SCT018 29/23 Q1011 NOSIG=
202301200200 METAR WIHH 200200Z 24005KT 6000 FEW020 29/24 Q1011 NOSIG=
202301200130 METAR WIHH 200130Z 26005KT 7000 FEW020 27/23 Q1011 NOSIG=
202301200100 METAR WIHH 200100Z 27006KT 6000 FEW020 26/23 Q1011 NOSIG=
202301200030 METAR WIHH 200030Z 29005KT 7000 FEW020 26/24 Q1010 NOSIG=
202301200000 METAR WIHH NIL=
202301192330 METAR WIHH NIL=
202301192300 METAR WIHH NIL=
202301192230 METAR WIHH NIL=
202301192200 METAR WIHH NIL=
202301192130 METAR WIHH NIL=
202301192100 METAR WIHH NIL=
202301192030 METAR WIHH NIL=
202301192000 METAR WIHH NIL=
202301191930 METAR WIHH NIL=
202301191900 METAR WIHH NIL=
202301191830 METAR WIHH NIL=
202301191800 METAR WIHH NIL=
202301191730 METAR WIHH NIL=
202301191700 METAR WIHH NIL=
202301191630 METAR WIHH NIL=
202301191600 METAR WIHH NIL=
202301191530 METAR WIHH NIL=
202301191500 METAR WIHH NIL=
202301191430 METAR WIHH NIL=
202301191400 METAR WIHH NIL=
202301191330 METAR WIHH NIL=
202301191300 METAR WIHH NIL=
202301191230 METAR WIHH NIL=
202301191200 METAR WIHH NIL=
202301191130 METAR WIHH NIL=
202301191100 METAR WIHH NIL=
202301191030 METAR WIHH NIL=
202301191000 METAR WIHH NIL=
202301190930 METAR WIHH NIL=
202301190900 METAR WIHH 190900Z 32003KT 6000 SCT018 29/24 Q1007 NOSIG=
202301190830 METAR WIHH 190830Z 32005KT 6000 SCT018 30/24 Q1008 NOSIG=
202301190800 METAR WIHH 190800Z 34005KT 6000 SCT018 30/24 Q1008 NOSIG=
202301190730 METAR WIHH 190730Z 31005KT 6000 SCT018 30/24 Q1008 NOSIG=
202301190700 METAR WIHH NIL=
202301190630 METAR WIHH 190630Z 27005KT 6000 SCT018 30/24 Q1009 NOSIG=
202301190600 METAR WIHH 190600Z 31004KT 6000 SCT018 30/24 Q1010 NOSIG=
202301190530 METAR WIHH NIL=
202301190500 METAR WIHH 190500Z 29010KT 6000 SCT018 29/24 Q1011 RMK RA TO NW=
202301190430 METAR WIHH NIL=
202301190400 METAR WIHH 190400Z 31003KT 6000 SCT018 29/24 Q1011 NOSIG=
202301190330 METAR WIHH 190330Z 26006KT 5000 HZ SCT018 29/24 Q1011 NOSIG=
202301190300 METAR WIHH 190300Z 26004KT 5000 HZ SCT018 28/25 Q1012 NOSIG=
202301190230 METAR WIHH 190230Z 26003KT 5000 HZ SCT018 27/25 Q1012 RMK RA TO NE=
202301190200 METAR WIHH 190200Z 29003KT 5000 -RA SCT018 27/25 Q1012 NOSIG=
202301190130 METAR WIHH 190130Z 24004KT 5000 HZ SCT018 26/24 Q1012 NOSIG=
202301190100 METAR WIHH 190100Z 24004KT 5000 HZ SCT018 26/24 Q1011 RMK RA TO N=
202301190030 METAR WIHH 190030Z 24003KT 5000 HZ BKN018 26/24 Q1011 RMK RA TO N=
202301190000 METAR WIHH 190000Z 27003KT 5000 HZ BKN018 26/23 Q1011 RMK RA TO N=
202301182330 METAR WIHH NIL=
202301182300 METAR WIHH NIL=
202301182230 METAR WIHH NIL=
202301182200 METAR WIHH NIL=
202301182130 METAR WIHH NIL=
202301182100 METAR WIHH NIL=
202301182030 METAR WIHH NIL=
202301182000 METAR WIHH NIL=
202301181930 METAR WIHH NIL=
202301181900 METAR WIHH NIL=
202301181830 METAR WIHH NIL=
202301181800 METAR WIHH NIL=
202301181730 METAR WIHH NIL=
202301181700 METAR WIHH NIL=
202301181630 METAR WIHH NIL=
202301181600 METAR WIHH NIL=
202301181530 METAR WIHH NIL=
202301181500 METAR WIHH NIL=
202301181430 METAR WIHH NIL=
202301181400 METAR WIHH NIL=
202301181330 METAR WIHH NIL=
202301181300 METAR WIHH NIL=
202301181230 METAR WIHH NIL=
202301181200 METAR WIHH NIL=
202301181130 METAR WIHH NIL=
202301181100 METAR WIHH NIL=
202301181030 METAR WIHH NIL=
202301181000 METAR WIHH NIL=
202301180930 METAR WIHH NIL=
202301180900 METAR WIHH NIL=
202301180830 METAR WIHH 180830Z 24003KT 6000 SCT020 24/23 Q1008 RMK RA TO SE=
202301180800 METAR WIHH 180800Z 24010KT 2000 -RA FEW018CB BKN017 24/24 Q1008 TEMPO TL0830 3000 -TSRA RMK CB TO SE=
202301180730 METAR WIHH 180730Z 24015KT 2000 -RA FEW017CB BKN016 25/23 Q1009 TEMPO TL 0800 3000 -TSRA RMK B TO SW TL W=
202301180700 METAR WIHH 180700Z 30006KT 5000 HZ SCT019 30/23 Q1008 RMK RA TO SW=
202301180630 METAR WIHH 180630Z 36010KT 6000 SCT020 30/23 Q1009 RMK RA TO SW=
202301180600 METAR WIHH 180600Z 36010KT 6000 SCT020 30/23 Q1010 RMK RA TO N AND NE=
202301180530 METAR WIHH 180530Z 36003KT 6000 SCT020 31/22 Q1010 RMK RA TO N=
202301180500 METAR WIHH 180500Z 24005KT 6000 SCT020 30/22 Q1010 RMK RA TO NE=
202301180430 METAR WIHH 180430Z 24008KT 6000 SCT020 31/23 Q1011 NOSIG=
202301180400 METAR WIHH 180400Z 24008KT 6000 SCT020 30/22 Q1011 NOSIG=
202301180330 METAR WIHH 180330Z 24006KT 6000 FEW020 29/22 Q1012 NOSIG=
202301180300 METAR WIHH 180300Z 24006KT 6000 FEW020 29/23 Q1012 NOSIG=
202301180230 METAR WIHH 180230Z 24005KT 6000 FEW020 29/23 Q1012 NOSIG=
202301180200 METAR WIHH 180200Z 24005KT 6000 FEW020 28/23 Q1012 NOSIG=
202301180130 METAR WIHH 180130Z 24005KT 6000 FEW020 27/23 Q1012 NOSIG=
202301180100 METAR WIHH 180100Z 30004KT 6000 FEW020 26/23 Q1012 NOSIG=
202301180030 METAR WIHH 180030Z 25004KT 6000 FEW020 26/23 Q1011 NOSIG=
202301180000 METAR WIHH 180000Z 30003KT 6000 FEW020 25/23 Q1011 NOSIG=
202301172330 METAR WIHH NIL=
202301172300 METAR WIHH NIL=
202301172230 METAR WIHH NIL=
202301172200 METAR WIHH NIL=
202301172130 METAR WIHH NIL=
202301172100 METAR WIHH NIL=
202301172030 METAR WIHH NIL=
202301172000 METAR WIHH NIL=
202301171930 METAR WIHH NIL=
202301171900 METAR WIHH NIL=
202301171830 METAR WIHH NIL=
202301171800 METAR WIHH NIL=
202301171730 METAR WIHH NIL=
202301171700 METAR WIHH NIL=
202301171630 METAR WIHH NIL=
202301171600 METAR WIHH NIL=
202301171530 METAR WIHH NIL=
202301171500 METAR WIHH NIL=
202301171430 METAR WIHH NIL=
202301171400 METAR WIHH NIL=
202301171330 METAR WIHH NIL=
202301171300 METAR WIHH NIL=
202301171230 METAR WIHH NIL=
202301171200 METAR WIHH NIL=
202301171130 METAR WIHH NIL=
202301171100 METAR WIHH NIL=
202301171030 METAR WIHH NIL=
202301171000 METAR WIHH NIL=
202301170930 METAR WIHH NIL=
202301170900 METAR WIHH 170900Z 30007KT 6000 SCT020 28/22 Q1008 NOSIG=
202301170830 METAR WIHH 170830Z 30006KT 6000 SCT019 28/22 Q1008 NOSIG=
202301170800 METAR WIHH 170800Z 28008KT 6000 SCT018 28/22 Q1009 NOSIG=
202301170730 METAR WIHH NIL=
202301170700 METAR WIHH 170700Z 29005KT 6000 SCT018 28/23 Q1009 NOSIG=
202301170630 METAR WIHH 170630Z 31007KT 6000 SCT018 28/23 Q1009 NOSIG=
202301170600 METAR WIHH 170600Z 25007KT 6000 SCT018 29/23 Q1010 NOSIG=
202301170530 METAR WIHH 170530Z 31007KT 6000 SCT018 29/23 Q1010 NOSIG=
202301170500 METAR WIHH 170500Z 32008KT 6000 SCT018 29/23 Q1011 NOSIG=
202301170430 METAR WIHH 170430Z 35005KT 6000 SCT018 29/23 Q1011 RMK RA TO N=
202301170400 METAR WIHH 170400Z 27005KT 6000 SCT018 29/23 Q1011 RMK RA TO SE=
202301170300 METAR WIHH NIL=
202301170200 METAR WIHH NIL=
202301170100 METAR WIHH NIL=
202301170000 METAR WIHH NIL=
202301162300 METAR WIHH NIL=
202301162200 METAR WIHH NIL=
202301162100 METAR WIHH NIL=
202301162000 METAR WIHH NIL=
202301161900 METAR WIHH NIL=
202301161800 METAR WIHH NIL=
202301161700 METAR WIHH NIL=
202301161600 METAR WIHH NIL=
202301161500 METAR WIHH NIL=
202301161430 METAR WIHH NIL=
202301161400 METAR WIHH NIL=
202301161330 METAR WIHH NIL=
202301161300 METAR WIHH NIL=
202301161230 METAR WIHH NIL=
202301161200 METAR WIHH NIL=
202301161130 METAR WIHH NIL=
202301161100 METAR WIHH NIL=
202301161030 METAR WIHH NIL=
202301161000 METAR WIHH NIL=
202301160930 METAR WIHH NIL=
202301160900 METAR WIHH 160900Z 24012KT 6000 SCT018 31/24 Q1006 RMK RA TO W=
202301160830 METAR WIHH 160830Z 29008KT 6000 SCT018 31/23 Q1006 NOSIG=
202301160800 METAR WIHH 160800Z 29005KT 6000 SCT018 31/23 Q1006 NOSIG=
202301160730 METAR WIHH 160730Z 29007KT 6000 SCT018 32/24 Q1006 NOSIG=
202301160700 METAR WIHH 160700Z 28005KT 6000 SCT018 32/24 Q1007 NOSIG=
202301160630 METAR WIHH 160630Z 26005KT 6000 SCT018 32/23 Q1007 NOSIG=
202301160600 METAR WIHH 160600Z 28008KT 6000 SCT018 32/22 Q1007 NOSIG=
202301160530 METAR WIHH 160530Z 28007KT 6000 SCT020 32/22 Q1008 NOSIG=
202301160500 METAR WIHH 160500Z 28010KT 6000 SCT020 32/22 Q1008 NOSIG=
202301160430 METAR WIHH 160430Z 27006KT 6000 SCT020 32/23 Q1009 NOSIG=
202301160400 METAR WIHH 160400Z 25012KT 6000 SCT020 32/23 Q1009 NOSIG=
202301160330 METAR WIHH NIL=
202301160300 METAR WIHH 160300Z 24010KT 6000 FEW022 31/23 Q1010 NOSIG=
202301160230 METAR WIHH 160230Z 26007KT 6000 FEW022 31/24 Q1010 NOSIG=
202301160200 METAR WIHH 160200Z 26008KT 6000 FEW022 30/23 Q1010 NOSIG=
202301160130 METAR WIHH 160130Z 24004KT 6000 FEW022 29/23 Q1010 NOSIG=
202301160100 METAR WIHH 160100Z 27006KT 6000 FEW022 28/23 Q1010 NOSIG=
202301160030 METAR WIHH 160030Z 27003KT 6000 FEW022 26/23 Q1010 NOSIG=
202301160000 METAR WIHH NIL=
202301152330 METAR WIHH NIL=
202301152300 METAR WIHH NIL=
202301152230 METAR WIHH NIL=
202301152200 METAR WIHH NIL=
202301152130 METAR WIHH NIL=
202301152100 METAR WIHH NIL=
202301152030 METAR WIHH NIL=
202301152000 METAR WIHH NIL=
202301151930 METAR WIHH NIL=
202301151900 METAR WIHH NIL=
202301151830 METAR WIHH NIL=
202301151800 METAR WIHH NIL=
202301151730 METAR WIHH NIL=
202301151700 METAR WIHH NIL=
202301151630 METAR WIHH NIL=
202301151600 METAR WIHH NIL=
202301151530 METAR WIHH NIL=
202301151500 METAR WIHH NIL=
202301151430 METAR WIHH NIL=
202301151400 METAR WIHH NIL=
202301151330 METAR WIHH NIL=
202301151300 METAR WIHH NIL=
202301151230 METAR WIHH NIL=
202301151200 METAR WIHH NIL=
202301151130 METAR WIHH NIL=
202301151100 METAR WIHH NIL=
202301151030 METAR WIHH NIL=
202301151000 METAR WIHH NIL=
202301150930 METAR WIHH NIL=
202301150900 METAR WIHH NIL=
202301150830 METAR WIHH NIL=
202301150800 METAR WIHH NIL=
202301150730 METAR WIHH NIL=
202301150700 METAR WIHH NIL=
202301150630 METAR WIHH NIL=
202301150600 METAR WIHH NIL=
202301150530 METAR WIHH NIL=
202301150500 METAR WIHH NIL=
202301150430 METAR WIHH NIL=
202301150400 METAR WIHH NIL=
202301150330 METAR WIHH NIL=
202301150300 METAR WIHH NIL=
202301150230 METAR WIHH NIL=
202301150200 METAR WIHH NIL=
202301150130 METAR WIHH NIL=
202301150100 METAR WIHH NIL=
202301150030 METAR WIHH NIL=
202301150000 METAR WIHH NIL=
202301142330 METAR WIHH NIL=
202301142300 METAR WIHH NIL=
202301142230 METAR WIHH NIL=
202301142200 METAR WIHH NIL=
202301142130 METAR WIHH NIL=
202301142100 METAR WIHH NIL=
202301142030 METAR WIHH NIL=
202301142000 METAR WIHH NIL=
202301141930 METAR WIHH NIL=
202301141900 METAR WIHH NIL=
202301141830 METAR WIHH NIL=
202301141800 METAR WIHH NIL=
202301141730 METAR WIHH NIL=
202301141700 METAR WIHH NIL=
202301141630 METAR WIHH NIL=
202301141600 METAR WIHH NIL=
202301141530 METAR WIHH NIL=
202301141500 METAR WIHH NIL=
202301141430 METAR WIHH NIL=
202301141400 METAR WIHH NIL=
202301141330 METAR WIHH NIL=
202301141300 METAR WIHH NIL=
202301141230 METAR WIHH NIL=
202301141200 METAR WIHH NIL=
202301141130 METAR WIHH NIL=
202301141100 METAR WIHH NIL=
202301141030 METAR WIHH NIL=
202301141000 METAR WIHH NIL=
202301140930 METAR WIHH NIL=
202301140900 METAR WIHH NIL=
202301140830 METAR WIHH NIL=
202301140800 METAR WIHH NIL=
202301140730 METAR WIHH NIL=
202301140700 METAR WIHH NIL=
202301140630 METAR WIHH NIL=
202301140600 METAR WIHH NIL=
202301140530 METAR WIHH NIL=
202301140500 METAR WIHH NIL=
202301140430 METAR WIHH NIL=
202301140400 METAR WIHH NIL=
202301140330 METAR WIHH NIL=
202301140300 METAR WIHH NIL=
202301140230 METAR WIHH NIL=
202301140200 METAR WIHH NIL=
202301140130 METAR WIHH NIL=
202301140100 METAR WIHH NIL=
202301140030 METAR WIHH NIL=
202301140000 METAR WIHH NIL=
202301132330 METAR WIHH NIL=
202301132300 METAR WIHH NIL=
202301132230 METAR WIHH NIL=
202301132200 METAR WIHH NIL=
202301132130 METAR WIHH NIL=
202301132100 METAR WIHH NIL=
202301132030 METAR WIHH NIL=
202301132000 METAR WIHH NIL=
202301131930 METAR WIHH NIL=
202301131900 METAR WIHH NIL=
202301131830 METAR WIHH NIL=
202301131800 METAR WIHH NIL=
202301131730 METAR WIHH NIL=
202301131700 METAR WIHH NIL=
202301131630 METAR WIHH NIL=
202301131600 METAR WIHH NIL=
202301131530 METAR WIHH NIL=
202301131500 METAR WIHH NIL=
202301131430 METAR WIHH NIL=
202301131400 METAR WIHH NIL=
202301131330 METAR WIHH NIL=
202301131300 METAR WIHH NIL=
202301131230 METAR WIHH NIL=
202301131200 METAR WIHH NIL=
202301131130 METAR WIHH NIL=
202301131100 METAR WIHH NIL=
202301131030 METAR WIHH NIL=
202301131000 METAR WIHH NIL=
202301130930 METAR WIHH NIL=
202301130900 METAR WIHH 130900Z 18010KT 3000 -TSRA FEW017CB BKN018 26/23 Q1007 RMK CB TO SE-S=
202301130830 METAR WIHH 130830Z 23015KT 3000 -TSRA FEW017CB SCT018 27/22 Q1007 RMK CB TO S-SW=
202301130800 METAR WIHH NIL=
202301130730 METAR WIHH 130730Z 34012KT 5000 HZ FEW017CB SCT018 31/23 Q1007 RMK CB AND RA TO S-SW=
202301130700 METAR WIHH NIL=
202301130630 METAR WIHH NIL=
202301130600 METAR WIHH NIL=
202301130530 METAR WIHH 130530Z 02007KT 5000 HZ SCT020 33/23 Q1009 NOSIG=
202301130500 METAR WIHH 130500Z 03010KT 5000 HZ SCT020 32/23 Q1010 NOSIG=
202301130430 METAR WIHH 130430Z 02010KT 5000 HZ SCT020 32/22 Q1010 NOSIG=
202301130400 METAR WIHH 130400Z 07003KT 6000 SCT020 33/22 Q1010 NOSIG=
202301130330 METAR WIHH 130330Z 07003KT 6000 SCT020 32/22 Q1011 NOSIG=
202301130300 METAR WIHH NIL=
202301130230 METAR WIHH 130230Z 28004KT 6000 FEW022 31/24 Q1011 NOSIG=
202301130200 METAR WIHH 130200Z 32003KT 6000 FEW022 31/23 Q1011 NOSIG=
202301130130 METAR WIHH 130130Z 00000KT 6000 FEW022 30/23 Q1011 NOSIG=
202301130100 METAR WIHH 130100Z 12003KT 6000 FEW022 28/23 Q1011 NOSIG=
202301130030 METAR WIHH 130030Z 12003KT 6000 FEW022 28/23 Q1011 NOSIG=
202301130000 METAR WIHH 130000Z 00000KT 6000 FEW022 27/23 Q1011 NOSIG=
202301122330 METAR WIHH NIL=
202301122300 METAR WIHH NIL=
202301122230 METAR WIHH NIL=
202301122200 METAR WIHH NIL=
202301122130 METAR WIHH NIL=
202301122100 METAR WIHH NIL=
202301122030 METAR WIHH NIL=
202301122000 METAR WIHH NIL=
202301121930 METAR WIHH NIL=
202301121900 METAR WIHH NIL=
202301121830 METAR WIHH NIL=
202301121800 METAR WIHH NIL=
202301121730 METAR WIHH NIL=
202301121700 METAR WIHH NIL=
202301121630 METAR WIHH NIL=
202301121600 METAR WIHH NIL=
202301121530 METAR WIHH NIL=
202301121500 METAR WIHH NIL=
202301121430 METAR WIHH NIL=
202301121400 METAR WIHH NIL=
202301121330 METAR WIHH NIL=
202301121300 METAR WIHH NIL=
202301121230 METAR WIHH NIL=
202301121200 METAR WIHH NIL=
202301121130 METAR WIHH NIL=
202301121100 METAR WIHH NIL=
202301121030 METAR WIHH NIL=
202301121000 METAR WIHH NIL=
202301120930 METAR WIHH 120930Z 33005KT 5000 HZ SCT020 32/23 Q1007 RMK RA TO SW=
202301120900 METAR WIHH 120900Z 03008KT 5000 HZ SCT020 32/22 Q1007 NOSIG=
202301120830 METAR WIHH 120830Z 03005KT 5000 HZ SCT020 32/22 Q1007 NOSIG=
202301120800 METAR WIHH 120800Z 03008KT 5000 HZ SCT020 33/23 Q1007 NOSIG=
202301120730 METAR WIHH 120730Z 03008KT 5000 HZ SCT020 33/22 Q1007 NOSIG=
202301120700 METAR WIHH 120700Z 03010KT 5000 HZ SCT020 33/23 Q1008 NOSIG=
202301120630 METAR WIHH 120630Z 06008KT 5000 HZ SCT020 32/23 Q1008 NOSIG=
202301120600 METAR WIHH 120600Z 03008KT 5000 HZ SCT020 32/23 Q1009 NOSIG=
202301120530 METAR WIHH 120530Z 03005KT 5000 HZ SCT020 32/23 Q1009 NOSIG=
202301120500 METAR WIHH 120500Z 03007KT 5000 HZ SCT020 33/21 Q1010 NOSIG=
202301120430 METAR WIHH 120430Z 06004KT 5000 HZ SCT020 33/21 Q1010 NOSIG=
202301120400 METAR WIHH 120400Z 03006KT 5000 HZ SCT020 32/22 Q1011 NOSIG=
202301120330 METAR WIHH 120330Z 24005KT 5000 HZ SCT020 31/23 Q1011 NOSIG=
202301120300 METAR WIHH NIL=
202301120230 METAR WIHH 120230Z 10006KT 5000 HZ NSC 31/23 Q1012 NOSIG=
202301120200 METAR WIHH 120200Z 09004KT 5000 HZ NSC 30/22 Q1012 NOSIG=
202301120130 METAR WIHH 120130Z 09005KT 5000 HZ NSC 29/23 Q1011 NOSIG=
202301120100 METAR WIHH 120100Z 13005KT 5000 HZ NSC 28/23 Q1011 NOSIG=
202301120030 METAR WIHH NIL=
202301120000 METAR WIHH NIL=
202301112330 METAR WIHH NIL=
202301112300 METAR WIHH NIL=
202301112230 METAR WIHH NIL=
202301112200 METAR WIHH NIL=
202301112130 METAR WIHH NIL=
202301112100 METAR WIHH NIL=
202301112030 METAR WIHH NIL=
202301112000 METAR WIHH NIL=
202301111930 METAR WIHH NIL=
202301111900 METAR WIHH NIL=
202301111830 METAR WIHH NIL=
202301111800 METAR WIHH NIL=
202301111730 METAR WIHH NIL=
202301111700 METAR WIHH NIL=
202301111630 METAR WIHH NIL=
202301111600 METAR WIHH NIL=
202301111530 METAR WIHH NIL=
202301111500 METAR WIHH NIL=
202301111430 METAR WIHH NIL=
202301111400 METAR WIHH NIL=
202301111330 METAR WIHH NIL=
202301111300 METAR WIHH NIL=
202301111230 METAR WIHH NIL=
202301111200 METAR WIHH NIL=
202301111130 METAR WIHH NIL=
202301111100 METAR WIHH NIL=
202301111030 METAR WIHH NIL=
202301111000 METAR WIHH NIL=
202301110930 METAR WIHH NIL=
202301110900 METAR WIHH 110900Z 36007KT 6000 FEW018CB SCT020 32/23 Q1007 RMK CB AND RA TO S=
202301110830 METAR WIHH 110830Z 02009KT 6000 SCT020 31/23 Q1007 NOSIG=
202301110800 METAR WIHH 110800Z 36008KT 5000 HZ SCT020 31/22 Q1007 NOSIG=
202301110730 METAR WIHH NIL=
202301110700 METAR WIHH NIL=
202301110630 METAR WIHH 110630Z 34008KT 5000 HZ SCT019 32/22 Q1008 NOSIG=
202301110600 METAR WIHH NIL=
202301110530 METAR WIHH 110530Z 33008KT 5000 HZ SCT018 33/22 Q1009 NOSIG=
202301110500 METAR WIHH 110500Z 01008KT 5000 HZ SCT020 32/23 Q1010 NOSIG=
202301110430 METAR WIHH 110430Z 27003KT 5000 HZ FEW020 33/21 Q1010 NOSIG=
202301110400 METAR WIHH 110400Z 14004KT 5000 HZ FEW020 33/22 Q1010 NOSIG=
202301110330 METAR WIHH 110330Z 11003KT 5000 HZ FEW020 32/21 Q1011 NOSIG=
202301110300 METAR WIHH 110300Z 07003KT 5000 HZ FEW020 31/22 Q1011 NOSIG=
202301110230 METAR WIHH 110230Z 11005KT 5000 HZ FEW020 30/22 Q1011 NOSIG=
202301110200 METAR WIHH 110200Z 15004KT 5000 HZ FEW020 30/22 Q1011 NOSIG=
202301110130 METAR WIHH 110130Z 15003KT 6000 FEW020 29/21 Q1011 NOSIG=
202301110100 METAR WIHH 110100Z 20003KT 7000 FEW020 28/21 Q1011 NOSIG=
202301110030 METAR WIHH 110030Z 13004KT 7000 FEW020 28/22 Q1011 NOSIG=
202301110000 METAR WIHH NIL=
202301102330 METAR WIHH NIL=
202301102300 METAR WIHH NIL=
202301102230 METAR WIHH NIL=
202301102200 METAR WIHH NIL=
202301102130 METAR WIHH NIL=
202301102100 METAR WIHH NIL=
202301102030 METAR WIHH NIL=
202301102000 METAR WIHH NIL=
202301101930 METAR WIHH NIL=
202301101900 METAR WIHH NIL=
202301101830 METAR WIHH NIL=
202301101800 METAR WIHH NIL=
202301101730 METAR WIHH NIL=
202301101700 METAR WIHH NIL=
202301101630 METAR WIHH NIL=
202301101600 METAR WIHH NIL=
202301101530 METAR WIHH NIL=
202301101500 METAR WIHH NIL=
202301101430 METAR WIHH NIL=
202301101400 METAR WIHH NIL=
202301101330 METAR WIHH NIL=
202301101300 METAR WIHH NIL=
202301101230 METAR WIHH NIL=
202301101200 METAR WIHH NIL=
202301101130 METAR WIHH NIL=
202301101100 METAR WIHH NIL=
202301101030 METAR WIHH NIL=
202301101000 METAR WIHH NIL=
202301100930 METAR WIHH 100930Z 28012KT 5000 TS FEW017CB SCT018 29/24 Q1008 RMK CB AND RA TO E-SE=
202301100900 METAR WIHH 100900Z 27012KT 6000 FEW017CB SCT020 33/23 Q1007 RMK CB AND RA TO SW=
202301100830 METAR WIHH NIL=
202301100800 METAR WIHH 100800Z 25012KT 6000 SCT020 33/23 Q1007 RMK RA TO E=
202301100730 METAR WIHH 100730Z 24012KT 7000 SCT020 33/22 Q1007 NOSIG=
202301100700 METAR WIHH 100700Z 30012KT 7000 SCT020 33/23 Q1008 NOSIG=
202301100630 METAR WIHH NIL=
202301100600 METAR WIHH 100600Z 26012KT 7000 SCT020 33/22 Q1009 NOSIG=
202301100530 METAR WIHH 100530Z 28012KT 7000 SCT020 33/23 Q1010 NOSIG=
202301100500 METAR WIHH 100500Z 31012KT 7000 SCT020 32/24 Q1010 NOSIG=
202301100430 METAR WIHH 100430Z 24010KT 7000 SCT020 32/23 Q1011 NOSIG=
202301100400 METAR WIHH 100400Z 24013KT 7000 SCT020 31/23 Q1011 NOSIG=
202301100330 METAR WIHH 100330Z 27010KT 7000 FEW020 30/24 Q1011 NOSIG=
202301100300 METAR WIHH 100300Z 27010KT 7000 FEW020 30/23 Q1012 NOSIG=
202301100230 METAR WIHH 100230Z 24010KT 7000 FEW020 30/23 Q1012 NOSIG=
202301100200 METAR WIHH 100200Z 24010KT 7000 FEW020 29/23 Q1012 NOSIG=
202301100130 METAR WIHH 100130Z 24007KT 7000 FEW020 29/24 Q1012 NOSIG=
202301100100 METAR WIHH 100100Z 24005KT 6000 FEW020 28/23 Q1012 NOSIG=
202301100030 METAR WIHH 100030Z 24003KT 6000 FEW020 28/23 Q1012 NOSIG=
202301100000 METAR WIHH NIL=
202301092330 METAR WIHH 092330Z 24003KT 6000 FEW020 26/23 Q1012 NOSIG=
202301092300 METAR WIHH NIL=
202301092230 METAR WIHH NIL=
202301092200 METAR WIHH NIL=
202301092130 METAR WIHH NIL=
202301092100 METAR WIHH NIL=
202301092030 METAR WIHH NIL=
202301092000 METAR WIHH NIL=
202301091930 METAR WIHH NIL=
202301091900 METAR WIHH NIL=
202301091830 METAR WIHH NIL=
202301091800 METAR WIHH NIL=
202301091730 METAR WIHH NIL=
202301091700 METAR WIHH NIL=
202301091630 METAR WIHH NIL=
202301091600 METAR WIHH NIL=
202301091530 METAR WIHH NIL=
202301091500 METAR WIHH NIL=
202301091430 METAR WIHH NIL=
202301091400 METAR WIHH NIL=
202301091330 METAR WIHH NIL=
202301091300 METAR WIHH NIL=
202301091230 METAR WIHH NIL=
202301091200 METAR WIHH NIL=
202301091130 METAR WIHH NIL=
202301091100 METAR WIHH NIL=
202301091030 METAR WIHH NIL=
202301091000 METAR WIHH NIL=
202301090930 METAR WIHH NIL=
202301090900 METAR WIHH 090900Z 27010KT 6000 SCT018 32/21 Q1008 NOSIG=
202301090830 METAR WIHH 090830Z 27010KT 6000 SCT018 33/23 Q1008 NOSIG=
202301090800 METAR WIHH 090800Z 27010KT 6000 SCT018 33/23 Q1008 NOSIG=
202301090730 METAR WIHH 090730Z 24012KT 6000 SCT018 32/22 Q1008 NOSIG=
202301090700 METAR WIHH NIL=
202301090630 METAR WIHH NIL=
202301090600 METAR WIHH 090600Z 24012KT 6000 SCT018 32/22 Q1010 NOSIG=
202301090530 METAR WIHH 090530Z 27012KT 7000 SCT018 32/23 Q1010 NOSIG=
202301090500 METAR WIHH 090500Z 24012KT 7000 SCT018 32/23 Q1011 NOSIG=
202301090430 METAR WIHH 090430Z 24015KT 7000 SCT018 31/22 Q1011 NOSIG=
202301090400 METAR WIHH 090400Z 24012KT 7000 SCT018 31/22 Q1011 NOSIG=
202301090330 METAR WIHH 090330Z 24015KT 7000 SCT018 31/22 Q1012 NOSIG=
202301090300 METAR WIHH 090300Z 24012KT 7000 FEW020 30/22 Q1012 NOSIG=
202301090230 METAR WIHH NIL=
202301090200 METAR WIHH 090200Z 24010KT 6000 FEW020 29/23 Q1012 NOSIG=
202301090130 METAR WIHH NIL=
202301090100 METAR WIHH 090100Z 24007KT 6000 FEW020 28/23 Q1012 NOSIG=
202301090030 METAR WIHH 090030Z 25005KT 6000 FEW020 27/23 Q1012 NOSIG=
202301090000 METAR WIHH NIL=
202301082330 METAR WIHH NIL=
202301082300 METAR WIHH NIL=
202301082230 METAR WIHH NIL=
202301082200 METAR WIHH NIL=
202301082130 METAR WIHH NIL=
202301082100 METAR WIHH NIL=
202301082030 METAR WIHH NIL=
202301082000 METAR WIHH NIL=
202301081930 METAR WIHH NIL=
202301081900 METAR WIHH NIL=
202301081830 METAR WIHH NIL=
202301081800 METAR WIHH NIL=
202301081730 METAR WIHH NIL=
202301081700 METAR WIHH NIL=
202301081630 METAR WIHH NIL=
202301081600 METAR WIHH NIL=
202301081530 METAR WIHH NIL=
202301081500 METAR WIHH NIL=
202301081430 METAR WIHH NIL=
202301081400 METAR WIHH NIL=
202301081330 METAR WIHH NIL=
202301081300 METAR WIHH NIL=
202301081230 METAR WIHH NIL=
202301081200 METAR WIHH NIL=
202301081130 METAR WIHH NIL=
202301081100 METAR WIHH NIL=
202301081030 METAR WIHH NIL=
202301081000 METAR WIHH NIL=
202301080930 METAR WIHH NIL=
202301080900 METAR WIHH NIL=
202301080830 METAR WIHH NIL=
202301080800 METAR WIHH NIL=
202301080730 METAR WIHH NIL=
202301080700 METAR WIHH NIL=
202301080630 METAR WIHH NIL=
202301080600 METAR WIHH NIL=
202301080530 METAR WIHH NIL=
202301080500 METAR WIHH NIL=
202301080430 METAR WIHH NIL=
202301080400 METAR WIHH NIL=
202301080330 METAR WIHH NIL=
202301080300 METAR WIHH NIL=
202301080230 METAR WIHH NIL=
202301080200 METAR WIHH NIL=
202301080130 METAR WIHH NIL=
202301080100 METAR WIHH NIL=
202301080030 METAR WIHH NIL=
202301080000 METAR WIHH NIL=
202301072330 METAR WIHH NIL=
202301072300 METAR WIHH NIL=
202301072230 METAR WIHH NIL=
202301072200 METAR WIHH NIL=
202301072130 METAR WIHH NIL=
202301072100 METAR WIHH NIL=
202301072030 METAR WIHH NIL=
202301072000 METAR WIHH NIL=
202301071930 METAR WIHH NIL=
202301071900 METAR WIHH NIL=
202301071830 METAR WIHH NIL=
202301071800 METAR WIHH NIL=
202301071730 METAR WIHH NIL=
202301071700 METAR WIHH NIL=
202301071630 METAR WIHH NIL=
202301071600 METAR WIHH NIL=
202301071530 METAR WIHH NIL=
202301071500 METAR WIHH NIL=
202301071430 METAR WIHH NIL=
202301071400 METAR WIHH NIL=
202301071330 METAR WIHH NIL=
202301071300 METAR WIHH NIL=
202301071230 METAR WIHH NIL=
202301071200 METAR WIHH NIL=
202301071130 METAR WIHH NIL=
202301071100 METAR WIHH NIL=
202301071030 METAR WIHH NIL=
202301071000 METAR WIHH NIL=
202301070930 METAR WIHH NIL=
202301070900 METAR WIHH NIL=
202301070830 METAR WIHH NIL=
202301070800 METAR WIHH NIL=
202301070730 METAR WIHH NIL=
202301070700 METAR WIHH NIL=
202301070630 METAR WIHH NIL=
202301070600 METAR WIHH NIL=
202301070530 METAR WIHH NIL=
202301070500 METAR WIHH NIL=
202301070430 METAR WIHH NIL=
202301070400 METAR WIHH NIL=
202301070330 METAR WIHH NIL=
202301070300 METAR WIHH NIL=
202301070230 METAR WIHH NIL=
202301070200 METAR WIHH NIL=
202301070130 METAR WIHH NIL=
202301070100 METAR WIHH NIL=
202301070030 METAR WIHH NIL=
202301070000 METAR WIHH NIL=
202301062330 METAR WIHH NIL=
202301062300 METAR WIHH NIL=
202301062230 METAR WIHH NIL=
202301062200 METAR WIHH NIL=
202301062130 METAR WIHH NIL=
202301062100 METAR WIHH NIL=
202301062030 METAR WIHH NIL=
202301062000 METAR WIHH NIL=
202301061930 METAR WIHH NIL=
202301061900 METAR WIHH NIL=
202301061830 METAR WIHH NIL=
202301061800 METAR WIHH NIL=
202301061730 METAR WIHH NIL=
202301061700 METAR WIHH NIL=
202301061630 METAR WIHH NIL=
202301061600 METAR WIHH NIL=
202301061530 METAR WIHH NIL=
202301061500 METAR WIHH NIL=
202301061430 METAR WIHH NIL=
202301061400 METAR WIHH NIL=
202301061330 METAR WIHH NIL=
202301061300 METAR WIHH NIL=
202301061230 METAR WIHH NIL=
202301061200 METAR WIHH NIL=
202301061130 METAR WIHH NIL=
202301061100 METAR WIHH NIL=
202301061030 METAR WIHH NIL=
202301061000 METAR WIHH NIL=
202301060930 METAR WIHH NIL=
202301060900 METAR WIHH 060900Z 27015KT 6000 SCT018 32/21 Q1007 NOSIG=
202301060830 METAR WIHH 060830Z 25015KT 6000 SCT018 33/21 Q1007 NOSIG=
202301060800 METAR WIHH 060800Z 25015KT 6000 SCT018 33/21 Q1007 NOSIG=
202301060730 METAR WIHH 060730Z 25015KT 6000 SCT018 33/22 Q1008 NOSIG=
202301060700 METAR WIHH 060700Z 24015KT 6000 SCT018 32/22 Q1009 NOSIG=
202301060630 METAR WIHH NIL=
202301060600 METAR WIHH 060600Z 25015KT 6000 SCT018 32/22 Q1009 NOSIG=
202301060530 METAR WIHH NIL=
202301060500 METAR WIHH 060500Z 24015KT 6000 FEW020 32/22 Q1010 NOSIG=
202301060430 METAR WIHH 060430Z 27015KT 6000 FEW020 32/22 Q1010 NOSIG=
202301060400 METAR WIHH 060400Z 26015KT 6000 FEW020 31/21 Q1011 NOSIG=
202301060330 METAR WIHH 060330Z 23020KT 6000 FEW020 32/20 Q1011 NOSIG=
202301060300 METAR WIHH 060300Z 23015KT 6000 FEW020 31/20 Q1011 NOSIG=
202301060230 METAR WIHH 060230Z 25015KT 6000 FEW020 30/21 Q1012 NOSIG=
202301060200 METAR WIHH 060200Z 23007KT 6000 FEW020 30/21 Q1012 NOSIG=
202301060130 METAR WIHH 060130Z 27004KT 6000 FEW020 30/22 Q1012 NOSIG=
202301060100 METAR WIHH 060100Z 24006KT 6000 FEW020 29/22 Q1012 NOSIG=
202301060030 METAR WIHH 060030Z 25004KT 6000 FEW020 28/22 Q1011 NOSIG=
202301060000 METAR WIHH NIL=
202301052330 METAR WIHH NIL=
202301052300 METAR WIHH NIL=
202301052230 METAR WIHH NIL=
202301052200 METAR WIHH NIL=
202301052130 METAR WIHH NIL=
202301052100 METAR WIHH NIL=
202301052030 METAR WIHH NIL=
202301052000 METAR WIHH NIL=
202301051930 METAR WIHH NIL=
202301051900 METAR WIHH NIL=
202301051830 METAR WIHH NIL=
202301051800 METAR WIHH NIL=
202301051730 METAR WIHH NIL=
202301051700 METAR WIHH NIL=
202301051630 METAR WIHH NIL=
202301051600 METAR WIHH NIL=
202301051530 METAR WIHH NIL=
202301051500 METAR WIHH NIL=
202301051430 METAR WIHH NIL=
202301051400 METAR WIHH NIL=
202301051330 METAR WIHH NIL=
202301051300 METAR WIHH NIL=
202301051230 METAR WIHH NIL=
202301051200 METAR WIHH NIL=
202301051130 METAR WIHH NIL=
202301051100 METAR WIHH NIL=
202301051030 METAR WIHH NIL=
202301051000 METAR WIHH NIL=
202301050930 METAR WIHH NIL=
202301050900 METAR WIHH NIL=
202301050830 METAR WIHH NIL=
202301050800 METAR WIHH NIL=
202301050730 METAR WIHH NIL=
202301050700 METAR WIHH NIL=
202301050630 METAR WIHH NIL=
202301050600 METAR WIHH NIL=
202301050530 METAR WIHH 050530Z 34004KT 6000 SCT018 31/23 Q1010 RMK RA TO S=
202301050500 METAR WIHH NIL=
202301050430 METAR WIHH 050430Z 28005KT 6000 SCT018 29/23 Q1011 NOSIG=
202301050400 METAR WIHH 050400Z 27008KT 5000 HZ SCT018 29/23 Q1012 NOSIG=
202301050330 METAR WIHH 050330Z 27004KT 5000 HZ SCT018 28/24 Q1012 NOSIG=
202301050300 METAR WIHH NIL=
202301050230 METAR WIHH NIL=
202301050200 METAR WIHH NIL=
202301050130 METAR WIHH 050130Z 24005KT 5000 HZ SCT018 26/24 Q1012 NOSIG=
202301050100 METAR WIHH 050100Z 21005KT 5000 HZ SCT018 26/24 Q1012 NOSIG=
202301050030 METAR WIHH NIL=
202301050000 METAR WIHH NIL=
202301042330 METAR WIHH NIL=
202301042300 METAR WIHH NIL=
202301042230 METAR WIHH NIL=
202301042200 METAR WIHH NIL=
202301042130 METAR WIHH NIL=
202301042100 METAR WIHH NIL=
202301042030 METAR WIHH NIL=
202301042000 METAR WIHH NIL=
202301041930 METAR WIHH NIL=
202301041900 METAR WIHH NIL=
202301041830 METAR WIHH NIL=
202301041800 METAR WIHH NIL=
202301041730 METAR WIHH NIL=
202301041700 METAR WIHH NIL=
202301041630 METAR WIHH NIL=
202301041600 METAR WIHH NIL=
202301041530 METAR WIHH NIL=
202301041500 METAR WIHH NIL=
202301041430 METAR WIHH NIL=
202301041400 METAR WIHH NIL=
202301041330 METAR WIHH NIL=
202301041300 METAR WIHH NIL=
202301041230 METAR WIHH NIL=
202301041200 METAR WIHH NIL=
202301041130 METAR WIHH NIL=
202301041100 METAR WIHH NIL=
202301041030 METAR WIHH NIL=
202301041000 METAR WIHH NIL=
202301040930 METAR WIHH NIL=
202301040900 METAR WIHH 040900Z 24005KT 2000 -TSRA FEW017CB SCT018 24/22 Q1008 RMK CB TO NE=
202301040830 METAR WIHH NIL=
202301040800 METAR WIHH 040800Z 27003KT 4000 -RA FEW017CB SCT018 25/24 Q1008 RMK CB TO W=
202301040730 METAR WIHH NIL=
202301040700 METAR WIHH NIL=
202301040630 METAR WIHH 040630Z 24015KT 2000 TSRA FEW017CB SCT018 25/25 Q1009 RMK CB TO SW=
202301040600 METAR WIHH NIL=
202301040530 METAR WIHH 040530Z 26012KT 6000 SCT018 30/24 Q1009 RMK RA TO NW=
202301040500 METAR WIHH NIL=
202301040430 METAR WIHH NIL=
202301040400 METAR WIHH NIL=
202301040330 METAR WIHH 040330Z 30005KT 6000 SCT018 28/24 Q1011 NOSIG=
202301040300 METAR WIHH 040300Z 26010KT 6000 SCT018 28/25 Q1011 NOSIG=
202301040230 METAR WIHH 040230Z 24010KT 6000 SCT018 27/24 Q1011 NOSIG=
202301040200 METAR WIHH 040200Z 24010KT 6000 SCT018 27/24 Q1011 NOSIG=
202301040130 METAR WIHH 040130Z 24008KT 5000 HZ SCT020 27/24 Q1011 NOSIG=
202301040100 METAR WIHH 040100Z 27005KT 5000 HZ SCT020 26/25 Q1011 NOSIG=
202301040030 METAR WIHH 040030Z 24006KT 5000 HZ SCT020 25/25 Q1011 NOSIG=
202301040000 METAR WIHH NIL=
202301032330 METAR WIHH NIL=
202301032300 METAR WIHH NIL=
202301032230 METAR WIHH NIL=
202301032200 METAR WIHH NIL=
202301032130 METAR WIHH NIL=
202301032100 METAR WIHH NIL=
202301032030 METAR WIHH NIL=
202301032000 METAR WIHH NIL=
202301031930 METAR WIHH NIL=
202301031900 METAR WIHH NIL=
202301031830 METAR WIHH NIL=
202301031800 METAR WIHH NIL=
202301031730 METAR WIHH NIL=
202301031700 METAR WIHH NIL=
202301031630 METAR WIHH NIL=
202301031600 METAR WIHH NIL=
202301031530 METAR WIHH NIL=
202301031500 METAR WIHH NIL=
202301031430 METAR WIHH NIL=
202301031400 METAR WIHH NIL=
202301031330 METAR WIHH NIL=
202301031300 METAR WIHH NIL=
202301031230 METAR WIHH NIL=
202301031200 METAR WIHH NIL=
202301031130 METAR WIHH NIL=
202301031100 METAR WIHH NIL=
202301031030 METAR WIHH NIL=
202301031000 METAR WIHH NIL=
202301030930 METAR WIHH NIL=
202301030900 METAR WIHH 030900Z 24005KT 6000 SCT018 28/23 Q1008 NOSIG=
202301030830 METAR WIHH NIL=
202301030800 METAR WIHH 030800Z 26010KT 5000 HZ SCT018 28/23 Q1009 NOSIG=
202301030730 METAR WIHH 030730Z 25010KT 5000 HZ SCT018 27/23 Q1009 NOSIG=
202301030700 METAR WIHH 030700Z 24015KT 5000 HZ SCT018 27/23 Q1009 NOSIG=
202301030630 METAR WIHH NIL=
202301030600 METAR WIHH 030600Z 23015KT 5000 HZ SCT018 27/23 Q1010 NOSIG=
202301030530 METAR WIHH 030530Z 27015KT 5000 HZ SCT018 26/23 Q1012 RMK RA TO W=
202301030500 METAR WIHH 030500Z 24015KT 5000 HZ SCT018 26/22 Q1012 RMK RA TO W=
202301030430 METAR WIHH 030430Z 28015KT 5000 HZ SCT018 26/24 Q1012 RMK RA TO NW=
202301030400 METAR WIHH 030400Z 27010KT 5000 HZ SCT018 27/24 Q1012 RMK RA TO SW=
202301030330 METAR WIHH NIL=
202301030300 METAR WIHH 030300Z 23008KT 5000 HZ SCT018 25/25 Q1012 NOSIG=
202301030230 METAR WIHH 030230Z 26005KT 5000 -RA SCT018 25/24 Q1013 NOSIG=
202301030200 METAR WIHH 030200Z 23007KT 5000 -RA SCT018 24/24 Q1013 NOSIG=
202301030130 METAR WIHH 030130Z 24005KT 5000 -RA SCT018 24/24 Q1013 NOSIG=
202301030100 METAR WIHH 030100Z 24004KT 5000 -RA SCT018 24/24 Q1012 NOSIG=
202301030030 METAR WIHH 030030Z 25006KT 5000 -RA SCT018 24/24 Q1012 NOSIG=
202301030000 METAR WIHH NIL=
202301022330 METAR WIHH NIL=
202301022300 METAR WIHH NIL=
202301022230 METAR WIHH NIL=
202301022200 METAR WIHH NIL=
202301022130 METAR WIHH NIL=
202301022100 METAR WIHH NIL=
202301022030 METAR WIHH NIL=
202301022000 METAR WIHH NIL=
202301021930 METAR WIHH NIL=
202301021900 METAR WIHH NIL=
202301021830 METAR WIHH NIL=
202301021800 METAR WIHH NIL=
202301021730 METAR WIHH NIL=
202301021700 METAR WIHH NIL=
202301021630 METAR WIHH NIL=
202301021600 METAR WIHH NIL=
202301021530 METAR WIHH NIL=
202301021500 METAR WIHH NIL=
202301021430 METAR WIHH NIL=
202301021400 METAR WIHH NIL=
202301021330 METAR WIHH NIL=
202301021300 METAR WIHH NIL=
202301021230 METAR WIHH NIL=
202301021200 METAR WIHH NIL=
202301021130 METAR WIHH NIL=
202301021100 METAR WIHH NIL=
202301021030 METAR WIHH NIL=
202301021000 METAR WIHH NIL=
202301020930 METAR WIHH NIL=
202301020900 METAR WIHH NIL=
202301020830 METAR WIHH NIL=
202301020800 METAR WIHH 020800Z 24006KT 6000 SCT018 28/25 Q1009 RMK RA TO NE AND NW=
202301020730 METAR WIHH 020730Z 24006KT 6000 SCT018 27/25 Q1009 RMK RA TO N=
202301020700 METAR WIHH 020700Z 22007KT 4000 HZ FEW017CB SCT018 26/25 Q1010 RMK CB AND RA TO E=
202301020630 METAR WIHH 020630Z 24008KT 3000 -RA FEW017CB SCT018 27/25 Q1010 RMK CB TO S-SW=
202301020600 METAR WIHH 020600Z 30005KT 6000 FEW017CB SCT018 30/24 Q1010 RMK CB AND RA TO SW=
202301020530 METAR WIHH NIL=
202301020500 METAR WIHH 020500Z 26006KT 6000 SCT018 30/24 Q1011 NOSIG=
202301020430 METAR WIHH 020430Z 30006KT 6000 SCT018 29/25 Q1011 NOSIG=
202301020400 METAR WIHH NIL=
202301020330 METAR WIHH 020330Z 24008KT 6000 SCT018 29/24 Q1012 NOSIG=
202301020300 METAR WIHH 020300Z 24005KT 6000 SCT018 28/24 Q1013 NOSIG=
202301020230 METAR WIHH 020230Z 25005KT 6000 SCT018 28/24 Q1013 NOSIG=
202301020200 METAR WIHH 020200Z 27005KT 6000 SCT018 27/24 Q1012 NOSIG=
202301020130 METAR WIHH 020130Z 24010KT 6000 SCT018 26/24 Q1012 NOSIG=
202301020100 METAR WIHH NIL=
202301020030 METAR WIHH 020030Z 24006KT 6000 SCT020 26/25 Q1012 RMK RA TO S=
202301020000 METAR WIHH NIL=
202301012330 METAR WIHH NIL=
202301012300 METAR WIHH NIL=
202301012230 METAR WIHH NIL=
202301012200 METAR WIHH NIL=
202301012130 METAR WIHH NIL=
202301012100 METAR WIHH NIL=
202301012030 METAR WIHH NIL=
202301012000 METAR WIHH NIL=
202301011930 METAR WIHH NIL=
202301011900 METAR WIHH NIL=
202301011830 METAR WIHH NIL=
202301011800 METAR WIHH NIL=
202301011730 METAR WIHH NIL=
202301011700 METAR WIHH NIL=
202301011630 METAR WIHH NIL=
202301011600 METAR WIHH NIL=
202301011530 METAR WIHH NIL=
202301011500 METAR WIHH NIL=
202301011430 METAR WIHH NIL=
202301011400 METAR WIHH NIL=
202301011330 METAR WIHH NIL=
202301011300 METAR WIHH NIL=
202301011230 METAR WIHH NIL=
202301011200 METAR WIHH NIL=
202301011130 METAR WIHH NIL=
202301011100 METAR WIHH NIL=
202301011030 METAR WIHH NIL=
202301011000 METAR WIHH NIL=
202301010930 METAR WIHH NIL=
202301010900 METAR WIHH NIL=
202301010830 METAR WIHH NIL=
202301010800 METAR WIHH NIL=
202301010730 METAR WIHH NIL=
202301010700 METAR WIHH NIL=
202301010630 METAR WIHH NIL=
202301010600 METAR WIHH NIL=
202301010530 METAR WIHH NIL=
202301010500 METAR WIHH NIL=
202301010430 METAR WIHH NIL=
202301010400 METAR WIHH NIL=
202301010330 METAR WIHH NIL=
202301010300 METAR WIHH NIL=
202301010230 METAR WIHH NIL=
202301010200 METAR WIHH NIL=
202301010130 METAR WIHH NIL=
202301010100 METAR WIHH NIL=
202301010030 METAR WIHH NIL=
202301010000 METAR WIHH NIL=

# No short TAF reports from WIHH in databse.

###################################
#  large TAF from WIHH
###################################
202301312300 TAF WIHH 312300Z 0100/0200 28005KT 6000 SCT018
                      TEMPO 0100/0103 4000 -RA
                      BECMG 0104/0106 33010KT
                      TEMPO 0108/0111 3000 -RA BKN017
                      TEMPO 0118/0121 22006KT 3000 -RA FEW017CB
                       BKN018=
202301311700 TAF WIHH 311700Z 3118/0118 28005KT 5000 HZ SCT018
                      TEMPO 3119/3122 3000 -RA BKN017
                      BECMG 3123/0101 23006KT 4000 HZ SCT020=
202301311100 TAF WIHH 311100Z 3112/0112 30006KT 5000 HZ SCT018
                      TEMPO 3118/3121 27005KT 3000 -RA BKN018
                      BECMG 3122/0100 4000 HZ SCT020=
202301310515 TAF AMD WIHH 310515Z 3106/0106 33010KT 4000 -RA BKN017
                      BECMG 3112/3114 27005KT 5000 HZ SCT020
                      TEMPO 3118/3121 24008KT 3000 -RA FEW017CB
                       BKN018=
202301310500 TAF WIHH 310500Z 3106/0106 33010KT 6000 SCT018
                      TEMPO 3107/3110 4000 -RA BKN017
                      BECMG 3113/3115 27005KT 5000 HZ
                      TEMPO 3118/3121 24008KT 3000 -RA FEW017CB
                       BKN018=
202301302300 TAF WIHH 302300Z 3100/0100 28009KT 6000 SCT020
                      TEMPO 3105/3109 4000 -RA BKN018
                      BECMG 3111/3113 21006KT 5000 HZ=
202301301700 TAF WIHH 301700Z 3018/3118 25005KT 6000 FEW020
                      TEMPO 3022/3101 4000 -RA BKN018
                      BECMG 3103/3105 34009KT SCT018=
202301301100 TAF WIHH 301100Z 3012/3112 29006KT 6000 SCT020
                      TEMPO 3014/3017 22005KT 4000 -RA BKN018
                      BECMG 3020/3022 00000KT FEW020=
202301300500 TAF WIHH 300500Z 3006/3106 34008KT 6000 SCT018
                      TEMPO 3008/3011 30012KT 3000 -RA BKN018
                      BECMG 3012/3014 25005KT 5000 HZ
                      TEMPO 3016/3019 4000 -RA BKN018
                      BECMG 3021/3023 00000KT FEW020=
202301292300 TAF AMD WIHH 300100Z 3000/3100 22008KT 6000 FEW020
                      TEMPO 3001/3004 33006KT 4000 -RA BKN018
                      BECMG 3005/3007 5000 HZ SCT018
                      TEMPO 3008/3011 32012KT 3000 -RA BKN018=
202301291700 TAF WIHH 291700Z 2918/3018 24006KT 5000 HZ SCT020
                      TEMPO 2918/2921 27010KT 3000 -RA BKN018
                      BECMG 2923/3001 VRB03KT
                      BECMG 3005/3007 01008KT 6000=
202301291100 TAF WIHH 291100Z 2912/3012 27006KT 6000 SCT020
                      TEMPO 2917/2920 30008KT 3000 -RA BKN018
                      BECMG 2921/2923 00000KT 4000 BR=
202301290500 TAF WIHH 290500Z 2906/3006 30008KT 5000 HZ SCT018
                      TEMPO 2907/2911 34012KT 3000 -RA FEW017CB
                       BECMG 2914/2916 03005KT=
202301282300 TAF WIHH 282300Z 2900/3000 27008KT 5000 HZ SCT020
                      TEMPO 2900/2903 4000 -RA
                      BECMG 2904/2906 21006KT
                      TEMPO 2910/2913 33012KT 3000 -TSRA FEW017CB
                       BKN018
                      BECMG 2916/2918 00000KT 4000 BR=
202301281700 TAF WIHH 281700Z 2818/2918 27006KT 5000 HZ SCT020
                      TEMPO 2819/2822 4000 -RA BKN018
                      BECMG 2823/2901 22004KT
                      TEMPO 2908/2911 34012KT 3000 -RA FEW017CB=
202301281100 TAF WIHH 281100Z 2812/2912 27006KT 5000 HZ SCT018
                      TEMPO 2815/2818 3000 -RA BKN018
                      BECMG 2820/2822 00000KT 4000 BR
                      BECMG 2902/2904 21004KT 6000 FEW020=
202301280500 TAF WIHH 280500Z 2806/2906 29012KT 4000 -RA SCT018
                      TEMPO 2812/2815 34006KT 3000 -TSRA FEW017CB
                       BKN018
                      BECMG 2819/2821 00000KT BR=
202301272300 TAF WIHH 272300Z 2800/2900 33008KT 4000 -RA SCT018
                      BECMG 2801/2803 25006KT 6000
                      TEMPO 2806/2809 29012KT 4000 -RA FEW017CB
                       BKN018
                      TEMPO 2812/2815 36005KT 3000 -TSRA FEW017CB
                       BKN018
                      BECMG 2819/2821 00000KT FEW020=
202301271700 TAF WIHH 271700Z 2718/2818 33005KT 6000 SCT018
                      TEMPO 2718/2721 4000 -RA FEW017CB BKN018
                       BECMG 2802/2804 26005KT 5000 HZ=
202301271300 TAF AMD WIHH 271300Z 2713/2812 32006KT 6000 SCT018
                      TEMPO 2714/2717 3000 -RA BKN018
                      TEMPO 2722/2801 25005KT 4000 -RA
                      BECMG 2802/2804 5000 HZ=
202301271100 TAF WIHH 271100Z 2712/2812 33006KT 6000 SCT018
                      TEMPO 2722/2801 25005KT 4000 -RA
                      BECMG 2802/2804 5000 HZ=
202301270500 TAF WIHH 270500Z 2706/2806 33008KT 6000 SCT018
                      TEMPO 2707/2710 30012KT 3000 -RA FEW017CB
                       BKN018
                      BECMG 2714/2716 25005KT 5000 HZ FEW020
                      TEMPO 2722/2801 4000 -RA SCT018
                      BECMG 2803/2805 31008KT SCT018=
202301262300 TAF AMD WIHH 262300Z 2700/2800 27008KT 5000 HZ SCT018
                      TEMPO 2702/2706 33012KT 3000 -RA FEW017CB
                       BKN018
                      BECMG 2709/2711 21005KT 6000
                      TEMPO 2718/2721 4000 -RA=
202301261700 TAF WIHH 261700Z 2618/2718 24006KT 6000 SCT020
                      BECMG 2701/2703 5000 HZ
                      TEMPO 2705/2709 34012KT 3000 -RA FEW017CB=
202301261100 TAF WIHH 261100Z 2612/2712 30006KT 5000 HZ SCT020
                      BECMG 2623/2701 24004KT 6000 FEW020=
202301260500 TAF WIHH 260500Z 2606/2706 27008KT 6000 SCT018
                      TEMPO 2607/2610 33012KT 3000 -RA FEW017CB
                       BKN018
                      BECMG 2612/2614 21006KT 5000 HZ
                      BECMG 2619/2621 VRB03KT FEW020=
202301252300 TAF WIHH 252300Z 2600/2700 30010KT 6000 SCT020
                      TEMPO 2609/2612 33014KT 4000 -RA FEW017CB
                       BKN018
                      BECMG 2613/2615 22006KT 5000 HZ=
202301251700 TAF WIHH 251700Z 2518/2618 27005KT 6000 FEW022
                      BECMG 2600/2602 33010KT SCT020=
202301251100 TAF WIHH 251100Z 2512/2612 23010KT 6000 SCT020
                      BECMG 2516/2518 27006KT FEW022=
202301250500 TAF WIHH 250500Z 2506/2606 26012KT 6000 SCT018
                      TEMPO 2506/2510 4000 -RA FEW017CB BKN018
                       BECMG 2511/2513 23008KT FEW020=
202301242300 TAF WIHH 242300Z 2500/2600 22008KT 6000 SCT018
                      TEMPO 2502/2505 4000 -RA
                      TEMPO 2507/2510 22010KT 4000 -RA FEW017CB
                       BKN018
                      BECMG 2511/2513 29006KT 5000 HZ=
202301241700 TAF WIHH 241700Z 2418/2518 22006KT 7000 FEW020
                      BECMG 2502/2504 28012KT SCT018=
202301241100 TAF WIHH 241100Z 2412/2512 29012KT 7000 SCT018
                      BECMG 2419/2421 23007KT FEW018=
202301240500 TAF WIHH 240500Z 2406/2506 26010KT 7000 SCT018
                      TEMPO 2407/2410 31012KT 3000 -RA FEW017CB
                       BECMG 2411/2413 5000 HZ=
202301232300 TAF WIHH 232300Z 2400/2500 24008KT 6000 FEW020
                      TEMPO 2407/2410 30012KT 3000 -TSRA FEW017CB
                       BKN018
                      BECMG 2411/2413 5000 HZ SCT018=
202301231700 TAF WIHH 231700Z 2318/2418 27006KT 6000 FEW020
                      BECMG 2403/2405 24010KT SCT020=
202301231100 TAF WIHH 231100Z 2312/2412 27008KT 7000 SCT020
                      BECMG 2320/2322 21005KT FEW020=
202301230500 TAF WIHH 230500Z 2306/2406 24010KT 6000 SCT020
                      TEMPO 2307/2310 27014KT 4000 -RA BKN018
                      BECMG 2312/2314 5000 HZ=
202301222300 TAF WIHH 222300Z 2300/2400 25010KT 7000 FEW022
                      TEMPO 2306/2310 27012KT 3000 -TSRA FEW017CB
                       BKN018
                      BECMG 2311/2313 6000 SCT018=
202301221700 TAF WIHH 221700Z 2218/2318 23006KT 6000 FEW022
                      TEMPO 2302/2305 27010KT 4000 -RA SCT018=
202301221100 TAF WIHH 221100Z 2212/2312 27010KT 6000 FEW022
                      BECMG 2219/2221 21006KT SCT020=
202301220500 TAF WIHH 220500Z 2206/2306 26012KT 7000 SCT020
                      TEMPO 2207/2210 4000 -RA FEW017CB BKN018
                       BECMG 2212/2214 20008KT 6000 FEW020=
202301212300 TAF WIHH 212300Z 2200/2300 24008KT 7000 FEW020
                      TEMPO 2206/2209 23012KT 4000 -RA FEW017CB
                       BKN018
                      BECMG 2211/2213 18005KT NSW=
202301211700 TAF WIHH 211700Z 2118/2218 24005KT 6000 FEW020
                      BECMG 2201/2203 27008KT SCT020
                      TEMPO 2205/2209 34012KT 3000 -RA BKN018=
202301211100 TAF WIHH 211100Z 2112/2212 27005KT 6000 SCT020
                      BECMG 2121/2123 00000KT 5000 HZ FEW020=
202301210500 TAF WIHH 210500Z 2106/2206 24006KT 6000 SCT020
                      TEMPO 2107/2110 34012KT 3000 -TSRA FEW017CB
                       BKN018
                      BECMG 2112/2114 15004KT 5000 HZ
                      BECMG 2119/2121 00000KT FEW020=
202301202300 TAF WIHH 202300Z 2100/2200 21006KT 6000 FEW020
                      TEMPO 2106/2109 30012KT 3000 -RA FEW017CB
                       SCT018
                      BECMG 2111/2113 5000 HZ=
202301201700 TAF WIHH 201700Z 2018/2118 24005KT 6000 FEW020
                      BECMG 2101/2103 31009KT SCT020=
202301201100 TAF WIHH 201100Z 2012/2112 23006KT 4000 -RA SCT018
                      BECMG 2013/2015 5000 HZ FEW020=
202301200500 TAF WIHH 200500Z 2006/2106 29008KT 6000 SCT018
                      TEMPO 2006/2009 31012KT 3000 -TSRA FEW017CB
                       BKN018
                      BECMG 2010/2012 22006KT 6000=
202301192300 TAF WIHH 192300Z 2000/2100 25008KT 7000 FEW020
                      TEMPO 2006/2010 30012KT 3000 -TSRA FEW017CB
                       BKN018
                      BECMG 2011/2013 6000 SCT020=
202301191700 TAF WIHH 191700Z 1918/2018 24004KT 5000 HZ FEW022 2001/2003 27010KT
                       6000 SCT020=
202301191100 TAF WIHH 191100Z 1912/2012 25006KT 6000 SCT020
                      BECMG 1916/1918 VRB03KT 5000 HZ FEW022=
202301190500 TAF WIHH 190500Z 1906/2006 29010KT 6000 SCT018
                      TEMPO 1906/1910 3000 -TSRA FEW017CB BKN018
                       BECMG 1911/1913 33006KT 5000 HZ SCT020=
202301182300 TAF WIHH 182300Z 1900/2000 23005KT 5000 -RA SCT018
                      BECMG 1902/1904 31010KT 6000 NSW
                      TEMPO 1906/1909 3000 -TSRA FEW017CB BKN018
                       BECMG 1912/1914 24007KT=
202301181700 TAF WIHH 181700Z 1818/1918 24005KT 6000 SCT018
                      BECMG 1819/1821 3000 BR FEW021
                      BECMG 1901/1903 32008KT 5000 HZ=
202301181100 TAF WIHH 181100Z 1812/1912 23008KT 6000 SCT020
                      BECMG 1819/1821 32005KT 3000 BR FEW021
                      BECMG 1901/1903 5000 HZ=
202301180500 TAF WIHH 180500Z 1806/1906 31008KT 6000 SCT020
                      TEMPO 1807/1810 24012KT 3000 -TSRA FEW017CB
                       BKN018
                      BECMG 1811/1813 25007KT 5000 HZ SCT018=
202301172300 TAF WIHH 172300Z 1800/1900 24008KT 6000 FEW020
                      TEMPO 1807/1810 30012KT 3000 -TSRA FEW017CB
                       BKN018
                      BECMG 1812/1814 15005KT 5000 HZ SCT018=
202301171700 TAF WIHH 171700Z 1718/1818 27006KT 5000 HZ SCT020
                      BECMG 1802/1804 18006KT 6000
                      TEMPO 1807/1810 34012KT 3000 -RA FEW017CB=
202301171100 TAF WIHH 171100Z 1712/1812 24006KT 6000 SCT020
                      BECMG 1719/1721 15004KT 5000 HZ FEW020=
202301170500 TAF WIHH 170500Z 1706/1806 27008KT 6000 SCT018
                      TEMPO 1706/1709 34012KT 3000 -TSRA FEW017CB
                       BKN018
                      BECMG 1712/1714 21006KT 5000 HZ=
202301162300 TAF WIHH 162300Z 1700/1800 26008KT 7000 SCT020
                      TEMPO 1705/1709 31012KT 3000 -TSRA FEW017CB
                       BKN018
                      BECMG 1710/1712 24006KT 5000 HZ=
202301161700 TAF WIHH 161700Z 1618/1718 25005KT 6000 FEW022
                      TEMPO 1701/1704 27010KT 4000 -RA SCT018
                      BECMG 1705/1707 30008KT 5000 HZ=
202301161100 TAF WIHH 161100Z 1612/1712 27008KT 6000 SCT020
                      BECMG 1614/1616 22005KT 5000 HZ FEW022=
202301160500 TAF WIHH 160500Z 1606/1706 27012KT 6000 SCT020
                      TEMPO 1607/1611 3000 -TSRA FEW017CB BKN018
                       BECMG 1612/1614 22008KT 5000 HZ FEW022=
202301152300 TAF WIHH 152300Z 1600/1700 24010KT 6000 FEW021
                      BECMG 1603/1605 31012KT 5000 HZ SCT020
                      TEMPO 1607/1610 3000 -TSRA FEW017CB SCT018
                       BECMG 1611/1613 27008KT 6000 NSW=
202301151700 TAF WIHH 151700Z 1518/1618 24006KT 6000 FEW021
                      BECMG 1603/1605 31012KT SCT020=
202301151100 TAF WIHH 151100Z 1512/1612 30009KT 6000 SCT020
                      BECMG 1518/1520 23005KT FEW020=
202301150500 TAF WIHH 150500Z 1506/1606 23010KT 6000 SCT020
                      TEMPO 1509/1512 31012KT 4000 -RA FEW017CB
                       SCT018
                      BECMG 1513/1515 5000 HZ SCT018=
202301142300 TAF WIHH 142300Z 1500/1600 22008KT 6000 SCT020
                      TEMPO 1509/1512 34012KT 3000 -TSRA FEW017CB
                       BKN018
                      BECMG 1513/1515 16005KT 5000 HZ=
202301141700 TAF WIHH 141700Z 1418/1518 24006KT 6000 FEW020
                      BECMG 1500/1502 15005KT 5000 HZ
                      TEMPO 1508/1511 30012KT 3000 -RA FEW017CB
                       SCT018=
202301141100 TAF WIHH 141100Z 1412/1512 34006KT 6000 SCT020
                      BECMG 1421/1423 VRB03KT 5000 HZ FEW020=
202301140500 TAF WIHH 140500Z 1406/1506 15006KT 6000 SCT020
                      TEMPO 1408/1411 30012KT 3000 -TSRA FEW017CB
                       BKN018
                      BECMG 1413/1415 22004KT 4000 BR
                      BECMG 1419/1421 00000KT 5000 HZ FEW020=
202301132300 TAF WIHH 132300Z 1400/1500 03008KT 6000 FEW020
                      TEMPO 1408/1412 33012KT 3000 -TSRA FEW017CB
                       SCT018
                      BECMG 1413/1415 20005KT 5000 HZ=
202301131700 TAF WIHH 131700Z 1318/1418 16004KT 5000 HZ SCT020
                      BECMG 1401/1403 34008KT 6000
                      TEMPO 1408/1412 30012KT 3000 -TSRA FEW017CB
                       BKN018=
202301131100 TAF WIHH 131100Z 1312/1412 21006KT 4000 -RA SCT018
                      BECMG 1313/1315 15004KT 5000 HZ
                      BECMG 1319/1321 3000 BR FEW022=
202301130500 TAF WIHH 130500Z 1306/1406 03010KT 6000 SCT020
                      TEMPO 1308/1311 22012KT 3000 -RA FEW018CB
                       BECMG 1312/1314 16005KT 5000 HZ=
202301122300 TAF WIHH 122300Z 1300/1400 21007KT 6000 SCT020
                      BECMG 1303/1305 31008KT 5000 HZ SCT018
                      TEMPO 1309/1312 33012KT 3000 -SHRA FEW017CB
                       BECMG 1313/1315 19005KT 6000 NSW=
202301121700 TAF WIHH 121700Z 1218/1318 14005KT 6000 FEW021
                      BECMG 1303/1305 03007KT 5000 HZ SCT020
                      TEMPO 1307/1310 33013KT 4000 -RA FEW017CB
                       BKN018=
202301121100 TAF WIHH 121100Z 1212/1312 15008KT 6000 SCT020
                      BECMG 1218/1220 00000KT 5000 HZ FEW021=
202301120500 TAF WIHH 120500Z 1206/1306 20007KT 6000 SCT020
                      TEMPO 1209/1212 17012KT 3000 -SHRA FEW017CB
                       BKN018
                      BECMG 1213/1215 14005KT 5000 HZ SCT018=
202301112300 TAF WIHH 112300Z 1200/1300 24006KT 6000 SCT020
                      TEMPO 1207/1210 24012KT 3000 -RA BKN018
                      BECMG 1211/1213 15005KT 5000 HZ=
202301111700 TAF WIHH 111700Z 1118/1218 21005KT 6000 FEW020
                      BECMG 1204/1206 27008KT SCT020
                      TEMPO 1207/1210 30012KT 4000 -RA BKN018=
202301111100 TAF WIHH 111100Z 1112/1212 24006KT 6000 FEW020
                      BECMG 1117/1119 00000KT 5000 HZ
                      BECMG 1201/1203 18005KT 6000 SCT020=
202301110500 TAF WIHH 110500Z 1106/1206 18006KT 5000 HZ SCT020
                      TEMPO 1107/1110 24012KT 3000 -TSRA FEW017CB
                       BKN018
                      BECMG 1111/1113 12005KT 6000
                      BECMG 1119/1121 00000KT FEW020=
202301102300 TAF WIHH 102300Z 1100/1200 25008KT 7000 FEW020
                      TEMPO 1107/1110 33012KT 4000 -RA FEW017CB
                       SCT018
                      BECMG 1111/1113 VRB04KT 5000 HZ=
202301101700 TAF WIHH 101700Z 1018/1118 15006KT 6000 FEW022
                      BECMG 1101/1103 02008KT SCT020
                      TEMPO 1107/1110 30012KT 4000 -RA FEW017CB=
202301101100 TAF WIHH 101100Z 1012/1112 21006KT 6000 SCT020
                      BECMG 1015/1017 17003KT 5000 HZ FEW022=
202301100500 TAF WIHH 100500Z 1006/1106 24013KT 6000 SCT020
                      TEMPO 1007/1010 4000 -RA FEW017CB SCT018
                       BECMG 1011/1013 18006KT 5000 HZ=
202301092300 TAF WIHH 092300Z 1000/1100 22007KT 6000 FEW020
                      TEMPO 1006/1009 29015KT 4000 -RA FEW017CB
                       BKN018
                      BECMG 1011/1013 28008KT 5000 HZ SCT018=
202301091700 TAF WIHH 091700Z 0918/1018 28007KT 6000 FEW020
                      BECMG 1001/1003 24012KT SCT018
                      TEMPO 1006/1009 30015KT 4000 -RA FEW017CB
                       BECMG 1011/1013 27008KT 5000 HZ=
202301091100 TAF WIHH 091100Z 0912/1012 27012KT 6000 SCT018
                      BECMG 0918/0920 20005KT FEW020=
202301090500 TAF WIHH 090500Z 0906/1006 27010KT 6000 SCT020
                      TEMPO 0906/0909 21012KT 4000 -TSRA FEW017CB
                       SCT018
                      BECMG 0911/0913 5000 HZ=
202301082300 TAF WIHH 082300Z 0900/1000 26008KT 6000 FEW020
                      TEMPO 0906/0909 34014KT 3000 -TSRA FEW017CB
                       BKN018
                      BECMG 0911/0913 5000 HZ SCT020
                      BECMG 0919/0921 21004KT=
202301081700 TAF WIHH 081700Z 0818/0918 24006KT 6000 SCT020
                      BECMG 0902/0904 27010KT
                      TEMPO 0906/0909 30014KT 4000 -RA FEW017CB=
202301081100 TAF WIHH 081100Z 0812/0912 24008KT 6000 SCT020
                      BECMG 0819/0821 22004KT 5000 HZ FEW020=
202301080500 TAF WIHH 080500Z 0806/0906 27010KT 6000 SCT020
                      TEMPO 0807/0810 30012KT 3000 -TSRA FEW017CB
                       BKN018
                      BECMG 0812/0814 21005KT 5000 HZ=
202301072300 TAF WIHH 072300Z 0800/0900 24010KT 7000 FEW020
                      TEMPO 0806/0810 27012KT 3000 -TSRA FEW017CB
                       SCT018
                      BECMG 0811/0813 22006KT 6000 FEW022=
202301071700 TAF WIHH 071700Z 0718/0818 25005KT 5000 HZ FEW022
                      BECMG 0800/0802 21008KT 6000
                      TEMPO 0805/0810 27012KT 3000 -TSRA FEW017CB
                       BKN018=
202301071100 TAF WIHH 071100Z 0712/0812 25012KT 6000 SCT020
                      BECMG 0714/0716 21008KT 5000 HZ FEW022=
202301070500 TAF WIHH 070500Z 0706/0806 26013KT 7000 SCT018
                      TEMPO 0707/0711 3000 -TSRA FEW017CB
                      BECMG 0712/0714 22006KT 5000 HZ FEW020=
202301062300 TAF WIHH 062300Z 0700/0800 25008KT 6000 SCT020
                      TEMPO 0705/0709 24015KT 4000 -TSRA FEW017CB
                       SCT018
                      BECMG 0711/0713 5000 HZ SCT018=
202301061700 TAF WIHH 061700Z 0618/0718 25005KT 6000 FEW020
                      BECMG 0701/0703 22012KT SCT020=
202301061100 TAF WIHH 061100Z 0612/0712 28012KT 6000 SCT018
                      BECMG 0618/0620 23006KT 5000 HZ FEW020=
202301060500 TAF WIHH 060500Z 0606/0706 23010KT 6000 SCT020
                      TEMPO 0607/0610 32012KT 4000 -RA FEW017CB
                       SCT018
                      BECMG 0611/0613 5000 HZ SCT018=
202301052300 TAF WIHH 052300Z 0600/0700 27008KT 6000 SCT020
                      TEMPO 0606/0609 34012KT 4000 -RA FEW017CB
                       BECMG 0611/0613 5000 HZ=
202301051700 TAF WIHH 051700Z 0518/0618 24006KT 6000 FEW020
                      BECMG 0604/0606 30008KT SCT020=
202301051100 TAF WIHH 051100Z 0512/0612 30006KT 6000 SCT020
                      BECMG 0522/0600 21003KT 5000 HZ FEW020=
202301050500 TAF WIHH 050500Z 0506/0606 27008KT 5000 HZ SCT018
                      TEMPO 0506/0510 30012KT 2000 -TSRA FEW017CB
                       BKN018
                      BECMG 0512/0514 24006KT
                      BECMG 0519/0521 18003KT 4000 BR=
202301042300 TAF WIHH 042300Z 0500/0600 28010KT 6000 SCT018
                      TEMPO 0506/0510 3000 -TSRA FEW016CB BKN017
                       BECMG 0511/0513 25005KT 5000 HZ FEW020=
202301041745 TAF AMD WIHH 041745Z 0418/0518 23004KT 3000 BR FEW022
                      TEMPO 0419/0422 30008KT 3000 -RA FEW017CB
                       SCT018
                      BECMG 0501/0503 27010KT 6000=
202301041700 TAF WIHH 041700Z 0418/0518 23004KT 3000 BR FEW022
                      BECMG 0501/0503 27010KT 6000 SCT020=
202301041100 TAF WIHH 041100Z 0412/0512 23008KT 3000 -RA FEW017CB SCT018
                      BECMG 0414/0416 4000 HZ SCT020
                      TEMPO 0418/0421 20005KT 3000 -RA=
202301040500 TAF WIHH 040500Z 0406/0506 25010KT 6000 SCT018
                      TEMPO 0406/0409 30012KT 4000 -TSRA FEW017CB
                       BECMG 0411/0413 7000 SCT020
                      TEMPO 0417/0420 23008KT 5000 -RA=
202301032300 TAF WIHH 032300Z 0400/0500 28010KT 6000 SCT018
                      TEMPO 0405/0408 21012KT 3000 -TSRA FEW017CB
                       BECMG 0409/0411 22007KT 5000 HZ=
202301031700 TAF WIHH 031700Z 0318/0418 26007KT 7000 SCT020
                      TEMPO 0321/0400 4000 -RA SCT017
                      BECMG 0401/0403 5000 HZ SCT017=
202301031100 TAF WIHH 031100Z 0312/0412 29008KT 6000 SCT020
                      TEMPO 0322/0402 22005KT 4000 -RA SCT017
                      BECMG 0403/0405 5000 HZ SCT017=
202301030500 TAF WIHH 030500Z 0306/0406 28008KT 6000 SCT018
                      TEMPO 0306/0310 22010KT 3000 -TSRA FEW017CB
                       BECMG 0312/0314 5000 HZ
                      TEMPO 0319/0322 27005KT 4000 -RA=
202301022300 TAF WIHH 022300Z 0300/0400 27008KT 5000 HZ SCT018
                      TEMPO 0300/0303 4000 -RA
                      TEMPO 0307/0310 34012KT 2000 -TSRA FEW017CB
                       BKN018
                      BECMG 0311/0313 24006KT 6000=
202301021700 TAF WIHH 021700Z 0218/0318 27006KT 6000 FEW020
                      BECMG 0301/0303 24008KT SCT020
                      TEMPO 0305/0309 34012KT 3000 -RA FEW017CB=
202301021100 TAF WIHH 021100Z 0212/0312 25006KT 6000 SCT020
                      BECMG 0222/0300 21004KT 5000 HZ=
202301020500 TAF WIHH 020500Z 0206/0306 27008KT 5000 HZ SCT018
                      TEMPO 0207/0210 34012KT 3000 -RA FEW017CB
                       BECMG 0211/0213 24006KT 6000
                      BECMG 0219/0221 18004KT=
202301012300 TAF AMD WIHH 020045Z 0201/0300 25008KT 6000 SCT020
                      TEMPO 0201/0203 4000 -RA
                      TEMPO 0205/0209 32012KT 3000 -TSRA FEW016CB
                       BKN017
                      BECMG 0210/0212 22005KT 5000 HZ=
202301011700 TAF WIHH 011700Z 0118/0218 22005KT 5000 HZ FEW022
                      BECMG 0200/0202 25010KT 6000 SCT020=
202301011100 TAF WIHH 011100Z 0112/0212 26006KT 6000 FEW022
                      BECMG 0115/0117 22004KT 5000 HZ=
202301010500 TAF WIHH 010500Z 0106/0206 26010KT 6000 SCT018
                      TEMPO 0106/0110 4000 -TSRA FEW016CB BKN017
                       BECMG 0112/0114 22006KT 5000 HZ
                      TEMPO 0119/0122 27008KT 3000 -RA=
