##########################################################
# Query made at 05/05/2026 03:15:15 UTC
# Time interval: from 03/01/2024 00:00  to 03/31/2024 23:59  UTC
##########################################################

##########################################################
# WIHH, Jakarta Halim Perdanakusuma (Indonesia)
# WMO index: 96747. WIGOS ID: Unknown
# Latitude 06-15S. Longitude 106-54E. Altitude 30 m.
##########################################################

###################################
#  METAR/SPECI from WIHH
###################################
202403312330 METAR WIHH 312330Z 00000KT 2000 BR SCT020 26/24 Q1010 NOSIG=
202403312300 METAR WIHH 312300Z 00000KT 2000 BR SCT020 26/24 Q1010 NOSIG=
202403312230 METAR WIHH 312230Z 00000KT 3000 HZ SCT020 26/24 Q1010 NOSIG=
202403312200 METAR WIHH 312200Z 00000KT 3000 HZ SCT020 26/24 Q1010 NOSIG=
202403312130 METAR WIHH 312130Z 00000KT 3000 HZ SCT020 26/25 Q1010 NOSIG=
202403312100 METAR WIHH 312100Z 21002KT 4000 HZ SCT020 26/25 Q1010 NOSIG=
202403312030 METAR WIHH NIL=
202403312000 METAR WIHH NIL=
202403311930 METAR WIHH NIL=
202403311900 METAR WIHH NIL=
202403311830 METAR WIHH NIL=
202403311800 METAR WIHH NIL=
202403311730 METAR WIHH 311730Z 00000KT 4000 HZ FEW020 26/25 Q1011 NOSIG=
202403311700 METAR WIHH 311700Z 00000KT 4000 HZ FEW020 26/25 Q1012 NOSIG=
202403311630 METAR WIHH 311630Z 18002KT 4000 HZ SCT020 26/25 Q1011 NOSIG=
202403311600 METAR WIHH 311600Z 18002KT 4000 HZ SCT018 26/25 Q1012 NOSIG=
202403311530 METAR WIHH 311530Z 00000KT 4000 HZ SCT018 26/25 Q1012 NOSIG=
202403311500 METAR WIHH 311500Z 00000KT 4000 HZ SCT018 26/25 Q1012 NOSIG=
202403311430 METAR WIHH NIL=
202403311400 METAR WIHH NIL=
202403311330 METAR WIHH 311330Z 18003KT 4000 HZ BKN018 27/26 Q1012 RMK RA TO N=
202403311300 METAR WIHH 311300Z 16003KT 4000 HZ BKN018 27/25 Q1011 RMK RA TO NW=
202403311230 METAR WIHH 311230Z 15002KT 5000 HZ BKN018 27/25 Q1011 RMK RA TO S=
202403311200 METAR WIHH 311200Z 36003KT 5000 HZ BKN018 27/25 Q1011 RMK RA TO E=
202403311130 METAR WIHH 311130Z 21003KT 5000 HZ BKN018 27/25 Q1010 RMK RA TO SE=
202403311100 METAR WIHH 311100Z 16004KT 5000 HZ BKN018 27/25 Q1010 RMK RA TO SE=
202403311030 METAR WIHH 311030Z 23004KT 5000 HZ BKN018 27/25 Q1010 NOSIG=
202403311000 METAR WIHH 311000Z 21004KT 5000 HZ SCT018 27/24 Q1009 RMK RA TO N=
202403310930 METAR WIHH NIL=
202403310900 METAR WIHH NIL=
202403310830 METAR WIHH NIL=
202403310800 METAR WIHH 310800Z 36012KT 1500 TSRA FEW016CB SCT018 27/26 Q1009 RMK CB TO S=
202403310730 METAR WIHH 310730Z 13015KT 1000 TSRA FEW016CB SCT018 30/26 Q1009 RMK CB TO S=
202403310700 METAR WIHH NIL=
202403310630 METAR WIHH NIL=
202403310600 METAR WIHH NIL=
202403310530 METAR WIHH 310530Z 33006KT 5000 HZ SCT018 33/25 Q1011 RMK RA TO NW=
202403310500 METAR WIHH 310500Z 35008KT 5000 HZ SCT018 33/25 Q1011 RMK RA TO N=
202403310430 METAR WIHH 310430Z 25005KT 5000 HZ SCT020 33/24 Q1012 RMK RA TO N=
202403310400 METAR WIHH 310400Z 22005KT 5000 HZ SCT020 33/24 Q1012 NOSIG=
202403310330 METAR WIHH 310330Z 18006KT 5000 HZ SCT020 32/24 Q1013 NOSIG=
202403310300 METAR WIHH NIL=
202403310230 METAR WIHH NIL=
202403310200 METAR WIHH 310200Z 18005KT 4000 HZ FEW020 31/26 Q1013 NOSIG=
202403310130 METAR WIHH 310130Z 26003KT4000 HZ NSC 29/26 Q1013 NOSIG=
202403310100 METAR WIHH 310100Z 24003KT4000 HZ NSC 29/26 Q1013 NOSIG=
202403310030 METAR WIHH 310030Z 23003KT 3000 HZ FEW020 28/26 Q1013 NOSIG=
202403310000 METAR WIHH 310000Z 24003KT 3000 HZ FEW020 27/26 Q1012 NOSIG=
202403302330 METAR WIHH 302330Z 23003KT 3000 HZ SCT020 26/25 Q1012 NOSIG=
202403302300 METAR WIHH 302300Z 24003KT 3000 HZ SCT020 26/25 Q1012 NOSIG=
202403302230 METAR WIHH 302230Z 22003KT 3000 HZ SCT020 26/25 Q1011 NOSIG=
202403302200 METAR WIHH 302200Z 00000KT 3000 HZ SCT020 26/25 Q1011 NOSIG=
202403302130 METAR WIHH 302130Z 00000KT 3000 HZ SCT020 26/25 Q1011 NOSIG=
202403302100 METAR WIHH 302100Z 00000KT 3000 HZ SCT020 26/25 Q1011 NOSIG=
202403302030 METAR WIHH NIL=
202403302000 METAR WIHH NIL=
202403301930 METAR WIHH NIL=
202403301900 METAR WIHH NIL=
202403301830 METAR WIHH NIL=
202403301800 METAR WIHH NIL=
202403301730 METAR WIHH NIL=
202403301700 METAR WIHH 301700Z 20004KT 3000 HZ SCT020 27/25 Q1013 NOSIG=
202403301630 METAR WIHH 301630Z 22004KT 3000 HZ SCT020 27/25 Q1013 NOSIG=
202403301600 METAR WIHH 301600Z 00000KT 3000 BR SCT020 26/25 Q1013 NOSIG=
202403301530 METAR WIHH 301530Z 00000KT 3000 HZ SCT020 27/25 Q1013 NOSIG=
202403301500 METAR WIHH 301500Z 00000KT 3000 HZ SCT020 27/25 Q1013 NOSIG=
202403301430 METAR WIHH 301430Z 15003KT 4000 HZ SCT018 27/25 Q1013 NOSIG=
202403301400 METAR WIHH 301400Z 21003KT 4000 HZ SCT018 26/25 Q1012 NOSIG=
202403301330 METAR WIHH 301330Z 22003KT 4000 HZ SCT018 26/25 Q1012 NOSIG=
202403301300 METAR WIHH 301300Z 22003KT 4000 HZ SCT018 26/25 Q1012 RMK RA TO S=
202403301230 METAR WIHH 301230Z 18003KT 4000 HZ FEW018CB SCT019 26/25 Q1012 RMK CB AND RA TO S=
202403301200 METAR WIHH 301200Z 24003KT 4000 HZ FEW018CB SCT019 25/24 Q1011 RMK CB AND RA TO S=
202403301130 METAR WIHH 301130Z 26003KT 4000 -RA SCT018 25/24 Q1011 NOSIG=
202403301100 METAR WIHH 301100Z 18003KT 4000 -RA SCT018 25/24 Q1010 NOSIG=
202403301030 METAR WIHH 301030Z 18015KT 2000 -TSRA FEW017CB BKN018 25/24 Q1010 RMK CB TO S=
202403301000 METAR WIHH 301000Z 24015KT 1500 -TSRA FEW017CB BKN018 28/23 Q1010 RMK CB TO S=
202403300930 METAR WIHH 300930Z 24012KT 3000 HZ FEW017CB SCT018 31/26 Q1009 RMK CB AND RA TO SW=
202403300900 METAR WIHH 300900Z 33008KT 5000 HZ SCT018 31/25 Q1009 RMK RA TO SW=
202403300830 METAR WIHH 300830Z 03010KT 5000 HZ SCT018 32/25 Q1009 RMK RA TO SW=
202403300800 METAR WIHH NIL=
202403300730 METAR WIHH 300730Z 36008KT 5000 HZ SCT018 32/25 Q1009 RMK RA TO SW=
202403300700 METAR WIHH 300700Z 03008KT 5000 HZ SCT018 32/25 Q1009 RMK RA TO SW=
202403300630 METAR WIHH 300630Z 33008KT 5000 HZ FEW018CB SCT019 31/26 Q1010 RMK CB AND RA TO NW=
202403300600 METAR WIHH 300600Z 27008KT 6000 FEW018CB SCT019 31/26 Q1011 RMK CB AND RA TO NW=
202403300530 METAR WIHH 300530Z 36008KT 6000 FEW017CB SCT018 33/24 Q1011 RMK CB AND RA TO NW=
202403300500 METAR WIHH 300500Z 03010KT 6000 SCT018 33/25 Q1011 RMK RA TO NW=
202403300430 METAR WIHH 300430Z 24003KT 6000 SCT018 33/24 Q1012 NOSIG=
202403300400 METAR WIHH 300400Z 02003KT 6000 SCT018 33/25 Q1012 NOSIG=
202403300330 METAR WIHH 300330Z 12003KT 6000 SCT018 33/24 Q1012 NOSIG=
202403300300 METAR WIHH 300300Z 24003KT 6000 FEW020 32/25 Q1012 NOSIG=
202403300230 METAR WIHH 300230Z 24005KT 6000 NSC 32/26 Q1013 NOSIG=
202403300200 METAR WIHH 300200Z 24003KT 6000 NSC 31/26 Q1012 NOSIG=
202403300130 METAR WIHH 300130Z 10003KT 6000 FEW022 30/25 Q1013 NOSIG=
202403300100 METAR WIHH 300100Z 21003KT 5000 HZ FEW020 29/25 Q1012 NOSIG=
202403300030 METAR WIHH 300030Z 23003KT 5000 HZ FEW020 28/25 Q1013 NOSIG=
202403300000 METAR WIHH 300000Z 19003KT 3000 BR FEW020 26/25 Q1012 NOSIG=
202403292330 METAR WIHH 292330Z 24003KT 3000 BR FEW018 26/25 Q1012 NOSIG=
202403292300 METAR WIHH 292300Z 00000KT 2000 BR FEW018 26/25 Q1012 NOSIG=
202403292230 METAR WIHH 292230Z 23003KT 5000 BR FEW018 25/25 Q1012 NOSIG=
202403292200 METAR WIHH NIL=
202403292130 METAR WIHH NIL=
202403292100 METAR WIHH NIL=
202403292030 METAR WIHH NIL=
202403292000 METAR WIHH NIL=
202403291930 METAR WIHH NIL=
202403291900 METAR WIHH NIL=
202403291830 METAR WIHH NIL=
202403291800 METAR WIHH NIL=
202403291730 METAR WIHH NIL=
202403291700 METAR WIHH NIL=
202403291630 METAR WIHH NIL=
202403291600 METAR WIHH NIL=
202403291530 METAR WIHH NIL=
202403291500 METAR WIHH 291500Z 18003KT 6000 SCT018 27/24 Q1012 NOSIG=
202403291430 METAR WIHH NIL=
202403291400 METAR WIHH 291400Z 15005KT 6000 SCT018 27/24 Q1011 NOSIG=
202403291330 METAR WIHH 291330Z 17008KT 6000 FEW017CB SCT018 28/24 Q1011 NOSIG=
202403291300 METAR WIHH 291300Z 16005KT 6000 FEW017CB SCT018 28/24 Q1011 RMK CB AND RA TO S=
202403291230 METAR WIHH 291230Z 18008KT 6000 FEW017CB SCT018 28/25 Q1011 RMK CB AND RA TO S=
202403291200 METAR WIHH 291200Z 19004KT 6000 SCT018 28/25 Q1011 NOSIG=
202403291130 METAR WIHH NIL=
202403291100 METAR WIHH 291100Z 02003KT 6000 SCT018 30/24 Q1010 NOSIG=
202403291030 METAR WIHH NIL=
202403291000 METAR WIHH 291000Z 02007KT 6000 FEW017CB SCT018 31/24 Q1009 RMK CB TO S=
202403290930 METAR WIHH 290930Z 04004KT 6000 FEW017CB SCT018 31/24 Q1009 RMK CB TO S=
202403290900 METAR WIHH 290900Z 24004KT 5000 TS FEW017CB SCT018 29/25 Q1008 RMK CB AND RA TO S-W=
202403290830 METAR WIHH 290830Z 21004KT 5000 TS FEW017CB SCT018 29/25 Q1008 RMK CB AND RA TO S-W=
202403290800 METAR WIHH 290800Z 20007KT 4000 HZ FEW017CB SCT018 32/24 Q1008 RMK CB AND RA TO S-W=
202403290730 METAR WIHH NIL=
202403290700 METAR WIHH NIL=
202403290630 METAR WIHH 290630Z 03004KT 6000 SCT020 33/24 Q1009 RMK RA TO W=
202403290600 METAR WIHH 290600Z 06004KT 5000 HZ SCT020 34/22 Q1009 RMK RA TO W=
202403290530 METAR WIHH 290530Z 10005KT 5000 HZ SCT020 33/22 Q1010 RMK RA TO W=
202403290500 METAR WIHH 290500Z 03005KT 5000 HZ SCT020 32/23 Q1011 NOSIG=
202403290430 METAR WIHH 290430Z 08004KT 5000 HZ SCT020 32/23 Q1011 NOSIG=
202403290400 METAR WIHH 290400Z 12005KT 5000 HZ SCT020 32/24 Q1011 NOSIG=
202403290330 METAR WIHH 290330Z 10006KT 5000 HZ SCT020 32/25 Q1012 NOSIG=
202403290300 METAR WIHH 290300Z 06006KT 5000 HZ SCT020 31/24 Q1012 NOSIG=
202403290230 METAR WIHH 290230Z 06006KT 5000 HZ FEW020 31/24 Q1012 NOSIG=
202403290200 METAR WIHH 290200Z 10007KT 5000 HZ FEW020 30/24 Q1012 NOSIG=
202403290130 METAR WIHH 290130Z 11008KT 5000 HZ FEW020 29/24 Q1012 NOSIG=
202403290100 METAR WIHH 290100Z 11003KT 3000 HZ FEW020 27/25 Q1012 NOSIG=
202403290030 METAR WIHH 290030Z 11003KT 3000 HZ FEW020 27/25 Q1012 NOSIG=
202403290000 METAR WIHH 290000Z 13003KT 3000 HZ FEW020 26/25 Q1011 NOSIG=
202403282330 METAR WIHH 282330Z 13003KT 4000 BR FEW020 26/25 Q1011 NOSIG=
202403282300 METAR WIHH 282300Z 13003KT 4000 BR FEW020 25/24 Q1011 NOSIG=
202403282230 METAR WIHH 282230Z 00000KT 5000 HZ FEW020 25/24 Q1011 NOSIG=
202403282200 METAR WIHH 282200Z 12003KT 6000 FEW020 25/24 Q1010 NOSIG=
202403282130 METAR WIHH 282130Z 13002KT 6000 FEW020 25/24 Q1010 NOSIG=
202403282100 METAR WIHH 282100Z 18002KT 6000 FEW020 26/24 Q1010 NOSIG=
202403282030 METAR WIHH NIL=
202403282000 METAR WIHH NIL=
202403281930 METAR WIHH NIL=
202403281900 METAR WIHH NIL=
202403281830 METAR WIHH NIL=
202403281800 METAR WIHH NIL=
202403281730 METAR WIHH 281730Z 24004KT 5000 HZ FEW020 26/25 Q1013 NOSIG=
202403281700 METAR WIHH 281700Z 24002KT 5000 HZ FEW020 26/25 Q1013 NOSIG=
202403281630 METAR WIHH 281630Z 24004KT 6000 FEW020 26/25 Q1013 NOSIG=
202403281600 METAR WIHH 281600Z 24004KT 6000 FEW020 26/25 Q1013 NOSIG=
202403281530 METAR WIHH 281530Z 22003KT 6000 FEW020 26/25 Q1012 NOSIG=
202403281500 METAR WIHH 281500Z 21003KT 5000 HZ FEW020 26/25 Q1012 NOSIG=
202403281430 METAR WIHH 281430Z 23004KT 5000 HZ FEW020 26/25 Q1012 NOSIG=
202403281400 METAR WIHH 281400Z 26003KT 5000 HZ FEW020 26/25 Q1012 NOSIG=
202403281330 METAR WIHH NIL=
202403281300 METAR WIHH 281300Z 22004KT 5000 HZ SCT018 26/24 Q1012 NOSIG=
202403281230 METAR WIHH 281230Z 24005KT 3000 TS FEW015CB 25/23 Q1012 RMK CB TO W=
202403281200 METAR WIHH 281200Z 23006KT 2000 TS FEW015CB 27/23 Q1011 RMK CB TO SW=
202403281130 METAR WIHH 281130Z 14004KT 2000 HZ BKN018 28/26 Q1011 RMK RA TO SW=
202403281100 METAR WIHH 281100Z 12005KT 4000 HZ BKN018 29/26 Q1011 RMK RA TO S=
202403281030 METAR WIHH 281030Z 12005KT 4000 HZ BKN018 29/25 Q1010 RMK RA TO S=
202403281000 METAR WIHH 281000Z 07004KT 4000 HZ BKN018 30/25 Q1010 RMK RA TO S=
202403280930 METAR WIHH 280930Z 09003KT 4000 HZ BKN018 29/25 Q1009 RMK RA TO E=
202403280900 METAR WIHH NIL=
202403280830 METAR WIHH NIL=
202403280800 METAR WIHH NIL=
202403280730 METAR WIHH NIL=
202403280700 METAR WIHH NIL=
202403280630 METAR WIHH NIL=
202403280600 METAR WIHH 280600Z 27005KT 2000 -RA BKN018 28/26 Q1010 NOSIG=
202403280530 METAR WIHH 280530Z 34004KT 5000 HZ SCT018 33/23 Q1010 RMK RA TO N=
202403280500 METAR WIHH 280500Z 23004KT 5000 HZ SCT018 34/21 Q1011 NOSIG=
202403280430 METAR WIHH 280430Z 07003KT 5000 HZ SCT018 33/22 Q1011 NOSIG=
202403280400 METAR WIHH 280400Z 10004KT 5000 HZ SCT018 33/22 Q1012 NOSIG=
202403280330 METAR WIHH 280330Z 23005KT 4000 HZ SCT018 32/23 Q1013 NOSIG=
202403280300 METAR WIHH 280300Z 15003KT 4000 HZ SCT018 31/24 Q1013 NOSIG=
202403280230 METAR WIHH 280230Z 21003KT 4000 HZ FEW020 31/24 Q1013 NOSIG=
202403280200 METAR WIHH 280200Z 24003KT 4000 HZ FEW020 29/24 Q1013 NOSIG=
202403280130 METAR WIHH 280130Z 20003KT 4000 HZ FEW020 29/25 Q1013 NOSIG=
202403280100 METAR WIHH 280100Z 00000KT 4000 HZ FEW020 28/25 Q1013 NOSIG=
202403280030 METAR WIHH 280030Z 24003KT 3000 BR FEW020 27/26 Q1012 NOSIG=
202403280000 METAR WIHH NIL=
202403272330 METAR WIHH 272330Z 00000KT 3000 BR FEW020 25/25 Q1011 NOSIG=
202403272300 METAR WIHH 272300Z 00000KT 3000 BR FEW020 25/25 Q1011 NOSIG=
202403272230 METAR WIHH 272230Z 00000KT 3000 BR FEW020 25/25 Q1011 NOSIG=
202403272200 METAR WIHH 272200Z 18003KT 3000 BR SCT020 25/25 Q1011 NOSIG=
202403272130 METAR WIHH 272130Z 16003KT 3000 BR SCT020 25/25 Q1011 NOSIG=
202403272100 METAR WIHH 272100Z 19003KT 3000 BR SCT018 25/25 Q1011 NOSIG=
202403272030 METAR WIHH NIL=
202403272000 METAR WIHH NIL=
202403271930 METAR WIHH NIL=
202403271900 METAR WIHH NIL=
202403271830 METAR WIHH NIL=
202403271800 METAR WIHH NIL=
202403271730 METAR WIHH NIL=
202403271700 METAR WIHH NIL=
202403271630 METAR WIHH NIL=
202403271600 METAR WIHH NIL=
202403271530 METAR WIHH 271530Z 00000KT 4000 HZ SCT018 27/25 Q1014 NOSIG=
202403271500 METAR WIHH 271500Z 34003KT 4000 HZ SCT018 25/25 Q1013 NOSIG=
202403271430 METAR WIHH 271430Z 12003KT 4000 HZ SCT018 28/25 Q1013 NOSIG=
202403271400 METAR WIHH 271400Z 10003KT 4000 HZ SCT018 28/25 Q1013 NODIG=
202403271330 METAR WIHH NIL=
202403271300 METAR WIHH 271300Z 17003KT 4000 HZ SCT018 29/25 Q1013 RMK RA TO SW=
202403271230 METAR WIHH 271230Z 14003KT 4000 HZ SCT018 29/25 Q1012 RMK RA TO SW=
202403271200 METAR WIHH 271200Z 18003KT 5000 HZ SCT018 29/25 Q1012 NOSIG=
202403271130 METAR WIHH 271130Z 18005KT 5000 HZ SCT018 29/24 Q1012 NOSIG=
202403271100 METAR WIHH 271100Z 22005KT 5000 HZ SCT018 30/24 Q1011 NOSIG=
202403271030 METAR WIHH 271030Z 24005KT 5000 HZ SCT018 30/24 Q1010 NOSIG=
202403271000 METAR WIHH NIL=
202403270930 METAR WIHH 270930Z 12004KT 5000 HZ SCT018 31/24 Q1010 RMK RA TO SW=
202403270900 METAR WIHH NIL=
202403270830 METAR WIHH 270830Z 20004KT 5000 HZ SCT018 30/24 Q1010 RMK RA TO SW=
202403270800 METAR WIHH 270800Z 08005KT 5000 HZ SCT018 30/24 Q1010 RMK RA TO S=
202403270730 METAR WIHH 270730Z 04005KT 5000 HZ SCT018 30/24 Q1011 RMK RA TO S=
202403270700 METAR WIHH NIL=
202403270630 METAR WIHH 270630Z 02005KT 5000 HZ FEW016CB SCT018 30/24 Q1012 RMK CB AND RA TO S=
202403270600 METAR WIHH 270600Z 02007KT 5000 HZ FEW016CB SCT018 30/24 Q1012 RMK CB AND RA TO S=
202403270530 METAR WIHH 270530Z 34005KT 4000 HZ SCT018 30/24 Q1013 RMK RA TO S=
202403270500 METAR WIHH NIL=
202403270430 METAR WIHH 270430Z 02008KT 3000 HZ SCT018 30/26 Q1014 RMK RA TO N=
202403270400 METAR WIHH 270400Z 02008KT 3000 HZ SCT018 30/26 Q1014 RMK RA TO N=
202403270330 METAR WIHH 270330Z 34005KT 3000 HZ SCT018 30/25 Q1014 NOSIG=
202403270300 METAR WIHH 270300Z 24003KT 3000 HZ SCT018 30/25 Q1014 RMK RA TO N=
202403270230 METAR WIHH 270230Z 24003KT 3000 HZ SCT018 29/25 Q1014 RMK RA TO N=
202403270200 METAR WIHH 270200Z 25003KT 3000 HZ SCT018 29/25 Q1014 RMK RA TO N=
202403270130 METAR WIHH 270130Z 30003KT 3000 HZ SCT018 28/25 Q1014 RMK RA TO N=
202403270100 METAR WIHH 270100Z 24003KT 3000 HZ SCT018 28/25 Q1013 RMK RA TO NE AND NW=
202403270030 METAR WIHH 270030Z 28003KT 3000 HZ SCT018 27/25 Q1013 RMK RA TO N=
202403270000 METAR WIHH 270000Z 33003KT 3000 HZ SCT018 27/25 Q1013 RMK RA TO N=
202403262330 METAR WIHH 262330Z 23004KT 3000 HZ SCT018 26/25 Q1012 RMK RA TO N=
202403262300 METAR WIHH 262300Z 22003KT 3000 HZ FEW018CB SCT019 26/25 Q1012 RMK CB AND RA TO N=
202403262230 METAR WIHH 262230Z 00000KT 3000 HZ SCT018 26/25 Q1012 NOSIG=
202403262200 METAR WIHH 262200Z 12003KT 3000 HZ SCT018 27/25 Q1011 NOSIG=
202403262130 METAR WIHH 262130Z 00000KT 3000 BR SCT018 27/26 Q1011 NOSIG=
202403262100 METAR WIHH 262100Z 16003KT 3000 HZ SCT018 27/25 Q1011 NOSIG=
202403262030 METAR WIHH NIL=
202403262000 METAR WIHH NIL=
202403261930 METAR WIHH NIL=
202403261900 METAR WIHH NIL=
202403261830 METAR WIHH NIL=
202403261800 METAR WIHH NIL=
202403261730 METAR WIHH 261730Z 02003KT 3000 -RA SCT018 27/25 Q1013 NOSIG=
202403261700 METAR WIHH 261700Z 33003KT 3000 -RA FEW017CB SCT018 27/25 Q1013 RMK CB TO NW=
202403261630 METAR WIHH 261630Z 23003KT 3000 HZ FEW017CB SCT018 27/25 Q1013 RMK CB AND RA TO NW=
202403261600 METAR WIHH 261600Z 19003KT 3000 HZ SCT018 27/25 Q1013 RMK RA TO NW=
202403261530 METAR WIHH 261530Z 21003KT 4000 HZ FEW018CB SCT019 27/25 Q1013 RMK CB AND RA TO NW=
202403261500 METAR WIHH 261500Z 21003KT 4000 HZ SCT018 26/25 Q1013 NOSIG=
202403261430 METAR WIHH 261430Z 21003KT 5000 HZ SCT018 27/25 Q1013 NOSIG=
202403261400 METAR WIHH 261400Z 21003KT 5000 HZ SCT018 27/25 Q1012 RMK RA TO NW=
202403261330 METAR WIHH 261330Z 22003KT 5000 HZ SCT018 27/25 Q1012 RMK RA TO NW=
202403261300 METAR WIHH 261300Z 22003KT 5000 -RA SCT018 27/25 Q1012 NOSIG=
202403261230 METAR WIHH 261230Z 24005KT 6000 SCT018 29/24 Q1011 RMK RA TO SW=
202403261200 METAR WIHH 261200Z 21008KT 6000 SCT018 29/24 Q1011 RMK RA TO SW=
202403261130 METAR WIHH 261130Z 20003KT 6000 SCT018 30/24 Q1011 NOSIG=
202403261100 METAR WIHH 261100Z 06005KT 6000 SCT018 31/24 Q1010 NOSIG=
202403261030 METAR WIHH 261030Z 06008KT 6000 SCT018 31/24 Q1010 NOSIG=
202403261000 METAR WIHH 261000Z 01008KT 6000 SCT018 31/24 Q1009 NOSIG=
202403260930 METAR WIHH 260930Z 03013KT 5000 HZ SCT018 32/23 Q1009 NOSIG=
202403260900 METAR WIHH 260900Z 03013KT 5000 HZ SCT018 32/22 Q1009 NOSIG=
202403260830 METAR WIHH 260830Z 03012KT 5000 HZ SCT018 32/22 Q1008 RMK RA TO SW=
202403260800 METAR WIHH NIL=
202403260730 METAR WIHH 260730Z 03010KT 5000 HZ SCT018 34/22 Q1009 RMK RA TO W=
202403260700 METAR WIHH 260700Z 03012KT 5000 HZ SCT018 33/23 Q1009 RMK RA TO W=
202403260630 METAR WIHH 260630Z 03010KT 5000 HZ SCT018 34/20 Q1009 RMK RA TO W=
202403260600 METAR WIHH 260600Z 03010KT 6000 SCT018 34/22 Q1009 RMK RA TO W=
202403260530 METAR WIHH 260530Z 08007KT 6000 SCT018 33/22 Q1010 RMK RA TO W=
202403260500 METAR WIHH 260500Z 12006KT 6000 SCT018 33/23 Q1010 RMK RA TO NW=
202403260430 METAR WIHH 260430Z 09006KT 6000 SCT018 33/22 Q1010 RMK RA TO NW=
202403260400 METAR WIHH 260400Z 07006KT 6000 SCT018 33/22 Q1011 NOSIG=
202403260330 METAR WIHH 260330Z 14006KT 5000 HZ SCT018 33/24 Q1012 NOSIG=
202403260300 METAR WIHH 260300Z 11006KT 5000 HZ FEW020 32/25 Q1012 NOSIG=
202403260230 METAR WIHH 260230Z 12004KT 5000 HZ FEW020 31/24 Q1012 NOSIG=
202403260200 METAR WIHH 260200Z 07004KT 5000 HZ FEW020 30/24 Q1012 NOSIG=
202403260130 METAR WIHH 260130Z 15003KT 5000 HZ FEW020 30/25 Q1012 NOSIG=
202403260100 METAR WIHH 260100Z 00000KT 4000 HZ FEW020 29/25 Q1012 NOSIG=
202403260030 METAR WIHH 260030Z 00000KT 4000 HZ FEW020 27/25 Q1012 NOSIG=
202403260000 METAR WIHH 260000Z 00000KT 3000 HZ FEW020 26/25 Q1012 NOSIG=
202403252330 METAR WIHH 252330Z 00000KT 3000 BR FEW020 25/25 Q1011 NOSIG=
202403252300 METAR WIHH 252300Z 00000KT 3000 BR FEW020 25/25 Q1011 NOSIG=
202403252230 METAR WIHH 252230Z 00000KT 4000 BR FEW020 25/25 Q1011 NOSIG=
202403252200 METAR WIHH 252200Z 00000KT 4000 HZ FEW020 25/25 Q1011 NOSIG=
202403252130 METAR WIHH 252130Z 00000KT 5000 HZ FEW020 25/24 Q1011 NOSIG=
202403252100 METAR WIHH NIL=
202403252030 METAR WIHH NIL=
202403252000 METAR WIHH NIL=
202403251930 METAR WIHH NIL=
202403251900 METAR WIHH NIL=
202403251830 METAR WIHH NIL=
202403251800 METAR WIHH NIL=
202403251730 METAR WIHH NIL=
202403251700 METAR WIHH NIL=
202403251630 METAR WIHH NIL=
202403251600 METAR WIHH NIL=
202403251530 METAR WIHH NIL=
202403251500 METAR WIHH 251500Z 16003KT 5000 HZ FEW018 26/25 Q1012 NOSIG=
202403251430 METAR WIHH NIL=
202403251400 METAR WIHH 251400Z 24004KT 5000 HZ SCT018 27/25 Q1011 RMK RA TO W=
202403251330 METAR WIHH 251330Z 23003KT 5000 -RA SCT018 27/25 Q1011 NOSIG=
202403251300 METAR WIHH 251300Z 14004KT 5000 -RA SCT018 27/25 Q1011 NOSIG=
202403251230 METAR WIHH 251230Z 18006KT 5000 -RA SCT018 29/24 Q1010 NOSIG=
202403251200 METAR WIHH 251200Z 20006KT 6000 SCT018 29/24 Q1010 RMK RA TO S=
202403251130 METAR WIHH 251130Z 00000KT 6000 SCT018 30/26 Q1009 RMK RA TO SE=
202403251100 METAR WIHH 251100Z 00000KT 6000 TS FEW017CB SCT018 30/24 Q1009 RMK CB AND RA TO S=
202403251030 METAR WIHH 251030Z 02004KT 6000 TS FEW017CB SCT018 31/24 Q1008 RMK CB AND RA TO S=
202403251000 METAR WIHH 251000Z 03008KT 6000 SCT018 32/23 Q1008 RMK RA TO S=
202403250930 METAR WIHH 250930Z 36008KT 6000 SCT018 32/24 Q1008 RMK RA TO S=
202403250900 METAR WIHH 250900Z 02008KT 6000 SCT018 32/24 Q1008 RMK RA TO S=
202403250830 METAR WIHH NIL=
202403250800 METAR WIHH NIL=
202403250730 METAR WIHH 250730Z 02006KT 6000 SCT018 33/242Q1007 RMK RA TO S=
202403250700 METAR WIHH NIL=
202403250630 METAR WIHH NIL=
202403250600 METAR WIHH 250600Z 28003KT 5000 HZ SCT018 30/26 Q1009 RMK RA TO W=
202403250530 METAR WIHH NIL=
202403250500 METAR WIHH 250500Z 30004KT 5000 HZ SCT018 29/25 Q1010 RMK RA TO SE AND SW=
202403250430 METAR WIHH 250430Z 26003KT 5000 HZ SCT018 28/25 Q1011 RMK RA TO S-W=
202403250400 METAR WIHH 250400Z 26003KT 5000 HZ SCT018 28/25 Q1011 RMK RA TO S-W=
202403250330 METAR WIHH 250330Z 28003KT 5000 -RA SCT018 29/25 Q1011 NOSIG=
202403250300 METAR WIHH 250300Z 13004KT 5000 HZ SCT018 31/24 Q1011 RMK RA TO E AND NW=
202403250230 METAR WIHH 250230Z 09003KT 5000 HZ SCT020 31/24 Q1011 NOSIG=
202403250200 METAR WIHH 250200Z 00000KT 5000 HZ FEW020 30/24 Q1011 NOSIG=
202403250130 METAR WIHH 250130Z 00000KT 6000 FEW020 29/24 Q1011 NOSIG=
202403250100 METAR WIHH 250100Z 13003KT 6000 FEW020 29/25 Q1011 NOSIG=
202403250030 METAR WIHH 250030Z 00000KT 6000 SCT020 27/24 Q1011 NOSIG=
202403250000 METAR WIHH 250000Z 00000KT 6000 SCT020 26/24 Q1010 NOSIG=
202403242330 METAR WIHH 242330Z 27003KT 6000 SCT018 26/25 Q1010 NOSIG=
202403242300 METAR WIHH 242300Z 00000KT 6000 SCT018 25/24 Q1010 NOSIG=
202403242230 METAR WIHH 242230Z 19003KT 6000 SCT018 25/24 Q1010 NOSIG=
202403242200 METAR WIHH 242200Z 24003KT 6000 SCT018 25/24 Q1010 NOSIG=
202403242130 METAR WIHH 242130Z 15003KT 6000 SCT018 26/24 Q1010 NOSIG=
202403242100 METAR WIHH 242100Z 15004KT 6000 SCT018 26/24 Q1009 RMK RA TO NE=
202403242030 METAR WIHH NIL=
202403242000 METAR WIHH NIL=
202403241930 METAR WIHH NIL=
202403241900 METAR WIHH NIL=
202403241830 METAR WIHH NIL=
202403241800 METAR WIHH NIL=
202403241730 METAR WIHH 241730Z 06005KT 6000 SCT018 27/25 Q1012 RMK RA TO SW=
202403241700 METAR WIHH 241700Z 15005KT 6000 SCT018 27/25 Q1012 RMK RA TO SE=
202403241630 METAR WIHH 241630Z 17005KT 6000 SCT018 27/25 Q1012 RMK RA TO SE=
202403241600 METAR WIHH 241600Z 21005KT 6000 SCT018 27/25 Q1012 NOSIG=
202403241530 METAR WIHH 241530Z 21005KT 6000 SCT018 27/25 Q1012 NOSIG=
202403241500 METAR WIHH 241500Z 23008KT 6000 FEW017CB SCT018 28/25 Q1012 RMK CB AND RA TO W=
202403241430 METAR WIHH 241430Z 00000KT 6000 FEW017CB SCT018 30/26 Q1012 RMK CB AND RA TO SW=
202403241400 METAR WIHH 241400Z 05003KT 6000 FEW017CB SCT018 30/26 Q1011 RMK CB AND RA TO SW=
202403241330 METAR WIHH 241330Z 04005KT 6000 FEW017CB SCT018 30/26 Q1011 RMK CB AND RA TO SW=
202403241300 METAR WIHH 241300Z 05006KT 6000 FEW017CB SCT018 30/26 Q1010 RMK CB TO SW=
202403241230 METAR WIHH 241230Z 03004KT 6000 FEW017CB SCT018 30/26 Q1010 RMK CB TO SW=
202403241200 METAR WIHH 241200Z 03007KT 6000 FEW017CB SCT018 30/24 Q1010 RMK CB TO SW=
202403241130 METAR WIHH 241130Z 01004KT 6000 SCT018 31/26 Q1009 NOSIG=
202403241100 METAR WIHH 241100Z 01008KT 6000 SCT018 31/25 Q1009 NOSIG=
202403241030 METAR WIHH 241030Z 03008KT 6000 SCT018 31/25 Q1008 NOSIG=
202403241000 METAR WIHH 241000Z 02010KT 6000 SCT018 32/25 Q1008 NOSIG=
202403240930 METAR WIHH 240930Z 04010KT 6000 SCT018 33/25 Q1007 NOSIG=
202403240900 METAR WIHH 240900Z 02010KT 6000 SCT018 33/25 Q1007 NOSIG=
202403240830 METAR WIHH 240830Z 36005KT 6000 SCT018 33/24 Q1007 NOSIG=
202403240800 METAR WIHH 240800Z 36006KT 6000 SCT018 33/25 Q1007 RMK RA TO SW=
202403240730 METAR WIHH NIL=
202403240700 METAR WIHH 240700Z 05010KT 6000 SCT018 33/25 Q1008 NOSIG=
202403240630 METAR WIHH NIL=
202403240600 METAR WIHH 240600Z 07007KT 5000 HZ SCT018 33/25 Q1009 NOSIG=
202403240530 METAR WIHH 240530Z 10010KT 5000 HZ SCT020 33/24 Q1009 NOSIG=
202403240500 METAR WIHH 240500Z 08005KT 5000 HZ SCT020 33/24 Q1009 NOSIG=
202403240430 METAR WIHH 240430Z 10005KT 5000 HZ SCT020 33/24 Q1010 NOSIG=
202403240400 METAR WIHH 240400Z 11005KT 5000 HZ SCT020 32/24 Q1010 NOSIG=
202403240330 METAR WIHH 240330Z 11005KT 5000 HZ SCT020 32/25 Q1010 NOSIG=
202403240300 METAR WIHH 240300Z 15005KT 5000 HZ SCT020 32/25 Q1011 NOSIG=
202403240230 METAR WIHH 240230Z 12007KT 5000 HZ SCT020 31/25 Q1011 NOSIG=
202403240200 METAR WIHH 240200Z 14003KT 5000 HZ SCT020 31/25 Q1011 NOSIG=
202403240130 METAR WIHH 240130Z 13003KT 4000 HZ FEW020 29/25 Q1011 NOSIG=
202403240100 METAR WIHH 240100Z 15003KT 4000 HZ FEW020 28/26 Q1011 NOSIG=
202403240030 METAR WIHH 240030Z 00000KT 4000 BR FEW020 26/26 Q1011 NOSIG=
202403240000 METAR WIHH 240000Z 00000KT 4000 BR FEW020 26/26 Q1010 NOSIG=
202403232330 METAR WIHH 232330Z 00000KT 4000 BR FEW020 26/26 Q1010 NOSIG=
202403232300 METAR WIHH 232300Z 00000KT 4000 BR SCT018 26/26 Q1010 NOSIG=
202403232230 METAR WIHH 232230Z 00000KT 5000 HZ SCT018 26/25 Q1009 NOSIG=
202403232200 METAR WIHH 232200Z 00000KT 5000 HZ SCT018 26/25 Q1009 NOSIG=
202403232130 METAR WIHH 232130Z 00000KT 5000 HZ SCT018 26/25 Q1009 NOSIG=
202403232100 METAR WIHH NIL=
202403232030 METAR WIHH NIL=
202403232000 METAR WIHH NIL=
202403231930 METAR WIHH NIL=
202403231900 METAR WIHH NIL=
202403231830 METAR WIHH NIL=
202403231800 METAR WIHH NIL=
202403231730 METAR WIHH NIL=
202403231700 METAR WIHH NIL=
202403231630 METAR WIHH NIL=
202403231600 METAR WIHH NIL=
202403231530 METAR WIHH 231530Z 27003KT 6000 TS FEW016CB SCT018 29/25 Q1011 RMK CB AND RA TO S=
202403231500 METAR WIHH 231500Z 24003KT 6000 TS FEW016CB SCT018 29/25 Q1011 RMK CB AND RA TO S=
202403231430 METAR WIHH 231430Z 36003KT 6000 FEW020 30/25 Q1010 RMK RA TO S=
202403231400 METAR WIHH 231400Z 03003KT 6000 FEW020 30/25 Q1010 NOSIG=
202403231330 METAR WIHH 231330Z 23003KT 6000 FEW020 29/25 Q1010 NOSIG=
202403231300 METAR WIHH 231300Z 27003KT 6000 FEW020 30/25 Q1010 NOSIG=
202403231230 METAR WIHH 231230Z 24003KT 6000 FEW020 30/25 Q1009 NOSIG=
202403231200 METAR WIHH 231200Z 24004KT 6000 FEW020 30/24 Q1009 NOSIG=
202403231130 METAR WIHH 231130Z 31004KT 6000 SCT020 31/24 Q1008 NOSIG=
202403231100 METAR WIHH 231100Z 33005KT 6000 SCT020 31/24 Q1008 NOSIG=
202403231030 METAR WIHH 231030Z 34005KT 6000 SCT020 32/24 Q1008 NOSIG=
202403231000 METAR WIHH 231000Z 36005KT 6000 SCT020 32/24 Q1007 NOSIG=
202403230930 METAR WIHH 230930Z 05007KT 6000 SCT020 32/23 Q1010 NOSIG=
202403230900 METAR WIHH 230900Z 03009KT 6000 SCT020 32/23 Q1007 NOSIG=
202403230830 METAR WIHH NIL=
202403230800 METAR WIHH NIL=
202403230730 METAR WIHH 230730Z 01010KT 5000 HZ SCT020 34/23 Q1007 NOSIG=
202403230700 METAR WIHH 230700Z 05010KT 5000 HZ SCT020 34/23 Q1008 NOSIG=
202403230630 METAR WIHH NIL=
202403230600 METAR WIHH NIL=
202403230530 METAR WIHH 230530Z 02010KT 5000 HZ SCT020 34/23 Q1009 NOSIG=
202403230500 METAR WIHH 230500Z 04010KT 5000 HZ SCT020 34/22 Q1009 NOSIG=
202403230430 METAR WIHH 230430Z 12005KT 5000 HZ SCT020 34/22 Q1009 NOSIG=
202403230400 METAR WIHH NIL=
202403230330 METAR WIHH NIL=
202403230300 METAR WIHH NIL=
202403230230 METAR WIHH 230230Z 24003KT 5000 HZ NSC 31/24 Q1011 NOSIG=
202403230200 METAR WIHH 230200Z 21003KT 4000 HZ NSC 30/24 Q1010 NOSIG=
202403230130 METAR WIHH 230130Z 26004KT 3000 HZ FEW020 29/24 Q1010 NOSIG=
202403230100 METAR WIHH 230100Z 23003KT 3000 HZ FEW020 28/25 Q1010 NOSIG=
202403230030 METAR WIHH 230030Z 18003KT 2500 HZ SCT018 26/25 Q1010 NOSIG=
202403230000 METAR WIHH 230000Z 25003KT 2500 HZ SCT018 26/25 Q1010 NOSIG=
202403222330 METAR WIHH 222330Z 22003KT 2000 BR FEW020 25/24 Q1010 NOSIG=
202403222300 METAR WIHH 222300Z 26003KT 2000 BR FEW020 25/24 Q1009 NOSIG=
202403222230 METAR WIHH 222230Z 26003KT 2000 BR FEW020 25/24 Q1009 NOSIG=
202403222200 METAR WIHH 222200Z 25003KT 2000 BR FEW020 25/24 Q1008 NOSIG=
202403222130 METAR WIHH 222130Z 25003KT 2000 BR SCT018 25/24 Q1008 NOSIG=
202403222100 METAR WIHH 222100Z 13003KT 2000 BR SCT018 25/24 Q1008 NOSIG=
202403222030 METAR WIHH NIL=
202403222000 METAR WIHH NIL=
202403221930 METAR WIHH NIL=
202403221900 METAR WIHH NIL=
202403221830 METAR WIHH NIL=
202403221800 METAR WIHH NIL=
202403221730 METAR WIHH NIL=
202403221700 METAR WIHH 221700Z 35003KT 6000 FEW020 27/24 Q1010 NOSIG=
202403221630 METAR WIHH 221630Z 36003KT 6000 FEW020 27/24 Q1010 NOSIG=
202403221600 METAR WIHH 221600Z 33003KT 6000 FEW020 28/25 Q1010 NOSIG=
202403221530 METAR WIHH 221530Z 03003KT 6000 FEW020 28/24 Q1010 NOSIG=
202403221500 METAR WIHH 221500Z 14003KT 6000 FEW020 27/25 Q1010 NOSIG=
202403221430 METAR WIHH 221430Z 24003KT 6000 FEW020 27/24 Q1009 NOSIG=
202403221400 METAR WIHH 221400Z 27003KT 6000 SCT020 27/24 Q1009 NOSIG=
202403221330 METAR WIHH 221330Z 24003KT 6000 SCT020 27/24 Q1009 NOSIG=
202403221300 METAR WIHH 221300Z 27003KT 6000 SCT020 27/25 Q1009 NOSIG=
202403221230 METAR WIHH 221230Z 12003KT 6000 SCT020 28/24 Q1008 NOSIG=
202403221200 METAR WIHH 221200Z 13003KT 6000 SCT020 28/24 Q1008 NOSIG=
202403221130 METAR WIHH 221130Z 27003KT 6000 SCT017 28/24 Q1008 NOSIG=
202403221100 METAR WIHH 221100Z 30003KT 6000 SCT017 28/24 Q1008 NOSIG=
202403221030 METAR WIHH 221030Z 33003KT 6000 SCT017 29/22 Q1007 NOSIG=
202403221000 METAR WIHH 221000Z 33003KT 6000 SCT017 29/23 Q1007 NOSIG=
202403220930 METAR WIHH 220930Z 26003KT 6000 SCT017 29/24 Q1006 NOSIG=
202403220900 METAR WIHH 220900Z 22003KT 6000 SCT017 29/23 Q1006 NOSIG=
202403220830 METAR WIHH 220830Z 21003KT 6000 SCT017 29/24 Q1006 NOSIG=
202403220800 METAR WIHH 220800Z 06003KT 6000 SCT017 29/24 Q1007 RMK RA TO N=
202403220730 METAR WIHH 220730Z 01003KT 6000 SCT015 28/24 Q1007 RMK RA TO NE=
202403220700 METAR WIHH 220700Z 01003KT 6000 SCT015 27/24 Q1008 RMK RA TO NE=
202403220630 METAR WIHH 220630Z 33005KT 5000 -RA SCT015 27/24 Q1008 NOSIG=
202403220600 METAR WIHH 220600Z 35005KT 5000 HZ SCT015 27/25 Q1009 NOSIG=
202403220530 METAR WIHH 220530Z 33004KT 5000 HZ SCT015 27/24 Q1009 RMK RA TO N=
202403220500 METAR WIHH 220500Z 34005KT 5000 HZ SCT015 27/24 Q1009 RMK RA TO N=
202403220430 METAR WIHH 220430Z 33005KT 5000 HZ SCT015 27/25 Q1010 RMK RA TO N=
202403220400 METAR WIHH 220400Z 33003KT 5000 HZ SCT015 27/25 Q1010 RMK RA TO N=
202403220330 METAR WIHH 220330Z 30004KT 5000 HZ SCT015 27/25 Q1010 RMK RA TO NW=
202403220300 METAR WIHH 220300Z 31004KT 5000 HZ SCT015 27/25 Q1011 RMK RA TO NW=
202403220230 METAR WIHH 220230Z 24003KT 5000 HZ SCT017 26/25 Q1011 RMK RA TO NW=
202403220200 METAR WIHH 220200Z 27005KT 5000 -TSRA FEW016CB SCT017 26/25 Q1011 RMK CB TO W=
202403220130 METAR WIHH 220130Z 21006KT 5000 HZ SCT016 27/25 Q1010 RMK RA TO W=
202403220100 METAR WIHH 220100Z 00000KT 5000 HZ SCT016 26/25 Q1010 RMK RA TO W=
202403220030 METAR WIHH 220030Z 19003KT 5000 HZ SCT016 25/25 Q1010 RMK RA TO W=
202403220000 METAR WIHH 220000Z 25004KT 5000 -RA SCT016 25/25 Q1009 NOSIG=
202403212330 METAR WIHH 212330Z 25003KT 4000 -RA SCT015 25/25 Q1009 NOSIG=
202403212300 METAR WIHH 212300Z 00000KT 4000 -RA SCT015 25/25 Q1009 NOSIG=
202403212230 METAR WIHH 212230Z 36003KT 3000 -TSRA BKN015 FEW017CB 25/24 Q1009 RMK CB TO NE=
202403212200 METAR WIHH NIL=
202403212130 METAR WIHH 212130Z 29003KT 3000 -TSRA BKN015 FEW017CB 25/24 Q1009 RMK CB TO N=
202403212100 METAR WIHH NIL=
202403212030 METAR WIHH 212030Z 33003KT 5000 -TSRA SCT015 FEW017CB 26/25 Q1008 RMK CB TO W AND NE=
202403212000 METAR WIHH NIL=
202403211930 METAR WIHH NIL=
202403211900 METAR WIHH NIL=
202403211830 METAR WIHH NIL=
202403211800 METAR WIHH NIL=
202403211730 METAR WIHH NIL=
202403211700 METAR WIHH NIL=
202403211630 METAR WIHH NIL=
202403211600 METAR WIHH NIL=
202403211530 METAR WIHH 211530Z 00000KT 6000 FEW018 28/25 Q1010 NOSIG=
202403211500 METAR WIHH 211500Z 00000KT 6000 SCT018 28/25 Q1010 NOSIG=
202403211430 METAR WIHH 211430Z 34003KT 6000 SCT018 28/25 Q1010 NOSIG=
202403211400 METAR WIHH 211400Z 34003KT 6000 SCT018 28/25 Q1010 NOSIG=
202403211330 METAR WIHH 211330Z 36003KT 7000 FEW020 28/24 Q1010 NOSIG=
202403211300 METAR WIHH 211300Z 28003KT 7000 FEW020 28/24 Q1009 NOSIG=
202403211230 METAR WIHH 211230Z 34006KT 7000 FEW020 29/24 Q1009 NOSIG=
202403211200 METAR WIHH 211200Z 01006KT 7000 FEW020 29/25 Q1008 NOSIG=
202403211130 METAR WIHH 211130Z 33006KT 7000 FEW020 29/25 Q1008 NOSIG=
202403211100 METAR WIHH 211100Z 33007KT 7000 FEW020 30/24 Q1007 NOSIG=
202403211030 METAR WIHH 211030Z 33007KT 7000 FEW020 30/24 Q1007 NOSIG=
202403211000 METAR WIHH 211000Z 01007KT 7000 FEW020 31/24 Q1007 NOSIG=
202403210930 METAR WIHH 210930Z 02007KT 7000 FEW020 31/24 Q1007 NOSIG=
202403210900 METAR WIHH 210900Z 36014KT 7000 FEW020 32/23 Q1006 NOSIG=
202403210830 METAR WIHH 210830Z 32014KT 7000 SCT020 32/23 Q1007 NOSIG=
202403210800 METAR WIHH 210800Z 35012KT 7000 SCT020 32/24 Q1007 NOSIG=
202403210730 METAR WIHH 210730Z 35012KT 7000 SCT020 32/24 Q1007 NOSIG=
202403210700 METAR WIHH 210700Z 34012KT 7000 SCT020 32/24 Q1008 NOSIG=
202403210630 METAR WIHH 210630Z 35012KT 7000 SCT020 32/24 Q1008 NOSIG=
202403210600 METAR WIHH 210600Z 35008KT 7000 SCT020 33/24 Q1008 NOSIG=
202403210530 METAR WIHH 210530Z 33010KT 7000 SCT020 32/24 Q1009 NOSIG=
202403210500 METAR WIHH 210500Z 30012KT 6000 SCT020 32/24 Q1010 NOSIG=
202403210430 METAR WIHH 210430Z 36010KT 6000 SCT020 32/24 Q1010 NOSIG=
202403210400 METAR WIHH NIL=
202403210330 METAR WIHH 210330Z 31007KT 6000 SCT020 31/23 Q1011 NOSIG=
202403210300 METAR WIHH NIL=
202403210230 METAR WIHH 210230Z 24005KT 6000 SCT020 31/23 Q1011 NOSIG=
202403210200 METAR WIHH 210200Z 29007KT 6000 FEW020 30/22 Q1011 NOSIG=
202403210130 METAR WIHH 210130Z 26005KT 6000 NSC 29/21 Q1011 NOSIG=
202403210100 METAR WIHH 210100Z 23003KT 6000 NSC 26/20 Q1011 NOSIG=
202403210030 METAR WIHH 210030Z 25003KT 6000 NSC 26/20 Q1011 NOSIG=
202403210000 METAR WIHH 210000Z 22006KT 8000 NSC 25/21 Q1011 NOSIG=
202403202330 METAR WIHH 202330Z 23003KT CAVOK 24/20 Q1010 NOSIG=
202403202300 METAR WIHH 202300Z 21003KT CAVOK 24/21 Q1010 NOSIG=
202403202230 METAR WIHH 202230Z 23003KT CAVOK 24/21 Q1010 NOSIG=
202403202200 METAR WIHH 202200Z 20003KT CAVOK 24/22 Q1010 NOSIG=
202403202130 METAR WIHH 202130Z 23003KT CAVOK 25/22 Q1010 NOSIG=
202403202100 METAR WIHH 202100Z 23003KT CAVOK 24/22 Q1009 NOSIG=
202403202030 METAR WIHH NIL=
202403202000 METAR WIHH NIL=
202403201930 METAR WIHH NIL=
202403201900 METAR WIHH NIL=
202403201830 METAR WIHH NIL=
202403201800 METAR WIHH NIL=
202403201730 METAR WIHH 201730Z 27005KT 8000 FEW022 27/24 Q1010 NOSIG=
202403201700 METAR WIHH 201700Z 27005KT 8000 FEW022 27/24 Q1010 NOSIG=
202403201630 METAR WIHH 201630Z 27005KT CAVOK 27/24 Q1010 NOSIG=
202403201600 METAR WIHH 201600Z 27008KT CAVOK 28/24 Q1010 NOSIG=
202403201530 METAR WIHH 201530Z 28012KT CAVOK 28/24 Q1010 NOSIG=
202403201500 METAR WIHH 201500Z 25010KT CAVOK 28/23 Q1010 NOSIG=
202403201430 METAR WIHH 201430Z 26012KT CAVOK 29/23 Q1010 NOSIG=
202403201400 METAR WIHH 201400Z 24010KT CAVOK 29/23 Q1010 NOSIG=
202403201330 METAR WIHH 201330Z 27012KT CAVOK 29/23 Q1010 NOSIG=
202403201300 METAR WIHH 201300Z 24008KT CAVOK 29/23 Q1009 NOSIG=
202403201230 METAR WIHH 201230Z 26008KT CAVOK 30/23 Q1009 NOSIG=
202403201200 METAR WIHH 201200Z 24010KT CAVOK 31/23 Q1008 NOSIG=
202403201130 METAR WIHH 201130Z 26010KT CAVOK 32/22 Q1008 NOSIG=
202403201100 METAR WIHH 201100Z 26010KT 9999 FEW022 32/21 Q1007 NOSIG=
202403201030 METAR WIHH 201030Z 27010KT 9999 FEW020 33/21 Q1007 NOSIG=
202403201000 METAR WIHH 201000Z 23012KT 9999 FEW020 34/21 Q1007 NOSIG=
202403200930 METAR WIHH 200930Z 25012KT 9999 FEW020 34/20 Q1007 NOSIG=
202403200900 METAR WIHH 200900Z 25015KT 9999 FEW020 34/20 Q1007 NOSIG=
202403200830 METAR WIHH 200830Z 24008KT 9999 FEW020 35/20 Q1007 NOSIG=
202403200800 METAR WIHH 200800Z 25008KT 9999 FEW020 35/20 Q1007 NOSIG=
202403200730 METAR WIHH 200730Z 32010KT 9999 FEW020 35/20 Q1007 NOSIG=
202403200700 METAR WIHH 200700Z 29012KT 9999 FEW020 35/20 Q1007 NOSIG=
202403200630 METAR WIHH 200630Z 23013KT 9999 FEW020 34/20 Q1007 NOSIG=
202403200600 METAR WIHH 200600Z 21015KT 9999 FEW020 34/21 Q1008 NOSIG=
202403200530 METAR WIHH 200530Z 26008KT 9999 FEW022 34/22 Q1009 NOSIG=
202403200500 METAR WIHH 200500Z 24005KT CAVOK 34/21 Q1009 NOSIG=
202403200430 METAR WIHH 200430Z 23010KT CAVOK 34/21 Q1009 NOSIG=
202403200400 METAR WIHH 200400Z 27012KT CAVOK 33/21 Q1010 NOSIG=
202403200330 METAR WIHH 200330Z 23015KT CAVOK 33/21 Q1011 NOSIG=
202403200300 METAR WIHH 200300Z 21015KT 9999 NSC 32/21 Q1011 NOSIG=
202403200230 METAR WIHH 200230Z 25009KT 8000 NSC 31/22 Q1011 NOSIG=
202403200200 METAR WIHH 200200Z 23008KT 8000 NSC 30/21 Q1011 NOSIG=
202403200130 METAR WIHH 200130Z 23008KT 8000 NSC 30/23 Q1011 NOSIG=
202403200100 METAR WIHH 200100Z 24008KT 8000 NSC 28/22 Q1011 NOSIG=
202403200030 METAR WIHH 200030Z 24006KT 8000 NSC 27/22 Q101 NOSIG=
202403200000 METAR WIHH 200000Z 24006KT 8000 NSC 26/22 Q1010 NOSIG=
202403192330 METAR WIHH 192330Z 24003KT 8000 NSC 25/22 Q1010 NOSIG=
202403192300 METAR WIHH 192300Z 24004KT 8000 NSC 24/21 Q1010 NOSIG=
202403192230 METAR WIHH 192230Z 29006KT 8000 NSC 24/21 Q1010 NOSIG=
202403192200 METAR WIHH 192200Z 23006KT 8000 NSC 24/21 Q1009 NOSIG=
202403192130 METAR WIHH 192130Z 26003KT 8000 NSC 25/21 Q1009 NOSIG=
202403192100 METAR WIHH 192100Z 27003KT 8000 NSC 25/22 Q1009 NOSIG=
202403192030 METAR WIHH 192030Z 24003KT 7000 NSC 25/21 Q1009 NOSIG=
202403192000 METAR WIHH NIL=
202403191930 METAR WIHH NIL=
202403191900 METAR WIHH NIL=
202403191830 METAR WIHH NIL=
202403191800 METAR WIHH NIL=
202403191730 METAR WIHH NIL=
202403191700 METAR WIHH 191700Z TAF WIHH 191700Z 1918/2018 20004KT 6000 FEW020 BECMG 2000/2002 26010KT=
202403191630 METAR WIHH NIL=
202403191600 METAR WIHH NIL=
202403191530 METAR WIHH 191530Z 23003KT 8000 NSC 26/21 Q1011 NOSIG=
202403191500 METAR WIHH 191500Z 21005KT 8000 FEW020 27/21 Q1011 NOSIG=
202403191430 METAR WIHH 191430Z 21006KT 8000 FEW020 27/21 Q1011 NOSIG=
202403191400 METAR WIHH 191400Z 21005KT 8000 FEW020 27/21 Q1010 NOSIG=
202403191330 METAR WIHH 191330Z 21006KT 8000 FEW020 28/21 Q1010 NOSIG=
202403191300 METAR WIHH 191300Z 22007KT 8000 FEW020 28/23 Q1010 NOSIG=
202403191230 METAR WIHH 191230Z 24012KT 8000 FEW020 30/21 Q1009 NOSIG=
202403191200 METAR WIHH 191200Z 24012KT 8000 FEW020 30/22 Q1009 NOSIG=
202403191130 METAR WIHH 191130Z 25012KT 8000 FEW020 31/22 Q1008 NOSIG=
202403191100 METAR WIHH 191100Z 26012KT 8000 FEW020 31/22 Q1007 NOSIG=
202403191030 METAR WIHH 191030Z 26012KT 8000 SCT020 32/23 Q1007 NOSIG=
202403191000 METAR WIHH 191000Z 26006KT 8000 SCT020 33/23 Q1007 NOSIG=
202403190930 METAR WIHH 190930Z 27015KT 8000 SCT020 34/23 Q1006 NOSIG=
202403190900 METAR WIHH 190900Z 28012KT 8000 SCT020 34/24 Q1006 NOSIG=
202403190830 METAR WIHH 190830Z 26012KT 8000 SCT020 34/23 Q1006 NOSIG=
202403190800 METAR WIHH 190800Z 26012KT 8000 SCT020 34/21 Q1007 NOSIG=
202403190730 METAR WIHH 190730Z 28012KT 8000 SCT020 34/21 Q1007 NOSIG=
202403190700 METAR WIHH 190700Z 27012KT 8000 SCT020 34/21 Q1007 NOSIG=
202403190630 METAR WIHH 190630Z 23012KT 8000 SCT020 34/22 Q1008 NOSIG=
202403190600 METAR WIHH NIL=
202403190530 METAR WIHH 190530Z 25012KT 8000 FEW020 34/24 Q1009 NOSIG=
202403190500 METAR WIHH 190500Z 24015KT 8000 FEW020 34/23 Q1009 NOSIG=
202403190430 METAR WIHH 190430Z 27005KT 8000 SCT020 33/23 Q1010 NOSIG=
202403190400 METAR WIHH 190400Z 27007KT 8000 FEW020 33/23 Q1010 NOSIG=
202403190330 METAR WIHH 190330Z 27014KT 8000 FEW020 32/22 Q1011 NOSIG=
202403190300 METAR WIHH 190300Z 24014KT 8000 FEW020 32/23 Q1011 NOSIG=
202403190230 METAR WIHH 190230Z 25010KT 7000 FEW020 31/23 Q1011 NOSIG=
202403190200 METAR WIHH 190200Z 25010KT 7000 FEW020 30/24 Q1011 NOSIG=
202403190130 METAR WIHH 190130Z 20004KT 7000 NSC 30/24 Q1011 NOSIG=
202403190100 METAR WIHH 190100Z 23004KT 7000 NSC 28/24 Q1011 NOSIG=
202403190030 METAR WIHH 190030Z 23006KT 7000 NSC 27/24 Q1011 NOSIG=
202403190000 METAR WIHH 190000Z 24003KT 7000 NSC 26/24 Q1011 NOSIG=
202403182330 METAR WIHH 182330Z 00000KT 6000 FEW020 25/24 Q1011 NOSIG=
202403182300 METAR WIHH 182300Z 00000KT 6000 FEW020 25/23 Q1010 NOSIG=
202403182230 METAR WIHH 182230Z 26003KT 6000 FEW020 25/23 Q1010 NOSIG=
202403182200 METAR WIHH 182200Z 00000KT 6000 FEW020 25/23 Q1010 NOSIG=
202403182130 METAR WIHH 182130Z 00000KT 6000 FEW020 25/23 Q1009 NOSIG=
202403182100 METAR WIHH 182100Z 00000KT 6000 FEW020 25/23 Q1009 NOSIG=
202403182030 METAR WIHH 182030Z 24005KT 6000 FEW020 25/23 Q1009 NOSIG=
202403182000 METAR WIHH 182000Z 25004KT 6000 FEW020 25/23 Q1009 NOSIG=
202403181930 METAR WIHH 181930Z 25004KT 6000 FEW020 26/23 Q1009 NOSIG=
202403181900 METAR WIHH NIL=
202403181830 METAR WIHH NIL=
202403181800 METAR WIHH NIL=
202403181730 METAR WIHH 181730Z 28003KT 6000 FEW020 26/23 Q1010 NOSIG=
202403181700 METAR WIHH 181700Z 28003KT 6000 FEW020 26/24 Q1010 NOSIG=
202403181630 METAR WIHH 181630Z 25003KT 7000 FEW020 26/23 Q1010 NOSIG=
202403181600 METAR WIHH 181600Z 24003KT 7000 FEW020 27/24 Q1010 NOSIG=
202403181530 METAR WIHH 181530Z 24005KT 7000 FEW020 27/23 Q1010 NOSIG=
202403181500 METAR WIHH 181500Z 23006KT 7000 FEW020 27/24 Q1010 NOSIG=
202403181430 METAR WIHH 181430Z 25007KT 6000 FEW020 28/24 Q1010 NOSIG=
202403181400 METAR WIHH 181400Z 25006KT 6000 FEW020 28/24 Q1010 NOSIG=
202403181330 METAR WIHH 181330Z 27006KT 6000 FEW020 28/24 Q1010 NOSIG=
202403181300 METAR WIHH 181300Z 26005KT 6000 FEW020 28/24 Q1009 NOSIG=
202403181230 METAR WIHH 181230Z 26007KT 6000 FEW020 29/23 Q1009 NOSIG=
202403181200 METAR WIHH 181200Z 26005KT 6000 FEW020 29/22 Q1009 NOSIG=
202403181130 METAR WIHH 181130Z 23007KT 6000 SCT020 29/23 Q1008 NOSIG=
202403181100 METAR WIHH 181100Z 23008KT 6000 SCT020 30/23 Q1008 NOSIG=
202403181030 METAR WIHH 181030Z 24008KT 6000 SCT018 30/24 Q1008 NOSIG=
202403181000 METAR WIHH 181000Z 23006KT 6000 SCT018 30/24 Q1008 NOSIG=
202403180930 METAR WIHH 180930Z 01003KT 6000 SCT018 30/26 Q1007 RMK RA TO NE=
202403180900 METAR WIHH 180900Z 36004KT 6000 SCT018 30/25 Q1007 RMK RA TO N=
202403180830 METAR WIHH 180830Z 34004KT 5000 HZ SCT018 29/24 Q1007 RMK RA TO NE=
202403180800 METAR WIHH 180800Z 01007KT 6000 SCT018 31/25 Q1007 RMK RA TO S=
202403180730 METAR WIHH 180730Z 25008KT 6000 SCT018 32/24 Q1007 RMK RA TO SW=
202403180700 METAR WIHH 180700Z 28005KT 6000 SCT018 32/24 Q1008 RMK RA TO S=
202403180630 METAR WIHH 180630Z 28005KT 6000 SCT018 32/24 Q1008 RMK RA TO S=
202403180600 METAR WIHH 180600Z 29006KT 6000 SCT018 32/23 Q1009 RMK RA TO E=
202403180530 METAR WIHH 180530Z 28006KT 6000 SCT020 32/24 Q1009 RMK RA TO N=
202403180500 METAR WIHH 180500Z 27006KT 6000 SCT020 32/24 Q1010 RMK RA TO NE=
202403180430 METAR WIHH 180430Z 29008KT 6000 SCT020 31/24 Q1010 NOSIG=
202403180400 METAR WIHH 180400Z 27006KT 6000 SCT020 31/24 Q1010 NOSIG=
202403180330 METAR WIHH 180330Z 26011KT 7000 SCT020 31/24 Q1011 NOSIG=
202403180300 METAR WIHH 180300Z 25007KT 7000 SCT020 30/24 Q1011 NOSIG=
202403180230 METAR WIHH 180230Z 25007KT 7000 FEW020 30/24 Q1012 NOSIG=
202403180200 METAR WIHH 180200Z 30011KT 7000 FEW020 29/24 Q1012 NOSIG=
202403180130 METAR WIHH 180130Z 24006KT 7000 FEW020 28/24 Q1011 NOSIG=
202403180100 METAR WIHH 180100Z 29003KT 7000 FEW020 28/24 Q1011 NOSIG=
202403180030 METAR WIHH 180030Z 28004KT 6000 FEW020 27/24 Q1011 NOSIG=
202403180000 METAR WIHH 180000Z 22006KT 6000 FEW020 26/24 Q1010 NOSIG=
202403172330 METAR WIHH 172330Z 25004KT 6000 FEW020 24/23 Q1010 NOSIG=
202403172300 METAR WIHH 172300Z 23004KT 6000 FEW020 24/23 Q1009 NOSIG=
202403172230 METAR WIHH 172230Z 28003KT 6000 FEW020 25/24 Q1009 NOSIG=
202403172200 METAR WIHH 172200Z 26003KT 6000 FEW020 25/24 Q1009 NOSIG=
202403172130 METAR WIHH NIL=
202403172100 METAR WIHH 172100Z 23006KT 6000 FEW020 27/24 Q1008 NOSIG=
202403172030 METAR WIHH NIL=
202403172000 METAR WIHH NIL=
202403171930 METAR WIHH NIL=
202403171900 METAR WIHH NIL=
202403171830 METAR WIHH NIL=
202403171800 METAR WIHH NIL=
202403171730 METAR WIHH NIL=
202403171700 METAR WIHH NIL=
202403171630 METAR WIHH NIL=
202403171600 METAR WIHH 171600Z 23008KT 6000 FEW020 27/24 Q1010 NOSIG=
202403171530 METAR WIHH NIL=
202403171500 METAR WIHH 171500Z 25008KT 6000 FEW020 27/24 Q1010 NOSIG=
202403171430 METAR WIHH 171430Z 27007KT 6000 FEW020 27/24 Q1010 NOSIG=
202403171400 METAR WIHH 171400Z 24007KT 6000 FEW020 27/24 Q1010 NOSIG=
202403171330 METAR WIHH 171330Z 26006KT 6000 FEW020 27/24 Q1010 NOSIG=
202403171300 METAR WIHH 171300Z 26005KT 6000 SCT020 28/24 Q1009 NOSIG=
202403171230 METAR WIHH 171230Z 24008KT 6000 SCT020 27/24 Q1009 NOSIG=
202403171200 METAR WIHH 171200Z 26008KT 6000 SCT020 27/24 Q1009 NOSIG=
202403171130 METAR WIHH 171130Z 28010KT 6000 SCT018 28/24 Q1008 NOSIG=
202403171100 METAR WIHH 171100Z 25010KT 6000 SCT018 27/24 Q1008 NOSIG=
202403171030 METAR WIHH 171030Z 27010KT 6000 SCT018 29/24 Q1008 NOSIG=
202403171000 METAR WIHH 171000Z 24010KT 6000 SCT018 29/24 Q1008 NOSIG=
202403170930 METAR WIHH 170930Z 28010KT 6000 SCT018 29/24 Q1007 NOSIG=
202403170900 METAR WIHH 170900Z 25012KT 6000 SCT018 29/24 Q1007 NOSIG=
202403170830 METAR WIHH 170830Z 27015KT 6000 SCT018 29/24 Q1007 NOSIG=
202403170800 METAR WIHH 170800Z 30015KT 5000 HZ SCT018 29/24 Q1008 NOSIG=
202403170730 METAR WIHH 170730Z 26015KT 5000 HZ SCT018 28/24 Q1008 RMK RA TO N=
202403170700 METAR WIHH 170700Z 26015KT 5000 -RA SCT018 27/24 Q1008 NOSIG=
202403170630 METAR WIHH 170630Z 24012KT 5000 -RA SCT018 27/25 Q1009 NOSIG=
202403170600 METAR WIHH 170600Z 28010KT 6000 SCT018 29/25 Q1009 RMK RA TO N=
202403170530 METAR WIHH 170530Z 24010KT 5000 HZ SCT018 27/25 Q1009 RMK RA TO N=
202403170500 METAR WIHH 170500Z 24015KT 3000 -RA SCT016 27/25 Q1011 NOSIG=
202403170430 METAR WIHH 170430Z 22015KT 6000 SCT016 29/25 Q1011 RMK RA TO N=
202403170400 METAR WIHH 170400Z 23015KT 6000 SCT016 29/25 Q1011 RMK RA TO N=
202403170330 METAR WIHH 170330Z 22010KT 6000 SCT016 29/25 Q1011 RMK RA TO NW=
202403170300 METAR WIHH NIL=
202403170230 METAR WIHH 170230Z 24008KT 6000 SCT018 26/24 Q1012 RMK RA TO SW=
202403170200 METAR WIHH 170200Z 24008KT 6000 SCT018 26/24 Q1012 RMK RA TO SW=
202403170130 METAR WIHH 170130Z 24008KT 6000 SCT018 26/24 Q1011 NOSIG=
202403170100 METAR WIHH 170100Z 23004KT 5000 -RA SCT017 25/24 Q1011 NOSIGDUPE=
202403170030 METAR WIHH 170030Z 21005KT 4000 -RA SCT017 25/24 Q1011 NOSIG=
202403170000 METAR WIHH 170000Z 24005KT 5000 -RA 25/24 Q1011 NOSIG=
202403162330 METAR WIHH 162330Z 24003KT 5000 HZ SCT018 25/24 Q1010 RMK RA TO SW=
202403162300 METAR WIHH 162300Z 22003KT 5000 HZ SCT018 24/23 Q1010 RMK RA TO SW=
202403162230 METAR WIHH 162230Z 24004KT 5000 HZ SCT018 25/24 Q1010 NOSIG=
202403162200 METAR WIHH 162200Z 25004KT 5000 HZ SCT018 25/24 Q1010 NOSIG=
202403162130 METAR WIHH 162130Z 24006KT 5000 HZ SCT018 25/24 Q1010 NOSIG=
202403162100 METAR WIHH 162100Z 23006KT 5000 HZ SCT018 25/24 Q1010 NOSIG=
202403162030 METAR WIHH NIL=
202403162000 METAR WIHH NIL=
202403161930 METAR WIHH NIL=
202403161900 METAR WIHH NIL=
202403161830 METAR WIHH NIL=
202403161800 METAR WIHH NIL=
202403161730 METAR WIHH NIL=
202403161700 METAR WIHH 161700Z 25004KT 6000 SCT020 25/24 Q1012 RMK RA TO NW=
202403161630 METAR WIHH 161630Z 27005KT 6000 SCT020 25/24 Q1012 RMK RA TO N=
202403161600 METAR WIHH 161600Z 28005KT 6000 SCT020 25/23 Q1012 RMK RA TO N=
202403161530 METAR WIHH 161530Z 29005KT 6000 FEW022 25/23 Q1012 NOSIG=
202403161500 METAR WIHH 161500Z 28005KT 6000 FEW022 25/23 Q1012 NOSIG=
202403161430 METAR WIHH 161430Z 24006KT 6000 FEW022 25/23 Q1011 NOSIG=
202403161400 METAR WIHH 161400Z 27007KT 6000 FEW020 25/23 Q1011 NOSIG=
202403161330 METAR WIHH 161330Z 27005KT 6000 FEW020 25/24 Q1011 NOSIG=
202403161300 METAR WIHH 161300Z 28003KT 6000 SCT017 25/23 Q1011 NOSIG=
202403161230 METAR WIHH 161230Z 27006KT 6000 SCT017 25/23 Q1011 NOSIG=
202403161200 METAR WIHH 161200Z 25008KT 6000 SCT017 25/23 Q1011 NOSIG=
202403161130 METAR WIHH 161130Z 24010KT 6000 BKN015 26/24 Q1011 RMK RA TO NW=
202403161100 METAR WIHH 161100Z 24010KT 5000 HZ BKN015 26/24 Q1010 RMK RA TO W=
202403161030 METAR WIHH 161030Z 27010KT 5000 HZ BKN015 26/24 Q1010 RMK RA TO NE=
202403161000 METAR WIHH 161000Z 24010KT 1500 -RA BKN015 26/24 Q1009 NOSIG=
202403160930 METAR WIHH 160930Z 26008KT 6000 SCT016 27/25 Q1009 RMK RA TO E AND W=
202403160900 METAR WIHH 160900Z 26012KT 6000 SCT016 27/26 Q1009 RMK RA TO NE=
202403160830 METAR WIHH 160830Z 24010KT 4000 -RA BKN017 27/25 Q1009 NOSIG=
202403160800 METAR WIHH 160800Z 24008KT 6000 SCT018 30/24 Q1008 RMK RA TO NW=
202403160730 METAR WIHH 160730Z 24008KT 6000 SCT018 30/24 Q1009 NOSIG=
202403160700 METAR WIHH 160700Z 24010KT 6000 SCT018 29/24 Q1009 NOSIG=
202403160630 METAR WIHH 160630Z 28008KT 6000 SCT018 28/24 Q1010 NOSIG=
202403160600 METAR WIHH 160600Z 29008KT 6000 SCT018 28/24 Q1011 NOSIG=
202403160530 METAR WIHH 160530Z 27008KT 6000 SCT018 27/24 Q1011 NOSIG=
202403160500 METAR WIHH 160500Z 27008KT 5000 HZ SCT017 26/24 Q1012 NOSIG=
202403160430 METAR WIHH 160430Z 24008KT 5000 HZ SCT017 26/24 Q1012 NOSIG=
202403160400 METAR WIHH 160400Z 24010KT 5000 HZ SCT017 26/24 Q1012 NOSIG=
202403160330 METAR WIHH 160330Z 27008KT 4000 HZ SCT017 25/24 Q1013 RMK RA TO W=
202403160300 METAR WIHH 160300Z 27008KT 4000 -RA SCT017 25/24 Q1013 NOSIG=
202403160230 METAR WIHH 160230Z 27008KT 3000 -RA BKN015 24/23 Q1014 NOSIG=
202403160200 METAR WIHH 160200Z 27010KT 1000 RA BKN015 25/24 Q1014 NOSIG=
202403160130 METAR WIHH 160130Z 26006KT 5000 HZ BKN015 26/25 Q1013 RMK RA TO W-NW=
202403160100 METAR WIHH 160100Z 22006KT 6000 SCT015 26/25 Q1012 NOSIG=
202403160030 METAR WIHH 160030Z 22004KT 6000 SCT015 26/25 Q1012 RMK RA TO S=
202403160000 METAR WIHH 160000Z 23005KT 6000 SCT015 25/24 Q1012 RMK RA TO S=
202403152330 METAR WIHH 152330Z 24003KT 6000 SCT015 25/24 Q1012 RMK RA TO S=
202403152300 METAR WIHH 152300Z 28005KT 6000 SCT015 25/24 Q1011 RMK RA TO W=
202403152230 METAR WIHH 152230Z 30005KT 6000 SCT015 25/24 Q1011 RMK RA TO SE=
202403152200 METAR WIHH 152200Z 25003KT 4000 -RA BKN015 25/24 Q1011 NOSIG=
202403152130 METAR WIHH 152130Z 25008KT 1500 RA 25/24 Q1011 NOSIG=
202403152100 METAR WIHH NIL=
202403152030 METAR WIHH NIL=
202403152000 METAR WIHH NIL=
202403151930 METAR WIHH NIL=
202403151900 METAR WIHH NIL=
202403151830 METAR WIHH NIL=
202403151800 METAR WIHH NIL=
202403151730 METAR WIHH NIL=
202403151700 METAR WIHH NIL=
202403151630 METAR WIHH NIL=
202403151600 METAR WIHH NIL=
202403151530 METAR WIHH 151530Z 25008KT 6000 NSC 26/25 Q1011 NOSIG=
202403151500 METAR WIHH 151500Z 23004KT 6000 FEW020 26/24 Q1012 NOSIG=
202403151430 METAR WIHH 151430Z 27004KT 6000 FEW020 26/24 Q1012 NOSIG=
202403151400 METAR WIHH 151400Z 00000KT 6000 FEW020 26/24 Q1011 NOSIG=
202403151330 METAR WIHH 151330Z 19002KT 6000 FEW018 25/24 Q1011 NOSIG=
202403151300 METAR WIHH 151300Z 32003KT 6000 FEW018 25/24 Q1011 NOSIG=
202403151230 METAR WIHH 151230Z 28003KT 5000 HZ SCT018 25/24 Q1011 NOSIG=
202403151200 METAR WIHH 151200Z 25007KT 5000 -RA SCT018 25/24 Q1010 NOSIG=
202403151130 METAR WIHH 151130Z 24013KT 4000 -RA SCT018 26/24 Q1010 NOSIG=
202403151100 METAR WIHH 151100Z 30006KT 6000 SCT018 28/24 Q1010 RMK RA TO SW=
202403151030 METAR WIHH 151030Z 27006KT 6000 SCT018 28/24 Q1010 NOSIG=
202403151000 METAR WIHH 151000Z 27008KT 6000 SCT018 28/25 Q1009 NOSIG=
202403150930 METAR WIHH 150930Z 24005KT 6000 SCT018 29/24 Q1009 NOSIG=
202403150900 METAR WIHH 150900Z 24007KT 6000 SCT018 29/24 Q1009 NOSIG=
202403150830 METAR WIHH 150830Z 24010KT 6000 SCT018 29/24 Q1008 NOSIG=
202403150800 METAR WIHH 150800Z 30004KT 6000 SCT018 29/24 Q1009 NOSIG=
202403150730 METAR WIHH 150730Z 26005KT 6000 SCT018 29/24 Q1009 NOSIG=
202403150700 METAR WIHH 150700Z 25006KT 6000 SCT018 29/23 Q1009 NOSIG=
202403150630 METAR WIHH 150630Z 25015KT 6000 SCT018 29/24 Q1010 NOSIG=
202403150600 METAR WIHH 150600Z 25012KT 6000 SCT018 28/23 Q1010 NOSIG=
202403150530 METAR WIHH 150530Z 24012KT 6000 SCT018 29/24 Q1010 NOSIG=
202403150500 METAR WIHH 150500Z 25012KT 6000 SCT018 28/23 Q1011 NOSIG=
202403150430 METAR WIHH 150430Z 24012KT 6000 SCT018 28/23 Q1011 NOSIG=
202403150400 METAR WIHH 150400Z 23012KT 6000 SCT018 27/23 Q1011 NOSIG=
202403150330 METAR WIHH 150330Z 24012KT 5000 HZ SCT018 27/23 Q1012 NOSIG=
202403150300 METAR WIHH 150300Z 23012KT 5000 HZ SCT018 26/24 Q1012 NOSIG=
202403150230 METAR WIHH 150230Z 26012KT 5000 HZ SCT018 27/24 Q1012 RMK RA TO SW=
202403150200 METAR WIHH 150200Z 24012KT 5000 HZ SCT018 27/25 Q1012 RMK RA TO SW=
202403150130 METAR WIHH 150130Z 26006KT 5000 HZ SCT018 27/25 Q1012 RMK RA TO SW=
202403150100 METAR WIHH 150100Z 24004KT 5000 HZ SCT018 26/25 Q1012 NOSIG=
202403150030 METAR WIHH 150030Z 28004KT 5000 HZ SCT016 25/24 Q1011 NOSIG=
202403150000 METAR WIHH 150000Z 00000KT 5000 HZ SCT016 25/24 Q1011 NOSIG=
202403142330 METAR WIHH 142330Z 25003KT 5000 HZ SCT015 25/24 Q1010 RMK RA TO NW=
202403142300 METAR WIHH 142300Z 24005KT 5000 -RA SCT015 25/24 Q1010 NOSIG=
202403142230 METAR WIHH 142230Z 22004KT 5000 -RA SCT016 24/24 Q1010 NOSIG=
202403142200 METAR WIHH 142200Z 00000KT 5000 -RA SCT015 24/24 Q1010 NOSIG=
202403142130 METAR WIHH 142130Z 36003KT 3000 -RA BKN015 24/24 Q1010 NOSIG=
202403142100 METAR WIHH 142100Z 22007KT 4000 -RA SCT015 FEW017CB 24/24 Q1010 RMK CB TO NE=
202403142030 METAR WIHH 142030Z 24003KT 4000 -RA SCT015 FEW017CB 25/24 Q1011 RMK CB TO NE=
202403142000 METAR WIHH NIL=
202403141930 METAR WIHH NIL=
202403141900 METAR WIHH NIL=
202403141830 METAR WIHH NIL=
202403141800 METAR WIHH NIL=
202403141730 METAR WIHH NIL=
202403141700 METAR WIHH 141700Z 25003KT 6000 SCT018 26/24 Q1011 RMK RA TO SW=
202403141630 METAR WIHH 141630Z 27003KT 6000 FEW018 26/24 Q1011 NOSIG=
202403141600 METAR WIHH 141600Z 27003KT 6000 FEW018 26/24 Q1011 NOSIG=
202403141530 METAR WIHH 141530Z 29003KT 6000 FEW018 26/24 Q1011 NOSIG=
202403141500 METAR WIHH 141500Z 00000KT 6000 FEW018 26/24 Q1011 NOSIG=
202403141430 METAR WIHH 141430Z 00000KT 6000 FEW018 26/24 Q1011 NOSIG=
202403141400 METAR WIHH 141400Z 00000KT 6000 FEW018 26/25 Q1010 NOSIG=
202403141330 METAR WIHH 141330Z 00000KT 6000 FEW018 26/25 Q1010 NOSIG=
202403141300 METAR WIHH 141300Z 00000KT 6000 FEW018 26/24 Q1010 NOSIG=
202403141230 METAR WIHH 141230Z 00000KT 6000 FEW018 26/24 Q1010 NOSIG=
202403141200 METAR WIHH 141200Z 28003KT 6000 FEW018 26/24 Q1009 NOSIG=
202403141130 METAR WIHH 141130Z 27003KT 6000 SCT018 26/24 Q1009 NOSIG=
202403141100 METAR WIHH 141100Z 24006KT 6000 SCT018 26/24 Q1009 NOSIG=
202403141030 METAR WIHH 141030Z 22006KT 6000 SCT018 26/25 Q1008 RMK RA TO NE=
202403141000 METAR WIHH 141000Z 24006KT 6000 SCT015 27/24 Q1008 RMK RA TO N=
202403140930 METAR WIHH 140930Z 26008KT 6000 SCT015 27/24 Q1008 RMK RA TO N=
202403140900 METAR WIHH 140900Z 25003KT 5000 HZ SCT015 27/26 Q1008 RMK RA TO NE=
202403140830 METAR WIHH 140830Z 25003KT 3000 -RA SCT015 FEW017CB 26/26 Q1009 RMK CB TO SE=
202403140800 METAR WIHH 140800Z 26003KT 5000 HZ SCT015 29/25 Q1009 RMK RA TO S=
202403140730 METAR WIHH 140730Z 29004KT 6000 SCT015 29/25 Q1009 RMK RA TO S=
202403140700 METAR WIHH 140700Z 28010KT 6000 SCT015 29/25 Q1009 RMK RA TO E=
202403140630 METAR WIHH 140630Z 30007KT 5000 HZ SCT015 29/26 Q1010 RMK RA TO N=
202403140600 METAR WIHH 140600Z 33006KT 5000 HZ SCT015 28/25 Q1010 RMK RA TO NE=
202403140530 METAR WIHH 140530Z 25004KT 5000 HZ SCT015 28/25 Q1010 RMK RA TO NW AND S=
202403140500 METAR WIHH 140500Z 25004KT 4000 -RA SCT015 FEW017CB 28/26 Q1010 RMK CB TO S=
202403140430 METAR WIHH 140430Z 31004KT 4000 -RA SCT015 28/26 Q1011 NOSIG=
202403140400 METAR WIHH 140400Z 27004KT 5000 -RA SCT015 27/26 Q1011 NOSIG=
202403140330 METAR WIHH 140330Z 25003KT 4000 -RA SCT015 28/26 Q1011 NOSIG=
202403140300 METAR WIHH 140300Z 29005KT 4000 -RA SCT015 27/25 Q1011 NOSIG=
202403140230 METAR WIHH 140230Z 31005KT 5000 -RA SCT015 28/26 Q1011 NOSIG=
202403140200 METAR WIHH 140200Z 27003KT 5000 HZ SCT018 28/26 Q1011 RMK RA TO SW-NW=
202403140130 METAR WIHH 140130Z 25003KT 5000 -RA BKN018 27/25 Q1011 NOSIG=
202403140100 METAR WIHH 140100Z 26003KT 5000 -RA BKN018 27/25 Q1011 NOSIG=
202403140030 METAR WIHH 140030Z 25003KT 5000 HZ SCT018 26/25 Q1011 RMK RA TO W=
202403140000 METAR WIHH 140000Z 23003KT 5000 -RA SCT018 26/25 Q1011 NOSIG=
202403132330 METAR WIHH 132330Z 00000KT 5000 -RA SCT018 26/25 Q1010 NOSIG=
202403132300 METAR WIHH 132300Z 26004KT 5000 -RA SCT018 26/26 Q1010 NOSIG=
202403132230 METAR WIHH 132230Z 27003KT 5000 -RA SCT018 26/26 Q1010 NOSIG=
202403132200 METAR WIHH 132200Z 30003KT 5000 -RA SCT018 26/26 Q1009 NOSIG=
202403132130 METAR WIHH 132130Z 33003KT 5000 -RA SCT018 26/26 Q1010 NOSIG=
202403132100 METAR WIHH 132100Z 29003KT 5000 -RA SCT018 26/26 Q1010 NOSIG=
202403132030 METAR WIHH NIL=
202403132000 METAR WIHH NIL=
202403131930 METAR WIHH NIL=
202403131900 METAR WIHH NIL=
202403131830 METAR WIHH NIL=
202403131800 METAR WIHH NIL=
202403131730 METAR WIHH NIL=
202403131700 METAR WIHH NIL=
202403131630 METAR WIHH NIL=
202403131600 METAR WIHH NIL=
202403131530 METAR WIHH 131530Z 06003KT 5000 HZ FEW016CB SCT018 27/26 Q1011 RMK CB AND RA TO NE=
202403131500 METAR WIHH 131500Z 14003KT 5000 HZ SCT018 26/25 Q1011 RMK RA TO NE=
202403131430 METAR WIHH 131430Z 02003KT 5000 HZ SCT018 26/25 Q1010 RMK RA TO N=
202403131400 METAR WIHH 131400Z 30003KT 5000 HZ SCT018 26/25 Q1010 RMK RA TO N=
202403131330 METAR WIHH 131330Z 31003KT 5000 -RA SCT018 26/25 Q1010 NOSIG=
202403131300 METAR WIHH 131300Z 34003KT 5000 -RA SCT018 27/25 Q1010 NOSIG=
202403131230 METAR WIHH 131230Z 35003KT 6000 SCT018 29/25 Q1009 RMK RA TO N=
202403131200 METAR WIHH 131200Z 35005KT 6000 SCT018 29/25 Q1009 RMK RA TO NE=
202403131130 METAR WIHH 131130Z 30003KT 5000 HZ SCT018 29/25 Q1009 RMK RA TO SW=
202403131100 METAR WIHH NIL=
202403131000 METAR WIHH 131000Z 35005KT 5000 HZ SCT018 29/25 Q1008 RMK RA TO SW=
202403130930 METAR WIHH 130930Z 33005KT 5000 HZ SCT018 30/24 Q1008 NOSIG=
202403130900 METAR WIHH 130900Z 28005KT 6000 SCT018 30/24 Q1008 NOSIG=
202403130830 METAR WIHH 130830Z 31008KT 5000 HZ SCT018 30/24 Q1008 NOSIG=
202403130800 METAR WIHH 130800Z 30007KT 5000 HZ SCT018 30/24 Q1008 NOSIG=
202403130730 METAR WIHH 130730Z 33005KT 5000 HZ SCT018 30/24 Q1009 NOSIG=
202403130700 METAR WIHH 130700Z 31005KT 5000 HZ SCT018 30/24 Q1009 NOSIG=
202403130630 METAR WIHH 130630Z 30003KT 5000 HZ SCT018 31/24 Q1009 NOSIG=
202403130600 METAR WIHH 130600Z 02007KT 5000 HZ SCT018 30/24 Q1010 NOSIG=
202403130530 METAR WIHH 130530Z 31004KT 5000 HZ SCT018 30/24 Q1010 RMK RA TO SW=
202403130500 METAR WIHH 130500Z 33010KT 5000 HZ SCT018 30/24 Q1011 NOSIG=
202403130430 METAR WIHH 130430Z 32010KT 5000 HZ SCT018 29/24 Q1011 RMK RA TO SW=
202403130400 METAR WIHH 130400Z 30010KT 5000 HZ SCT018 30/24 Q1011 NOSIG=
202403130330 METAR WIHH 130330Z 03005KT 5000 HZ SCT018 30/24 Q1011 NOSIG=
202403130300 METAR WIHH 130300Z 30005KT 5000 HZ SCT018 30/24 Q1012 NOSIG=
202403130230 METAR WIHH 130230Z 25003KT 5000 HZ SCT018 29/25 Q1012 NOSIG=
202403130200 METAR WIHH 130200Z 28006KT 5000 HZ SCT018 28/25 Q1012 NOSIG=
202403130130 METAR WIHH 130130Z 26004KT 4000 HZ SCT020 28/26 Q1011 NOSIG=
202403130100 METAR WIHH 130100Z 24004KT 4000 HZ SCT020 27/26 Q1011 NOSIG=
202403130030 METAR WIHH 130030Z 24004KT 4000 HZ SCT020 27/26 Q1011 NOSIG=
202403130000 METAR WIHH 130000Z 25003KT 4000 BR FEW020 26/26 Q1010 NOSIG=
202403122330 METAR WIHH 122330Z 25004KT 4000 BR SCT018 26/25 Q1010 NOSIG=
202403122300 METAR WIHH 122300Z 24004KT 4000 BR SCT018 26/25 Q1010 NOSIG=
202403122230 METAR WIHH 122230Z 25003KT 4000 BR FEW020 26/25 Q1009 NOSIG=
202403122200 METAR WIHH 122200Z 27004KT 4000 BR SCT018 26/25 Q1009 RMK RA TO W=
202403122130 METAR WIHH 122130Z 24003KT 4000 BR SCT018 26/25 Q1009 NOSIG=
202403122100 METAR WIHH 122100Z 21003KT 4000 BR SCT018 25/25 Q1009 NOSIG=
202403122030 METAR WIHH NIL=
202403122000 METAR WIHH NIL=
202403121930 METAR WIHH NIL=
202403121900 METAR WIHH NIL=
202403121830 METAR WIHH NIL=
202403121800 METAR WIHH NIL=
202403121730 METAR WIHH 121730Z 27006KT 3000 -RA BKN017 25/25 Q1011 NOSIG=
202403121700 METAR WIHH 121700Z 24006KT 4000 -RA BKN018 26/25 Q1011 NOSIG=
202403121630 METAR WIHH 121630Z 24007KT 4000 -RA BKN018 26/25 Q1011 NOSIG=
202403121600 METAR WIHH 121600Z 24007KT 3000 RA BKN018 26/25 Q1011 NOSIG=
202403121530 METAR WIHH 121530Z 24007KT 4000 -RA SCT018 27/25 Q1011 NOSIG=
202403121500 METAR WIHH 121500Z 24003KT 6000 SCT020 27/24 Q1010 RMK RA TO W=
202403121430 METAR WIHH 121430Z 23003KT 6000 FEW020 27/24 Q1010 NOSIG=
202403121400 METAR WIHH 121400Z 21003KT 6000 FEW020 27/23 Q1010 NOSIG=
202403121330 METAR WIHH 121330Z 24003KT 6000 FEW020 28/23 Q1010 NOSIG=
202403121300 METAR WIHH 121300Z 26003KT 6000 FEW020 28/23 Q1010 NOSIG=
202403121230 METAR WIHH 121230Z 23004KT 6000 FEW020 27/23 Q1010 NOSIG=
202403121200 METAR WIHH 121200Z 25004KT 6000 FEW020 28/23 Q1010 NOSIG=
202403121130 METAR WIHH 121130Z 23005KT 6000 FEW020 28/24 Q1010 NOSIG=
202403121100 METAR WIHH 121100Z 23005KT 6000 FEW020 29/24 Q1009 NOSIG=
202403121030 METAR WIHH 121030Z 25006KT 6000 FEW020 30/24 Q1008 NOSIG=
202403121000 METAR WIHH 121000Z 26003KT 6000 SCT020 30/24 Q1008 NOSIG=
202403120930 METAR WIHH 120930Z 28012KT 6000 SCT020 30/24 Q1008 NOSIG=
202403120900 METAR WIHH 120900Z 22010KT 6000 SCT018 31/24 Q1008 NOSIG=
202403120830 METAR WIHH 120830Z 27003KT 6000 SCT018 31/24 Q1008 NOSIG=
202403120800 METAR WIHH 120800Z 23004KT 6000 SCT018 30/24 Q1008 NOSIG=
202403120730 METAR WIHH 120730Z 29010KT 6000 SCT018 30/24 Q1009 RMK RA TO S=
202403120700 METAR WIHH 120700Z 28005KT 6000 SCT018 31/25 Q1010 RMK RA TO SE=
202403120630 METAR WIHH 120630Z 29006KT 6000 SCT018 31/25 Q1010 NOSIG=
202403120600 METAR WIHH 120600Z 33006KT 6000 SCT018 31/25 Q1010 NOSIG=
202403120530 METAR WIHH 120530Z 34005KT 6000 SCT018 31/25 Q1010 NOSIG=
202403120500 METAR WIHH 120500Z 35003KT 6000 SCT018 31/24 Q1010 NOSIG=
202403120430 METAR WIHH 120430Z 34010KT 6000 SCT018 32/24 Q1010 NOSIG=
202403120400 METAR WIHH 120400Z 30006KT 6000 SCT018 31/23 Q1011 NOSIG=
202403120330 METAR WIHH 120330Z 26004KT 6000 SCT018 31/24 Q1011 NOSIG=
202403120300 METAR WIHH 120300Z 26006KT 6000 SCT018 30/24 Q1012 NOSIG=
202403120230 METAR WIHH 120230Z 24003KT 6000 SCT018 30/24 Q1012 NOSIG=
202403120200 METAR WIHH 120200Z 32003KT 6000 SCT020 30/24 Q1011 NOSIG=
202403120130 METAR WIHH 120130Z 31005KT 5000 HZ FEW020 29/25 Q1011 NOSIG=
202403120100 METAR WIHH 120100Z 23005KT 5000 HZ FEW020 28/25 Q1011 NOSIG=
202403120030 METAR WIHH 120030Z 22005KT 5000 HZ FEW018 27/25 Q1010 NOSIG=
202403120000 METAR WIHH 120000Z 00000KT 4000 HZ FEW018 26/25 Q1010 NOSIG=
202403112330 METAR WIHH 112330Z 00000KT 4000 HZ FEW018 25/24 Q1010 NOSIG=
202403112300 METAR WIHH 112300Z 00000KT 4000 HZ SCT018 25/24 Q1010 NOSIG=
202403112230 METAR WIHH 112230Z 22003KT 4000 HZ SCT018 25/24 Q1010 NOSIG=
202403112200 METAR WIHH 112200Z 00000KT 4000 HZ SCT018 26/25 Q1010 NOSIG=
202403112130 METAR WIHH 112130Z 21004KT 4000 HZ SCT018 25/25 Q1010 NOSIG=
202403112100 METAR WIHH 112100Z 00000KT 4000 HZ FEW018 25/25 Q1009 NOSIG=
202403112030 METAR WIHH NIL=
202403112000 METAR WIHH NIL=
202403111930 METAR WIHH NIL=
202403111900 METAR WIHH NIL=
202403111830 METAR WIHH NIL=
202403111800 METAR WIHH NIL=
202403111730 METAR WIHH NIL=
202403111700 METAR WIHH 111700Z 27004KT 5000 HZ SCT018 27/25 Q1012 NOSIG=
202403111630 METAR WIHH 111630Z 28004KT 5000 HZ SCT018 27/25 Q1012 RMK RA TO N=
202403111600 METAR WIHH 111600Z 27003KT 5000 HZ SCT018 27/25 Q1012 NOSIG=
202403111530 METAR WIHH 111530Z 26003KT 5000 HZ SCT018 27/25 Q1012 RMK RA TO W=
202403111500 METAR WIHH 111500Z 33004KT 5000 -RA SCT018 26/25 Q1011 NOSIG=
202403111430 METAR WIHH 111430Z 36004KT 2000 -RA SCT018 27/26 Q1011 NOSIG=
202403111400 METAR WIHH 111400Z 00000KT 5000 HZ SCT018 27/25 Q1010 RMK RA TO N AND SW=
202403111330 METAR WIHH 111330Z 00000KT 6000 SCT018 28/26 Q1010 NOSIG=
202403111300 METAR WIHH 111300Z 00000KT 6000 SCT018 27/25 Q1010 NOSIG=
202403111230 METAR WIHH 111230Z 00000KT 6000 SCT018 28/25 Q1010 RMK RA TO SE=
202403111200 METAR WIHH 111200Z 33003KT 6000 SCT018 28/25 Q1010 NOSIG=
202403111130 METAR WIHH 111130Z 33003KT 6000 SCT018 28/25 Q1009 RMK RA TO N=
202403111100 METAR WIHH 111100Z 34003KT 6000 SCT018 28/25 Q1009 NOSIG=
202403111030 METAR WIHH 111030Z 35004KT 5000 HZ SCT015 28/25 Q1009 RMK RA TO N=
202403111000 METAR WIHH 111000Z 36004KT 5000 HZ SCT015 28/25 Q1009 RMK RA TO SE=
202403110930 METAR WIHH 110930Z 28004KT 6000 SCT015 29/25 Q1009 RMK RA TO W=
202403110900 METAR WIHH 110900Z 34004KT 6000 SCT015 30/25 Q1008 RMK RA TO N=
202403110830 METAR WIHH 110830Z 33005KT 6000 SCT015 29/25 Q1008 NOSIG=
202403110800 METAR WIHH 110800Z 34005KT 6000 SCT015 29/25 Q1009 NOSIG=
202403110730 METAR WIHH 110730Z 33005KT 5000 HZ SCT015 29/25 Q1009 RMK RA TO NW=
202403110700 METAR WIHH 110700Z 26003KT 5000 HZ SCT015 29/25 Q1009 RMK RA TO W=
202403110630 METAR WIHH 110630Z 27005KT 5000 HZ SCT015 29/25 Q1009 RMK RA TO NW=
202403110600 METAR WIHH 110600Z 27005KT 6000 SCT015 30/25 Q1010 RMK RA TO S=
202403110530 METAR WIHH 110530Z 29012KT 5000 HZ SCT016 29/24 Q1010 RMK RA TO S=
202403110500 METAR WIHH 110500Z 28004KT 5000 HZ SCT016 29/25 Q1011 RMK RA TO N=
202403110430 METAR WIHH 110430Z 25004KT 5000 HZ SCT016 29/26 Q1011 RMK RA TO W=
202403110400 METAR WIHH 110400Z 30004KT 5000 -RA SCT016 29/26 Q1012 NOSIG=
202403110330 METAR WIHH 110330Z 27008KT 4000 -RA SCT016 28/26 Q1012 TEMPO TL0400 3000 -RA=
202403110300 METAR WIHH 110300Z 34006KT 4000 -RA SCT016 28/26 Q1012 NOSIG=
202403110230 METAR WIHH 110230Z 24003KT 4000 -RA SCT018 27/25 Q1012 NOSIG=
202403110200 METAR WIHH 110200Z 00000KT 4000 HZ SCT018 26/25 Q1011 RMK RA TO NE=
202403110130 METAR WIHH 110130Z 00000KT 4000 HZ SCT018 26/25 Q1011 RMK RA TO NE=
202403110100 METAR WIHH 110100Z 00000KT 4000 HZ SCT018 26/25 Q1011 RMK RA TO NE=
202403110030 METAR WIHH 110030Z 21003KT 4000 HZ SCT017 26/25 Q1011 RMK RA TO NE=
202403110000 METAR WIHH 110000Z 20003KT 4000 HZ SCT017 25/25 Q1010 RMK RA TO NE=
202403102330 METAR WIHH 102330Z 23003KT 4000 HZ FEW017CB SCT018 25/24 Q1010 RMK CB AND RA TO N=
202403102300 METAR WIHH 102300Z 21003KT 3000 -RA FEW017CB SCT018 25/24 Q1010 RMK CB TO W=
202403102230 METAR WIHH 102230Z 34003KT 3000 -RA FEW017CB SCT018 25/24 Q1010 RMK CB TO S=
202403102200 METAR WIHH 102200Z 21003KT 2000 -RA FEW017CB SCT018 26/25 Q1010 RMK CB TO W=
202403102130 METAR WIHH NIL=
202403102100 METAR WIHH NIL=
202403102030 METAR WIHH NIL=
202403102000 METAR WIHH NIL=
202403101930 METAR WIHH NIL=
202403101900 METAR WIHH NIL=
202403101830 METAR WIHH NIL=
202403101800 METAR WIHH NIL=
202403101730 METAR WIHH NIL=
202403101700 METAR WIHH NIL=
202403101630 METAR WIHH NIL=
202403101600 METAR WIHH 101600Z 00000KT 3000 HZ SCT018 27/26 Q1012 NOSIG=
202403101530 METAR WIHH 101530Z 00000KT 3000 HZ SCT018 27/26 Q1012 NOSIG=
202403101500 METAR WIHH 101500Z 00000KT 3000 HZ SCT018 27/26 Q1012 NOSIG=
202403101430 METAR WIHH 101430Z 00000KT 3000 HZ SCT018 27/25 Q1012 NOSIG=
202403101400 METAR WIHH 101400Z 08003KT 3000 HZ SCT018 27/26 Q1011 NOSIG=
202403101330 METAR WIHH 101330Z 14003KT 4000 HZ SCT018 27/26 Q1011 NOSIG=
202403101300 METAR WIHH 101300Z 16003KT 4000 HZ SCT018 27/26 Q1011 NOSIG=
202403101230 METAR WIHH 101230Z 00000KT 4000 HZ SCT018 27/26 Q1010 NOSIG=
202403101200 METAR WIHH 101200Z 03003KT 5000 HZ SCT018 27/26 Q1010 NOSIG=
202403101130 METAR WIHH 101130Z 03003KT 5000 HZ SCT018 27/25 Q1009 NOSIG=
202403101100 METAR WIHH 101100Z 04004KT 5000 HZ SCT018 28/26 Q1009 NOSIG=
202403101030 METAR WIHH 101030Z 04003KT 5000 HZ SCT018 28/25 Q1009 NOSIG=
202403101000 METAR WIHH 101000Z 01003KT 5000 HZ SCT018 28/26 Q1008 NOSIG=
202403100930 METAR WIHH 100930Z 03003KT 5000 HZ SCT018 28/26 Q1008 RMK RA TO W=
202403100900 METAR WIHH 100900Z 02003KT 5000 HZ SCT018 28/26 Q1008 RMK RA TO W=
202403100830 METAR WIHH 100830Z 21004KT 5000 -RA SCT018 27/26 Q1008 NOSIG=
202403100800 METAR WIHH 100800Z 18004KT 5000 -RA SCT018 27/26 Q1008 NOSIG=
202403100730 METAR WIHH 100730Z 12003KT 4000 -RA BKN018 27/26 Q1008 NOSIG=
202403100700 METAR WIHH 100700Z 06005KT 4000 -RA BKN018 26/25 Q1008 NOSIG=
202403100630 METAR WIHH NIL=
202403100600 METAR WIHH 100600Z 18005KT 2000 -RA FEW017CB BKN018 25/25 Q1009 RMK CB TO S=
202403100530 METAR WIHH 100530Z 24015KT 1000 -TSRA FEW017CB BKN018 26/25 Q1010 RMK CB TO S=
202403100500 METAR WIHH 100500Z 28006KT 3000 -RA BKN018 30/26 Q1010 NOSIG=
202403100430 METAR WIHH 100430Z 26006KT 4000 -RA SCT018 31/25 Q1011 RMK RA TO N=
202403100400 METAR WIHH 100400Z 24003KT 4000 -RA SCT018 29/26 Q1011 NOSIG=
202403100330 METAR WIHH 100330Z 21003KT 4000 -RA SCT018 29/26 Q1011 NOSIG=
202403100300 METAR WIHH 100300Z 23003KT 4000 -RA SCT018 29/26 Q1011 NOSIG=
202403100230 METAR WIHH 100230Z 21003KT 4000 HZ SCT018 29/25 Q1011 RMK RA TO NW=
202403100200 METAR WIHH 100200Z 24003KT 4000 HZ SCT018 28/25 Q1011 RMK RA TO NW=
202403100130 METAR WIHH 100130Z 21003KT 4000 HZ SCT018 27/25 Q1011 RMK RA TO NW=
202403100100 METAR WIHH NIL=
202403100030 METAR WIHH NIL=
202403100000 METAR WIHH 100000Z 31003KT 5000 HZ SCT018 25/24 Q1009 RMK RA TO N=
202403092330 METAR WIHH 092330Z 21003KT 5000 -RA SCT018 25/24 Q1009 NOSIG=
202403092300 METAR WIHH 092300Z 19003KT 5000 HZ FEW020 25/24 Q1009 NOSIG=
202403092230 METAR WIHH 092230Z 00000KT 5000 HZ FEW020 25/24 Q1009 NOSIG=
202403092200 METAR WIHH 092200Z 00000KT 5000 HZ FEW020 25/24 Q1009 NOSIG=
202403092130 METAR WIHH NIL=
202403092100 METAR WIHH NIL=
202403092030 METAR WIHH NIL=
202403092000 METAR WIHH NIL=
202403091930 METAR WIHH NIL=
202403091900 METAR WIHH NIL=
202403091830 METAR WIHH NIL=
202403091800 METAR WIHH NIL=
202403091730 METAR WIHH NIL=
202403091700 METAR WIHH NIL=
202403091630 METAR WIHH NIL=
202403091600 METAR WIHH NIL=
202403091530 METAR WIHH NIL=
202403091500 METAR WIHH 091500Z 00000KT 5000 HZ SCT018 25/24 Q1011 NOSIG=
202403091430 METAR WIHH 091430Z 00000KT 5000 HZ SCT018 25/24 Q1011 NOSIG=
202403091400 METAR WIHH 091400Z 00000KT 6000 SCT018 25/24 Q1011 NOSIG=
202403091330 METAR WIHH 091330Z 00000KT 6000 SCT018 25/24 Q1010 RMK RA TO N=
202403091300 METAR WIHH 091300Z 00000KT 6000 SCT018 25/24 Q1010 RMK RA TO N=
202403091230 METAR WIHH 091230Z 00000KT 6000 SCT018 26/24 Q1010 RMK RA TO N=
202403091200 METAR WIHH 091200Z 00000KT 6000 SCT018 25/24 Q1010 RMK RA TO N=
202403091130 METAR WIHH 091130Z 00000KT 4000 HZ BKN018 25/24 Q1010 RMK RA TO NW=
202403091100 METAR WIHH 091100Z 00000KT 4000 -RA BKN016 26/25 Q1009 NOSIG=
202403091030 METAR WIHH 091030Z 00000KT 4000 -RA BKN016 26/25 Q1009 NOSIG=
202403091000 METAR WIHH 091000Z 00000KT 4000 -RA BKN015 26/25 Q1008 NOSIG=
202403090930 METAR WIHH NIL=
202403090900 METAR WIHH 090900Z 33003KT 4000 -RA BKN015 26/24 Q1008 NOSIG=
202403090830 METAR WIHH 090830Z 31003KT 4000 -RA BKN015 25/24 Q1008 NOSIG=
202403090800 METAR WIHH 090800Z 29003KT 4000 -RA BKN015 25/24 Q1008 NOSIG=
202403090730 METAR WIHH 090730Z 26003KT 4000 -RA BKN015 25/24 Q1008 NOSIG=
202403090700 METAR WIHH 090700Z 25007KT 4000 -RA BKN015 25/24 Q1009 NOSIG=
202403090630 METAR WIHH 090630Z 23006KT 4000 -RA BKN015 25/24 Q1010 NOSIG=
202403090600 METAR WIHH 090600Z 25005KT 4000 -RA BKN015 25/24 Q1010 NOSIG=
202403090530 METAR WIHH 090530Z 26010KT 4000 -RA FEW014CB BKN015 24/24 Q1010 RMK CB TO NW=
202403090500 METAR WIHH 090500Z 25012KT 3000 -RA FEW014CB BKN015 24/23 Q1011 RMK CB TO NW=
202403090430 METAR WIHH 090430Z 27008KT 3000 -RA BKN015 26/25 Q1011 NOSIG=
202403090400 METAR WIHH 090400Z 25007KT 5000 HZ SCT015 27/24 Q1011 NOSIG=
202403090330 METAR WIHH 090330Z 26005KT 5000 HZ SCT015 27/24 Q1011 RMK RA TO NW=
202403090300 METAR WIHH 090300Z 25005KT 5000 HZ SCT015 26/24 Q1011 RMK RA TO NW=
202403090230 METAR WIHH 090230Z 27004KT 5000 HZ SCT015 26/24 Q1011 RMK RA TO NW=
202403090200 METAR WIHH 090200Z 32005KT 5000 HZ BKN015 26/24 Q1011 RMK RA TO NW=
202403090130 METAR WIHH 090130Z 28005KT 5000 -RA BKN015 25/24 Q1010 TEMPO TL0200 4000 -RA=
202403090100 METAR WIHH 090100Z 25005KT 4000 -RA BKN015 25/23 Q1010=
202403090030 METAR WIHH 090030Z 25007KT 4000 -RA BKN015 25/25 Q1010=
202403090000 METAR WIHH 090000Z 21006KT 4000 -RA BKN015 26/25 Q1009=
202403082330 METAR WIHH 082330Z 28003KT 6000 SCT020 26/25 Q1009 NOSIG=
202403082300 METAR WIHH 082300Z 28003KT 6000 FEW020 26/24 Q1008 NOSIG=
202403082230 METAR WIHH 082230Z 26004KT 6000 FEW020 26/25 Q1008 NOSIG=
202403082200 METAR WIHH 082200Z 25003KT 6000 FEW020 26/25 Q1008 NOSIG=
202403082130 METAR WIHH 082130Z 27003KT 6000 FEW020 26/24 Q1008 NOSIG=
202403082100 METAR WIHH 082100Z 29003KT 6000 FEW020 26/24 Q1007 NOSIG=
202403082030 METAR WIHH NIL=
202403082000 METAR WIHH NIL=
202403081930 METAR WIHH NIL=
202403081900 METAR WIHH NIL=
202403081830 METAR WIHH NIL=
202403081800 METAR WIHH NIL=
202403081730 METAR WIHH 081730Z 30005KT 5000 -RA SCT020 27/25 Q1010=
202403081700 METAR WIHH 081700Z 26005KT 5000 HZ SCT020 27/25 Q1010 RMK RA TO N=
202403081630 METAR WIHH 081630Z 26005KT 5000 HZ SCT020 27/25 Q1010 RMK RA TO NW=
202403081600 METAR WIHH 081600Z 25005KT 6000 FEW020 27/25 Q1010 NOSIG=
202403081530 METAR WIHH 081530Z 25005KT 6000 FEW020 27/25 Q1010 NOSIG=
202403081500 METAR WIHH 081500Z 23007KT 6000 SCT020 27/25 Q1009 NOSIG=
202403081430 METAR WIHH 081430Z 24006KT 6000 FEW020 27/25 Q1010 NOSIG=
202403081400 METAR WIHH 081400Z 24006KT 6000 FEW020 27/25 Q1009 NOSIG=
202403081330 METAR WIHH 081330Z 26006KT 6000 SCT020 27/25 Q1009 NOSIG=
202403081300 METAR WIHH 081300Z 21004KT 5000 HZ SCT018 26/25 Q1008 NOSIG=
202403081230 METAR WIHH 081230Z 21005KT 5000 HZ SCT018 26/25 Q1008 NOSIG=
202403081200 METAR WIHH 081200Z 19005KT 5000 -RA SCT015 26/25 Q1007=
202403081130 METAR WIHH 081130Z 21015KT 3000 -RA BKN015 27/26 Q1007=
202403081100 METAR WIHH 081100Z 19009KT 4000 -RA BKN015 27/26 Q1007=
202403081030 METAR WIHH 081030Z 22007KT 2000 -RA BKN015 27/25 Q1007=
202403081000 METAR WIHH 081000Z 20012KT 4000 -RA BKN015 27/25 Q1006=
202403080930 METAR WIHH 080930Z 24015KT 1500 RA BKN015 28/25 Q1006=
202403080900 METAR WIHH 080900Z 24011KT 5000 RA SCT017 28/25 Q1006 NOSIG=
202403080830 METAR WIHH 080830Z 23015KT 6000 SCT017 30/25 Q1006 RMK RA TO S=
202403080800 METAR WIHH 080800Z 22015KT 6000 SCT017 31/26 Q1006 RMK RA TO S=
202403080730 METAR WIHH 080730Z 25017KT 6000 SCT017 30/26 Q1006 RMK RA TO S=
202403080700 METAR WIHH 080700Z 28012KT 6000 SCT017 32/26 Q1006 RMK RA TO SW=
202403080630 METAR WIHH 080630Z 28007KT 5000 -RA SCT017 30/26 Q1007=
202403080600 METAR WIHH 080600Z 25011KT 6000 SCT017 31/25 Q1007 RMK RA TO NE=
202403080530 METAR WIHH 080530Z 23020KT 6000 SCT017 31/25 Q1007 RMK RA TO NW=
202403080500 METAR WIHH 080500Z 24020KT 7000 SCT020 32/25 Q1008 NOSIG=
202403080430 METAR WIHH 080430Z 27015KT 7000 SCT020 31/24 Q1008 NOSIG=
202403080400 METAR WIHH 080400Z 27015KT 7000 SCT020 31/24 Q1009 NOSIG=
202403080330 METAR WIHH 080330Z 24014KT 7000 SCT020 31/24 Q1009 NOSIG=
202403080300 METAR WIHH 080300Z 26014KT 7000 FEW020 31/24 Q1009 NOSIG=
202403080230 METAR WIHH 080230Z 23014KT 7000 SCT020 30/24 Q1009 NOSIG=
202403080200 METAR WIHH 080200Z 24014KT 7000 SCT020 29/24 Q1009 NOSIG=
202403080130 METAR WIHH 080130Z 25014KT 7000 SCT020 29/24 Q1008 NOSIG=
202403080100 METAR WIHH 080100Z 24014KT 7000 SCT020 28/24 Q1008 NOSIG=
202403080030 METAR WIHH 080030Z 24014KT 7000 SCT018 27/23 Q1008 NOSIG=
202403080000 METAR WIHH 080000Z 24015KT 7000 SCT018 27/23 Q1007 NOSIG=
202403072330 METAR WIHH 072330Z 26015KT 6000 SCT018 26/23 Q1007 NOSIG=
202403072300 METAR WIHH 072300Z 25015KT 6000 SCT018 26/23 Q1007 NOSIG=
202403072230 METAR WIHH 072230Z 24014KT 6000 SCT018 26/23 Q1007 NOSIG=
202403072200 METAR WIHH 072200Z 24016KT 6000 SCT018 27/23 Q1007 NOSIG=
202403072130 METAR WIHH 072130Z 25016KT 6000 SCT018 27/23 Q1007 NOSIG=
202403072100 METAR WIHH NIL=
202403072030 METAR WIHH NIL=
202403072000 METAR WIHH NIL=
202403071930 METAR WIHH NIL=
202403071900 METAR WIHH NIL=
202403071830 METAR WIHH NIL=
202403071800 METAR WIHH NIL=
202403071730 METAR WIHH NIL=
202403071700 METAR WIHH NIL=
202403071630 METAR WIHH NIL=
202403071600 METAR WIHH NIL=
202403071530 METAR WIHH 071530Z 25015KT 7000 FEW020 27/24 Q1009 NOSIG=
202403071500 METAR WIHH 071500Z 25015KT 7000 FEW020 27/24 Q1009 NOSIG=
202403071430 METAR WIHH 071430Z 26014KT 6000 FEW020 28/24 Q1009 NOSIG=
202403071400 METAR WIHH 071400Z 26012KT 6000 FEW020 28/24 Q1008 NOSIG=
202403071330 METAR WIHH 071330Z 26012KT 6000 SCT020 28/24 Q1008 NOSIG=
202403071300 METAR WIHH 071300Z 24012KT 6000 SCT019 28/24 Q1008 NOSIG=
202403071230 METAR WIHH NIL=
202403071200 METAR WIHH 071200Z 24012KT 6000 SCT019 29/24 Q1007 NOSIG=
202403071130 METAR WIHH 071130Z 24012KT 6000 SCT019 29/24 Q1007 NOSIG=
202403071100 METAR WIHH 071100Z 23012KT 6000 SCT018 29/24 Q1006 NOSIG=
202403071030 METAR WIHH 071030Z 27011KT 6000 SCT018 30/24 Q1006 NOSIG=
202403071000 METAR WIHH 071000Z 25012KT 6000 SCT018 30/25 Q1005 RMK RA TO SE=
202403070930 METAR WIHH 070930Z 24018KT 6000 SCT018 31/25 Q1005 RMK RA TO S=
202403070900 METAR WIHH 070900Z 30010KT 7000 SCT018 32/25 Q1005 NOSIG=
202403070830 METAR WIHH NIL=
202403070800 METAR WIHH NIL=
202403070730 METAR WIHH NIL=
202403070700 METAR WIHH 070700Z 24011KT 7000 SCT018 34/25 Q1005 NOSIG=
202403070630 METAR WIHH 070630Z 24010KT 7000 SCT018 34/24 Q1006 NOSIG=
202403070600 METAR WIHH 070600Z 24010KT 7000 SCT018 34/25 Q1006 NOSIG=
202403070530 METAR WIHH 070530Z 27005KT 7000 SCT020 34/24 Q1007 NOSIG=
202403070500 METAR WIHH 070500Z 27011KT 7000 SCT020 33/24 Q1007 NOSIG=
202403070430 METAR WIHH 070430Z 23011KT 7000 SCT020 33/24 Q1008 NOSIG=
202403070400 METAR WIHH 070400Z 29011KT 7000 SCT020 33/25 Q1008 NOSIG=
202403070330 METAR WIHH 070330Z 24012KT 7000 SCT020 32/25 Q1008 NOSIG=
202403070300 METAR WIHH 070300Z 22009KT 7000 SCT020 31/24 Q1009 NOSIG=
202403070230 METAR WIHH 070230Z 24009KT 7000 FEW020 31/24 Q1009 NOSIG=
202403070200 METAR WIHH 070200Z 24005KT 7000 FEW020 30/25 Q1009 NOSIG=
202403070130 METAR WIHH 070130Z 25006KT 7000 FEW020 30/25 Q1009 NOSIG=
202403070100 METAR WIHH 070100Z 23007KT 7000 FEW020 29/25 Q1008 NOSIG=
202403070030 METAR WIHH 070030Z 29008KT 6000 FEW022 28/25 Q1008 NOSIG=
202403070000 METAR WIHH 070000Z 24003KT 6000 FEW022 26/25 Q1007 NOSIG=
202403062330 METAR WIHH 062330Z 22005KT 6000 FEW022 26/24 Q1007 NOSIG=
202403062300 METAR WIHH 062300Z 25005KT 6000 FEW022 26/24 Q1007 NOSIG=
202403062230 METAR WIHH 062230Z 28003KT 6000 FEW022 26/24 Q1007 NOSIG=
202403062200 METAR WIHH 062200Z 26006KT 6000 FEW022 27/24 Q1007 NOSIG=
202403062130 METAR WIHH 062130Z 23005KT 6000 FEW022 26/24 Q1006 NOSIG=
202403062100 METAR WIHH 062100Z 24006KT 6000 SCT020 26/24 Q1006 NOSIG=
202403062030 METAR WIHH NIL=
202403062000 METAR WIHH NIL=
202403061930 METAR WIHH NIL=
202403061900 METAR WIHH NIL=
202403061830 METAR WIHH NIL=
202403061800 METAR WIHH NIL=
202403061730 METAR WIHH 061730Z 00000KT 5000 HZ SCT018 26/25 Q1010 NOSIG=
202403061700 METAR WIHH 061700Z 00000KT 5000 HZ SCT018 26/25 Q1009 NOSIG=
202403061630 METAR WIHH 061630Z 22003KT 6000 SCT018 26/25 Q1009 NOSIG=
202403061600 METAR WIHH 061600Z 22004KT 6000 SCT018 26/25 Q1009 NOSIG=
202403061530 METAR WIHH 061530Z 22004KT 6000 SCT018 26/25 Q1009 NOSIG=
202403061500 METAR WIHH 061500Z 26004KT 6000 SCT018 27/24 Q1009 NOSIG=
202403061430 METAR WIHH 061430Z 24006KT 6000 SCT018 27/25 Q1009 NOSIG=
202403061400 METAR WIHH 061400Z 25006KT 6000 SCT018 27/25 Q1009 NOSIG=
202403061330 METAR WIHH 061330Z 26005KT 5000 HZ SCT018 27/25 Q1009 NOSIG=
202403061300 METAR WIHH 061300Z 25005KT 5000 -RA SCT018 27/25 Q1009 NOSIG=
202403061230 METAR WIHH 061230Z 27005KT 5000 HZ SCT018 27/25 Q1009 NOSIG=
202403061200 METAR WIHH 061200Z 26005KT 5000 -RA SCT018 27/25 Q1008=
202403061130 METAR WIHH 061130Z 24005KT 5000 HZ SCT018 27/25 Q1008 RMK RA TO NE AND S=
202403061100 METAR WIHH 061100Z 24005KT 5000 -RA FEW017CB SCT018 27/26 Q1007 RMK CB TO NE=
202403061030 METAR WIHH 061030Z 24008KT 5000 -RA FEW017CB SCT018 27/25 Q1007 RMK CB TO NE=
202403061000 METAR WIHH 061000Z 21005KT 4000 -RA FEW017CB SCT018 27/25 Q1007 RMK CB TO NE=
202403060930 METAR WIHH 060930Z 08005KT 4000 -TSRA FEW016CB SCT017 26/25 Q1006 RMK CB TO NE=
202403060900 METAR WIHH 060900Z 15005KT 2500 -TSRA FEW015CB BKN016 26/25 Q1006 RMK CB TO NE=
202403060830 METAR WIHH 060830Z 21008KT 3000 -TSRA FEW014CB BKN015 27/25 Q1006 RMK CB TO SE=
202403060800 METAR WIHH 060800Z 21018KT 5000 -RA SCT017 32/25 Q1005=
202403060730 METAR WIHH 060730Z 27010KT 6000 SCT018 33/25 Q1005 NOSIG=
202403060700 METAR WIHH 060700Z 27010KT 6000 SCT018 34/25 Q1005 NOSIG=
202403060630 METAR WIHH 060630Z 27012KT 6000 SCT018 34/24 Q1006 NOSIG=
202403060600 METAR WIHH 060600Z 24012KT 6000 SCT018 33/24 Q1007 NOSIG=
202403060530 METAR WIHH 060530Z 24010KT 6000 SCT018 33/25 Q1007 NOSIG=
202403060500 METAR WIHH 060500Z 24010KT 7000 SCT018 33/24 Q1008 NOSIG=
202403060430 METAR WIHH 060430Z 27010KT 7000 SCT018 33/25 Q1008 NOSIG=
202403060400 METAR WIHH 060400Z 27010KT 7000 SCT018 32/25 Q1008 NOSIG=
202403060330 METAR WIHH 060330Z 24010KT 7000 SCT018 32/25 Q1009 NOSIG=
202403060300 METAR WIHH 060300Z 24010KT 7000 SCT018 31/25 Q1009 NOSIG=
202403060230 METAR WIHH 060230Z 24010KT 8000 FEW018 31/25 Q1009 NOSIG=
202403060200 METAR WIHH 060200Z 24010KT 8000 FEW018 30/25 Q1009 NOSIG=
202403060130 METAR WIHH 060130Z 26008KT 8000 FEW022 29/24 Q1009 NOSIG=
202403060100 METAR WIHH 060100Z 24008KT 8000 FEW022 29/25 Q1009 NOSIG=
202403060030 METAR WIHH 060030Z 24005KT 8000 NSC 28/24 Q1009 NOSIG=
202403060000 METAR WIHH 060000Z 23004KT 8000 NSC 27/24 Q1008 NOSIG=
202403052330 METAR WIHH 052330Z 25004KT 8000 NSC 26/24 Q1008 NOSIG=
202403052300 METAR WIHH 052300Z 24005KT 8000 NSC 26/24 Q1008 NOSIG=
202403052230 METAR WIHH 052230Z 27006KT 8000 NSC 27/24 Q1007 NOSIG=
202403052200 METAR WIHH 052200Z 24004KT 8000 NSC 26/24 Q1007 NOSIG=
202403052130 METAR WIHH NIL=
202403052100 METAR WIHH NIL=
202403052030 METAR WIHH NIL=
202403052000 METAR WIHH NIL=
202403051930 METAR WIHH NIL=
202403051900 METAR WIHH NIL=
202403051830 METAR WIHH NIL=
202403051800 METAR WIHH NIL=
202403051730 METAR WIHH NIL=
202403051700 METAR WIHH NIL=
202403051630 METAR WIHH NIL=
202403051600 METAR WIHH NIL=
202403051530 METAR WIHH NIL=
202403051500 METAR WIHH 051500Z 24005KT 8000 NSC 27/24 Q1009 NOSIG=
202403051430 METAR WIHH 051430Z 26003KT 8000 FEW020 28/25 Q1009 NOSIG=
202403051400 METAR WIHH 051400Z 29003KT 8000 FEW020 28/24 Q1009 NOSIG=
202403051330 METAR WIHH 051330Z 26003KT 8000 FEW020 28/24 Q1009 NOSIG=
202403051300 METAR WIHH 051300Z 23007KT 8000 FEW020 28/24 Q1009 NOSIG=
202403051230 METAR WIHH 051230Z 26010KT 8000 FEW020 28/24 Q1008 NOSIG=
202403051200 METAR WIHH 051200Z 23013KT 8000 FEW020 28/24 Q1008 NOSIG=
202403051130 METAR WIHH 051130Z 26008KT 6000 SCT018 28/24 Q1007 NOSIG=
202403051100 METAR WIHH 051100Z 24010KT 6000 SCT018 29/24 Q1007 RMK RA TO NW=
202403051030 METAR WIHH 051030Z 23007KT 6000 -RA SCT018 30/24 Q1006 NOSIG=
202403051000 METAR WIHH 051000Z 28006KT 7000 SCT018 30/24 Q1006 RMK RA TO SE=
202403050930 METAR WIHH 050930Z 26008KT 6000 SCT018 31/24 Q1005 RMK RA TO SE=
202403050900 METAR WIHH 050900Z 24012KT 6000 SCT018 31/25 Q1005 RMK RA TO E=
202403050830 METAR WIHH 050830Z 19012KT 6000 SCT018 32/24 Q1005 RMK RA TO SE=
202403050800 METAR WIHH 050800Z 20015KT 6000 SCT018 32/24 Q1005 RMK RA TO SE=
202403050730 METAR WIHH 050730Z 18015KT 6000 SCT018 31/24 Q1005 RMK RA TO E AND S=
202403050700 METAR WIHH 050700Z 23010KT 8000 SCT018 35/23 Q1006 NOSIG=
202403050630 METAR WIHH 050630Z 26006KT 8000 SCT018 35/23 Q1006 NOSIG=
202403050600 METAR WIHH 050600Z 24006KT 8000 SCT018 34/24 Q1007 NOSIG=
202403050530 METAR WIHH 050530Z 28007KT 8000 SCT018 34/23 Q1007 NOSIG=
202403050500 METAR WIHH 050500Z 23005KT 8000 SCT018 33/23 Q1008 NOSIG=
202403050430 METAR WIHH 050430Z 23006KT 8000 SCT018 33/24 Q1009 NOSIG=
202403050400 METAR WIHH 050400Z 21007KT 8000 SCT018 33/25 Q1009 NOSIG=
202403050330 METAR WIHH 050330Z 21006KT 8000 SCT020 33/24 Q1009 NOSIG=
202403050300 METAR WIHH 050300Z 33003KT 8000 SCT020 32/25 Q1010 NOSIG=
202403050230 METAR WIHH 050230Z 18003KT 8000 FEW020 32/25 Q1010 NOSIG=
202403050200 METAR WIHH 050200Z 15003KT 6000 FEW020 30/25 Q1010 NOSIG=
202403050130 METAR WIHH 050130Z 21004KT 6000 FEW020 29/25 Q1010 NOSIG=
202403050100 METAR WIHH 050100Z 21003KT 6000 FEW020 29/25 Q1010 NOSIG=
202403050030 METAR WIHH 050030Z 18003KT 6000 FEW020 28/25 Q1010 NOSIG=
202403050000 METAR WIHH 050000Z 00000KT 6000 FEW020 27/24 Q1009 NOSIG=
202403042330 METAR WIHH 042330Z 21003KT 6000 FEW020 26/24 Q1009 NOSIG=
202403042300 METAR WIHH 042300Z 27004KT 6000 FEW020 26/24 Q1009 NOSIG=
202403042230 METAR WIHH 042230Z 25007KT 6000 FEW020 26/24 Q1009 NOSIG=
202403042200 METAR WIHH NIL=
202403042130 METAR WIHH 042130Z 24004KT 6000 FEW020 26/24 Q1008 NOSIG=
202403042100 METAR WIHH NIL=
202403042030 METAR WIHH NIL=
202403042000 METAR WIHH NIL=
202403041930 METAR WIHH NIL=
202403041900 METAR WIHH NIL=
202403041830 METAR WIHH NIL=
202403041800 METAR WIHH NIL=
202403041730 METAR WIHH NIL=
202403041700 METAR WIHH NIL=
202403041630 METAR WIHH NIL=
202403041600 METAR WIHH NIL=
202403041530 METAR WIHH NIL=
202403041500 METAR WIHH 041500Z 27003KT 6000 FEW020 26/24 Q1010 NOSIG=
202403041430 METAR WIHH 041430Z 24003KT 6000 FEW020 26/24 Q1010 NOSIG=
202403041400 METAR WIHH 041400Z 24004KT 6000 FEW020 26/24 Q1010 NOSIG=
202403041330 METAR WIHH 041330Z 24003KT 6000 FEW020 27/24 Q1010 NOSIG=
202403041300 METAR WIHH 041300Z 24004KT 6000 FEW020 27/25 Q1010 NOSIG=
202403041230 METAR WIHH 041230Z 24004KT 6000 FEW020 27/25 Q1009 NOSIG=
202403041200 METAR WIHH NIL=
202403041130 METAR WIHH 041130Z 27003KT 6000 SCT018 27/25 Q1008 NOSIG=
202403041100 METAR WIHH 041100Z 21003KT 6000 SCT018 27/25 Q1008 RMK RA TO N=
202403041030 METAR WIHH 041030Z 21005KT 6000 SCT018 27/25 Q1008 RMK RA TO N=
202403041000 METAR WIHH 041000Z 00000KT 6000 -RA SCT018 27/25 Q1007 NOSIG=
202403040930 METAR WIHH 040930Z 24004KT 5000 -RA SCT018 27/25 Q1007 NOSIG=
202403040900 METAR WIHH 040900Z 26008KT 5000 -RA FEW017CB SCT018 27/25 Q1006 RMK CB TO NE=
202403040830 METAR WIHH 040830Z 27003KT 5000 -RA FEW017CB SCT018 26/25 Q1007 RMK CB TO NE=
202403040800 METAR WIHH 040800Z 21008KT 2000 -RA FEW017CB SCT018 26/25 Q1007 RMK CB TO N=
202403040730 METAR WIHH 040730Z 21015KT 2000 RA FEW017CB SCT018 26/25 Q1007 RMK CB TO SW=
202403040700 METAR WIHH 040700Z 240015KT 3000 RA FEW017CB SCT018 29/26 Q1007 RMK CB TO SW=
202403040630 METAR WIHH 040630Z 01005KT 5000 RA SCT018 30/24 Q1007 NOSIG=
202403040600 METAR WIHH 040600Z 23007KT 6000 SCT018 33/24 Q1008 RMK RA TO N=
202403040530 METAR WIHH 040530Z 10003KT 6000 SCT018 33/24 Q1008 NOSIG=
202403040500 METAR WIHH 040500Z 31005KT 6000 SCT018 34/24 Q1009 NOSIG=
202403040430 METAR WIHH 040430Z 00000KT 6000 SCT020 33/23 Q1009 NOSIG=
202403040400 METAR WIHH 040400Z 26007KT 6000 FEW020 33/24 Q1010 NOSIG=
202403040330 METAR WIHH 040330Z 23007KT 6000 FEW020 33/25 Q1010 NOSIG=
202403040300 METAR WIHH 040300Z 22007KT 6000 FEW020 32/25 Q1010 NOSIG=
202403040230 METAR WIHH 040230Z 23006KT 6000 FEW020 31/25 Q1010 NOSIG=
202403040200 METAR WIHH 040200Z 22006KT 6000 FEW020 30/25 Q1011 NOSIG=
202403040130 METAR WIHH 040130Z 24005KT 6000 FEW020 28/24 Q1010 NOSIG=
202403040100 METAR WIHH 040100Z 27005KT 6000 FEW020 28/24 Q1010 NOSIG=
202403040030 METAR WIHH 040030Z 27005KT 6000 FEW020 27/24 Q1010 NOSIG=
202403040000 METAR WIHH 040000Z 24004KT 6000 FEW020 26/24 Q1010 NOSIG=
202403032330 METAR WIHH 032330Z 26003KT 5000 HZ FEW020 25/24 Q1010 NOSIG=
202403032300 METAR WIHH 032300Z 27003KT 5000 HZ FEW020 25/24 Q1009 NOSIG=
202403032230 METAR WIHH 032230Z 22004KT 5000 HZ FEW018 25/24 Q1009 NOSIG=
202403032200 METAR WIHH 032200Z 23004KT 5000 HZ FEW018 25/24 Q1009 NOSIG=
202403032130 METAR WIHH 032130Z 22004KT 5000 HZ FEW018 24/24 Q1009 NOSIG=
202403032100 METAR WIHH 032100Z 24004KT 5000 HZ SCT018 25/24 Q1009 NOSIG=
202403032030 METAR WIHH NIL=
202403032000 METAR WIHH NIL=
202403031930 METAR WIHH NIL=
202403031900 METAR WIHH NIL=
202403031830 METAR WIHH NIL=
202403031800 METAR WIHH NIL=
202403031730 METAR WIHH NIL=
202403031700 METAR WIHH 031700Z 21003KT 6000 SCT018 25/24 Q1011 NOSIG=
202403031630 METAR WIHH 031630Z 00000KT 6000 SCT018 25/24 Q1011 NOSIG=
202403031600 METAR WIHH 031600Z 00000KT 6000 SCT018 25/24 Q1011 NOSIG=
202403031530 METAR WIHH 031530Z 00000KT 6000 SCT018 25/24 Q1011 NOSIG=
202403031500 METAR WIHH 031500Z 00000KT 6000 SCT018 26/24 Q1011 NOSIG=
202403031430 METAR WIHH 031430Z 00000KT 6000 SCT018 26/25 Q1011 NOSIG=
202403031400 METAR WIHH 031400Z 00000KT 6000 SCT018 26/24 Q1011 NOSIG=
202403031330 METAR WIHH 031330Z 29003KT 6000 SCT018 26/24 Q1011 RMK RA TO S=
202403031300 METAR WIHH 031300Z 30003KT 5000 HZ SCT018 26/24 Q1011 RMK RA TO S=
202403031230 METAR WIHH 031230Z 27003KT 5000 -RA SCT018 26/24 Q1010=
202403031200 METAR WIHH 031200Z 00000KT 6000 SCT018 25/24 Q1009 RMK RA TO S=
202403031130 METAR WIHH 031130Z 20003KT 6000 SCT017 25/23 Q1009 RMK RA TO S AND N=
202403031100 METAR WIHH 031100Z 22008KT 5000 HZ FEW017CB SCT017 26/24 Q1009 RMK CB AND RA TO S AND N=
202403031030 METAR WIHH 031030Z 23012KT 5000 -RA FEW017CB SCT018 27/24 Q1008 RMK CB TO S=
202403031000 METAR WIHH 031000Z 33003KT 5000 HZ FEW017CB SCT018 30/25 Q1007 RMK CB AND RA TO S=
202403030930 METAR WIHH 030930Z 33005KT 6000 FEW017CB SCT018 30/25 Q1007 RMK CB TO SW=
202403030900 METAR WIHH 030900Z 01005KT 6000 -RA SCT016 30/25 Q1007=
202403030830 METAR WIHH 030830Z 27004KT 5000 -RA SCT016 30/25 Q1007=
202403030800 METAR WIHH 030800Z 04006KT 6000 SCT016 28/26 Q1008 RMK RA TO S=
202403030730 METAR WIHH 030730Z 15004KT 6000 SCT016 28/26 Q1008 RMK RA TO S=
202403030700 METAR WIHH 030700Z 17005KT 6000 SCT016 28/26 Q1009 RMK RA TO SE-S=
202403030630 METAR WIHH 030630Z 22004KT 5000 HZ SCT016 28/26 Q1009 RMK RA TO SE-SW=
202403030600 METAR WIHH 030600Z 12003KT 5000 HZ SCT016 28/26 Q1009 RMK RA TO S=
202403030530 METAR WIHH 030530Z 14004KT 5000 -RA SCT016 27/26 Q1010=
202403030500 METAR WIHH 030500Z 20006KT 5000 -RA SCT018 30/25 Q1010=
202403030430 METAR WIHH 030430Z 35005KT 5000 -RA SCT018 29/26 Q1010 NOSIG=
202403030400 METAR WIHH 030400Z 34005KT 6000 SCT018 30/25 Q1011 RMK RA TO W AND SE=
202403030330 METAR WIHH 030330Z 35003KT 6000 SCT018 30/25 Q1011 RMK RA TO W AND NE=
202403030300 METAR WIHH 030300Z 26004KT 6000 SCT018 31/25 Q1011 NOSIG=
202403030230 METAR WIHH 030230Z 25004KT 6000 SCT020 30/26 Q1012 RMK RA TO NE=
202403030200 METAR WIHH 030200Z 28004KT 6000 FEW020 29/25 Q1011 NOSIG=
202403030130 METAR WIHH 030130Z 24003KT 6000 SCT020 29/25 Q1011 NOSIG=
202403030100 METAR WIHH 030100Z 22004KT 5000 HZ SCT020 27/25 Q1011 NOSIG=
202403030030 METAR WIHH 030030Z 21003KT 4000 HZ SCT020 27/25 Q1011 NOSIG=
202403030000 METAR WIHH 030000Z 23004KT 4000 HZ SCT020 26/25 Q1010 NOSIG=
202403022330 METAR WIHH 022330Z 00000KT 4000 HZ SCT018 26/24 Q1010 NOSIG=
202403022300 METAR WIHH 022300Z 25003KT 5000 HZ SCT020 25/24 Q1009 NOSIG=
202403022230 METAR WIHH 022230Z 24003KT 5000 HZ SCT020 25/24 Q1009 NOSIG=
202403022200 METAR WIHH 022200Z 24005KT 5000 HZ SCT020 26/24 Q1009 NOSIG=
202403022130 METAR WIHH 022130Z 25005KT 5000 HZ SCT020 26/24 Q1009 NOSIG=
202403022100 METAR WIHH NIL=
202403022030 METAR WIHH NIL=
202403022000 METAR WIHH NIL=
202403021930 METAR WIHH NIL=
202403021900 METAR WIHH NIL=
202403021830 METAR WIHH NIL=
202403021800 METAR WIHH NIL=
202403021730 METAR WIHH 021730Z 22003KT 6000 FEW020 26/25 Q1010 NOSIG=
202403021700 METAR WIHH 021700Z 21004KT 6000 FEW020 26/25 Q1010 NOSIG=
202403021630 METAR WIHH 021630Z 00000KT 6000 SCT018 26/25 Q1010 NOSIG=
202403021600 METAR WIHH 021600Z 25005KT 6000 SCT018 26/25 Q1010 NOSIG=
202403021530 METAR WIHH 021530Z 26008KT 6000 -RA SCT018 26/25 Q1011 NOSIG=
202403021500 METAR WIHH 021500Z 30008KT 5000 -RA SCT018 26/25 Q1011 NOSIG=
202403021430 METAR WIHH 021430Z 21003KT 6000 SCT018 27/25 Q1010 RMK RA TO N=
202403021400 METAR WIHH 021400Z 24003KT 6000 SCT018 27/25 Q1010 RMK RA TO NW=
202403021330 METAR WIHH 021330Z 21003KT 6000 SCT019 27/25 Q1010 RMK RA TO NW=
202403021300 METAR WIHH 021300Z 23003KT 6000 SCT019 27/25 Q1010 RMK RA TO W=
202403021230 METAR WIHH 021230Z 21004KT 6000 SCT019 27/26 Q1010 NOSIG=
202403021200 METAR WIHH 021200Z 18003KT 5000 HZ SCT017 FEW018CB 31/25 Q1009 RMK CB AND RA TO S=
202403021130 METAR WIHH 021130Z 21005KT 5000 HZ FEW018CB SCT019 27/25 Q1009 RMK CB AND RA TO W=
202403021100 METAR WIHH 021100Z 17003KT 5000 HZ FEW018CB SCT019 27/25 Q1009 RMK CB AND RA TO W=
202403021030 METAR WIHH 021030Z 18005KT 5000 HZ FEW018CB SCT019 28/26 Q1008 RMK CB AND RA TO SW=
202403021000 METAR WIHH NIL=
202403020930 METAR WIHH 020930Z 35005KT 5000 HZ FEW018CB SCT019 30/26 Q1008 RMK CB AND RA TO S=
202403020900 METAR WIHH 020900Z 33005KT 5000 HZ FEW018CB SCT019 30/26 Q1008 RMK CB AND RA TO S=
202403020830 METAR WIHH 020830Z 33003KT 5000 HZ FEW018CB SCT019 30/25 Q1008 RMK CB AND RA TO S=
202403020800 METAR WIHH 020800Z 33005KT 5000 HZ FEW018CB SCT019 30/25 Q1007 RMK CB AND RA TO S=
202403020730 METAR WIHH 020730Z 36008KT 5000 HZ FEW018CB SCT019 30/26 Q1008 RMK CB AND RA TO S=
202403020700 METAR WIHH 020700Z 24008KT 5000 HZ FEW018CB SCT019 30/26 Q1008 RMK CB AND RA TO S=
202403020630 METAR WIHH 020630Z 33008KT 5000 HZ SCT018 29/27 Q1008 RMK RA TO S=
202403020600 METAR WIHH 020600Z 35005KT 4000 -RA FEW018CB SCT019 27/26 Q1009 RMK CB TO S=
202403020530 METAR WIHH 020530Z 03008KT 3000 -TSRA FEW017CB BKN018 26/25 Q1009 RMK CB TO S=
202403020500 METAR WIHH 020500Z 24008KT 2000 -TSRA FEW017CB BKN018 26/25 Q1010 RMK CB TO W=
202403020430 METAR WIHH 020430Z 27008KT 2000 -TSRA FEW017CB BKN018 36/25 Q1010 RMK CB TO NW=
202403020400 METAR WIHH 020400Z 27008KT 4000 -TSRA FEW017CB BKN018 30/26 Q1010 RMK CB TO NW=
202403020330 METAR WIHH 020330Z 27006KT 5000 TS FEW018CB SCT019 32/25 Q1010 RMK CB AND RA TO NW=
202403020300 METAR WIHH 020300Z 27006KT 5000 HZ SCT018 31/26 Q1010 NOSIG=
202403020230 METAR WIHH 020230Z 33003KT 4000 HZ SCT018 30/25 Q1010 NOSIG=
202403020200 METAR WIHH 020200Z 33003KT 4000 HZ SCT018 29/25 Q1010 NOSIG=
202403020130 METAR WIHH 020130Z 22004KT 4000 HZ FEW020 28/25 Q1010 NOSIG=
202403020100 METAR WIHH 020100Z 24005KT 4000 HZ FEW020 28/25 Q1010 NOSIG=
202403020030 METAR WIHH 020030Z 18003KT 4000 HZ FEW020 25/25 Q1009 NOSIG=
202403020000 METAR WIHH 020000Z 22003KT 3000 BR FEW020 26/26 Q1009 NOSIG=
202403012330 METAR WIHH 012330Z 00000KT 3000 BR FEW020 26/26 Q1009 NOSIG=
202403012300 METAR WIHH 012300Z 00000KT 3000 BR FEW020 25/25 Q1009 NOSIG=
202403012230 METAR WIHH 012230Z 00000KT 5000 HZ SCT020 25/24 Q1009 NOSIG=
202403012200 METAR WIHH 012200Z 24003KT 5000 HZ SCT020 25/24 Q1008 NOSIG=
202403012130 METAR WIHH NIL=
202403012100 METAR WIHH NIL=
202403012030 METAR WIHH NIL=
202403012000 METAR WIHH NIL=
202403011930 METAR WIHH NIL=
202403011900 METAR WIHH NIL=
202403011830 METAR WIHH NIL=
202403011800 METAR WIHH NIL=
202403011730 METAR WIHH NIL=
202403011700 METAR WIHH NIL=
202403011630 METAR WIHH 011630Z 18003KT 6000 -RA SCT018 26/25 Q1010 NOSIG=
202403011600 METAR WIHH 011600Z 14003KT 6000 -RA SCT018 26/25 Q1010 NOSIG=
202403011530 METAR WIHH 011530Z 18003KT 6000 -RA SCT018 26/25 Q1010 NOSIG=
202403011500 METAR WIHH 011500Z 24003KT 6000 SCT018 26/25 Q1010 NOSIG=
202403011430 METAR WIHH 011430Z 20003KT 5000 -RA BKN018 26/25 Q1010 NOSIG=
202403011400 METAR WIHH 011400Z 22003KT 5000 -RA BKN018 26/25 Q1010 NOSIG=
202403011330 METAR WIHH 011330Z 16003KT 5000 -RA BKN018 27/25 Q1010 NOSIG=
202403011300 METAR WIHH 011300Z 14004KT 5000 -RA BKN018 27/25 Q1010 NOSIG=
202403011230 METAR WIHH 011230Z 14004KT 5000 HZ FEW016CB SCT018 27/24 Q1009 RMK CB AND RA TO SW=
202403011200 METAR WIHH 011200Z 14004KT 5000 HZ FEW016CB SCT018 27/24 Q1009 RMK CB AND RA TO SW=
202403011130 METAR WIHH 011130Z 22006KT 5000 TS FEW016CB SCT018 27/24 Q1009 RMK CB AND RA TO W=
202403011100 METAR WIHH 011100Z 17008KT 5000 TS FEW016CB SCT018 29/24 Q1008 RMK CB AND RA TO NW=
202403011030 METAR WIHH 011030Z 18006KT 5000 HZ FEW016CB SCT018 30/24 Q1008 RMK CB AND RA TO S=
202403011000 METAR WIHH 011000Z 22007KT 6000 FEW016CB SCT018 32/24 Q1007 RMK CB AND RA TO S=
202403010930 METAR WIHH 010930Z 30007KT 6000 FEW018 33/25 Q1006 NOSIG=
202403010900 METAR WIHH 010900Z 02006KT 6000 FEW018 32/25 Q1006 NOSIG=
202403010830 METAR WIHH 010830Z 02007KT 6000 SCT018 32/24 Q1006 NOSIG=
202403010800 METAR WIHH 010800Z 32005KT 6000 SCT018 32/24 Q1007 RMK RA TO SE=
202403010730 METAR WIHH 010730Z 29005KT 6000 SCT018 32/24 Q1007 RMK RA TO E=
202403010700 METAR WIHH 010700Z 27006KT 6000 SCT018 32/24 Q1007 RMK RA TO S=
202403010630 METAR WIHH 010630Z 31004KT 6000 SCT018 33/25 Q1008 RMK RA TO S=
202403010600 METAR WIHH 010600Z 36008KT 6000 SCT018 32/25 Q1008 RMK RA TO S=
202403010530 METAR WIHH 010530Z 02004KT 6000 SCT020 33/25 Q1008 NOSIG=
202403010500 METAR WIHH 010500Z 24005KT 6000 SCT020 32/25 Q1009 NOSIG=
202403010430 METAR WIHH 010430Z 29004KT 6000 SCT020 32/24 Q1010 NOSIG=
202403010400 METAR WIHH 010400Z 34004KT 6000 SCT020 32/24 Q1010 NOSIG=
202403010330 METAR WIHH 010330Z 26005KT 6000 SCT020 32/25 Q1010 NOSIG=
202403010300 METAR WIHH 010300Z 26005KT 6000 SCT020 32/25 Q1011 NOSIG=
202403010230 METAR WIHH 010230Z 29003KT 6000 SCT020 31/25 Q1011 NOSIG=
202403010200 METAR WIHH 010200Z 00000KT 6000 FEW020 30/25 Q1011 NOSIG=
202403010130 METAR WIHH 010130Z 27005KT 6000 FEW020 30/25 Q1010 NOSIG=
202403010100 METAR WIHH 010100Z 24004KT 6000 FEW020 29/25 Q1010 NOSIG=
202403010030 METAR WIHH 010030Z 23004KT 5000 HZ FEW020 27/25 Q1010 NOSIG=
202403010000 METAR WIHH NIL=

###################################
#  short TAF from WIHH
###################################
202403191700 TAF WIHH 191700Z 1918/2018 20004KT 6000 FEW020
                      BECMG 2000/2002 26010KT=

###################################
#  large TAF from WIHH
###################################
202403312300 TAF WIHH 312300Z 0100/0200 03010KT 3000 HZ FEW020
                      BECMG 0101/0103 6000 SCT018
                      TEMPO 0107/0111 09012KT 3000 -TSRA FEW016CB
                       BECMG 0112/0114 16005KT 5000 HZ=
202403311700 TAF WIHH 311700Z 3118/0118 18004KT 4000 BR FEW020
                      BECMG 0102/0104 03008KT 7000 NSW=
202403311100 TAF WIHH 311100Z 3112/0112 04006KT 6000 SCT018
                      TEMPO 3112/3114 3000 -RA BKN018
                      BECMG 3116/3118 18003KT 4000 HZ=
202403310500 TAF WIHH 310500Z 3106/0106 34010KT 7000 SCT018
                      TEMPO 3107/3111 3000 -TSRA FEW016CB
                      BECMG 3114/3116 18003KT 4000 HZ=
202403302300 TAF WIHH 302300Z 3100/0100 15007KT 7000 SCT020
                      TEMPO 3107/3111 02015KT 3000 -TSRA BKN015
                       FEW016CB
                      BECMG 3115/3117 00000KT 4000 HZ=
202403301700 TAF WIHH 301700Z 3018/3118 15004KT 4000 HZ SCT018
                      TEMPO 3020/3023 BR
                      BECMG 3102/3104 07014KT 7000 NSW
                      TEMPO 3107/3111 35015KT 3000 -TSRA BKN016
                       FEW017CB=
202403301100 TAF WIHH 301100Z 3012/3112 15008KT 3000 -RA SCT018
                      BECMG 3014/3016 00000KT 5000 HZ
                      TEMPO 3018/3021 -RA=
202403300500 TAF WIHH 300500Z 3006/3106 07006KT 7000 SCT018
                      TEMPO 3006/3010 15013KT 3000 -TSRA FEW016CB
                       BECMG 3014/3016 5000 HZ
                      TEMPO 3017/3020 15010KT 4000 -RA=
202403292300 TAF WIHH 292300Z 3000/3100 04008KT 6000 FEW020
                      TEMPO 3007/3011 15012KT 4000 -RA FEW017CB
                       SCT018
                      BECMG 3012/3014 20004KT 5000 HZ=
202403291700 TAF WIHH 291700Z 2918/3018 17004KT 5000 HZ FEW020
                      BECMG 3002/3004 04010KT 7000 SCT020=
202403291100 TAF WIHH 291100Z 2912/3012 20005KT 6000 SCT020
                      BECMG 2916/2918 VRB03KT 4000 HZ=
202403290500 TAF WIHH 290500Z 2906/3006 06010KT 6000 SCT018
                      TEMPO 2908/2912 16012KT 3000 -TSRA FEW017CB
                       BECMG 2915/2917 20005KT 4000 HZ=
202403282300 TAF WIHH 282300Z 2900/3000 12006KT 7000 SCT020
                      TEMPO 2907/2911 21015KT 3000 -TSRA FEW017CB
                       BECMG 2916/2918 00000KT 5000 HZ=
202403281700 TAF WIHH 281700Z 2818/2918 15003KT 4000 HZ FEW020
                      BECMG 2902/2904 09013KT 7000 NSW
                      TEMPO 2907/2911 24015KT 3000 -TSRA FEW016CB
                       SCT018=
202403281100 TAF WIHH 281100Z 2812/2912 09007KT 6000 SCT017
                      TEMPO 2812/2815 15012KT 3000 -TSRA FEW016CB
                       BECMG 2816/2818 00000KT 4000 HZ=
202403280500 TAF WIHH 280500Z 2806/2906 15008KT 7000 SCT018
                      TEMPO 2807/2811 24012KT 4000 -TSRA FEW016CB
                       BECMG 2815/2817 00000KT 5000 HZ=
202403272300 TAF WIHH 272300Z 2800/2900 07008KT 4000 HZ FEW020
                      BECMG 2803/2805 36010KT 6000 SCT018
                      TEMPO 2808/2812 20012KT 3000 -RA FEW017CB
                       BECMG 2814/2816 15004KT=
202403271700 TAF WIHH 271700Z 2718/2818 26005KT 4000 HZ SCT018
                      TEMPO 2719/2722 3000 -RA FEW017CB
                      BECMG 2802/2804 12008KT 6000=
202403271100 TAF WIHH 271100Z 2712/2812 18005KT 5000 HZ SCT018
                      TEMPO 2717/2720 3000 -RA FEW017CB BKN018=
202403270500 TAF WIHH 270500Z 2706/2806 04012KT 7000 SCT018
                      TEMPO 2706/2710 4000 -TSRA FEW016CB BKN018
                       BECMG 2712/2714 VRB03KT=
202403262300 TAF WIHH 262300Z 2700/2800 09008KT 7000 SCT018
                      TEMPO 2706/2710 15015KT 3000 -TSRA BKN015
                       FEW016CB
                      BECMG 2712/2714 4000 HZ
                      TEMPO 2717/2720 -RA FEW016CB=
202403261700 TAF WIHH 261700Z 2618/2718 15003KT 4000 HZ SCT018
                      TEMPO 2618/2621 -RA FEW017CB
                      BECMG 2702/2704 09013KT 7000 NSW
                      TEMPO 2706/2710 3000 -TSRA FEW016CB=
202403261230 TAF AMD WIHH 261230Z 2613/2712 03010KT 7000 SCT018
                      TEMPO 2613/2615 15010KT 3000 -TSRA FEW016CB
                       BECMG 2616/2618 00000KT 4000 HZ=
202403261100 TAF WIHH 261100Z 2612/2712 03010KT 7000 SCT018
                      BECMG 2616/2618 00000KT 4000 HZ=
202403260500 TAF WIHH 260500Z 2606/2706 15010KT 6000 SCT018
                      TEMPO 2606/2610 25012KT 3000 -TSRA FEW016CB
                       BECMG 2615/2617 00000KT 4000 HZ=
202403252300 TAF WIHH 252300Z 2600/2700 14005KT 4000 BR FEW020
                      BECMG 2602/2604 03010KT 7000 SCT018
                      TEMPO 2608/2612 4000 -RA FEW017CB
                      BECMG 2613/2615 23005KT 5000 HZ=
202403251700 TAF WIHH 251700Z 2518/2618 VRB03KT 4000 HZ FEW020
                      BECMG 2602/2604 04008KT 7000 SCT018=
202403251100 TAF WIHH 251100Z 2512/2612 18006KT 6000 SCT018
                      TEMPO 2512/2515 4000 -RA FEW017CB
                      BECMG 2516/2518 VRB03KT=
202403250500 TAF WIHH 250500Z 2506/2606 03012KT 6000 SCT018
                      TEMPO 2506/2510 3000 -TSRA FEW017CB
                      BECMG 2512/2514 18005KT=
202403242300 TAF WIHH 242300Z 2500/2600 09008KT 8000 SCT020
                      TEMPO 2507/2511 03010KT 4000 -RA FEW017CB
                       BECMG 2516/2518 00000KT 5000 HZ=
202403241700 TAF WIHH 241700Z 2418/2518 15006KT 6000 SCT018
                      TEMPO 2418/2421 3000 -TSRA FEW016CB
                      BECMG 2500/2502 09012KT 4000 HZ=
202403241100 TAF WIHH 241100Z 2412/2512 03008KT 6000 SCT018
                      TEMPO 2414/2418 21012KT 3000 -TSRA FEW016CB
                       BECMG 2419/2421 00000KT 4000 HZ=
202403240500 TAF WIHH 240500Z 2406/2506 15008KT 6000 SCT018
                      TEMPO 2411/2414 23013KT 3000 -TSRA FEW016CB
                       BECMG 2415/2417 00000KT 4000 HZ=
202403232300 TAF WIHH 232300Z 2400/2500 12006KT 5000 HZ FEW020
                      BECMG 2402/2404 04010KT 7000 SCT018
                      TEMPO 2408/2411 4000 -RA FEW017CB
                      BECMG 2412/2414 19008KT=
202403231700 TAF WIHH 231700Z 2318/2418 15008KT 3000 -TSRA FEW017CB SCT018
                      BECMG 2321/2323 VRB03KT 4000 HZ=
202403231455 TAF AMD WIHH 231455Z 2315/2412 22006KT 6000 SCT020
                      TEMPO 2316/2320 15008KT 3000 -TSRA FEW017CB=
202403231100 TAF WIHH 231100Z 2312/2412 22006KT 6000 SCT020
                      BECMG 2315/2317 15008KT=
202403230500 TAF WIHH 230500Z 2306/2406 02008KT 7000 SCT020
                      TEMPO 2308/2311 5000 -RA
                      BECMG 2312/2314 23005KT=
202403222300 TAF WIHH 222300Z 2300/2400 23005KT 3000 BR FEW020
                      BECMG 2301/2303 8000 NSW
                      TEMPO 2308/2311 35012KT 5000 -RA SCT016
                      BECMG 2315/2317 4000 HZ=
202403221700 TAF WIHH 221700Z 2218/2318 34003KT 7000 FEW020
                      BECMG 2302/2304 28013KT=
202403221100 TAF WIHH 221100Z 2212/2312 33006KT 7000 SCT018
                      TEMPO 2216/2220 3000 -TSRA FEW016CB
                      BECMG 2221/2223 00000KT 4000 HZ=
202403220500 TAF WIHH 220500Z 2206/2306 34007KT 5000 HZ SCT017
                      TEMPO 2209/2213 3000 -TSRA FEW016CB=
202403212300 TAF WIHH 212300Z 2200/2300 32008KT 4000 -TSRA BKN015 FEW017CB
                      BECMG 2202/2204 7000 SCT018
                      TEMPO 2207/2211 35012KT 3000 -TSRA FEW016CB
                       BKN017
                      BECMG 2212/2214 22006KT 5000 HZ=
202403211700 TAF WIHH 211700Z 2118/2218 20003KT 5000 HZ FEW020
                      TEMPO 2119/2122 4000 -RA FEW017CB SCT018
                       BECMG 2201/2203 33008KT 7000=
202403211100 TAF WIHH 211100Z 2112/2212 31008KT 8000 FEW022
                      BECMG 2114/2116 26004KT
                      TEMPO 2119/2122 20010KT 4000 -TSRA FEW017CB=
202403210500 TAF WIHH 210500Z 2106/2206 32012KT 6000 SCT018
                      TEMPO 2107/2110 4000 -RA
                      BECMG 2114/2116 25004KT=
202403202300 TAF WIHH 202300Z 2100/2200 27012KT 9999 FEW020
                      TEMPO 2107/2110 5000 -RA SCT015
                      BECMG 2115/2117 21003KT 6000=
202403201700 TAF WIHH 201700Z 2018/2118 22005KT 7000 FEW020
                      BECMG 2102/2104 28015KT=
202403201100 TAF WIHH 201100Z 2012/2112 28013KT 9999 FEW020
                      BECMG 2016/2018 21003KT 5000 HZ=
202403200500 TAF WIHH 200500Z 2006/2106 28015KT 9999 FEW022
                      BECMG 2015/2017 22005KT 5000 HZ=
202403192300 TAF WIHH 192300Z 2000/2100 25010KT 8000 FEW020
                      BECMG 2005/2007 31015KT SCT018=
202403191700 TAF WIHH 191700Z 1918/2018 20004KT 6000 FEW020
                      BECMG 2000/2002 26010KT=
202403191100 TAF WIHH 191100Z 1912/2012 26008KT 8000 FEW020
                      BECMG 1915/1917 22003KT 5000 HZ=
202403190500 TAF WIHH 190500Z 1906/2006 27012KT 8000 SCT020
                      BECMG 1915/1917 22003KT 5000 HZ FEW022=
202403182300 TAF WIHH 182300Z 1900/2000 27010KT 7000 SCT020
                      TEMPO 1907/1911 3000 -TSRA FEW017CB
                      BECMG 1915/1917 00000KT 5000 HZ=
202403181700 TAF WIHH 181700Z 1818/1918 24004KT 8000 FEW020
                      BECMG 1821/1823 5000 HZ=
202403181100 TAF WIHH 181100Z 1812/1912 28008KT 8000 SCT020
                      BECMG 1817/1819 4000 HZ=
202403180500 TAF WIHH 180500Z 1806/1906 25012KT 8000 SCT020
                      TEMPO 1808/1812 3000 -TSRA FEW017CB
                      BECMG 1815/1817 00000KT 5000 HZ=
202403172300 TAF WIHH 172300Z 1800/1900 25010KT 7000 FEW020
                      TEMPO 1808/1811 29015KT 4000 -RA FEW017CB
                       SCT018
                      BECMG 1814/1816 23006KT=
202403171700 TAF WIHH 171700Z 1718/1818 25007KT 6000 FEW020
                      TEMPO 1720/1723 31010KT 4000 -RA SCT016=
202403171100 TAF WIHH 171100Z 1712/1812 27008KT 6000 SCT020
                      TEMPO 1717/1721 23012KT 4000 -RA BKN018=
202403170500 TAF WIHH 170500Z 1706/1806 24015KT 4000 -RA SCT016
                      BECMG 1711/1713 28008KT 6000=
202403162300 TAF WIHH 162300Z 1700/1800 25008KT 7000 SCT018
                      TEMPO 1700/1703 4000 -RA
                      TEMPO 1707/1710 32010KT 3000 -TSRA FEW017CB=
202403161700 TAF WIHH 161700Z 1618/1718 26006KT 7000 SCT018
                      TEMPO 1619/1622 3000 -RA
                      BECMG 1700/1702 4000 HZ=
202403161100 TAF WIHH 161100Z 1612/1712 27008KT 6000 SCT017
                      TEMPO 1612/1615 3000 -RA FEW016CB
                      TEMPO 1619/1623 2000 -TSRA BKN015 FEW016CB=
202403160500 TAF WIHH 160500Z 1606/1706 27010KT 6000 SCT017
                      TEMPO 1609/1613 3000 -RA FEW016CB
                      TEMPO 1619/1623 2000 -TSRA BKN015 FEW016CB=
202403152300 TAF WIHH 152300Z 1600/1700 26010KT 6000 SCT018
                      TEMPO 1600/1603 4000 -RA
                      TEMPO 1609/1612 23014KT 3000 -TSRA FEW017CB
                       BKN018=
202403151700 TAF WIHH 151700Z 1518/1618 23005KT 6000 SCT018
                      TEMPO 1519/1523 4000 -RA FEW017CB=
202403151100 TAF WIHH 151100Z 1512/1612 25010KT 7000 SCT018
                      TEMPO 1512/1515 4000 -RA FEW017CB
                      BECMG 1516/1518 23004KT 4000 HZ=
202403150500 TAF WIHH 150500Z 1506/1606 27012KT 7000 SCT018
                      TEMPO 1509/1512 4000 -TSRA FEW017CB
                      BECMG 1514/1516 23004KT=
202403142300 TAF WIHH 142300Z 1500/1600 26007KT 6000 SCT018
                      TEMPO 1509/1512 3000 -TSRA FEW016CB
                      TEMPO 1518/1522 2000 -TSRA BKN015 FEW016CB=
202403141700 TAF WIHH 141700Z 1418/1518 25006KT 6000 SCT018
                      TEMPO 1418/1422 3000 -TSRA BKN015 FEW016CB
                       BECMG 1500/1502 4000 HZ=
202403141100 TAF WIHH 141100Z 1412/1512 26007KT 6000 SCT017
                      TEMPO 1418/1422 34012KT 3000 -TSRA BKN015
                       FEW016CB
                      BECMG 1423/1501 4000 HZ=
202403140500 TAF WIHH 140500Z 1406/1506 27008KT 5000 HZ SCT017
                      TEMPO 1406/1409 3000 -TSRA FEW016CB
                      TEMPO 1418/1422 34015KT 2000 TSRA BKN015
                       FEW016CB=
202403132300 TAF WIHH 132300Z 1400/1500 27006KT 4000 -RA SCT018
                      BECMG 1402/1404 32010KT 5000 HZ
                      TEMPO 1409/1412 25012KT 2000 -TSRA BKN016
                       FEW017CB
                      TEMPO 1419/1422 3000 -RA BKN018=
202403132050 TAF AMD WIHH 132050Z 1321/1418 24003KT 4000 HZ SCT020
                      TEMPO 1321/1401 3000 -RA BKN018=
202403131700 TAF WIHH 131700Z 1318/1418 24003KT 4000 HZ SCT020
                      TEMPO 1322/1402 3000 -RA BKN018=
202403131100 TAF WIHH 131100Z 1312/1412 30008KT 6000 SCT018
                      TEMPO 1314/1318 24012KT 3000 -TSRA FEW017CB=
202403130500 TAF WIHH 130500Z 1306/1406 30012KT 6000 SCT018
                      TEMPO 1307/1311 3000 -TSRA BKN015 FEW016CB
                       TEMPO 1318/1322 24014KT 2000 -TSRA BKN015
                       FEW017CB=
202403122300 TAF WIHH 122300Z 1300/1400 33008KT 4000 HZ SCT018
                      TEMPO 1307/1311 25012KT 3000 -TSRA BKN015
                       FEW016CB
                      TEMPO 1316/1319 24012KT 2000 -TSRA BKN015
                       FEW016CB=
202403121700 TAF WIHH 121700Z 1218/1318 33006KT 3000 -RA BKN015
                      BECMG 1220/1222 5000 HZ SCT020
                      TEMPO 1305/1309 27012KT 3000 -TSRA BKN015
                       FEW016CB=
202403121500 TAF AMD WIHH 121500Z 1216/1312 27007KT 6000 SCT018
                      TEMPO 1216/1219 3000 -TSRA FEW016CB
                      BECMG 1223/1301 4000 HZ=
202403121100 TAF WIHH 121100Z 1212/1312 28007KT 7000 SCT018
                      BECMG 1216/1218 00000KT 4000 HZ=
202403120500 TAF WIHH 120500Z 1206/1306 34010KT 6000 SCT018
                      TEMPO 1208/1211 24012KT 3000 -TSRA FEW016CB
                       BECMG 1215/1217 4000 HZ=
202403112300 TAF WIHH 112300Z 1200/1300 30006KT 7000 SCT018
                      TEMPO 1206/1210 23016KT 3000 -TSRA FEW016CB
                       BECMG 1215/1217 4000 HZ=
202403111700 TAF WIHH 111700Z 1118/1218 33006KT 5000 HZ SCT018
                      TEMPO 1203/1206 27010KT 3000 -RA=
202403111100 TAF WIHH 111100Z 1112/1212 34006KT 6000 SCT018
                      TEMPO 1119/1123 27016KT 3000 -TSRA BKN015
                       FEW016CB
                      BECMG 1200/1202 4000 HZ=
202403110500 TAF WIHH 110500Z 1106/1206 28012KT 5000 HZ SCT018
                      TEMPO 1106/1110 3000 -RA FEW016CB
                      TEMPO 1119/1123 3000 -TSRA BKN015 FEW016CB=
202403102300 TAF WIHH 102300Z 1100/1200 32008KT 3000 -RA FEW017CB SCT018
                      BECMG 1102/1104 5000 HZ
                      TEMPO 1107/1111 2000 -TSRA BKN015 FEW016CB
                       BECMG 1112/1114 25004KT=
202403101700 TAF WIHH 101700Z 1018/1118 VRB03KT 3000 BR SCT020
                      BECMG 1101/1103 30007KT 6000=
202403101100 TAF WIHH 101100Z 1012/1112 VRB04KT 6000 SCT018
                      TEMPO 1017/1021 4000 -RA FEW017CB BKN018=
202403100500 TAF WIHH 100500Z 1006/1106 30012KT 6000 SCT018
                      TEMPO 1006/1010 3000 -TSRA FEW016CB
                      BECMG 1012/1014 24005KT=
202403092300 TAF WIHH 092300Z 1000/1100 27008KT 6000 FEW020
                      TEMPO 1007/1011 32015KT 3000 -TSRA FEW016CB
                       SCT018
                      BECMG 1013/1015 24005KT=
202403091700 TAF WIHH 091700Z 0918/1018 23003KT 4000 HZ SCT020
                      BECMG 1002/1004 27010KT 6000=
202403091100 TAF WIHH 091100Z 0912/1012 23005KT 4000 -RA BKN016
                      BECMG 0914/0916 VRB03KT 5000 HZ SCT018=
202403090500 TAF WIHH 090500Z 0906/1006 26010KT 3000 -RA BKN015
                      BECMG 0912/0914 23005KT 5000 HZ SCT018=
202403082330 TAF AMD WIHH 082330Z 0900/1000 27006KT 6000 SCT020
                      TEMPO 0900/0903 3000 -TSRA BKN015 FEW016CB
                       TEMPO 0906/0910 21017KT 3000 -TSRA BKN015
                       FEW016CB
                      BECMG 0914/0916 4000 HZ=
202403082300 TAF WIHH 082300Z 0900/1000 27006KT 8000 SCT020
                      TEMPO 0906/0910 21017KT 3000 -TSRA BKN015
                       FEW016CB
                      BECMG 0914/0916 4000 HZ=
202403081700 TAF WIHH 081700Z 0818/0918 25005KT 6000 SCT017
                      TEMPO 0819/0823 35015KT 3000 -TSRA BKN015
                       FEW016CB
                      BECMG 0901/0903 4000 HZ=
202403081100 TAF WIHH 081100Z 0812/0912 27008KT 5000 HZ SCT017
                      TEMPO 0812/0815 00000KT 3000 -RA
                      TEMPO 0821/0900 21008KT -RA FEW016CB=
202403080600 TAF AMD WIHH 080600Z 0807/0906 27015KT 8000 SCT020
                      TEMPO 0807/0810 3000 -TSRA FEW017CB
                      BECMG 0814/0816 20005KT 5000 HZ
                      TEMPO 0819/0822 3000 -RA FEW017CB=
202403080500 TAF WIHH 080500Z 0806/0906 27015KT 8000 SCT020
                      BECMG 0814/0816 20005KT 4000 HZ
                      TEMPO 0819/0822 3000 -RA FEW017CB=
202403072300 TAF WIHH 072300Z 0800/0900 27015KT 7000 SCT018
                      TEMPO 0809/0812 4000 -RA FEW017CB
                      BECMG 0814/0816 23007KT=
202403071700 TAF WIHH 071700Z 0718/0818 23008KT 6000 FEW022
                      BECMG 0801/0803 30012KT SCT020
                      TEMPO 0807/0811 3000 -TSRA FEW017CB BKN018=
202403071100 TAF WIHH 071100Z 0712/0812 27010KT 6000 SCT018
                      BECMG 0714/0716 23005KT 4000 HZ
                      TEMPO 0717/0721 3000 -RA FEW017CB BKN018=
202403070500 TAF WIHH 070500Z 0706/0806 26012KT 7000 SCT018
                      TEMPO 0707/0711 3000 -TSRA BKN016 FEW017CB
                       BECMG 0714/0716 23004KT 5000 HZ=
202403062300 TAF WIHH 062300Z 0700/0800 21005KT 8000 SCT020
                      TEMPO 0706/0710 28015KT 2000 TSRA BKN015
                       FEW016CB
                      BECMG 0715/0717 00000KT 4000 HZ=
202403061700 TAF WIHH 061700Z 0618/0718 00000KT 4000 HZ SCT020
                      BECMG 0701/0703 27010KT 8000 NSW
                      TEMPO 0708/0711 3000 -TSRA FEW017CB=
202403061100 TAF WIHH 061100Z 0612/0712 22005KT 4000 -RA SCT018
                      BECMG 0613/0615 7000 NSW
                      TEMPO 0621/0700 3000 -RA FEW016CB=
202403060500 TAF WIHH 060500Z 0606/0706 27012KT 8000 SCT020
                      TEMPO 0607/0610 4000 -TSRA FEW017CB
                      BECMG 0615/0617 00000KT 5000 HZ=
202403052300 TAF WIHH 052300Z 0600/0700 24010KT 8000 FEW020
                      TEMPO 0608/0612 28015KT 4000 -RA SCT018
                      BECMG 0614/0616 26005KT=
202403051700 TAF WIHH 051700Z 0518/0618 23005KT 5000 HZ FEW022
                      BECMG 0601/0603 30008KT 7000 SCT020=
202403051100 TAF WIHH 051100Z 0512/0612 25006KT 7000 SCT020
                      BECMG 0515/0517 23003KT 5000 HZ=
202403050500 TAF WIHH 050500Z 0506/0606 26012KT 7000 SCT018
                      TEMPO 0507/0511 3000 -TSRA FEW017CB BKN018
                       BECMG 0514/0516 23003KT 5000 HZ=
202403042300 TAF WIHH 042300Z 0500/0600 24010KT 7000 FEW020
                      TEMPO 0506/0510 28015KT 3000 -TSRA FEW017CB
                       SCT018
                      BECMG 0513/0515 5000 HZ=
202403041700 TAF WIHH 041700Z 0418/0518 22003KT 4000 HZ FEW020
                      BECMG 0502/0504 26008KT 7000 SCT018=
202403041100 TAF WIHH 041100Z 0412/0512 28005KT 7000 SCT018
                      BECMG 0415/0417 22003KT 4000 HZ=
202403040650 TAF AMD WIHH 040650Z 0407/0506 22008KT 7000 SCT018
                      TEMPO 0407/0411 27014KT 3000 -TSRA BKN016
                       FEW017CB
                      BECMG 0414/0416 00000KT 5000 HZ=
202403040500 TAF WIHH 040500Z 0406/0506 22008KT 7000 SCT018
                      TEMPO 0408/0412 27014KT 3000 -TSRA BKN016
                       FEW017CB
                      BECMG 0414/0416 00000KT 5000 HZ=
202403032300 TAF WIHH 032300Z 0400/0500 26010KT 7000 SCT018
                      TEMPO 0407/0411 3000 -TSRA FEW017CB
                      BECMG 0414/0416 00000KT 4000 HZ=
202403031700 TAF WIHH 031700Z 0318/0418 00000KT 4000 HZ SCT020
                      BECMG 0401/0403 26008KT 7000 NSW
                      TEMPO 0406/0410 3000 -TSRA FEW017CB=
202403031100 TAF WIHH 031100Z 0312/0412 24010KT 6000 SCT018
                      TEMPO 0312/0315 4000 -TSRA FEW017CB
                      BECMG 0316/0318 00000KT 4000 HZ=
202403030500 TAF WIHH 030500Z 0306/0406 33005KT 6000 SCT018
                      TEMPO 0306/0310 24012KT 3000 -TSRA BKN015
                       FEW016CB
                      BECMG 0314/0316 4000 HZ=
202403022300 TAF WIHH 022300Z 0300/0400 24005KT 6000 SCT020
                      TEMPO 0306/0310 34015KT 3000 -TSRA BKN015
                       FEW016CB
                      BECMG 0314/0316 5000 HZ=
202403021700 TAF WIHH 021700Z 0218/0318 00000KT 6000 SCT018
                      TEMPO 0221/0300 04008KT 3000 -TSRA FEW016CB
                       TEMPO 0305/0308 27010KT 3000 -TSRA FEW016CB=
202403021200 TAF AMD WIHH 021200Z 0213/0312 21005KT 5000 HZ SCT018
                      TEMPO 0217/0220 35012KT 3000 -TSRA FEW016CB=
202403021100 TAF WIHH 021100Z 0212/0312 25007KT 5000 HZ SCT018
                      TEMPO 0212/0215 3000 -TSRA FEW016CB
                      TEMPO 0221/0300 35010KT 3000 RA FEW016CB=
202403020500 TAF WIHH 020500Z 0206/0306 27012KT 2000 -TSRA BKN015 FEW016CB
                      BECMG 0210/0212 20004KT 4000 HZ SCT018
                      TEMPO 0221/0301 35010KT 3000 -TSRA FEW017CB=
202403012300 TAF WIHH 012300Z 0200/0300 24005KT 4000 HZ FEW020
                      BECMG 0202/0204 31008KT 7000 SCT018
                      TEMPO 0208/0212 27014KT 3000 -TSRA FEW017CB
                       BECMG 0214/0216 5000 HZ=
202403011700 TAF WIHH 011700Z 0118/0218 28003KT 4000 HZ SCT020
                      BECMG 0202/0204 33008KT 6000=
202403011100 TAF WIHH 011100Z 0112/0212 30007KT 6000 SCT018
                      TEMPO 0112/0115 3000 -TSRA FEW016CB BKN017
                       BECMG 0116/0118 27003KT 5000 HZ=
202403010500 TAF WIHH 010500Z 0106/0206 33008KT 7000 SCT018
                      TEMPO 0107/0111 25015KT 3000 -TSRA FEW016CB
                       BKN017
                      BECMG 0114/0116 20003KT 5000 HZ=
