##########################################################
# Query made at 05/05/2026 03:27:42 UTC
# Time interval: from 09/01/2022 00:00  to 09/30/2022 23:59  UTC
##########################################################

##########################################################
# WIHH, Jakarta Halim Perdanakusuma (Indonesia)
# WMO index: 96747. WIGOS ID: Unknown
# Latitude 06-15S. Longitude 106-54E. Altitude 30 m.
##########################################################

###################################
#  METAR/SPECI from WIHH
###################################
202209302330 METAR WIHH NIL=
202209302300 METAR WIHH NIL=
202209302230 METAR WIHH NIL=
202209302200 METAR WIHH NIL=
202209302130 METAR WIHH NIL=
202209302100 METAR WIHH NIL=
202209302030 METAR WIHH NIL=
202209302000 METAR WIHH NIL=
202209301930 METAR WIHH NIL=
202209301900 METAR WIHH NIL=
202209301830 METAR WIHH NIL=
202209301800 METAR WIHH NIL=
202209301730 METAR WIHH NIL=
202209301700 METAR WIHH NIL=
202209301630 METAR WIHH NIL=
202209301600 METAR WIHH NIL=
202209301530 METAR WIHH NIL=
202209301500 METAR WIHH NIL=
202209301430 METAR WIHH NIL=
202209301400 METAR WIHH NIL=
202209301330 METAR WIHH NIL=
202209301300 METAR WIHH NIL=
202209301230 METAR WIHH NIL=
202209301200 METAR WIHH NIL=
202209301130 METAR WIHH NIL=
202209301100 METAR WIHH NIL=
202209301030 METAR WIHH NIL=
202209301000 METAR WIHH NIL=
202209300930 METAR WIHH 300930Z 08008KT 6000 SCT018 31/22 Q1007 NOSIG=
202209300900 METAR WIHH 300900Z 06008KT 6000 SCT018 32/22 Q1007 NOSIG=
202209300830 METAR WIHH 300830Z 05012KT 6000 SCT018 33/21 Q1007 NOSIG=
202209300800 METAR WIHH 300800Z 08012KT 6000 SCT018 33/22 Q1007 NOSIG=
202209300730 METAR WIHH 300730Z 09010KT 6000 SCT018 32/21 Q1007 NOSIG=
202209300700 METAR WIHH 300700Z 07010KT 6000 SCT018 32/21 Q1007 NOSIG=
202209300630 METAR WIHH 300630Z 07008KT 6000 SCT018 31/21 Q1008 NOSIG=
202209300600 METAR WIHH 300600Z 07007KT 6000 SCT018 30/23 Q1008 NOSIG=
202209300530 METAR WIHH 300530Z 06010KT 5000 HZ SCT018 30/24 Q1009 NOSIG=
202209300500 METAR WIHH 300500Z 07008KT 5000 HZ SCT018 30/23 Q1009 NOSIG=
202209300430 METAR WIHH 300430Z 05006KT 4000 HZ SCT018 28/25 Q1009 NOSIG=
202209300400 METAR WIHH 300400Z 040012KT 5000 -RA SCT018 28/25 Q1010 TEMPO TL0430 3000 -RA SCT018=
202209300330 METAR WIHH 300330Z 07009KT 5000 HZ SCT018 32/21 Q1010 RMK RA E AND NW=
202209300300 METAR WIHH 300300Z 07010KT 5000 HZ SCT020 32/22 Q1010 NOSIG=
202209300230 METAR WIHH NIL=
202209300200 METAR WIHH 300200Z 10006KT 5000 HZ FEW020 32/22 Q1010 NOSIG=
202209300130 METAR WIHH 300130Z 03004KT 5000 HZ FEW020 31/23 Q1010 NOSIG=
202209300100 METAR WIHH NIL=
202209300030 METAR WIHH 300030Z 23008KT 5000 HZ FEW020 29/24 Q1010 NOSIG=
202209300000 METAR WIHH NIL=
202209292330 METAR WIHH NIL=
202209292300 METAR WIHH NIL=
202209292230 METAR WIHH NIL=
202209292200 METAR WIHH NIL=
202209292130 METAR WIHH NIL=
202209292100 METAR WIHH NIL=
202209292030 METAR WIHH NIL=
202209292000 METAR WIHH NIL=
202209291930 METAR WIHH NIL=
202209291900 METAR WIHH NIL=
202209291830 METAR WIHH NIL=
202209291800 METAR WIHH NIL=
202209291730 METAR WIHH NIL=
202209291700 METAR WIHH NIL=
202209291630 METAR WIHH NIL=
202209291600 METAR WIHH NIL=
202209291530 METAR WIHH NIL=
202209291500 METAR WIHH NIL=
202209291430 METAR WIHH NIL=
202209291400 METAR WIHH NIL=
202209291330 METAR WIHH NIL=
202209291300 METAR WIHH NIL=
202209291230 METAR WIHH NIL=
202209291200 METAR WIHH NIL=
202209291130 METAR WIHH NIL=
202209291100 METAR WIHH NIL=
202209291030 METAR WIHH NIL=
202209291000 METAR WIHH NIL=
202209290930 METAR WIHH NIL=
202209290900 METAR WIHH 290900Z 03012KT 6000 SCT020 32/21 Q1006 NOSIG=
202209290830 METAR WIHH 290830Z 03010KT 5000 HZ SCT020 33/21 Q1006 NOSIG=
202209290800 METAR WIHH 290800Z 06008KT 5000 HZ SCT020 32/21 Q1006 NOSIG=
202209290730 METAR WIHH NIL=
202209290700 METAR WIHH 290700Z 06010KT 5000 HZ SCT020 33/20 Q1006 RMK RA TO SW=
202209290630 METAR WIHH 290630Z 06008KT 5000 HZ SCT020 33/21 Q1006 RMK RA TO S=
202209290600 METAR WIHH 290600Z 03005KT 5000 HZ SCT020 33/22 Q1007 RMK RA TO E=
202209290530 METAR WIHH 290530Z 03005KT 5000 HZ SCT020 33/21 Q1007 NOSIG=
202209290500 METAR WIHH 290500Z 03008KT 5000 HZ SCT020 33/21 Q1007 NOSIG=
202209290430 METAR WIHH 290430Z 03005KT 5000 HZ SCT020 33/21 Q1007 NOSIG=
202209290400 METAR WIHH NIL=
202209290330 METAR WIHH 290330Z 12003KT 5000 HZ SCT020 33/19 Q1008 NOSIG=
202209290300 METAR WIHH 290300Z 27003KT 6000 SCT020 32/22 Q1009 NOSIG=
202209290230 METAR WIHH NIL=
202209290200 METAR WIHH 290200Z 00000KT 6000 SCT020 31/22 Q1009 NOSIG=
202209290130 METAR WIHH 290130Z 24003KT 5000 HZ SCT022 31/23 Q1009 NOSIG=
202209290100 METAR WIHH NIL=
202209290030 METAR WIHH NIL=
202209290000 METAR WIHH NIL=
202209282330 METAR WIHH NIL=
202209282300 METAR WIHH NIL=
202209282230 METAR WIHH NIL=
202209282200 METAR WIHH NIL=
202209282130 METAR WIHH NIL=
202209282100 METAR WIHH NIL=
202209282030 METAR WIHH NIL=
202209282000 METAR WIHH NIL=
202209281930 METAR WIHH NIL=
202209281900 METAR WIHH NIL=
202209281830 METAR WIHH NIL=
202209281800 METAR WIHH NIL=
202209281730 METAR WIHH NIL=
202209281700 METAR WIHH NIL=
202209281630 METAR WIHH NIL=
202209281600 METAR WIHH NIL=
202209281530 METAR WIHH NIL=
202209281500 METAR WIHH NIL=
202209281430 METAR WIHH NIL=
202209281400 METAR WIHH NIL=
202209281330 METAR WIHH NIL=
202209281300 METAR WIHH NIL=
202209281230 METAR WIHH NIL=
202209281200 METAR WIHH NIL=
202209281130 METAR WIHH NIL=
202209281100 METAR WIHH NIL=
202209281030 METAR WIHH NIL=
202209281000 METAR WIHH NIL=
202209280930 METAR WIHH NIL=
202209280900 METAR WIHH 280900Z 02005KT 5000 HZ SCT020 31/23 Q1004 RMK RA TO S=
202209280830 METAR WIHH 280830Z 36006KT 5000 HZ SCT020 31/22 Q1004 RMK RA TO S=
202209280800 METAR WIHH 280800Z 04009KT 5000 HZ SCT020 32/22 Q1004 RMK RA TO SE AND S=
202209280730 METAR WIHH 280730Z 01007KT 5000 HZ SCT020 32/23 Q1004 RMK RA TO SE AND S=
202209280700 METAR WIHH 280700Z 03009KT 5000 HZ SCT020 32/23 Q1005 RMK RA TO S AND SW=
202209280630 METAR WIHH 280630Z 02007KT 5000 HZ SCT020 33/23 Q1005 RMK RA TO E=
202209280600 METAR WIHH 280600Z 05007KT 5000 HZ SCT020 33/23 Q1005 RMK RA TO E=
202209280530 METAR WIHH 280530Z 34008KT 5000 HZ SCT020 33/22 Q1006 RMK RA TO E=
202209280500 METAR WIHH 280500Z 16004KT 5000 HZ SCT020 33/20 Q1006 NOSIG=
202209280430 METAR WIHH 280430Z 29004KT 5000 HZ SCT020 33/21 Q1006 NOSIG=
202209280400 METAR WIHH 280400Z 25005KT 5000 HZ SCT020 33/22 Q1007 NOSIG=
202209280330 METAR WIHH 280330Z 24004KT 5000 HZ SCT020 33/22 Q1008 NOSIG=
202209280300 METAR WIHH 280300Z 14003KT 5000 HZ FEW020 33/23 Q1008 NOSIG=
202209280230 METAR WIHH 280230Z 19004KT 5000 HZ FEW020 32/22 Q1008 NOSIG=
202209280200 METAR WIHH 280200Z 00000KT 5000 HZ FEW020 31/23 Q1009 NOSIG=
202209280130 METAR WIHH 280130Z 24003KT 5000 HZ NSC 30/23 Q1009 NOSIG=
202209280100 METAR WIHH 280100Z 00000KT 5000 HZ NSC 29/23 Q1009 NOSIG=
202209280030 METAR WIHH 280030Z 19004KT 6000 NSC 28/24 Q1009 NOSIG=
202209280000 METAR WIHH NIL=
202209272330 METAR WIHH NIL=
202209272300 METAR WIHH NIL=
202209272230 METAR WIHH NIL=
202209272200 METAR WIHH NIL=
202209272130 METAR WIHH NIL=
202209272100 METAR WIHH NIL=
202209272030 METAR WIHH NIL=
202209272000 METAR WIHH NIL=
202209271930 METAR WIHH NIL=
202209271900 METAR WIHH NIL=
202209271830 METAR WIHH NIL=
202209271800 METAR WIHH NIL=
202209271730 METAR WIHH NIL=
202209271700 METAR WIHH NIL=
202209271630 METAR WIHH NIL=
202209271600 METAR WIHH NIL=
202209271530 METAR WIHH NIL=
202209271500 METAR WIHH NIL=
202209271430 METAR WIHH NIL=
202209271400 METAR WIHH NIL=
202209271330 METAR WIHH NIL=
202209271300 METAR WIHH NIL=
202209271230 METAR WIHH NIL=
202209271200 METAR WIHH NIL=
202209271130 METAR WIHH NIL=
202209271100 METAR WIHH NIL=
202209271030 METAR WIHH NIL=
202209271000 METAR WIHH NIL=
202209270930 METAR WIHH NIL=
202209270900 METAR WIHH 270900Z 31005KT 6000 SCT018 32/23 Q1005 NOSIG=
202209270830 METAR WIHH 270830Z 34007KT 6000 SCT018 33/23 Q1005 NOSIG=
202209270800 METAR WIHH NIL=
202209270730 METAR WIHH 270730Z 33008KT 6000 SCT018 34/23 Q1005 NOSIG=
202209270700 METAR WIHH 270700Z 36005KT 6000 SCT018 33/22 Q1005 NOSIG=
202209270630 METAR WIHH 270630Z 36005KT 6000 SCT018 33/23 Q1006 NOSIG=
202209270600 METAR WIHH 270600Z 32008KT 6000 SCT018 33/23 Q1006 NOSIG=
202209270530 METAR WIHH NIL=
202209270500 METAR WIHH NIL=
202209270430 METAR WIHH 270430Z 06005KT 6000 SCT018 34/21 Q1007 NOSIG=
202209270400 METAR WIHH 270400Z 02005KT 6000 FEW018 33/21 Q1008 NOSIG=
202209270330 METAR WIHH 270330Z 15006KT 6000 FEW020 33/21 Q1008 NOSIG=
202209270300 METAR WIHH 270300Z 09007KT 6000 NSC 32/22 Q1009 NOSIG=
202209270230 METAR WIHH 270230Z 11003KT 6000 NSC 32/22 Q1009 NOSIG=
202209270200 METAR WIHH 270200Z 15004KT 6000 NSC 31/22 Q1009 NOSIG=
202209270130 METAR WIHH 270130Z 19004KT 6000 NSC 29/22 Q1009 NOSIG=
202209270100 METAR WIHH 270100Z 21004KT 6000 NSC 29/22 Q1009 NOSIG=
202209270030 METAR WIHH 270030Z 14003KT 6000 FEW022 28/22 Q1009 NOSIG=
202209270000 METAR WIHH NIL=
202209262330 METAR WIHH NIL=
202209262300 METAR WIHH NIL=
202209262230 METAR WIHH NIL=
202209262200 METAR WIHH NIL=
202209262130 METAR WIHH NIL=
202209262100 METAR WIHH NIL=
202209262030 METAR WIHH NIL=
202209262000 METAR WIHH NIL=
202209261930 METAR WIHH NIL=
202209261900 METAR WIHH NIL=
202209261830 METAR WIHH NIL=
202209261800 METAR WIHH NIL=
202209261730 METAR WIHH NIL=
202209261700 METAR WIHH NIL=
202209261630 METAR WIHH NIL=
202209261600 METAR WIHH NIL=
202209261530 METAR WIHH NIL=
202209261500 METAR WIHH NIL=
202209261430 METAR WIHH NIL=
202209261400 METAR WIHH NIL=
202209261330 METAR WIHH NIL=
202209261300 METAR WIHH NIL=
202209261230 METAR WIHH NIL=
202209261200 METAR WIHH NIL=
202209261130 METAR WIHH NIL=
202209261100 METAR WIHH NIL=
202209261030 METAR WIHH NIL=
202209261000 METAR WIHH NIL=
202209260930 METAR WIHH NIL=
202209260900 METAR WIHH 260900Z 03005KT 5000 HZ SCT020 33/21 Q1006 RMK RA TO SE=
202209260830 METAR WIHH NIL=
202209260800 METAR WIHH 260800Z 36010KT 5000 HZ SCT020 34/21 Q1006 RMK RA TO N=
202209260730 METAR WIHH NIL=
202209260700 METAR WIHH NIL=
202209260630 METAR WIHH NIL=
202209260600 METAR WIHH 260600Z 15008KT 6000 SCT020 35/19 Q1007 NOSIG=
202209260530 METAR WIHH NIL=
202209260500 METAR WIHH 260500Z 09003KT 6000 SCT020 34/20 Q1008 NOSIG=
202209260430 METAR WIHH 260430Z 21008KT 6000 SCT020 34/21 Q1009 NOSIG=
202209260400 METAR WIHH 260400Z 24008KT 6000 FEW020 34/21 Q1010 NOSIG=
202209260330 METAR WIHH NIL=
202209260300 METAR WIHH NIL=
202209260230 METAR WIHH 260230Z 24008KT 6000 FEW022 31/22 Q1011 NOSIG=
202209260200 METAR WIHH 260200Z 20008KT 6000 NSC 30/21 Q1011 NOSIG=
202209260130 METAR WIHH 260130Z 21010KT 6000 NSC 30/22 Q1011 NOSIG=
202209260100 METAR WIHH 260100Z 21010KT 6000 NSC 29/22 Q1011 NOSIG=
202209260030 METAR WIHH 260030Z 21007KT 6000 NSC 28/22 Q1011 NOSIG=
202209260000 METAR WIHH NIL=
202209252330 METAR WIHH NIL=
202209252300 METAR WIHH NIL=
202209252230 METAR WIHH NIL=
202209252200 METAR WIHH NIL=
202209252130 METAR WIHH NIL=
202209252100 METAR WIHH NIL=
202209252030 METAR WIHH NIL=
202209252000 METAR WIHH NIL=
202209251930 METAR WIHH NIL=
202209251900 METAR WIHH NIL=
202209251830 METAR WIHH NIL=
202209251800 METAR WIHH NIL=
202209251730 METAR WIHH NIL=
202209251700 METAR WIHH NIL=
202209251630 METAR WIHH NIL=
202209251600 METAR WIHH NIL=
202209251530 METAR WIHH NIL=
202209251500 METAR WIHH NIL=
202209251430 METAR WIHH NIL=
202209251400 METAR WIHH NIL=
202209251330 METAR WIHH NIL=
202209251300 METAR WIHH NIL=
202209251230 METAR WIHH NIL=
202209251200 METAR WIHH NIL=
202209251130 METAR WIHH NIL=
202209251100 METAR WIHH NIL=
202209251030 METAR WIHH NIL=
202209251000 METAR WIHH NIL=
202209250930 METAR WIHH NIL=
202209250900 METAR WIHH NIL=
202209250830 METAR WIHH NIL=
202209250800 METAR WIHH NIL=
202209250730 METAR WIHH NIL=
202209250700 METAR WIHH NIL=
202209250630 METAR WIHH NIL=
202209250600 METAR WIHH NIL=
202209250530 METAR WIHH NIL=
202209250500 METAR WIHH NIL=
202209250430 METAR WIHH NIL=
202209250400 METAR WIHH NIL=
202209250330 METAR WIHH NIL=
202209250300 METAR WIHH NIL=
202209250230 METAR WIHH NIL=
202209250200 METAR WIHH NIL=
202209250130 METAR WIHH NIL=
202209250100 METAR WIHH NIL=
202209250030 METAR WIHH NIL=
202209250000 METAR WIHH NIL=
202209242330 METAR WIHH NIL=
202209242300 METAR WIHH NIL=
202209242230 METAR WIHH NIL=
202209242200 METAR WIHH NIL=
202209242130 METAR WIHH NIL=
202209242100 METAR WIHH NIL=
202209242030 METAR WIHH NIL=
202209242000 METAR WIHH NIL=
202209241930 METAR WIHH NIL=
202209241900 METAR WIHH NIL=
202209241830 METAR WIHH NIL=
202209241800 METAR WIHH NIL=
202209241730 METAR WIHH NIL=
202209241700 METAR WIHH NIL=
202209241630 METAR WIHH NIL=
202209241600 METAR WIHH NIL=
202209241530 METAR WIHH NIL=
202209241500 METAR WIHH NIL=
202209241430 METAR WIHH NIL=
202209241400 METAR WIHH NIL=
202209241330 METAR WIHH NIL=
202209241300 METAR WIHH NIL=
202209241230 METAR WIHH NIL=
202209241200 METAR WIHH NIL=
202209241130 METAR WIHH NIL=
202209241100 METAR WIHH NIL=
202209241030 METAR WIHH NIL=
202209241000 METAR WIHH NIL=
202209240930 METAR WIHH NIL=
202209240900 METAR WIHH NIL=
202209240830 METAR WIHH NIL=
202209240800 METAR WIHH NIL=
202209240730 METAR WIHH NIL=
202209240700 METAR WIHH NIL=
202209240630 METAR WIHH NIL=
202209240600 METAR WIHH NIL=
202209240530 METAR WIHH NIL=
202209240500 METAR WIHH NIL=
202209240430 METAR WIHH NIL=
202209240400 METAR WIHH NIL=
202209240330 METAR WIHH NIL=
202209240300 METAR WIHH NIL=
202209240230 METAR WIHH NIL=
202209240200 METAR WIHH NIL=
202209240130 METAR WIHH NIL=
202209240100 METAR WIHH NIL=
202209240030 METAR WIHH NIL=
202209240000 METAR WIHH NIL=
202209232330 METAR WIHH NIL=
202209232300 METAR WIHH NIL=
202209232230 METAR WIHH NIL=
202209232200 METAR WIHH NIL=
202209232130 METAR WIHH NIL=
202209232100 METAR WIHH NIL=
202209232030 METAR WIHH NIL=
202209232000 METAR WIHH NIL=
202209231930 METAR WIHH NIL=
202209231900 METAR WIHH NIL=
202209231830 METAR WIHH NIL=
202209231800 METAR WIHH NIL=
202209231730 METAR WIHH NIL=
202209231700 METAR WIHH NIL=
202209231630 METAR WIHH NIL=
202209231600 METAR WIHH NIL=
202209231530 METAR WIHH NIL=
202209231500 METAR WIHH NIL=
202209231430 METAR WIHH NIL=
202209231400 METAR WIHH NIL=
202209231330 METAR WIHH NIL=
202209231300 METAR WIHH NIL=
202209231230 METAR WIHH NIL=
202209231200 METAR WIHH NIL=
202209231130 METAR WIHH NIL=
202209231100 METAR WIHH NIL=
202209231030 METAR WIHH NIL=
202209231000 METAR WIHH NIL=
202209230930 METAR WIHH 230930Z 24012KT 5000 HZ FEW018CB SCT020 28/22 Q1008 RMK CB AND RA TO SE-SW=
202209230900 METAR WIHH 230900Z 33012KT 5000 HZ FEW018CB SCT020 31/23 Q1007 RMK CB AND RA TO S-SW=
202209230830 METAR WIHH 230830Z 35012KT 5000 HZ FEW018CB SCT020 31/23 Q1007 RMK CB AND RA TO S-SW=
202209230800 METAR WIHH 230800Z 36011KT 5000 HZ FEW018CB SCT020 33/23 Q1006 RMK CB AND RA TO S-SW=
202209230730 METAR WIHH 230730Z 02007KT 5000 HZ FEW018CB SCT020 33/23 Q1007 RMK CB AND RA TO S=
202209230700 METAR WIHH 230700Z 01006KT 5000 HZ FEW018CB SCT020 33/23 Q1007 RMK CB AND RA TO S=
202209230630 METAR WIHH 230630Z 35005KT 5000 HZ FEW018CB SCT020 33/23 Q1007 RMK CB AND RA TO S=
202209230600 METAR WIHH 230600Z 01005KT 5000 HZ SCT020 33/23 Q1008 NOSIG=
202209230530 METAR WIHH 230530Z 02007KT 5000 HZ SCT020 33/23 Q1009 NOSIG=
202209230500 METAR WIHH 230500Z 05004KT 4000 HZ SCT020 32/23 Q1010 NOSIG=
202209230430 METAR WIHH 230430Z 34004KT 5000 HZ SCT020 32/24 Q1010 NOSIG=
202209230400 METAR WIHH 230400Z 03004KT 5000 HZ SCT020 32/23 Q1011 NOSIG=
202209230330 METAR WIHH 230330Z 18003KT 4000 HZ SCT020 30/23 Q1011 NOSIG=
202209230300 METAR WIHH 230300Z 18003KT 4000 HZ SCT020 30/23 Q1011 NOSIG=
202209230230 METAR WIHH 230230Z 04004KT 4000 HZ FEW020 31/24 Q1011 NOSIG=
202209230200 METAR WIHH 230200Z 06003KT 4000 HZ FEW020 30/23 Q1011 NOSIG=
202209230130 METAR WIHH NIL=
202209230100 METAR WIHH 230100Z 00000KT 4000 HZ NSC 28/25 Q1011 NOSIG=
202209230030 METAR WIHH NIL=
202209230000 METAR WIHH NIL=
202209222330 METAR WIHH NIL=
202209222300 METAR WIHH NIL=
202209222230 METAR WIHH NIL=
202209222200 METAR WIHH NIL=
202209222130 METAR WIHH NIL=
202209222100 METAR WIHH NIL=
202209222030 METAR WIHH NIL=
202209222000 METAR WIHH NIL=
202209221930 METAR WIHH NIL=
202209221900 METAR WIHH NIL=
202209221830 METAR WIHH NIL=
202209221800 METAR WIHH NIL=
202209221730 METAR WIHH NIL=
202209221700 METAR WIHH NIL=
202209221630 METAR WIHH NIL=
202209221600 METAR WIHH NIL=
202209221530 METAR WIHH NIL=
202209221500 METAR WIHH NIL=
202209221430 METAR WIHH NIL=
202209221400 METAR WIHH NIL=
202209221330 METAR WIHH NIL=
202209221300 METAR WIHH NIL=
202209221230 METAR WIHH NIL=
202209221200 METAR WIHH NIL=
202209221130 METAR WIHH NIL=
202209221100 METAR WIHH NIL=
202209221030 METAR WIHH NIL=
202209221000 METAR WIHH NIL=
202209220930 METAR WIHH NIL=
202209220900 METAR WIHH NIL=
202209220830 METAR WIHH 220830Z 34004KT 5000 HZ FEW017CB SCT018 30/24 Q1007 RMK CB AND RA TO SE=
202209220800 METAR WIHH 220800Z 31003KT 4000 HZ FEW017CB SCT018 31/24 Q1007 RMK CB AND RA TO E AND SE=
202209220730 METAR WIHH 220730Z 36003KT 4000 HZ SCT018 30/25 Q1007 RMK RA TO SE=
202209220700 METAR WIHH 220700Z 30003KT 4000 HZ SCT018 30/26 Q1008 RMK RA TO S=
202209220630 METAR WIHH 220630Z 03007KT 4000 HZ SCT018 30/25 Q1008 RMK RA TO SE=
202209220600 METAR WIHH 220600Z 02007KT 4000 HZ SCT018 30/24 Q1008 RMK RA TO NE=
202209220530 METAR WIHH 220530Z 33005KT 4000 HZ SCT018 30/25 Q1009 RMK RA TO N=
202209220500 METAR WIHH 220500Z 30005KT 3000 HZ SCT018 29/27 Q1009 RMK RA TO NW=
202209220430 METAR WIHH 220430Z 05008KT 3000 -TSRA FEW017CB BKN018 28/27 Q1010 RMK CB TO N=
202209220400 METAR WIHH 220400Z 12008KT 4000 -RA FEW017CB SCT018 31/24 Q1010 RMK CB TO NE=
202209220330 METAR WIHH 220330Z 00000KT 5000 HZ SCT020 32/25 Q1011 RMK RA TO E AND S=
202209220300 METAR WIHH NIL=
202209220230 METAR WIHH NIL=
202209220200 METAR WIHH NIL=
202209220130 METAR WIHH 220130Z 25004KT 6000 NSC 28/23 Q1011 NOSIG=
202209220100 METAR WIHH 220100Z 25004KT 6000 NSC 28/23 Q1011 NOSIG=
202209220030 METAR WIHH 220030Z 25005KT 6000 NSC 27/23 Q1011 NOSIG=
202209220000 METAR WIHH NIL=
202209212330 METAR WIHH NIL=
202209212300 METAR WIHH NIL=
202209212230 METAR WIHH NIL=
202209212200 METAR WIHH NIL=
202209212130 METAR WIHH NIL=
202209212100 METAR WIHH NIL=
202209212030 METAR WIHH NIL=
202209212000 METAR WIHH NIL=
202209211930 METAR WIHH NIL=
202209211900 METAR WIHH NIL=
202209211830 METAR WIHH NIL=
202209211800 METAR WIHH NIL=
202209211730 METAR WIHH NIL=
202209211700 METAR WIHH NIL=
202209211630 METAR WIHH NIL=
202209211600 METAR WIHH NIL=
202209211530 METAR WIHH NIL=
202209211500 METAR WIHH NIL=
202209211430 METAR WIHH NIL=
202209211400 METAR WIHH NIL=
202209211330 METAR WIHH NIL=
202209211300 METAR WIHH NIL=
202209211230 METAR WIHH NIL=
202209211200 METAR WIHH NIL=
202209211130 METAR WIHH NIL=
202209211100 METAR WIHH NIL=
202209211030 METAR WIHH NIL=
202209211000 METAR WIHH NIL=
202209210930 METAR WIHH NIL=
202209210900 METAR WIHH 210900Z 00000KT 6000 SCT020 30/23 Q1007 NOSIG=
202209210830 METAR WIHH 210830Z 03003KT 6000 SCT020 31/23 Q1007 NOSIG=
202209210800 METAR WIHH 210800Z 34003KT 6000 SCT018 31/24 Q1007 NOSIG=
202209210730 METAR WIHH 210730Z 34003KT 6000 SCT018 30/24 Q1008 NOSIG=
202209210700 METAR WIHH NIL=
202209210630 METAR WIHH 210630Z 36004KT 5000 HZ SCT018 25/24 Q1009 RMK RA TO NE=
202209210600 METAR WIHH 210600Z 36010KT 4000 -TSRA FEW017CB SCT018 26/23 Q1010 RMK CB TO N=
202209210530 METAR WIHH 210530Z 36010KT 5000 HZ SCT018 29/23 Q1010 RMK CB AND RA TO NW AND RA TO E=
202209210500 METAR WIHH 210500Z 15004KT 5000 HZ SCT018 31/22 Q1010 RMK RA TO E=
202209210430 METAR WIHH NIL=
202209210400 METAR WIHH 210400Z 32003KT 6000 SCT020 32/23 Q1011 RMK RA TO SW=
202209210330 METAR WIHH 210330Z 18003KT 6000 SCT020 30/23 Q1012 NOSIG=
202209210300 METAR WIHH 210300Z 24004KT 6000 SCT020 31/24 Q1012 NOSIG=
202209210230 METAR WIHH 210230Z 24003KT 5000 HZ SCT020 30/24 Q1012 NOSIG=
202209210200 METAR WIHH 210200Z 16004KT 5000 HZ SCT020 29/24 Q1012 NOSIG=
202209210130 METAR WIHH 210130Z 21004KT 5000 HZ FEW020 29/24 Q1012 NOSIG=
202209210100 METAR WIHH 210100Z 24004KT 4000 HZ FEW020 28/24 Q1012 NOSIG=
202209210030 METAR WIHH NIL=
202209210000 METAR WIHH NIL=
202209202330 METAR WIHH NIL=
202209202300 METAR WIHH NIL=
202209202230 METAR WIHH NIL=
202209202200 METAR WIHH NIL=
202209202130 METAR WIHH NIL=
202209202100 METAR WIHH NIL=
202209202030 METAR WIHH NIL=
202209202000 METAR WIHH NIL=
202209201930 METAR WIHH NIL=
202209201900 METAR WIHH NIL=
202209201830 METAR WIHH NIL=
202209201800 METAR WIHH NIL=
202209201730 METAR WIHH NIL=
202209201700 METAR WIHH NIL=
202209201630 METAR WIHH NIL=
202209201600 METAR WIHH NIL=
202209201530 METAR WIHH NIL=
202209201500 METAR WIHH NIL=
202209201430 METAR WIHH NIL=
202209201400 METAR WIHH NIL=
202209201330 METAR WIHH NIL=
202209201300 METAR WIHH NIL=
202209201230 METAR WIHH NIL=
202209201200 METAR WIHH NIL=
202209201130 METAR WIHH NIL=
202209201100 METAR WIHH NIL=
202209201030 METAR WIHH NIL=
202209201000 METAR WIHH 201000Z 02005KT 5000 HZ FEW018CB SCT020 30/23 Q1008 RMK CB AND RA TO SE=
202209200930 METAR WIHH 200930Z 02006KT 5000 HZ FEW018CB SCT020 30/22 Q1008 RMK CB AND RA TO SE=
202209200900 METAR WIHH NIL=
202209200830 METAR WIHH 200830Z 36005KT 5000 HZ FEW018CB SCT020 31/23 Q1007 RMK CB AND RA TO S=
202209200800 METAR WIHH 200800Z 35008KT 5000 HZ SCT020 31/22 Q1007 RMK RA TO SW=
202209200730 METAR WIHH 200730Z 34006KT 5000 -RA SCT020 31/23 Q1008 NOSIG=
202209200700 METAR WIHH 200700Z 35006KT 5000 HZ SCT020 32/22 Q1008 NOSIG=
202209200630 METAR WIHH 200630Z 04006KT 5000 HZ SCT020 33/22 Q1008 NOSIG=
202209200600 METAR WIHH 200600Z 32003KT 5000 HZ SCT020 33/22 Q1009 NOSIG=
202209200530 METAR WIHH 200530Z 04004KT 5000 HZ SCT020 33/21 Q1009 NOSIG=
202209200500 METAR WIHH 200500Z 23004KT 5000 HZ FEW020 32/21 Q1010 NOSIG=
202209200430 METAR WIHH 200430Z 21003KT 5000 HZ FEW020 32/22 Q1010 NOSIG=
202209200400 METAR WIHH NIL=
202209200330 METAR WIHH 200330Z 30003KT 5000 HZ FEW020 31/21 Q1011 NOSIG=
202209200300 METAR WIHH 200300Z 28003KT 5000 HZ FEW020 31/21 Q1012 NOSIG=
202209200230 METAR WIHH 200230Z 32003KT 5000 HZ FEW020 30/21 Q1012 NOSIG=
202209200200 METAR WIHH 200200Z 13003KT 5000 HZ FEW022 30/21 Q1012 NOSIG=
202209200130 METAR WIHH 200130Z 18003KT 5000 HZ FEW022 29/21 Q1012 NOSIG=
202209200100 METAR WIHH 200100Z 20003KT 4000 HZ FEW020 27/21 Q1012 NOSIG=
202209200030 METAR WIHH NIL=
202209200000 METAR WIHH NIL=
202209192330 METAR WIHH NIL=
202209192300 METAR WIHH NIL=
202209192230 METAR WIHH NIL=
202209192200 METAR WIHH NIL=
202209192130 METAR WIHH NIL=
202209192100 METAR WIHH NIL=
202209192030 METAR WIHH NIL=
202209192000 METAR WIHH NIL=
202209191930 METAR WIHH NIL=
202209191900 METAR WIHH NIL=
202209191830 METAR WIHH NIL=
202209191800 METAR WIHH NIL=
202209191730 METAR WIHH NIL=
202209191700 METAR WIHH NIL=
202209191630 METAR WIHH NIL=
202209191600 METAR WIHH NIL=
202209191530 METAR WIHH NIL=
202209191500 METAR WIHH NIL=
202209191430 METAR WIHH NIL=
202209191400 METAR WIHH NIL=
202209191330 METAR WIHH NIL=
202209191300 METAR WIHH NIL=
202209191230 METAR WIHH NIL=
202209191200 METAR WIHH NIL=
202209191130 METAR WIHH NIL=
202209191100 METAR WIHH NIL=
202209191030 METAR WIHH NIL=
202209191000 METAR WIHH NIL=
202209190930 METAR WIHH NIL=
202209190900 METAR WIHH NIL=
202209190830 METAR WIHH NIL=
202209190800 METAR WIHH NIL=
202209190730 METAR WIHH NIL=
202209190700 METAR WIHH NIL=
202209190630 METAR WIHH NIL=
202209190600 METAR WIHH NIL=
202209190530 METAR WIHH NIL=
202209190500 METAR WIHH NIL=
202209190430 METAR WIHH NIL=
202209190400 METAR WIHH NIL=
202209190330 METAR WIHH NIL=
202209190300 METAR WIHH 190300Z 02003KT 5000 HZ FEW020 32/24 Q1012 NOSIG=
202209190230 METAR WIHH 190230Z 00000KT 5000 HZ FEW020 31/24 Q1012 NOSIG=
202209190200 METAR WIHH 190200Z 11003KT 5000 HZ NSC 29/25 Q1012 NOSIG=
202209190130 METAR WIHH 190130Z 11003KT 5000 HZ NSC 29/25 Q1012 NOSIG=
202209190100 METAR WIHH 190100Z 16003KT 4000 HZ NSC 29/24 Q1012 NOSIG=
202209190030 METAR WIHH NIL=
202209190000 METAR WIHH NIL=
202209182330 METAR WIHH NIL=
202209182300 METAR WIHH NIL=
202209182230 METAR WIHH NIL=
202209182200 METAR WIHH NIL=
202209182130 METAR WIHH NIL=
202209182100 METAR WIHH NIL=
202209182030 METAR WIHH NIL=
202209182000 METAR WIHH NIL=
202209181930 METAR WIHH NIL=
202209181900 METAR WIHH NIL=
202209181830 METAR WIHH NIL=
202209181800 METAR WIHH NIL=
202209181730 METAR WIHH NIL=
202209181700 METAR WIHH NIL=
202209181630 METAR WIHH NIL=
202209181600 METAR WIHH NIL=
202209181530 METAR WIHH NIL=
202209181500 METAR WIHH NIL=
202209181430 METAR WIHH NIL=
202209181400 METAR WIHH NIL=
202209181330 METAR WIHH NIL=
202209181300 METAR WIHH NIL=
202209181230 METAR WIHH NIL=
202209181200 METAR WIHH NIL=
202209181130 METAR WIHH NIL=
202209181100 METAR WIHH NIL=
202209181030 METAR WIHH NIL=
202209181000 METAR WIHH NIL=
202209180930 METAR WIHH NIL=
202209180900 METAR WIHH NIL=
202209180830 METAR WIHH NIL=
202209180800 METAR WIHH NIL=
202209180730 METAR WIHH NIL=
202209180700 METAR WIHH NIL=
202209180630 METAR WIHH NIL=
202209180600 METAR WIHH NIL=
202209180530 METAR WIHH NIL=
202209180500 METAR WIHH NIL=
202209180430 METAR WIHH NIL=
202209180400 METAR WIHH NIL=
202209180330 METAR WIHH NIL=
202209180300 METAR WIHH NIL=
202209180230 METAR WIHH NIL=
202209180200 METAR WIHH NIL=
202209180130 METAR WIHH NIL=
202209180100 METAR WIHH NIL=
202209180030 METAR WIHH NIL=
202209180000 METAR WIHH NIL=
202209172330 METAR WIHH NIL=
202209172300 METAR WIHH NIL=
202209172230 METAR WIHH NIL=
202209172200 METAR WIHH NIL=
202209172130 METAR WIHH NIL=
202209172100 METAR WIHH NIL=
202209172030 METAR WIHH NIL=
202209172000 METAR WIHH NIL=
202209171930 METAR WIHH NIL=
202209171900 METAR WIHH NIL=
202209171830 METAR WIHH NIL=
202209171800 METAR WIHH NIL=
202209171730 METAR WIHH NIL=
202209171700 METAR WIHH NIL=
202209171630 METAR WIHH NIL=
202209171600 METAR WIHH NIL=
202209171530 METAR WIHH NIL=
202209171500 METAR WIHH NIL=
202209171430 METAR WIHH NIL=
202209171400 METAR WIHH NIL=
202209171330 METAR WIHH NIL=
202209171300 METAR WIHH NIL=
202209171230 METAR WIHH NIL=
202209171200 METAR WIHH NIL=
202209171130 METAR WIHH NIL=
202209171100 METAR WIHH NIL=
202209171030 METAR WIHH NIL=
202209171000 METAR WIHH NIL=
202209170930 METAR WIHH NIL=
202209170900 METAR WIHH NIL=
202209170830 METAR WIHH NIL=
202209170800 METAR WIHH NIL=
202209170730 METAR WIHH NIL=
202209170700 METAR WIHH NIL=
202209170630 METAR WIHH NIL=
202209170600 METAR WIHH NIL=
202209170530 METAR WIHH NIL=
202209170500 METAR WIHH NIL=
202209170430 METAR WIHH NIL=
202209170400 METAR WIHH NIL=
202209170330 METAR WIHH NIL=
202209170300 METAR WIHH NIL=
202209170230 METAR WIHH NIL=
202209170200 METAR WIHH NIL=
202209170130 METAR WIHH NIL=
202209170100 METAR WIHH NIL=
202209170030 METAR WIHH NIL=
202209170000 METAR WIHH NIL=
202209162330 METAR WIHH NIL=
202209162300 METAR WIHH NIL=
202209162230 METAR WIHH NIL=
202209162200 METAR WIHH NIL=
202209162130 METAR WIHH NIL=
202209162100 METAR WIHH NIL=
202209162030 METAR WIHH NIL=
202209162000 METAR WIHH NIL=
202209161930 METAR WIHH NIL=
202209161900 METAR WIHH NIL=
202209161830 METAR WIHH NIL=
202209161800 METAR WIHH NIL=
202209161730 METAR WIHH NIL=
202209161700 METAR WIHH NIL=
202209161630 METAR WIHH NIL=
202209161600 METAR WIHH NIL=
202209161530 METAR WIHH NIL=
202209161500 METAR WIHH NIL=
202209161430 METAR WIHH NIL=
202209161400 METAR WIHH NIL=
202209161330 METAR WIHH NIL=
202209161300 METAR WIHH NIL=
202209161230 METAR WIHH NIL=
202209161200 METAR WIHH NIL=
202209161130 METAR WIHH NIL=
202209161100 METAR WIHH NIL=
202209161030 METAR WIHH NIL=
202209161000 METAR WIHH 161000Z 34003KT 4000 HZ SCT020 29/26 Q1008 RMK RA TO S=
202209160930 METAR WIHH 160930Z 30003KT 3000 HZ BKN020 29/27 Q1007 RMK RA TO SE=
202209160900 METAR WIHH 160900Z 35003KT 3000 HZ BKN020 28/27 Q1007 RMK RA TO NW=
202209160830 METAR WIHH 160830Z 33003KT 3000 HZ BKN019 27/26 Q1008 RMK RA TO N=
202209160800 METAR WIHH 160800Z 26003KT 3000 HZ BKN019 26/25 Q1008 RMK RA TO N AND E=
202209160730 METAR WIHH NIL=
202209160700 METAR WIHH NIL=
202209160630 METAR WIHH 160630Z 00000KT 4000 HZ SCT019 33/21 Q1008 RMK RA TO E=
202209160600 METAR WIHH 160600Z 00000KT 6000 SCT020 33/20 Q1008 NOSIG=
202209160530 METAR WIHH 160530Z 06005KT 6000 SCT020 33/22 Q1009 NOSIG=
202209160500 METAR WIHH 160500Z 06005KT 6000 SCT020 33/22 Q1009 NOSIG=
202209160430 METAR WIHH 160430Z 20005KT 6000 SCT020 32/23 Q1010 NOSIG=
202209160400 METAR WIHH 160400Z 21005KT 6000 FEW020 32/23 Q1011 NOSIG=
202209160330 METAR WIHH 160330Z 18008KT 6000 FEW020 31/22 Q1011 NOSIG=
202209160300 METAR WIHH 160300Z 20008KT 6000 FEW020 31/22 Q1012 NOSIG=
202209160230 METAR WIHH NIL=
202209160200 METAR WIHH 160200Z 15003KT 6000 FEW022 30/23 Q1012 NOSIG=
202209160130 METAR WIHH 160130Z 21003KT 6000 FEW022 29/23 Q1012 NOSIG=
202209160100 METAR WIHH 160100Z 12003KT 6000 NSC 29/23 Q1012 NOSIG=
202209160030 METAR WIHH 160030Z 00000KT 6000 NSC 27/23 Q1012 NOSIG=
202209160000 METAR WIHH NIL=
202209152330 METAR WIHH NIL=
202209152300 METAR WIHH NIL=
202209152230 METAR WIHH NIL=
202209152200 METAR WIHH NIL=
202209152130 METAR WIHH NIL=
202209152100 METAR WIHH NIL=
202209152030 METAR WIHH NIL=
202209152000 METAR WIHH NIL=
202209151930 METAR WIHH NIL=
202209151900 METAR WIHH NIL=
202209151830 METAR WIHH NIL=
202209151800 METAR WIHH NIL=
202209151730 METAR WIHH NIL=
202209151700 METAR WIHH NIL=
202209151630 METAR WIHH NIL=
202209151600 METAR WIHH NIL=
202209151530 METAR WIHH NIL=
202209151500 METAR WIHH NIL=
202209151430 METAR WIHH NIL=
202209151400 METAR WIHH NIL=
202209151330 METAR WIHH NIL=
202209151300 METAR WIHH NIL=
202209151230 METAR WIHH NIL=
202209151200 METAR WIHH NIL=
202209151130 METAR WIHH NIL=
202209151100 METAR WIHH NIL=
202209151030 METAR WIHH NIL=
202209151000 METAR WIHH NIL=
202209150930 METAR WIHH NIL=
202209150900 METAR WIHH 150900Z 31004KT 6000 SCT018 32/23 Q1008 RMK RA TO S=
202209150830 METAR WIHH 150830Z 03006KT 6000 SCT018 32/22 Q1008 NOSIG=
202209150800 METAR WIHH 150800Z 36006KT 6000 SCT018 32/22 Q1008 RMK RA TO SW=
202209150730 METAR WIHH 150730Z 34005KT 6000 SCT018 33/22 Q1008 NOSIG=
202209150700 METAR WIHH 150700Z 36007KT 6000 SCT018 33/22 Q1009 NOSIG=
202209150630 METAR WIHH NIL=
202209150600 METAR WIHH 150600Z 03005KT 6000 SCT020 33/20 Q1009 NOSIG=
202209150530 METAR WIHH NIL=
202209150500 METAR WIHH 150500Z 25003KT 6000 SCT020 33/20 Q1010 NOSIG=
202209150430 METAR WIHH 150430Z 28003KT 6000 SCT020 33/20 Q1011 NOSIG=
202209150400 METAR WIHH 150400Z 12005KT 6000 SCT020 32/20 Q1011 NOSIG=
202209150330 METAR WIHH 150330Z 00000KT 6000 FEW020 32/20 Q1011 NOSIG=
202209150300 METAR WIHH 150300Z 00000KT 6000 NSC 32/20 Q1012 NOSIG=
202209150230 METAR WIHH NIL=
202209150200 METAR WIHH NIL=
202209150130 METAR WIHH NIL=
202209150100 METAR WIHH NIL=
202209150030 METAR WIHH NIL=
202209150000 METAR WIHH NIL=
202209142330 METAR WIHH NIL=
202209142300 METAR WIHH NIL=
202209142230 METAR WIHH NIL=
202209142200 METAR WIHH NIL=
202209142130 METAR WIHH NIL=
202209142100 METAR WIHH NIL=
202209142030 METAR WIHH NIL=
202209142000 METAR WIHH NIL=
202209141930 METAR WIHH NIL=
202209141900 METAR WIHH NIL=
202209141830 METAR WIHH NIL=
202209141800 METAR WIHH NIL=
202209141730 METAR WIHH NIL=
202209141700 METAR WIHH NIL=
202209141630 METAR WIHH NIL=
202209141600 METAR WIHH NIL=
202209141530 METAR WIHH NIL=
202209141500 METAR WIHH NIL=
202209141430 METAR WIHH NIL=
202209141400 METAR WIHH NIL=
202209141330 METAR WIHH NIL=
202209141300 METAR WIHH NIL=
202209141230 METAR WIHH NIL=
202209141200 METAR WIHH NIL=
202209141130 METAR WIHH NIL=
202209141100 METAR WIHH NIL=
202209141030 METAR WIHH NIL=
202209141000 METAR WIHH NIL=
202209140930 METAR WIHH NIL=
202209140900 METAR WIHH 140900Z 08010KT 6000 SCT020 33/21 Q1010 RMK RA TO S=
202209140830 METAR WIHH NIL=
202209140800 METAR WIHH 140800Z 03010KT 5000 HZ SCT020 32/23 Q1011 RMK RA TO SW=
202209140730 METAR WIHH 140730Z 04010KT 5000 HZ SCT020 33/22 Q1011 RMK RA TO S=
202209140700 METAR WIHH 140700Z 04007KT 5000 HZ SCT020 33/23 Q1011 RMK RA TO SE AND NW=
202209140630 METAR WIHH NIL=
202209140600 METAR WIHH 140600Z 36003KT 5000 HZ SCT020 32/23 Q1012 NOSIG=
202209140530 METAR WIHH 140530Z 07003KT 5000 HZ SCT020 33/20 Q1012 NOSIG=
202209140500 METAR WIHH 140500Z 22003KT 5000 HZ SCT020 32/21 Q1012 NOSIG=
202209140430 METAR WIHH 140430Z 27003KT 5000 HZ FEW020 33/22 Q1013 NOSIG=
202209140400 METAR WIHH 140400Z 04003KT 5000 HZ FEW020 32/22 Q1013 NOSIG=
202209140330 METAR WIHH 140330Z 15003KT 5000 HZ FEW020 31/23 Q1013 NOSIG=
202209140300 METAR WIHH NIL=
202209140230 METAR WIHH 140230Z 22003KT 4000 HZ FEW022 30/22 Q1014 NOSIG=
202209140200 METAR WIHH 140200Z 20003KT 4000 HZ FEW022 29/22 Q1014 NOSIG=
202209140130 METAR WIHH 140130Z 23003KT 4000 HZ FEW022 29/23 Q1014 NOSIG=
202209140100 METAR WIHH 140100Z 23003KT 3000 HZ FEW022 27/23 Q1014 NOSIG=
202209140030 METAR WIHH 140030Z 24003KT 3000 HZ FEW022 26/23 Q1014 NOSIG=
202209140000 METAR WIHH NIL=
202209132330 METAR WIHH NIL=
202209132300 METAR WIHH NIL=
202209132230 METAR WIHH NIL=
202209132200 METAR WIHH NIL=
202209132130 METAR WIHH NIL=
202209132100 METAR WIHH NIL=
202209132030 METAR WIHH NIL=
202209132000 METAR WIHH NIL=
202209131930 METAR WIHH NIL=
202209131900 METAR WIHH NIL=
202209131830 METAR WIHH NIL=
202209131800 METAR WIHH NIL=
202209131730 METAR WIHH NIL=
202209131700 METAR WIHH NIL=
202209131630 METAR WIHH NIL=
202209131600 METAR WIHH NIL=
202209131530 METAR WIHH NIL=
202209131500 METAR WIHH NIL=
202209131430 METAR WIHH NIL=
202209131400 METAR WIHH NIL=
202209131330 METAR WIHH NIL=
202209131300 METAR WIHH NIL=
202209131230 METAR WIHH NIL=
202209131200 METAR WIHH NIL=
202209131130 METAR WIHH NIL=
202209131100 METAR WIHH NIL=
202209131030 METAR WIHH NIL=
202209131000 METAR WIHH NIL=
202209130930 METAR WIHH NIL=
202209130900 METAR WIHH 130900Z 30003KT 5000 HZ SCT020 32/24 Q1009 NOSIG=
202209130830 METAR WIHH 130830Z 33003KT 5000 HZ SCT020 32/23 Q1009 NOSIG=
202209130800 METAR WIHH 130800Z 27003KT 5000 HZ SCT020 32/25 Q1010 NOSIG=
202209130730 METAR WIHH 130730Z 26003KT 5000 HZ SCT020 30/26 Q1010 NOSIG=
202209130700 METAR WIHH 130700Z 34005KT 5000 HZ SCT020 29/24 Q1010 RMK RA TO W=
202209130630 METAR WIHH 130630Z 33003KT 4000 HZ SCT019 30/25 Q1011 RMK RA TO W=
202209130600 METAR WIHH 130600Z 33004KT 4000 HZ SCT019 29/26 Q1011 RMK RA TO W=
202209130530 METAR WIHH NIL=
202209130500 METAR WIHH 130500Z 03003KT 5000 -RA SCT020 32/22 Q1012 RMK RA TO SE=
202209130430 METAR WIHH NIL=
202209130400 METAR WIHH NIL=
202209130330 METAR WIHH 130330Z 00000KT 6000 SCT020 32/23 Q1013 NOSIG=
202209130300 METAR WIHH 130300Z 20003KT 6000 SCT020 31/24 Q1013 NOSIG=
202209130230 METAR WIHH 130230Z 13005KT 5000 HZ FEW020 30/24 Q1013 NOSIG=
202209130200 METAR WIHH 130200Z 14005KT 4000 HZ FEW020 30/25 Q1013 NOSIG=
202209130130 METAR WIHH 130130Z 10003KT 4000 HZ FEW020 29/23 Q1013 NOSIG=
202209130100 METAR WIHH 130100Z 00000KT 4000 HZ FEW020 28/24 Q1013 NOSIG=
202209130030 METAR WIHH NIL=
202209130000 METAR WIHH NIL=
202209122330 METAR WIHH NIL=
202209122300 METAR WIHH NIL=
202209122230 METAR WIHH NIL=
202209122200 METAR WIHH NIL=
202209122130 METAR WIHH NIL=
202209122100 METAR WIHH NIL=
202209122030 METAR WIHH NIL=
202209122000 METAR WIHH NIL=
202209121930 METAR WIHH NIL=
202209121900 METAR WIHH NIL=
202209121830 METAR WIHH NIL=
202209121800 METAR WIHH NIL=
202209121730 METAR WIHH NIL=
202209121700 METAR WIHH NIL=
202209121630 METAR WIHH NIL=
202209121600 METAR WIHH NIL=
202209121530 METAR WIHH NIL=
202209121500 METAR WIHH NIL=
202209121430 METAR WIHH NIL=
202209121400 METAR WIHH NIL=
202209121330 METAR WIHH NIL=
202209121300 METAR WIHH NIL=
202209121230 METAR WIHH NIL=
202209121200 METAR WIHH NIL=
202209121130 METAR WIHH NIL=
202209121100 METAR WIHH NIL=
202209121030 METAR WIHH NIL=
202209121000 METAR WIHH NIL=
202209120930 METAR WIHH 120930Z 32003KT 6000 SCT018 30/25 Q1008 RMK RA TO E=
202209120900 METAR WIHH 120900Z 08004KT 5000 -RA SCT018 28/26 Q1008 NOSIG=
202209120830 METAR WIHH 120830Z 00000KT 5000 -RA SCT018 26/25 Q1007 NOSIG=
202209120800 METAR WIHH 120800Z 29004KT 5000 -RA BKN016 26/24 Q1008 NOSIG=
202209120730 METAR WIHH 120730Z 25007KT 4000 -RA BKN016 26/25 Q1008 NOSIG=
202209120700 METAR WIHH 120700Z 24006KT 5000 HZ BKN018 29/26 Q1008 RMK RA TO NE AND SE=
202209120630 METAR WIHH 120630Z 27005KT 5000 HZ BKN018 27/25 Q1008 RMK RA TO SE=
202209120600 METAR WIHH 120600Z 27005KT 2000 -RA BKN018 27/25 Q1009 NOSIG=
202209120530 METAR WIHH 120530Z 24005KT 5000 -RA BKN018 30/24 Q1009 NOSIG=
202209120500 METAR WIHH 120500Z 34003KT 6000 SCT018 32/24 Q1010 RMK RA TO E AND W=
202209120430 METAR WIHH NIL=
202209120400 METAR WIHH 120400Z 34003KT 6000 SCT018 31/23 Q1010 NOSIG=
202209120330 METAR WIHH 120330Z 04006KT 6000 SCT018 31/23 Q1011 NOSIG=
202209120300 METAR WIHH 120300Z 15005KT 6000 SCT018 30/23 Q1011 RMK RA TO N=
202209120230 METAR WIHH 120230Z 12005KT 5000 HZ SCT018 29/24 Q1011 NOSIG=
202209120200 METAR WIHH 120200Z 00000KT 5000 HZ SCT018 29/24 Q1011 NOSIG=
202209120130 METAR WIHH 120130Z 12003KT 4000 HZ SCT020 27/24 Q1011 NOSIG=
202209120100 METAR WIHH 120100Z 18003KT 4000 HZ SCT020 27/24 Q1011 NOSIG=
202209120030 METAR WIHH 120030Z 26003KT 4000 BR FEW020 26/24 Q1011 NOSIG=
202209120000 METAR WIHH NIL=
202209112330 METAR WIHH NIL=
202209112300 METAR WIHH NIL=
202209112230 METAR WIHH NIL=
202209112200 METAR WIHH NIL=
202209112130 METAR WIHH NIL=
202209112100 METAR WIHH NIL=
202209112030 METAR WIHH NIL=
202209112000 METAR WIHH NIL=
202209111930 METAR WIHH NIL=
202209111900 METAR WIHH NIL=
202209111830 METAR WIHH NIL=
202209111800 METAR WIHH NIL=
202209111730 METAR WIHH NIL=
202209111700 METAR WIHH NIL=
202209111630 METAR WIHH NIL=
202209111600 METAR WIHH NIL=
202209111530 METAR WIHH NIL=
202209111500 METAR WIHH NIL=
202209111430 METAR WIHH NIL=
202209111400 METAR WIHH NIL=
202209111330 METAR WIHH NIL=
202209111300 METAR WIHH NIL=
202209111230 METAR WIHH NIL=
202209111200 METAR WIHH NIL=
202209111130 METAR WIHH NIL=
202209111100 METAR WIHH NIL=
202209111030 METAR WIHH NIL=
202209111000 METAR WIHH NIL=
202209110930 METAR WIHH NIL=
202209110900 METAR WIHH NIL=
202209110830 METAR WIHH NIL=
202209110800 METAR WIHH NIL=
202209110730 METAR WIHH NIL=
202209110700 METAR WIHH NIL=
202209110630 METAR WIHH NIL=
202209110600 METAR WIHH NIL=
202209110530 METAR WIHH NIL=
202209110500 METAR WIHH NIL=
202209110430 METAR WIHH NIL=
202209110400 METAR WIHH NIL=
202209110330 METAR WIHH NIL=
202209110300 METAR WIHH NIL=
202209110230 METAR WIHH NIL=
202209110200 METAR WIHH NIL=
202209110130 METAR WIHH NIL=
202209110100 METAR WIHH NIL=
202209110030 METAR WIHH NIL=
202209110000 METAR WIHH NIL=
202209102330 METAR WIHH NIL=
202209102300 METAR WIHH NIL=
202209102230 METAR WIHH NIL=
202209102200 METAR WIHH NIL=
202209102130 METAR WIHH NIL=
202209102100 METAR WIHH NIL=
202209102030 METAR WIHH NIL=
202209102000 METAR WIHH NIL=
202209101930 METAR WIHH NIL=
202209101900 METAR WIHH NIL=
202209101830 METAR WIHH NIL=
202209101800 METAR WIHH NIL=
202209101730 METAR WIHH NIL=
202209101700 METAR WIHH NIL=
202209101630 METAR WIHH NIL=
202209101600 METAR WIHH NIL=
202209101530 METAR WIHH NIL=
202209101500 METAR WIHH NIL=
202209101430 METAR WIHH NIL=
202209101400 METAR WIHH NIL=
202209101330 METAR WIHH NIL=
202209101300 METAR WIHH NIL=
202209101230 METAR WIHH NIL=
202209101200 METAR WIHH NIL=
202209101130 METAR WIHH NIL=
202209101100 METAR WIHH NIL=
202209101030 METAR WIHH NIL=
202209101000 METAR WIHH NIL=
202209100930 METAR WIHH NIL=
202209100900 METAR WIHH NIL=
202209100830 METAR WIHH NIL=
202209100800 METAR WIHH NIL=
202209100730 METAR WIHH NIL=
202209100700 METAR WIHH NIL=
202209100630 METAR WIHH NIL=
202209100600 METAR WIHH NIL=
202209100530 METAR WIHH NIL=
202209100500 METAR WIHH NIL=
202209100430 METAR WIHH NIL=
202209100400 METAR WIHH NIL=
202209100330 METAR WIHH NIL=
202209100300 METAR WIHH NIL=
202209100230 METAR WIHH NIL=
202209100200 METAR WIHH NIL=
202209100130 METAR WIHH NIL=
202209100100 METAR WIHH NIL=
202209100030 METAR WIHH NIL=
202209100000 METAR WIHH NIL=
202209092330 METAR WIHH NIL=
202209092300 METAR WIHH NIL=
202209092230 METAR WIHH NIL=
202209092200 METAR WIHH NIL=
202209092130 METAR WIHH NIL=
202209092100 METAR WIHH NIL=
202209092030 METAR WIHH NIL=
202209092000 METAR WIHH NIL=
202209091930 METAR WIHH NIL=
202209091900 METAR WIHH NIL=
202209091830 METAR WIHH NIL=
202209091800 METAR WIHH NIL=
202209091730 METAR WIHH NIL=
202209091700 METAR WIHH NIL=
202209091630 METAR WIHH NIL=
202209091600 METAR WIHH NIL=
202209091530 METAR WIHH NIL=
202209091500 METAR WIHH NIL=
202209091430 METAR WIHH NIL=
202209091400 METAR WIHH NIL=
202209091330 METAR WIHH NIL=
202209091300 METAR WIHH NIL=
202209091230 METAR WIHH NIL=
202209091200 METAR WIHH NIL=
202209091130 METAR WIHH NIL=
202209091100 METAR WIHH NIL=
202209091030 METAR WIHH NIL=
202209091000 METAR WIHH NIL=
202209090930 METAR WIHH NIL=
202209090900 METAR WIHH 090900Z 07004KT 5000 HZ SCT018 30/24 Q1010 RMK RA TO SW=
202209090830 METAR WIHH 090830Z 07006KT 5000 HZ SCT018 29/23 Q1009 RMK RA TO SW=
202209090800 METAR WIHH 090800Z 02006KT 5000 HZ SCT018 29/23 Q1010 RMK RA TO SW=
202209090730 METAR WIHH 090730Z 08008KT 5000 HZ SCT018 30/22 Q1010 RMK RA TO SW=
202209090700 METAR WIHH 090700Z 05008KT 5000 HZ SCT018 30/22 Q1010 RMK RA TO SW=
202209090630 METAR WIHH NIL=
202209090600 METAR WIHH NIL=
202209090530 METAR WIHH 090530Z 03004KT 4000 HZ SCT018 27/24 Q1012 RMK RA TO SW=
202209090500 METAR WIHH 090500Z 01004KT 4000 HZ SCT018 31/23 Q1012 RMK RA TO NE=
202209090400 METAR WIHH 090400Z 10003KT 5000 HZ SCT020 31/22 Q1013 NOSIG=
202209090330 METAR WIHH NIL=
202209090300 METAR WIHH NIL=
202209090230 METAR WIHH NIL=
202209090200 METAR WIHH NIL=
202209090130 METAR WIHH 090130Z 25003KT 5000 HZ FEW020 27/23 Q1013 NOSIG=
202209090100 METAR WIHH 090100Z 26003KT 4000 HZ FEW022 27/25 Q1013 NOSIG=
202209090030 METAR WIHH NIL=
202209090000 METAR WIHH NIL=
202209082330 METAR WIHH NIL=
202209082300 METAR WIHH NIL=
202209082230 METAR WIHH NIL=
202209082100 METAR WIHH NIL=
202209082030 METAR WIHH NIL=
202209082000 METAR WIHH NIL=
202209081930 METAR WIHH NIL=
202209081900 METAR WIHH NIL=
202209081830 METAR WIHH NIL=
202209081800 METAR WIHH NIL=
202209081730 METAR WIHH NIL=
202209081700 METAR WIHH NIL=
202209081630 METAR WIHH NIL=
202209081600 METAR WIHH NIL=
202209081530 METAR WIHH NIL=
202209081500 METAR WIHH NIL=
202209081430 METAR WIHH NIL=
202209081400 METAR WIHH NIL=
202209081330 METAR WIHH NIL=
202209081300 METAR WIHH NIL=
202209081230 METAR WIHH NIL=
202209081200 METAR WIHH NIL=
202209081130 METAR WIHH NIL=
202209081100 METAR WIHH NIL=
202209081000 METAR WIHH NIL=
202209080900 METAR WIHH 080900Z 25005KT 4000 -RA SCT018 26/24 Q1011 NOSIG=
202209080830 METAR WIHH 080830Z 27005KT 4000 -RA SCT018 26/24 Q1011 NOSIG=
202209080800 METAR WIHH 080800Z 27005KT 3000 -RA SCT018 26/24 Q1011 NOSIG=
202209080730 METAR WIHH 080730Z 33003KT 2500 -RA BKN018 26/24 Q1011 NOSIG=
202209080700 METAR WIHH NIL=
202209080630 METAR WIHH NIL=
202209080600 METAR WIHH NIL=
202209080530 METAR WIHH 080530Z 00000KT 3000 HZ SCT017 28/24 Q1012 RMK RA TO E=
202209080500 METAR WIHH 080500Z 04003KT 3000 HZ SCT017 28/25 Q1013 RMK RA TO E=
202209080430 METAR WIHH 080430Z 00000KT 2000 -RA BKN017 27/25 Q1013 NOSIG=
202209080400 METAR WIHH 080400Z 27003KT 2000 -RA BKN017 27/25 Q1014 NOSIG=
202209080330 METAR WIHH 080330Z 06003KT 3000 -RA SCT017 27/26 Q1014 NOSIG=
202209080300 METAR WIHH 080300Z 270003KT 3000 BR SCT018 27/26 Q1014 NOSIG=
202209080230 METAR WIHH 080230Z 27003KT 3000 BR SCT018 26/25 Q1014 NOSIG=
202209080200 METAR WIHH 080200Z 27004KT 4000 HZ SCT018 26/25 Q1014 NOSIG=
202209080130 METAR WIHH 080130Z 00000KT 2000 -RA BKN018 25/25 Q1014 NOSIG=
202209080100 METAR WIHH 080100Z 00000KT 2000 -RA BKN018 25/25 Q1013 NOSIG=
202209080030 METAR WIHH 080030Z 00000KT 2000 -RA BKN018 25/25 Q1013 NOSIG=
202209080000 METAR WIHH NIL=
202209072330 METAR WIHH NIL=
202209072300 METAR WIHH NIL=
202209072230 METAR WIHH NIL=
202209072200 METAR WIHH NIL=
202209072130 METAR WIHH NIL=
202209072100 METAR WIHH NIL=
202209072030 METAR WIHH NIL=
202209072000 METAR WIHH NIL=
202209071930 METAR WIHH NIL=
202209071900 METAR WIHH NIL=
202209071830 METAR WIHH NIL=
202209071800 METAR WIHH NIL=
202209071730 METAR WIHH NIL=
202209071700 METAR WIHH NIL=
202209071600 METAR WIHH NIL=
202209071530 METAR WIHH NIL=
202209071500 METAR WIHH NIL=
202209071430 METAR WIHH NIL=
202209071400 METAR WIHH NIL=
202209071330 METAR WIHH NIL=
202209071300 METAR WIHH NIL=
202209071230 METAR WIHH NIL=
202209071200 METAR WIHH NIL=
202209071130 METAR WIHH NIL=
202209071100 METAR WIHH NIL=
202209071030 METAR WIHH NIL=
202209071000 METAR WIHH NIL=
202209070900 METAR WIHH NIL=
202209070830 METAR WIHH 070830Z 31004KT 5000 HZ SCT020 29/25 Q1008 RMK RA TO SE=
202209070800 METAR WIHH 070800Z 34006KT 5000 HZ SCT020 28/25 Q1008 RMK RA TO SE=
202209070730 METAR WIHH 070730Z 32005KT 5000 HZ SCT020 28/24 Q1008 RMK RA TO N=
202209070700 METAR WIHH 070700Z 36003KT 5000 HZ FEW018CB SCT019 27/24 Q1009 RMK CB AND RA TO N=
202209070630 METAR WIHH 070630Z 30005KT 4000 -TSRA FEW018CB SCT019 25/25 Q1009 RMK CB AND RA TO N=
202209070600 METAR WIHH 070600Z 26007KT 3000 -TSRA FEW018CB BKN019 25/25 Q1010 RMK OTF=
202209070530 METAR WIHH 070530Z 29008KT 3000 -TSRA FEW018CB BKN019 25/25 Q1010 RMK CB TO NW=
202209070500 METAR WIHH 070500Z 25004KT 3000 -TSRA FEW018CB BKN019 27/26 Q1010 RMK CB TO NW=
202209070430 METAR WIHH NIL=
202209070400 METAR WIHH 070400Z 08007KT 5000 HZ SCT020 32/24 Q1011 RMK RA TO E=
202209070330 METAR WIHH NIL=
202209070300 METAR WIHH 070300Z 11003KT 5000 HZ SCT020 30/24 Q1012 NOSIG=
202209070230 METAR WIHH NIL=
202209070200 METAR WIHH 070200Z 19003KT 5000 HZ FEW020 29/26 Q1012 NOSIG=
202209070130 METAR WIHH NIL=
202209070100 METAR WIHH 070100Z 22003KT 4000 BR FEW020 28/27 Q1012 NOSIG=
202209070030 METAR WIHH NIL=
202209070000 METAR WIHH NIL=
202209062330 METAR WIHH NIL=
202209062300 METAR WIHH NIL=
202209062230 METAR WIHH NIL=
202209062200 METAR WIHH NIL=
202209062130 METAR WIHH NIL=
202209062100 METAR WIHH NIL=
202209062030 METAR WIHH NIL=
202209062000 METAR WIHH NIL=
202209061930 METAR WIHH NIL=
202209061900 METAR WIHH NIL=
202209061830 METAR WIHH NIL=
202209061800 METAR WIHH NIL=
202209061730 METAR WIHH NIL=
202209061700 METAR WIHH NIL=
202209061630 METAR WIHH NIL=
202209061600 METAR WIHH NIL=
202209061530 METAR WIHH NIL=
202209061500 METAR WIHH NIL=
202209061430 METAR WIHH NIL=
202209061400 METAR WIHH NIL=
202209061330 METAR WIHH NIL=
202209061300 METAR WIHH NIL=
202209061230 METAR WIHH NIL=
202209061200 METAR WIHH NIL=
202209061130 METAR WIHH NIL=
202209061100 METAR WIHH NIL=
202209061030 METAR WIHH NIL=
202209061000 METAR WIHH NIL=
202209060930 METAR WIHH 060930Z 07010KT 6000 SCT020 32/23 Q1007 NOSIG=
202209060900 METAR WIHH 060900Z 06010KT 6000 FEW020 33/23 Q1007 NOSIG=
202209060830 METAR WIHH NIL=
202209060800 METAR WIHH NIL=
202209060730 METAR WIHH 060730Z 04010KT 6000 SCT020 33/22 Q1007 NOSIG=
202209060700 METAR WIHH 060700Z 02010KT 6000 SCT020 34/22 Q1007 NOSIG=
202209060630 METAR WIHH 060630Z 07010KT 6000 SCT020 33/22 Q1007 NOSIG=
202209060600 METAR WIHH 060600Z 09010KT 6000 SCT020 33/22 Q1008 NOSIG=
202209060530 METAR WIHH 060530Z 06010KT 6000 SCT020 33/22 Q1008 NOSIG=
202209060500 METAR WIHH 060500Z 06010KT 6000 SCT020 32/22 Q1009 NOSIG=
202209060430 METAR WIHH 060430Z 06010KT 6000 SCT020 32/22 Q1009 NOSIG=
202209060400 METAR WIHH 060400Z 09008KT 6000 SCT020 32/22 Q1010 NOSIG=
202209060330 METAR WIHH 060330Z 07007KT 6000 SCT020 32/23 Q1010 NOSIG=
202209060300 METAR WIHH 060300Z 07007KT 6000 SCT018 31/23 Q1011 NOSIG=
202209060230 METAR WIHH 060230Z 10006KT 6000 SCT018 31/24 Q1011 NOSIG=
202209060200 METAR WIHH 060200Z 09007KT 5000 HZ SCT018 29/24 Q1011 NOSIG=
202209060130 METAR WIHH 060130Z 10006KT 4000 HZ SCT018 29/24 Q1011 NOSIG=
202209060100 METAR WIHH 060100Z 11004KT 4000 HZ SCT020 28/25 Q1011 RMK RA TO W=
202209060030 METAR WIHH NIL=
202209060000 METAR WIHH NIL=
202209052330 METAR WIHH NIL=
202209052300 METAR WIHH NIL=
202209052200 METAR WIHH NIL=
202209052130 METAR WIHH NIL=
202209052100 METAR WIHH NIL=
202209052030 METAR WIHH NIL=
202209052000 METAR WIHH NIL=
202209051930 METAR WIHH NIL=
202209051900 METAR WIHH NIL=
202209051830 METAR WIHH NIL=
202209051800 METAR WIHH NIL=
202209051730 METAR WIHH NIL=
202209051700 METAR WIHH NIL=
202209051600 METAR WIHH NIL=
202209051530 METAR WIHH NIL=
202209051500 METAR WIHH NIL=
202209051430 METAR WIHH NIL=
202209051400 METAR WIHH NIL=
202209051330 METAR WIHH NIL=
202209051300 METAR WIHH NIL=
202209051230 METAR WIHH NIL=
202209051200 METAR WIHH NIL=
202209051130 METAR WIHH NIL=
202209051030 METAR WIHH NIL=
202209051000 METAR WIHH 051000Z 06012KT 6000 FEW020 32/22 Q1007 NOSIG=
202209050930 METAR WIHH 050930Z 06012KT 6000 SCT020 32/23 Q1007 NOSIG=
202209050900 METAR WIHH NIL=
202209050830 METAR WIHH 050830Z 03015KT 6000 SCT020 33/22 Q1007 NOSIG=
202209050800 METAR WIHH 050800Z 06012KT 6000 SCT020 32/21 Q1007 RMK RA TO W=
202209050730 METAR WIHH 050730Z 03012KT 6000 SCT020 32/21 Q1007 RMK RA TO W=
202209050700 METAR WIHH NIL=
202209050630 METAR WIHH NIL=
202209050600 METAR WIHH 050600Z 03008KT 6000 SCT020 33/21 Q1009 NOSIG=
202209050530 METAR WIHH NIL=
202209050500 METAR WIHH 050500Z 09010KT 5000 HZ SCT018 33/20 Q1009 NOSIG=
202209050430 METAR WIHH 050430Z 06010KT 5000 HZ SCT018 33/21 Q1010 NOSIG=
202209050400 METAR WIHH NIL=
202209050330 METAR WIHH 050330Z 12004KT 5000 HZ SCT020 33/21 Q1011 NOSIG=
202209050300 METAR WIHH 050300Z 21004KT 5000 HZ FEW020 32/23 Q1011 NOSIG=
202209050230 METAR WIHH NIL=
202209050200 METAR WIHH 050200Z 18004KT 5000 HZ SCT020 30/23 Q1012 NOSIG=
202209050130 METAR WIHH NIL=
202209050100 METAR WIHH 050100Z 00000KT 5000 HZ FEW020 29/25 Q1011 NOSIG=
202209050000 METAR WIHH NIL=
202209042330 METAR WIHH NIL=
202209042300 METAR WIHH NIL=
202209042230 METAR WIHH NIL=
202209042200 METAR WIHH NIL=
202209042130 METAR WIHH NIL=
202209042100 METAR WIHH NIL=
202209042030 METAR WIHH NIL=
202209042000 METAR WIHH NIL=
202209041930 METAR WIHH NIL=
202209041900 METAR WIHH NIL=
202209041830 METAR WIHH NIL=
202209041800 METAR WIHH NIL=
202209041730 METAR WIHH NIL=
202209041700 METAR WIHH NIL=
202209041630 METAR WIHH NIL=
202209041600 METAR WIHH NIL=
202209041530 METAR WIHH NIL=
202209041500 METAR WIHH NIL=
202209041430 METAR WIHH NIL=
202209041400 METAR WIHH NIL=
202209041330 METAR WIHH NIL=
202209041300 METAR WIHH NIL=
202209041230 METAR WIHH NIL=
202209041200 METAR WIHH NIL=
202209041130 METAR WIHH NIL=
202209041100 METAR WIHH NIL=
202209041030 METAR WIHH NIL=
202209041000 METAR WIHH NIL=
202209040930 METAR WIHH NIL=
202209040900 METAR WIHH NIL=
202209040830 METAR WIHH NIL=
202209040800 METAR WIHH NIL=
202209040730 METAR WIHH NIL=
202209040700 METAR WIHH NIL=
202209040630 METAR WIHH NIL=
202209040600 METAR WIHH NIL=
202209040530 METAR WIHH NIL=
202209040500 METAR WIHH NIL=
202209040330 METAR WIHH NIL=
202209040300 METAR WIHH NIL=
202209040230 METAR WIHH NIL=
202209040200 METAR WIHH NIL=
202209040130 METAR WIHH NIL=
202209040100 METAR WIHH NIL=
202209040030 METAR WIHH NIL=
202209040000 METAR WIHH NIL=
202209032330 METAR WIHH NIL=
202209032300 METAR WIHH NIL=
202209032230 METAR WIHH NIL=
202209032130 METAR WIHH NIL=
202209032100 METAR WIHH NIL=
202209032030 METAR WIHH NIL=
202209032000 METAR WIHH NIL=
202209031930 METAR WIHH NIL=
202209031900 METAR WIHH NIL=
202209031830 METAR WIHH NIL=
202209031800 METAR WIHH NIL=
202209031730 METAR WIHH NIL=
202209031700 METAR WIHH NIL=
202209031630 METAR WIHH NIL=
202209031600 METAR WIHH NIL=
202209031530 METAR WIHH NIL=
202209031500 METAR WIHH NIL=
202209031430 METAR WIHH NIL=
202209031400 METAR WIHH NIL=
202209031330 METAR WIHH NIL=
202209031300 METAR WIHH NIL=
202209031230 METAR WIHH NIL=
202209031200 METAR WIHH NIL=
202209031130 METAR WIHH NIL=
202209031100 METAR WIHH NIL=
202209031030 METAR WIHH NIL=
202209031000 METAR WIHH NIL=
202209030930 METAR WIHH NIL=
202209030900 METAR WIHH NIL=
202209030830 METAR WIHH NIL=
202209030800 METAR WIHH NIL=
202209030730 METAR WIHH NIL=
202209030700 METAR WIHH NIL=
202209030630 METAR WIHH NIL=
202209030600 METAR WIHH NIL=
202209030530 METAR WIHH NIL=
202209030500 METAR WIHH NIL=
202209030430 METAR WIHH NIL=
202209030400 METAR WIHH NIL=
202209030330 METAR WIHH NIL=
202209030300 METAR WIHH NIL=
202209030230 METAR WIHH NIL=
202209030200 METAR WIHH NIL=
202209030130 METAR WIHH NIL=
202209030100 METAR WIHH NIL=
202209030030 METAR WIHH NIL=
202209030000 METAR WIHH NIL=
202209022330 METAR WIHH NIL=
202209022300 METAR WIHH NIL=
202209022200 METAR WIHH NIL=
202209022130 METAR WIHH NIL=
202209022100 METAR WIHH NIL=
202209022030 METAR WIHH NIL=
202209022000 METAR WIHH NIL=
202209021930 METAR WIHH NIL=
202209021900 METAR WIHH NIL=
202209021830 METAR WIHH NIL=
202209021800 METAR WIHH NIL=
202209021730 METAR WIHH NIL=
202209021700 METAR WIHH NIL=
202209021600 METAR WIHH NIL=
202209021500 METAR WIHH NIL=
202209021430 METAR WIHH NIL=
202209021400 METAR WIHH NIL=
202209021330 METAR WIHH NIL=
202209021300 METAR WIHH NIL=
202209021230 METAR WIHH NIL=
202209021200 METAR WIHH NIL=
202209021130 METAR WIHH NIL=
202209021100 METAR WIHH NIL=
202209021030 METAR WIHH NIL=
202209020930 METAR WIHH 020930Z 24005KT 5000 HZ BKN018 28/24 Q1008 NOSIG=
202209020900 METAR WIHH 020900Z 23010KT 5000 HZ BKN018 28/23 Q1008 RMK RA TO SW=
202209020830 METAR WIHH NIL=
202209020800 METAR WIHH NIL=
202209020730 METAR WIHH NIL=
202209020700 METAR WIHH 020700Z 09010KT 5000 HZ FEW017CB SCT018 34/22 Q1007 RMK CB AND RA TO SW=
202209020630 METAR WIHH 020630Z 06008KT 6000 FEW017CB SCT018 33/22 Q1008 RMK CB AND RA TO SW=
202209020600 METAR WIHH 020600Z 07008KT 6000 FEW017CB SCT018 32/22 Q1008 RMK CB AND RA TO SW=
202209020530 METAR WIHH NIL=
202209020500 METAR WIHH 020500Z 06010KT 6000 SCT18 32/22 Q1009 RMK RA TO SW=
202209020430 METAR WIHH 020430Z 06007KT 6000 SCT020 33/23 Q1010 NOSIG=
202209020400 METAR WIHH 020400Z 06006KT 6000 SCT020 32/22 Q1010 NOSIG=
202209020330 METAR WIHH 020330Z 09005KT 6000 SCT020 31/21 Q1011 NOSIG=
202209020300 METAR WIHH 020300Z 08007KT 5000 HZ SCT020 31/22 Q1011 NOSIG=
202209020230 METAR WIHH 020230Z 12005KT 5000 HZ SCT020 31/23 Q1011 NOSIG=
202209020200 METAR WIHH NIL=
202209020130 METAR WIHH 020130Z 08005KT 5000 HZ FEW020 29/23 Q1011 NOSIG=
202209020100 METAR WIHH 020100Z 11003KT 4000 HZ FEW020 28/25 Q1011 NOSIG=
202209020030 METAR WIHH NIL=
202209020000 METAR WIHH NIL=
202209012330 METAR WIHH NIL=
202209012300 METAR WIHH NIL=
202209012230 METAR WIHH NIL=
202209012200 METAR WIHH NIL=
202209012130 METAR WIHH NIL=
202209012100 METAR WIHH NIL=
202209012030 METAR WIHH NIL=
202209012000 METAR WIHH NIL=
202209011930 METAR WIHH NIL=
202209011900 METAR WIHH NIL=
202209011830 METAR WIHH NIL=
202209011800 METAR WIHH NIL=
202209011730 METAR WIHH NIL=
202209011700 METAR WIHH NIL=
202209011630 METAR WIHH NIL=
202209011600 METAR WIHH NIL=
202209011530 METAR WIHH NIL=
202209011500 METAR WIHH NIL=
202209011430 METAR WIHH NIL=
202209011400 METAR WIHH NIL=
202209011330 METAR WIHH NIL=
202209011300 METAR WIHH NIL=
202209011230 METAR WIHH NIL=
202209011200 METAR WIHH NIL=
202209011130 METAR WIHH NIL=
202209011100 METAR WIHH NIL=
202209011030 METAR WIHH NIL=
202209011000 METAR WIHH NIL=
202209010930 METAR WIHH NIL=
202209010900 METAR WIHH 010900Z 05015KT 6000 SCT020 32/23 Q1006 NOSIG=
202209010830 METAR WIHH 010830Z 09015KT 6000 SCT020 32/23 Q1006 NOSIG=
202209010800 METAR WIHH 010800Z 07013KT 6000 SCT020 33/22 Q1007 NOSIG=
202209010730 METAR WIHH 010730Z 07015KT 6000 SCT020 33/22 Q1007 NOSIG=
202209010700 METAR WIHH NIL=
202209010630 METAR WIHH 010630Z 08014KT 5000 HZ SCT020 33/23 Q1007 NOSIG=
202209010600 METAR WIHH 010600Z 04013KT 5000 HZ SCT020 34/23 Q1008 NOSIG=
202209010530 METAR WIHH 010530Z 07013KT 5000 HZ SCT020 33/22 Q1009 NOSIG=
202209010500 METAR WIHH 010500Z 10008KT 5000 HZ SCT020 32/23 Q1009 NOSIG=
202209010430 METAR WIHH 010430Z 07006KT 5000 HZ SCT020 32/23 Q1009 NOSIG=
202209010400 METAR WIHH 010400Z 08008KT 5000 HZ SCT020 30/23 Q1010 NOSIG=
202209010330 METAR WIHH 010330Z 09012KT 5000 HZ SCT020 31/22 Q1010 NOSIG=
202209010300 METAR WIHH 010300Z 13012KT 5000 HZ SCT020 31/24 Q1010 NOSIG=
202209010230 METAR WIHH 010230Z 09004KT 5000 HZ SCT020 30/24 Q1011 NOSIG=
202209010200 METAR WIHH 010200Z 15005KT 4000 HZ SCT020 30/24 Q1010 NOSIG=
202209010130 METAR WIHH 010130Z 20003KT 4000 HZ SCT020 29/25 Q1010 NOSIG=
202209010100 METAR WIHH 010100Z 18003KT 4000 HZ SCT020 28/25 Q1010 NOSIG=
202209010030 METAR WIHH NIL=
202209010000 METAR WIHH NIL=

# No short TAF reports from WIHH in databse.

###################################
#  large TAF from WIHH
###################################
202209302300 TAF WIHH 302300Z 0100/0200 15006KT 5000 HZ SCT020
                      TEMPO 0106/0110 03012KT 3000 -TSRA FEW017CB
                       BKN018
                      BECMG 0112/0114 21004KT 4000 HZ SCT018=
202209301700 TAF WIHH 301700Z 3018/0118 12005KT 5000 HZ FEW020
                      BECMG 0102/0104 21006KT 6000 SCT020=
202209301100 TAF WIHH 301100Z 3012/0112 09006KT 5000 HZ SCT020
                      BECMG 3020/3022 18003KT 4000 FEW020=
202209300500 TAF WIHH 300500Z 3006/0106 06008KT 5000 HZ SCT018
                      TEMPO 3007/3011 03012KT 3000 -TSRA FEW017CB
                       BKN018
                      BECMG 3013/3015 21004KT 4000 HZ SCT020=
202209292300 TAF WIHH 292300Z 3000/0100 23004KT 5000 HZ FEW022
                      BECMG 3002/3004 06010KT 6000 SCT020
                      TEMPO 3007/3011 09012KT 3000 -TSRA FEW017CB
                       BKN018=
202209291700 TAF WIHH 291700Z 2918/3018 16004KT 5000 HZ FEW022
                      BECMG 3002/3004 09010KT 6000 SCT020=
202209291100 TAF WIHH 291100Z 2912/3012 06008KT 6000 SCT020
                      BECMG 2915/2917 16005KT 5000 HZ FEW022=
202209290500 TAF WIHH 290500Z 2906/3006 03010KT 6000 SCT018
                      TEMPO 2907/2910 34012KT 4000 -RA FEW017CB
                       BECMG 2914/2916 21005KT 5000 HZ FEW022=
202209282300 TAF WIHH 282300Z 2900/3000 12006KT 5000 HZ SCT020
                      TEMPO 2908/2911 02010KT 3000 RA FEW017CB
                       BKN018
                      BECMG 2913/2915 24003KT 4000 HZ FEW020=
202209281700 TAF WIHH 281700Z 2818/2918 06005KT 5000 HZ FEW020
                      BECMG 2902/2904 24003KT=
202209281100 TAF WIHH 281100Z 2812/2912 03006KT 5000 HZ SCT020
                      BECMG 2821/2823 00000KT FEW020=
202209280500 TAF WIHH 280500Z 2806/2906 12008KT 6000 SCT020
                      BECMG 2815/2817 03004KT 5000 HZ FEW020=
202209272300 TAF WIHH 272300Z 2800/2900 10008KT 6000 FEW022
                      BECMG 2804/2806 36010KT SCT020
                      BECMG 2813/2815 22005KT 5000 HZ=
202209271700 TAF WIHH 271700Z 2718/2818 20004KT 5000 HZ FEW022
                      BECMG 2800/2802 10006KT 6000=
202209271100 TAF WIHH 271100Z 2712/2812 24006KT 6000 FEW022
                      BECMG 2715/2717 18004KT 5000 HZ=
202209270500 TAF WIHH 270500Z 2706/2806 04008KT 6000 SCT020
                      TEMPO 2710/2713 34010KT 3000 -RA BKN018
                      BECMG 2714/2716 22005KT 5000 HZ=
202209262300 TAF WIHH 262300Z 2700/2800 12006KT 6000 FEW020
                      TEMPO 2709/2712 04010KT 4000 -RA SCT018
                      BECMG 2714/2716 VRB03KT 5000 HZ SCT020=
202209261700 TAF WIHH 261700Z 2618/2718 06004KT 5000 HZ FEW020
                      BECMG 2704/2706 12008KT 6000 SCT020=
202209261100 TAF WIHH 261100Z 2612/2712 03005KT 4000 HZ SCT020
                      BECMG 2623/2701 24003KT BR FEW020=
202209260500 TAF WIHH 260500Z 2606/2706 15006KT 6000 SCT020
                      TEMPO 2609/2612 34010KT 4000 -RA BKN020
                      BECMG 2613/2615 03004KT 5000 HZ FEW020
                      BECMG 2619/2621 00000KT=
202209252300 TAF WIHH 252300Z 2600/2700 10005KT 6000 FEW022
                      BECMG 2604/2606 35010KT SCT020
                      TEMPO 2608/2611 27008KT 4000 -RA
                      BECMG 2614/2616 5000 HZ=
202209251700 TAF WIHH 251700Z 2518/2618 12004KT 5000 HZ FEW022
                      BECMG 2603/2605 01010KT SCT020=
202209251100 TAF WIHH 251100Z 2512/2612 34006KT 6000 FEW022
                      BECMG 2514/2516 13005KT 5000 HZ=
202209250500 TAF WIHH 250500Z 2506/2606 03010KT 6000 SCT020
                      TEMPO 2508/2511 35008KT 4000 -RA
                      BECMG 2512/2514 30005KT 5000 HZ=
202209242300 TAF WIHH 242300Z 2500/2600 15006KT 6000 FEW022
                      BECMG 2508/2510 05010G20KT SCT020
                      BECMG 2515/2517 VRB03KT 5000 HZ=
202209241700 TAF WIHH 241700Z 2418/2518 06005KT 6000 FEW020
                      BECMG 2503/2505 24004KT SCT020=
202209241100 TAF WIHH 241100Z 2412/2512 03005KT 6000 FEW020
                      BECMG 2419/2421 00000KT 5000 HZ=
202209240500 TAF WIHH 240500Z 2406/2506 12006KT 6000 SCT020
                      TEMPO 2409/2412 24010KT 4000 -RA BKN018
                      BECMG 2414/2416 03004KT 5000 HZ FEW020=
202209232300 TAF WIHH 232300Z 2400/2500 10004KT 6000 FEW022
                      BECMG 2403/2405 02010KT SCT020
                      TEMPO 2408/2411 23012KT 4000 -TSRA FEW017CB
                       BECMG 2412/2414 20005KT 5000 HZ=
202209231700 TAF WIHH 231700Z 2318/2418 15004KT 4000 HZ FEW022
                      BECMG 2402/2404 26006KT 6000=
202209231100 TAF WIHH 231100Z 2312/2412 10006KT 4000 -RA FEW017CB SCT018
                      BECMG 2314/2316 5000 HZ FEW022=
202209230500 TAF WIHH 230500Z 2306/2406 03010KT 6000 SCT020
                      TEMPO 2306/2309 3000 -TSRA FEW017CB BKN018
                       BECMG 2310/2312 22008KT 5000 HZ
                      BECMG 2315/2317 09005KT FEW022=
202209222300 TAF WIHH 222300Z 2300/2400 12006KT 5000 HZ SCT020
                      TEMPO 2306/2309 34012KT 2000 -TSRA FEW017CB
                       BKN018
                      BECMG 2311/2313 06004KT 4000 HZ SCT018=
202209221700 TAF WIHH 221700Z 2218/2318 09004KT 5000 HZ FEW020
                      BECMG 2302/2304 21003KT SCT020=
202209221100 TAF WIHH 221100Z 2212/2312 12005KT 4000 HZ SCT020
                      TEMPO 2212/2214 18008KT 3000 -RA FEW017CB
                       SCT018
                      BECMG 2215/2217 VRB03KT 5000 HZ SCT020
                      BECMG 2221/2223 00000KT 3000 BR FEW020=
202209220500 TAF WIHH 220500Z 2206/2306 06005KT 5000 HZ SCT018
                      TEMPO 2207/2210 24010KT 3000 -TSRA FEW017CB
                       BKN018
                      BECMG 2211/2213 02003KT 5000 HZ SCT020
                      BECMG 2218/2220 00000KT FEW020=
202209212300 TAF WIHH 212300Z 2200/2300 23005KT 6000 FEW022
                      BECMG 2203/2205 33008KT SCT020
                      TEMPO 2207/2211 21010KT 3000 -TSRA FEW017CB
                       BECMG 2213/2215 18005KT 5000 HZ=
202209211700 TAF WIHH 211700Z 2118/2218 22003KT 5000 HZ SCT020
                      BECMG 2202/2204 30008KT 6000=
202209211100 TAF WIHH 211100Z 2112/2212 23004KT 5000 HZ SCT020
                      TEMPO 2117/2120 27008KT 4000 -RA BKN018=
202209210500 TAF WIHH 210500Z 2106/2206 04008KT 6000 SCT020
                      TEMPO 2108/2112 4000 -RA BKN018
                      BECMG 2113/2115 26005KT 5000 HZ=
202209202300 TAF WIHH 202300Z 2100/2200 09006KT 6000 FEW020
                      TEMPO 2109/2112 30010KT 4000 -RA SCT018
                      BECMG 2113/2115 VRB03KT 5000 HZ SCT020=
202209201700 TAF WIHH 201700Z 2018/2118 12005KT 5000 HZ FEW020
                      BECMG 2104/2106 03004KT 6000 SCT020=
202209201100 TAF WIHH 201100Z 2012/2112 03006KT 5000 HZ SCT020
                      BECMG 2020/2022 00000KT 4000 FEW020=
202209200500 TAF WIHH 200500Z 2006/2106 12006KT 5000 HZ SCT020
                      BECMG 2015/2017 03004KT FEW020=
202209192300 TAF WIHH 192300Z 2000/2100 16004KT 5000 HZ FEW022
                      BECMG 2002/2004 03010KT 6000 SCT020
                      TEMPO 2008/2012 35012KT 4000 -RA
                      BECMG 2014/2016 21005KT 5000 HZ=
202209191700 TAF WIHH 191700Z 1918/2018 22003KT 4000 HZ FEW022
                      BECMG 2004/2006 02010KT 6000 SCT020=
202209191100 TAF WIHH 191100Z 1912/2012 23005KT 6000 SCT020
                      BECMG 1914/1916 5000 HZ FEW022=
202209190500 TAF WIHH 190500Z 1906/2006 03010KT 6000 SCT020
                      TEMPO 1908/1912 4000 -RA BKN018
                      BECMG 1914/1916 26003KT 5000 HZ FEW022=
202209182300 TAF WIHH 182300Z 1900/2000 16004KT 4000 HZ FEW022
                      BECMG 1903/1905 09005KT 6000 SCT020
                      TEMPO 1908/1912 03010KT 4000 -RA BKN018
                      BECMG 1913/1915 00000KT 5000 HZ=
202209181700 TAF WIHH 181700Z 1818/1918 21005KT 4000 HZ FEW022
                      BECMG 1903/1905 03010KT 6000 SCT020=
202209181100 TAF WIHH 181100Z 1812/1912 22005KT 6000 SCT020
                      BECMG 1815/1817 VRB04KT 5000 HZ FEW022=
202209180500 TAF WIHH 180500Z 1806/1906 02010KT 6000 SCT020
                      BECMG 1815/1817 22005KT 5000 HZ FEW022=
202209172300 TAF WIHH 172300Z 1800/1900 12008KT 6000 FEW020
                      BECMG 1812/1814 03005KT 5000 HZ SCT020=
202209171700 TAF WIHH 171700Z 1718/1818 34005KT 5000 HZ FEW020
                      BECMG 1804/1806 12006KT 6000 SCT020=
202209171100 TAF WIHH 171100Z 1712/1812 03006KT 6000 SCT020
                      BECMG 1723/1801 00000KT 4000 HZ FEW020=
202209170500 TAF WIHH 170500Z 1706/1806 06006KT 5000 HZ SCT020
                      TEMPO 1708/1711 34010KT 3000 -TSRA FEW017CB
                       BKN018
                      BECMG 1713/1715 24003KT 4000 HZ FEW020
                      BECMG 1720/1722 00000KT BR=
202209162300 TAF WIHH 162300Z 1700/1800 12006KT 5000 HZ FEW020
                      TEMPO 1706/1710 34010KT 3000 -TSRA FEW017CB
                       BKN018
                      BECMG 1712/1714 03003KT 4000 HZ SCT020=
202209161640 TAF WIHH 161640Z 1618/1718 03005KT 5000 HZ FEW020
                      BECMG 1702/1704 12003KT 6000 SCT020=
202209161100 TAF WIHH 161100Z 1612/1712 36006KT 5000 HZ SCT020
                      TEMPO 1612/1615 12008KT 3000 -RA BKN018
                      BECMG 1617/1619 VRB03KT 4000 HZ FEW020=
202209160500 TAF WIHH 160500Z 1606/1706 15008KT 6000 SCT020
                      BECMG 1615/1617 03003KT 5000 HZ FEW020=
202209152300 TAF WIHH 152300Z 1600/1700 10005KT 6000 FEW022
                      BECMG 1603/1605 04008KT SCT020
                      BECMG 1614/1616 14004KT 5000 HZ=
202209151700 TAF WIHH 151700Z 1518/1618 20003KT 5000 HZ FEW022
                      BECMG 1601/1603 09008KT 6000 SCT020=
202209151100 TAF WIHH 151100Z 1512/1612 23005KT 6000 SCT020
                      BECMG 1515/1517 5000 HZ FEW022
                      BECMG 1602/1604 09008KT 6000=
202209150500 TAF WIHH 150500Z 1506/1606 06012KT 6000 SCT020
                      BECMG 1515/1517 21005KT 5000 HZ FEW022=
202209142300 TAF WIHH 142300Z 1500/1600 12006KT 6000 FEW022
                      BECMG 1508/1510 06010KT SCT020
                      BECMG 1516/1518 VRB03KT 5000 HZ=
202209141700 TAF WIHH 141700Z 1418/1518 12006KT 6000 FEW020
                      BECMG 1503/1505 24003KT SCT020=
202209141100 TAF WIHH 141100Z 1412/1512 06008KT 6000 SCT020
                      BECMG 1418/1420 00000KT 5000 HZ FEW020=
202209140500 TAF WIHH 140500Z 1406/1506 09006KT 5000 HZ SCT020
                      TEMPO 1409/1412 03008KT 4000 -RA BKN018
                      BECMG 1414/1416 00000KT 4000 HZ FEW020=
202209132300 TAF WIHH 132300Z 1400/1500 10005KT 4000 HZ FEW022
                      BECMG 1403/1405 02012KT 6000 SCT020
                      TEMPO 1409/1412 34010KT 3000 -TSRA FEW017CB
                       BECMG 1414/1416 21005KT 5000 HZ=
202209131700 TAF WIHH 131700Z 1318/1418 23004KT 4000 HZ FEW022
                      BECMG 1403/1405 36010KT 6000=
202209131100 TAF WIHH 131100Z 1312/1412 23005KT 6000 SCT020
                      TEMPO 1312/1314 4000 -RA BKN018
                      BECMG 1315/1317 18003KT 4000 HZ FEW022=
202209130505 TAF AMD WIHH 130505Z 1306/1406 02010KT 6000 SCT020
                      TEMPO 1306/1310 4000 -RA BKN018
                      BECMG 1312/1314 21006KT 5000 HZ=
202209130500 TAF WIHH 130500Z 1306/1406 02010KT 6000 SCT020
                      TEMPO 1307/1311 16008KT 4000 -RA BKN018
                      BECMG 1312/1314 21006KT 5000 HZ=
202209122300 TAF WIHH 122300Z 1300/1400 15006KT 6000 FEW020
                      TEMPO 1307/1310 24010KT 3000 -TSRA FEW017CB
                       BKN018
                      BECMG 1312/1314 09003KT 5000 HZ SCT020=
202209121700 TAF WIHH 121700Z 1218/1318 03005KT 5000 HZ SCT020
                      BECMG 1303/1305 24003KT 6000=
202209121100 TAF WIHH 121100Z 1212/1312 03005KT 5000 HZ SCT020
                      BECMG 1223/1301 00000KT BR FEW022=
202209120500 TAF WIHH 120500Z 1206/1306 12006KT 5000 HZ SCT018
                      TEMPO 1207/1211 34010KT 2000 -TSRA FEW017CB
                       BKN018
                      BECMG 1213/1215 03004KT 4000 HZ SCT020
                      BECMG 1219/1221 00000KT BR FEW020=
202209112300 TAF WIHH 112300Z 1200/1300 06006KT 5000 HZ FEW022
                      BECMG 1202/1204 36010KT 6000 SCT020
                      TEMPO 1209/1212 14005KT 4000 -RA FEW017CB=
202209111700 TAF WIHH 111700Z 1118/1218 24004KT 4000 HZ SCT020
                      BECMG 1202/1204 09008KT 6000=
202209111230 TAF AMD WIHH 111230Z 1112/1212 16005KT 5000 HZ SCT020
                      TEMPO 1113/1116 23008KT 3000 -TSRA FEW017CB
                       BECMG 1117/1119 4000 HZ=
202209111100 TAF WIHH 111100Z 1112/1212 16005KT 6000 SCT020
                      BECMG 1114/1116 VRB03KT 5000 HZ=
202209110500 TAF WIHH 110500Z 1106/1206 02008KT 5000 HZ SCT020
                      TEMPO 1107/1111 09004KT 2000 -TSRA FEW017CB
                       BKN018
                      TEMPO 1114/1117 14005KT 3000 -RA
                      BECMG 1118/1120 00000KT 4000 HZ FEW022=
202209102300 TAF WIHH 102300Z 1100/1200 15008KT 5000 HZ SCT018
                      TEMPO 1108/1112 34010KT 2000 -TSRA FEW017CB
                       BKN018
                      BECMG 1114/1116 21003KT 4000 HZ SCT020=
202209101700 TAF WIHH 101700Z NIL=
202209101100 TAF WIHH 101100Z 1012/1112 24006KT 3000 -RA BKN018
                      BECMG 1016/1018 00000KT BR SCT020
                      BECMG 1023/1101 VRB03KT 4000 FEW020=
202209100500 TAF WIHH 100500Z 1006/1106 12008KT 5000 HZ SCT020
                      TEMPO 1007/1011 03010KT 2000 -TSRA FEW017CB
                       BKN018
                      TEMPO 1013/1016 34006KT 3000 -RA BKN020
                      BECMG 1018/1020 00000KT BR SCT020=
202209092300 TAF WIHH 092300Z 1000/1100 21004KT 4000 HZ FEW020
                      BECMG 1003/1005 05010KT 6000 SCT018
                      TEMPO 1007/1011 23006KT 2000 -TSRA FEW016CB
                       BKN017=
202209091700 TAF WIHH 091700Z 0918/1018 VRB03KT 4000 HZ SCT020
                      BECMG 0922/1000 00000KT 3000 BR=
202209091100 TAF WIHH 091100Z 0912/1012 16004KT 2000 -TSRA FEW017CB BKN018
                      BECMG 0915/0917 VRB03KT 3000 BR SCT020=
202209090500 TAF WIHH 090500Z 0906/1006 05008KT 6000 SCT020
                      TEMPO 0907/0911 3000 -TSRA FEW017CB BKN018
                       BECMG 0912/0914 15005KT 4000 HZ=
202209082300 TAF WIHH 082300Z 0900/1000 15006KT 5000 HZ SCT020
                      TEMPO 0907/0911 27010KT 2000 -TSRA FEW018CB
                       BKN020
                      BECMG 0913/0915 00000KT 3000 BR=
202209081700 TAF WIHH 081700Z 0818/0918 06006KT 4000 HZ SCT018
                      TEMPO 0819/0823 02004KT 3000 -RA BKN018
                      BECMG 0901/0903 00000KT BR SCT020=
202209071100 TAF WIHH 071100Z 0712/0812 17008KT 3000 -RA FEW017CB SCT018
                      BECMG 0714/0716 4000 HZ FEW022=
202209070500 TAF WIHH 070500Z 0706/0806 35010KT 5000 HZ SCT018
                      TEMPO 0706/0709 2000 -TSRA FEW017CB BKN018
                       BECMG 0711/0713 15008KT 4000 HZ SCT020=
202209062300 TAF WIHH 062300Z 0700/0800 18008KT 5000 HZ FEW020
                      BECMG 0703/0705 09004KT 6000 SCT020
                      TEMPO 0708/0712 27010KT 2000 TSRA FEW017CB
                       BKN018
                      BECMG 0714/0716 21003KT 4000 HZ SCT018=
202209061700 TAF WIHH 061700Z 0618/0718 12006KT 5000 HZ FEW020
                      BECMG 0700/0702 03004KT 4000 SCT020=
202209061100 TAF WIHH 061100Z 0612/0712 03006KT 5000 HZ SCT020
                      BECMG 0620/0622 00000KT 4000 BR FEW020=
202209060500 TAF WIHH 060500Z 0606/0706 09008KT 5000 HZ SCT020
                      TEMPO 0610/0613 27010KT 3000 -RA BKN018
                      BECMG 0615/0617 03004KT 4000 HZ FEW020=
202209052300 TAF WIHH 052300Z 0600/0700 11008KT 3000 BR FEW022
                      BECMG 0603/0605 06012KT 6000 SCT020
                      TEMPO 0610/0613 20006KT 4000 -RA BKN018=
202209051700 TAF WIHH 051700Z 0518/0618 21004KT 5000 HZ FEW022
                      BECMG 0602/0604 08008KT 6000=
202209051100 TAF WIHH 051100Z 0512/0612 21008KT 6000 FEW022
                      BECMG 0516/0518 16005KT 5000 HZ=
202209050500 TAF WIHH 050500Z 0506/0606 04012KT 6000 SCT018
                      TEMPO 0511/0514 22010KT 4000 -RA BKN017
                      BECMG 0515/0517 16005KT 5000 HZ FEW022=
202209042300 TAF WIHH 042300Z 0500/0600 12006KT 6000 FEW020
                      BECMG 0507/0509 03010KT SCT018=
202209041700 TAF WIHH 041700Z NIL=
202209041100 TAF WIHH 041100Z 0412/0512 03006KT 5000 HZ SCT020
                      BECMG 0418/0420 00000KT HZ FEW020=
202209040500 TAF WIHH 040500Z 0406/0506 15008KT 6000 SCT020
                      TEMPO 0410/0413 30010KT 4000 -RA BKN018
                      BECMG 0415/0417 03004KT 5000 HZ FEW020=
202209032300 TAF WIHH 032300Z 0400/0500 11005KT 6000 FEW022
                      BECMG 0403/0405 35012KT SCT020
                      BECMG 0414/0416 04005KT 5000 HZ=
202209031700 TAF WIHH 031700Z 0318/0418 25006KT 5000 HZ FEW022
                      BECMG 0400/0402 02010KT 6000=
202209031100 TAF WIHH 031100Z 0312/0412 25010KT 6000 FEW022
                      BECMG 0315/0317 22005KT 5000 HZ=
202209030500 TAF WIHH 030500Z 0306/0406 28010KT 6000 SCT018
                      TEMPO 0309/0312 22012KT 4000 -RA FEW017CB
                       BECMG 0315/0317 20004KT 4000 HZ FEW022=
202209022300 TAF WIHH 022300Z 0300/0400 12006KT 5000 HZ FEW020
                      BECMG 0303/0305 02004KT 6000 SCT020
                      TEMPO 0309/0312 34010KT 3000 -RA FEW017CB
                       SCT018
                      BECMG 0314/0316 VRB03KT 4000 HZ FEW020=
202209021700 TAF WIHH 021700Z 0218/0318 03005KT 5000 HZ FEW020
                      BECMG 0302/0304 27003KT 6000 SCT020=
202209021100 TAF WIHH 021100Z 0212/0312 24006KT 5000 HZ SCT020
                      BECMG 0218/0220 00000KT 4000 FEW020=
202209020500 TAF WIHH 020500Z 0206/0306 09008KT 5000 HZ SCT018
                      TEMPO 0207/0211 34010KT 2000 -TSRA FEW017CB
                       BKN018
                      BECMG 0213/0215 03004KT 4000 HZ SCT020=
202209012300 TAF WIHH 012300Z 0200/0300 13004KT 4000 HZ FEW022
                      BECMG 0202/0204 35012KT 6000 SCT020
                      TEMPO 0207/0210 30010KT 4000 -RA
                      BECMG 0212/0214 24008KT 5000 HZ=
202209011700 TAF WIHH 011700Z 0118/0218 25005KT 5000 HZ FEW022
                      BECMG 0201/0203 35010KT 6000 SCT020=
202209011100 TAF WIHH 011100Z 0112/0212 24008KT 6000 FEW022
                      BECMG 0115/0117 30005KT 5000 HZ=
202209010500 TAF WIHH 010500Z 0106/0206 06012KT 6000 SCT020
                      TEMPO 0107/0111 3000 -RA FEW017CB BKN018
                       BECMG 0112/0114 20004KT 5000 HZ FEW022=
