##########################################################
# Query made at 05/05/2026 03:17:47 UTC
# Time interval: from 04/01/2025 00:00  to 04/30/2025 23:59  UTC
##########################################################

##########################################################
# WIHH, Jakarta Halim Perdanakusuma (Indonesia)
# WMO index: 96747. WIGOS ID: Unknown
# Latitude 06-15S. Longitude 106-54E. Altitude 30 m.
##########################################################

###################################
#  METAR/SPECI from WIHH
###################################
202504302330 METAR WIHH NIL=
202504302300 METAR WIHH NIL=
202504302200 METAR WIHH 302200Z 00000KT 6000 FEW020 25/24 Q1009 NOSIG=
202504302130 METAR WIHH 302130Z 00000KT 6000 SCT020 25/24 Q1009 NOSIG=
202504302100 METAR WIHH NIL=
202504302030 METAR WIHH NIL=
202504302000 METAR WIHH NIL=
202504301900 METAR WIHH NIL=
202504301830 METAR WIHH NIL=
202504301800 METAR WIHH NIL=
202504301730 METAR WIHH NIL=
202504301700 METAR WIHH 301700Z 18003KT 8000 SCT020 27/25 Q1011 NOSIG=
202504301630 METAR WIHH NIL=
202504301600 METAR WIHH NIL=
202504301530 METAR WIHH 301530Z 00000KT 8000 SCT020 27/25 Q1010 NOSIG=
202504301500 METAR WIHH 301500Z 00000KT 8000 SCT020 28/25 Q1010 NOSIG=
202504301430 METAR WIHH NIL=
202504301400 METAR WIHH 301400Z 07004KT 8000 SCT020 29/24 Q1010 NOSIG=
202504301330 METAR WIHH 301330Z 07005KT 7000 SCT020 29/24 Q1010 NOSIG=
202504301300 METAR WIHH 301300Z 05006KT 7000 SCT020 29/24 Q1010 NOSIG=
202504301230 METAR WIHH 301230Z 07006KT 7000 SCT020 29/24 Q1009 NOSIG=
202504301200 METAR WIHH 301200Z 04006KT 7000 SCT020 29/24 Q1008 NOSIG=
202504301130 METAR WIHH 301130Z 04010KT 7000 SCT018 29/24 Q1008 NOSIG=
202504301100 METAR WIHH 301100Z 05010KT 7000 SCT018 29/24 Q1008 RMK RA TO SW=
202504301000 METAR WIHH NIL=
202504300930 METAR WIHH 300930Z 06010KT 7000 SCT018 31/23 Q1007 RMK RA TO S=
202504300900 METAR WIHH NIL=
202504300830 METAR WIHH NIL=
202504300800 METAR WIHH 300800Z 35006KT 6000 SCT018 32/23 Q1006 RMK RA TO SW=
202504300700 METAR WIHH NIL=
202504300630 METAR WIHH 300630Z 08008KT 6000 SCT018 32/22 Q1007 RMK RA TO NW=
202504300600 METAR WIHH 300600Z 04005KT 6000 SCT018 32/22 Q1008 RMK RA TO NW=
202504300530 METAR WIHH NIL=
202504300500 METAR WIHH NIL=
202504300430 METAR WIHH 300430Z 08005KT 6000 SCT018 32/21 Q1009 NOSIG=
202504300400 METAR WIHH NIL=
202504300330 METAR WIHH NIL=
202504300300 METAR WIHH 300300Z 10007KT 6000 FEW020 31/22 Q1009 NOSIG=
202504300200 METAR WIHH NIL=
202504300130 METAR WIHH 300130Z 05003KT 4000 HZ FEW020 30/25 Q1010 NOSIG=
202504300100 METAR WIHH NIL=
202504300030 METAR WIHH 300030Z 15003KT 4000 HZ FEW020 29/24 Q1009 NOSIG=
202504300000 METAR WIHH 300000Z 00000KT 4000 HZ FEW020 27/24 Q1009 NOSIG=
202504292300 METAR WIHH NIL=
202504292230 METAR WIHH 292230Z 00000KT 6000 FEW018 26/24 Q1008 NOSIG=
202504292200 METAR WIHH 292200Z 00000KT 6000 FEW018 26/24 Q1008 NOSIG=
202504292130 METAR WIHH 292130Z 00000KT 6000 FEW018 26/24 Q1008 NOSIG=
202504292100 METAR WIHH 292100Z 00000KT 6000 FEW018 26/24 Q1008 NOSIG=
202504292030 METAR WIHH NIL=
202504292000 METAR WIHH NIL=
202504291930 METAR WIHH NIL=
202504291900 METAR WIHH NIL=
202504291830 METAR WIHH NIL=
202504291800 METAR WIHH NIL=
202504291730 METAR WIHH 291730Z 20005KT 6000 SCT018 27/25 Q1009 RMK RA TO W=
202504291700 METAR WIHH 291700Z 21003KT 7000 SCT018 27/24 Q1009 NOSIG=
202504291630 METAR WIHH 291630Z 22003KT 7000 SCT018 27/24 Q1009 NOSIG=
202504291600 METAR WIHH 291600Z 21003KT 6000 SCT018 27/24 Q1009 RMK RA TO W=
202504291530 METAR WIHH 291530Z 22006KT 7000 SCT018 28/24 Q1009 RMK RA TO SW=
202504291500 METAR WIHH 291500Z 07003KT 7000 SCT018 29/23 Q1009 RMK RA TO W=
202504291430 METAR WIHH 291430Z 07003KT 7000 SCT018 29/23 Q1009 RMK RA TO S=
202504291400 METAR WIHH 291400Z 09003KT 7000 SCT018 29/23 Q1009 RMK RA TO SW=
202504291330 METAR WIHH 291330Z 05004KT 7000 SCT018 29/23 Q1009 RMK RA TO SW=
202504291300 METAR WIHH 291300Z 04005KT 7000 SCT018 29/24 Q1008 RMK RA TO S=
202504291230 METAR WIHH 291230Z 01004KT 7000 SCT070 29/24 Q1008 RMK RA TO S=
202504291200 METAR WIHH 291200Z 03006KT 7000 SCT018 29/24 Q1007 RMK RA TO S=
202504291130 METAR WIHH 291130Z 03005KT 7000 SCT018 30/23 Q1007 RMK RA TO S=
202504291100 METAR WIHH 291100Z 36005KT 7000 SCT020 30/24 Q1006 RMK RA TO S=
202504291030 METAR WIHH 291030Z 34003KT 7000 SCT020 30/24 Q1006 RMK RA TO S=
202504291000 METAR WIHH 291000Z 01007KT 7000 SCT020 30/23 Q1006 NOSIG RMK RA TO S=
202504290930 METAR WIHH 290930Z 01006KT 7000 SCT020 31/23 Q1006 RMK RA TO S=
202504290900 METAR WIHH 290900Z 36007KT 7000 FEW020 32/23 Q1006 NOSIG=
202504290830 METAR WIHH 290830Z 34004KT 6000 SCT020 32/23 Q1006 NOSIG=
202504290800 METAR WIHH 290800Z 01008KT 6000 SCT020 33/23 Q1006 NOSIG=
202504290730 METAR WIHH 290730Z 01006KT 5000 HZ SCT020 32/23 Q1006 NOSIG=
202504290700 METAR WIHH NIL=
202504290630 METAR WIHH 290630Z 35005KT 5000 HZ SCT020 33/23 Q1007 NOSIG=
202504290600 METAR WIHH NIL=
202504290530 METAR WIHH 290530Z 26004KT 5000 HZ SCT020 33/22 Q1007 NOSIG=
202504290500 METAR WIHH 290500Z 06004KT 5000 HZ SCT020 33/22 Q1008 NOSIG=
202504290430 METAR WIHH 290430Z 33004KT 6000 SCT020 32/23 Q1008 NOSIG=
202504290400 METAR WIHH NIL=
202504290330 METAR WIHH 290330Z 07004KT 5000 HZ SCT020 31/22 Q1009 NOSIG=
202504290300 METAR WIHH 290300Z 13007KT 5000 FEW020 31/22 Q1010 NOSIG=
202504290200 METAR WIHH 290200Z 10004KT 5000 HZ FEW020 30/23 Q1010 NOSIG=
202504290130 METAR WIHH 290130Z 11004KT 5000 NSC 30/24 Q1010 NOSIG=
202504290100 METAR WIHH NIL=
202504290000 METAR WIHH NIL=
202504282300 METAR WIHH NIL=
202504282230 METAR WIHH NIL=
202504282200 METAR WIHH NIL=
202504282130 METAR WIHH NIL=
202504282100 METAR WIHH NIL=
202504282030 METAR WIHH NIL=
202504282000 METAR WIHH NIL=
202504281930 METAR WIHH NIL=
202504281900 METAR WIHH NIL=
202504281830 METAR WIHH NIL=
202504281800 METAR WIHH NIL=
202504281730 METAR WIHH 281730Z 00000KT 6000 SCT020 27/24 Q1009 RMK RA TO NW=
202504281700 METAR WIHH NIL=
202504281630 METAR WIHH NIL=
202504281600 METAR WIHH 281600Z 18003KT 6000 SCT018 27/24 Q1009 RMK RA TO NW=
202504281530 METAR WIHH NIL=
202504281500 METAR WIHH 281500Z 18005KT 7000 SCT018 27/24 Q1009 RMK RA TO W=
202504281430 METAR WIHH 281430Z 20004KT 7000 SCT018 27/24 Q1009 RMK RA TO W=
202504281400 METAR WIHH 281400Z 18004KT 7000 SCT018 28/24 Q1009 RMK RA TO S=
202504281330 METAR WIHH 281330Z 20004KT 7000 SCT018 FEW020CB 28/24 Q1009 NOSIG=
202504281300 METAR WIHH 281300Z 18005KT 7000 FEW017CB SCT018 29/25 Q1008 NOSIG=
202504281230 METAR WIHH 281230Z 11005KT 7000 TS FEW017CB SCT018 29/24 Q1008 RMK CB AND RA TO S=
202504281200 METAR WIHH 281200Z 34004KT 6000 TS FEW017CB SCT018 29/24 Q1008 RMK CB AND RA TO S=
202504281130 METAR WIHH 281130Z 36006KT 6000 TS FEW017CB SCT018 29/24 Q1007 RMK CB AND RA TO S=
202504281100 METAR WIHH NIL=
202504281030 METAR WIHH 281030Z 36007KT 7000 SCT018 30/24 Q1006 NOSIG=
202504281000 METAR WIHH 281000Z 03008KT 7000 SCT018 31/24 Q1006 NOSIG=
202504280930 METAR WIHH NIL=
202504280900 METAR WIHH NIL=
202504280830 METAR WIHH 280830Z 03009KT 7000 SCT018 32/24 Q1006 NOSIG=
202504280800 METAR WIHH 280800Z 01009KT 6000 SCT018 33/24 Q1006 NOSIG=
202504280730 METAR WIHH NIL=
202504280700 METAR WIHH 280700Z 02007KT 6000 SCT018 32/24 Q1007 NOSIG=
202504280600 METAR WIHH NIL=
202504280530 METAR WIHH 280530Z 36007KT 5000 TS FEW017CB SCT018 32/24 Q1008 RMK CB AND RA TO E=
202504280500 METAR WIHH 280500Z 10006KT 5000 HZ SCT018 32/24 Q1009 NOSIG=
202504280430 METAR WIHH 280430Z 08005KT 5000 HZ SCT020 32/24 Q1009 NOSIG=
202504280400 METAR WIHH 280400Z 03007KT 5000 HZ SCT020 32/24 Q1010 NOSIG=
202504280330 METAR WIHH 280330Z 06004KT 5000 HZ SCT020 31/24 Q1010 NOSIG=
202504280300 METAR WIHH 280300Z 05004KT 5000 HZ SCT020 31/24 Q1010 NOSIG=
202504280230 METAR WIHH 280230Z 03006KT 5000 HZ SCT020 31/24 Q1010 NOSIG=
202504280200 METAR WIHH 280200Z 11005KT 5000 HZ FEW020 30/24 Q1010 NOSIG=
202504280130 METAR WIHH 280130Z 10005KT 5000 HZ FEW020 30/24 Q1010 NOSIG=
202504280100 METAR WIHH NIL=
202504280030 METAR WIHH 280030Z 00000KT 5000 HZ FEW020 28/24 Q1010 NOSIG=
202504280000 METAR WIHH 280000Z 00000KT 6000 FEW020 26/24 Q1010 NOSIG=
202504272330 METAR WIHH 272330Z 00000KT 7000 NSC 25/24 Q1009 NOSIG=
202504272300 METAR WIHH NIL=
202504272230 METAR WIHH 272230Z 00000KT 7000 FEW020 26/24 Q1008 NOSIG=
202504272200 METAR WIHH 272200Z 26003KT 7000 FEW020 26/24 Q1008 NOSIG=
202504272130 METAR WIHH 272130Z 00000KT 7000 FEW020 26/24 Q1008 NOSIG=
202504272100 METAR WIHH 272100Z 22003KT 7000 FEW020 26/24 Q1008 NOSIG=
202504272030 METAR WIHH NIL=
202504272000 METAR WIHH NIL=
202504271930 METAR WIHH NIL=
202504271900 METAR WIHH NIL=
202504271830 METAR WIHH NIL=
202504271800 METAR WIHH NIL=
202504271730 METAR WIHH NIL=
202504271700 METAR WIHH 271700Z 24003KT 6000 SCT018 27/23 Q1010 NOSIG=
202504271630 METAR WIHH 271630Z 22003KT 6000 SCT018 27/23 Q1010 NOSIG=
202504271600 METAR WIHH 271600Z 20003KT 6000 SCT018 27/23 Q1010 NOSIG=
202504271530 METAR WIHH 271530Z 23005KT 6000 SCT018 27/24 Q1010 NOSIG=
202504271500 METAR WIHH NIL=
202504271430 METAR WIHH NIL=
202504271400 METAR WIHH NIL=
202504271330 METAR WIHH 271330Z 00000KT 7000 FEW017CB SCT018 28/25 Q1009 RMK CB TO S=
202504271300 METAR WIHH NIL=
202504271230 METAR WIHH 271230Z 00000KT 7000 SCT020 28/25 Q1009 NOSIG=
202504271200 METAR WIHH 271200Z 33004KT 7000 SCT020 29/25 Q1008 NOSIG=
202504271130 METAR WIHH 271130Z 01005KT 7000 SCT020 29/24 Q1007 NOSIG=
202504271100 METAR WIHH 271100Z 36005KT 7000 SCT070 30/24 Q1007 NOSIG=
202504271030 METAR WIHH NIL=
202504271000 METAR WIHH NIL=
202504270930 METAR WIHH 270930Z 01006KT 7000 SCT018 31/25 Q1007 NOSIG=
202504270900 METAR WIHH 270900Z 02007KT 7000 SCT018 32/25 Q1006 NOSIG=
202504270830 METAR WIHH NIL=
202504270800 METAR WIHH 270800Z 03004KT 6000 SCT018 32/25 Q1006 NOSIG=
202504270730 METAR WIHH 270730Z 03004KT 5000 HZ SCT018 32/25 Q1007 RMK RA TO W=
202504270700 METAR WIHH 270700Z 35003KT 5000 -RA SCT018 29/26 Q1007 NOSIG=
202504270630 METAR WIHH 270630Z 02004KT 5000 -RA SCT018 29/26 Q1008 NOSIG=
202504270600 METAR WIHH 270600Z 33005KT 5000 -RA BKN018 30/25 Q1008 NOSIG=
202504270530 METAR WIHH 270530Z 34005KT 6000 SCT018 31/25 Q1009 RMK RA TO N=
202504270500 METAR WIHH 270500Z 03004KT 6000 SCT018 32/23 Q1009 NOSIG=
202504270430 METAR WIHH 270430Z 32003KT 6000 SCT018 32/24 Q1010 NOSIG=
202504270400 METAR WIHH NIL=
202504270330 METAR WIHH 270330Z 01006KT 6000 SCT020 32/23 Q1011 NOSIG=
202504270300 METAR WIHH 270300Z 06003KT 6000 SCT020 31/23 Q1011 NOSIG=
202504270230 METAR WIHH 270230Z 07004KT 6000 FEW020 31/23 Q1011 NOSIG=
202504270200 METAR WIHH 270200Z 05003KT 5000 HZ FEW020 31/24 Q1011 NOSIG=
202504270130 METAR WIHH NIL=
202504270100 METAR WIHH 270100Z 27003KT 5000 HZ FEW020 29/25 Q1011 NOSIG=
202504270030 METAR WIHH 270030Z 19003KT 4000 HZ FEW020 27/25 Q1011 NOSIG=
202504270000 METAR WIHH 270000Z 00000KT 4000 HZ FEW020 26/25 Q1010 NOSIG=
202504262330 METAR WIHH 262330Z 00000KT 3000 BR FEW020 25/25 Q1010 NOSIG=
202504262300 METAR WIHH 262300Z 00000KT 3000 BR FEW020 25/25 Q1009 NOSIG=
202504262230 METAR WIHH 262230Z 24004KT 3000 HZ SCT020 25/24 Q1009 NOSIG=
202504262200 METAR WIHH 262200Z 00000KT 5000 HZ SCT020 25/25 Q1009 NOSIG=
202504262130 METAR WIHH 262130Z 00000KT 5000 HZ SCT020 25/25 Q1009 NOSIG=
202504262100 METAR WIHH NIL=
202504262030 METAR WIHH NIL=
202504262000 METAR WIHH NIL=
202504261930 METAR WIHH NIL=
202504261900 METAR WIHH NIL=
202504261830 METAR WIHH NIL=
202504261800 METAR WIHH NIL=
202504261730 METAR WIHH NIL=
202504261700 METAR WIHH 261700Z 00000KT 5000 HZ SCT020 26/25 Q1011 NOSIG=
202504261630 METAR WIHH 261630Z 00000KT 5000 HZ SCT020 26/25 Q1011 RMK RA TO W=
202504261600 METAR WIHH 261600Z 00000KT 5000 HZ SCT020 26/25 Q1011 RMK RA TO N=
202504261530 METAR WIHH 261530Z 12003KT 5000 HZ SCT020 26/25 Q1011 RMK RA TO N=
202504261500 METAR WIHH 261500Z 12003KT 5000 HZ SCT020 26/25 Q1011 RMK RA TO N=
202504261430 METAR WIHH 261430Z 27003KT 4000 TS SCT016 FEW017CB 25/24 Q1011 RMK CB AND RA TO N=
202504261400 METAR WIHH 261400Z 30003KT 4000 TS SCT016 FEW017CB 25/24 Q1011 RMK CB AND RA TO N=
202504261330 METAR WIHH 261330Z 24006KT 4000 -TSRA SCT016 FEW017CB 26/24 Q1011 RMK CB TO N=
202504261300 METAR WIHH 261300Z 24005KT 3000 -TSRA BKN016 FEW017CB 26/25 Q1011 RMK CB OTF=
202504261230 METAR WIHH 261230Z 18010KT 3000 -TSRA BKN016 FEW017CB 26/25 Q1010 RMK CB OTF=
202504261200 METAR WIHH 261200Z 03004KT 5000 TS FEW017CB SCT018 29/25 Q1009 RMK CB AND RA TO S-SW=
202504261130 METAR WIHH 261130Z 36005KT 5000 TS FEW017CB SCT018 29/25 Q1009 RMK CB AND RA TO S-SW=
202504261100 METAR WIHH 261100Z 36004KT 5000 TS FEW017CB SCT018 29/25 Q1007 RMK CB AND RA TO S=
202504261030 METAR WIHH 261030Z 36005KT 5000 TS FEW017CB SCT018 30/25 Q1007 RMK CB AND RA TO SE-SW=
202504261000 METAR WIHH 261000Z 02006KT 5000 TS FEW017CB SCT018 30/25 Q1007 RMK CB AND RA TO SE-SW=
202504260930 METAR WIHH 260930Z 04008KT 5000 TS FEW017CB SCT018 30/25 Q1007 RMK CB AND RA TO SE-SW=
202504260900 METAR WIHH 260900Z 04007KT 6000 SCT018 30/24 Q1007 RMK RA TO E=
202504260830 METAR WIHH 260830Z 36008KT 6000 TS FEW017CB SCT018 29/23 Q1007 RMK CB AND RA TO N AND S=
202504260800 METAR WIHH 260800Z 34006KT 5000 TS FEW017CB SCT018 29/23 Q1007 TEMPO FM0830 3000 -TSRA RMK CB AND RA TO NW-NE=
202504260730 METAR WIHH NIL=
202504260700 METAR WIHH NIL=
202504260630 METAR WIHH 260630Z 26003KT 5000 HZ FEW017CB SCT018 33/24 Q1008 RMK CB AND RA TO N=
202504260600 METAR WIHH 260600Z 12003KT 5000 HZ SCT018 32/23 Q1008 RMK RA TO N=
202504260530 METAR WIHH 260530Z 30005KT 5000 HZ SCT018 32/24 Q1009 RMK RA TO N=
202504260500 METAR WIHH 260500Z 21006KT 5000 HZ SCT018 33/24 Q1009 RMK RA TO N=
202504260430 METAR WIHH NIL=
202504260400 METAR WIHH 260400Z 14004KT 5000 HZ SCT018 31/24 Q1011 RMK RA TO NW=
202504260330 METAR WIHH NIL=
202504260300 METAR WIHH 260300Z 01004KT 5000 HZ SCT018 31/24 Q1012 NOSIG=
202504260230 METAR WIHH NIL=
202504260200 METAR WIHH 260200Z 06003KT 6000 FEW020 31/24 Q1012 NOSIG=
202504260100 METAR WIHH 260100Z 11003KT 5000 HZ FEW020 30/24 Q1011 NOSIG=
202504260030 METAR WIHH 260030Z 00000KT 5000 HZ FEW020 28/24 Q1011 NOSIG=
202504260000 METAR WIHH 260000Z 00000KT 5000 HZ FEW020 27/25 Q1010 NOSIG=
202504252330 METAR WIHH 252330Z 26003KT 4000 BR SCT020 25/25 Q1010 NOSIG=
202504252300 METAR WIHH NIL=
202504252230 METAR WIHH 252230Z 22003KT 5000 HZ SCT020 26/25 Q1010 NOSIG=
202504252200 METAR WIHH 252200Z 21003KT 4000 BR FEW020 26/25 Q1009 NOSIG=
202504252130 METAR WIHH NIL=
202504252100 METAR WIHH NIL=
202504252030 METAR WIHH NIL=
202504252000 METAR WIHH NIL=
202504251930 METAR WIHH NIL=
202504251900 METAR WIHH NIL=
202504251830 METAR WIHH NIL=
202504251800 METAR WIHH NIL=
202504251730 METAR WIHH NIL=
202504251700 METAR WIHH 251700Z 10004KT 6000 SCT018 26/25 Q1011 NOSIG=
202504251630 METAR WIHH 251630Z 10003KT 7000 SCT020 26/25 Q1011 NOSIG=
202504251600 METAR WIHH NIL=
202504251530 METAR WIHH 251530Z 16004KT 7000 SCT018 26/25 Q1011 NOSIG=
202504251500 METAR WIHH 251500Z 16004KT 6000 SCT018 26/25 Q1011 NOSIG=
202504251430 METAR WIHH 251430Z 15005KT 7000 SCT018 26/25 Q1011 RMK RA TO S=
202504251400 METAR WIHH NIL=
202504251330 METAR WIHH 251330Z 18005KT 7000 TS SCT018 FEW020CB 26/25 Q1010 RMK CB AND RA TO SE=
202504251300 METAR WIHH NIL=
202504251230 METAR WIHH 251230Z 14005KT 6000 FEW017CB BKN018 27/25 Q1010 TEMPO TL1300 5000 -RA SCT018 RMK CB TO SE=
202504251200 METAR WIHH NIL=
202504251130 METAR WIHH 251130Z 27006KT 5000 -TSRA FEW016CB BKN017 26/25 Q1008 TEMPO TL1200 4000 -RA BKN018 RMK CB TO SE AND NW=
202504251100 METAR WIHH 251100Z 29006KT 5000 -TSRA FEW016CB BKN017 28/24 Q1008 TEMPO TL1200 4000 -RA BKN018 RMK CB TO S AND NW=
202504251030 METAR WIHH NIL=
202504251000 METAR WIHH NIL=
202504250930 METAR WIHH NIL=
202504250900 METAR WIHH 250900Z 34006KT 7000 FEW017CB SCT018 32/24 Q1007 RMK CB AND RA TO W=
202504250830 METAR WIHH 250830Z 35006KT 7000 SCT018 FEW020CB 32/24 Q1007 RMK CB TO SE AND RA TO SW=
202504250800 METAR WIHH 250800Z 33008KT 7000 SCT018 FEW020CB 32/24 Q1007 RMK CB TO SE=
202504250730 METAR WIHH 250730Z 35006KT 7000 SCT018 FEW020CB 33/24 Q1007 RMK CB TO SE=
202504250700 METAR WIHH 250700Z 34007KT 7000 SCT018 FEW020CB 32/24 Q1007 RMK CB TO SE=
202504250600 METAR WIHH 250600Z 03008KT 7000 SCT018 32/24 Q1008 NOSIG=
202504250530 METAR WIHH 250530Z 03010KT 7000 SCT018 32/24 Q1009 RMK RA TO S=
202504250500 METAR WIHH 250500Z 02010KT 7000 SCT018 31/24 Q1009 NOSIG=
202504250430 METAR WIHH 250430Z 22004KT 6000 SCT018 32/23 Q1010 NOSIG=
202504250400 METAR WIHH 250400Z 33003KT 6000 SCT018 33/23 Q1010 NOSIG=
202504250330 METAR WIHH 250330Z 18003KT 7000 SCT018 32/23 Q1010 NOSIG=
202504250300 METAR WIHH 250300Z 20005KT 8000 SCT020 32/24 Q1011 NOSIG=
202504250230 METAR WIHH 250230Z 14004KT 8000 SCT020 31/24 Q1011 NOSIG=
202504250200 METAR WIHH 250200Z 20005KT 8000 FEW020 30/24 Q1011 NOSIG=
202504250130 METAR WIHH 250130Z 18005KT 8000 FEW020 29/24 Q1011 NOSIG=
202504250100 METAR WIHH 250100Z 20006KT 8000 FEW020 28/24 Q1011 NOSIG=
202504250030 METAR WIHH NIL=
202504250000 METAR WIHH 250000Z 24005KT 8000 SCT020 26/24 Q1011 NOSIG=
202504242330 METAR WIHH NIL=
202504242300 METAR WIHH NIL=
202504242200 METAR WIHH 242200Z 25003KT 8000 FEW020 25/24 Q1009 NOSIG=
202504242130 METAR WIHH 242130Z 25005KT 8000 FEW020 25/24 Q1009 NOSIG=
202504242100 METAR WIHH NIL=
202504242030 METAR WIHH NIL=
202504242000 METAR WIHH NIL=
202504241930 METAR WIHH NIL=
202504241900 METAR WIHH NIL=
202504241830 METAR WIHH NIL=
202504241800 METAR WIHH NIL=
202504241730 METAR WIHH NIL=
202504241700 METAR WIHH 241700Z 00000KT 7000 SCT018 26/25 Q1011 NOSIG=
202504241630 METAR WIHH 241630Z 21003KT 7000 SCT018 26/25 Q1011 NOSIG=
202504241600 METAR WIHH 241600Z 21003KT 7000 SCT018 26/25 Q1011 NOSIG=
202504241530 METAR WIHH 241530Z 00000KT 7000 SCT018 26/25 Q1011 NOSIG=
202504241500 METAR WIHH 241500Z 16003KT 7000 SCT018 26/25 Q1011 NOSIG=
202504241430 METAR WIHH 241430Z 00000KT 7000 SCT018 26/25 Q1011 NOSIG=
202504241400 METAR WIHH 241400Z 00000KT 7000 SCT018 26/24 Q1010 NOSIG=
202504241330 METAR WIHH 241330Z 00000KT 7000 SCT018 26/24 Q1010 NOSIG=
202504241300 METAR WIHH 241300Z 00000KT 7000 SCT018 26/24 Q1010 NOSIG=
202504241230 METAR WIHH 241230Z 24003KT 7000 SCT018 26/24 Q1010 NOSIG=
202504241200 METAR WIHH 241200Z 18003KT 7000 SCT018 26/24 Q1009 NOSIG=
202504241100 METAR WIHH 241100Z 15005KT 6000 SCT018 26/24 Q1008 NOSIG=
202504241030 METAR WIHH 241030Z 14007KT 6000 SCT018 27/25 Q1008 NOSIG=
202504241000 METAR WIHH NIL=
202504240930 METAR WIHH 240930Z 17008KT 6000 -RA FEW016CB SCT017 27/25 Q1007 RMK CB TO S=
202504240900 METAR WIHH NIL=
202504240830 METAR WIHH 240830Z 18015KT 4000 -TSRA FEW016CB SCT017 28/25 Q1007 TEMPO TL0915 5000 TS RMK CB TO S=
202504240800 METAR WIHH NIL=
202504240730 METAR WIHH 240730Z 32010KT 7000 FEW016CB SCT017 32/24 Q1006 TEMPO FM0740 3000 -RA BKN015 FEW016CB RMK CB AND RA TO SE-SW=
202504240700 METAR WIHH 240700Z 01010KT 8000 SCT018 33/25 Q1007 RMK RA TO SE AND SW=
202504240600 METAR WIHH NIL=
202504240530 METAR WIHH 240530Z 29003KT 9000 SCT020 33/22 Q1009 NOSIG=
202504240500 METAR WIHH 240500Z 20003KT 9000 SCT020 32/22 Q1009 NOSIG=
202504240430 METAR WIHH NIL=
202504240400 METAR WIHH 240400Z 01005KT 9000 SCT020 33/23 Q1010 NOSIG=
202504240330 METAR WIHH 240330Z 33005KT 9000 FEW020 32/23 Q1010 NOSIG=
202504240300 METAR WIHH NIL=
202504240230 METAR WIHH NIL=
202504240200 METAR WIHH 240200Z 24003KT 9000 NSC 30/22 Q1011 NOSIG=
202504240100 METAR WIHH NIL=
202504240030 METAR WIHH 240030Z 18005KT 8000 NSC 28/22 Q1010 NOSIG=
202504240000 METAR WIHH NIL=
202504232330 METAR WIHH NIL=
202504232300 METAR WIHH 232300Z 29003KT 8000 FEW020 25/24 Q1009 NOSIG=
202504232230 METAR WIHH 232230Z 00000KT 7000 FEW020 25/23 Q1008 NOSIG=
202504232200 METAR WIHH 232200Z 00000KT 7000 FEW020 25/22 Q1008 NOSIG=
202504232130 METAR WIHH 232130Z 00000KT 7000 FEW020 25/22 Q1008 NOSIG=
202504232100 METAR WIHH 232100Z 00000KT 7000 FEW020 26/22 Q1008 NOSIG=
202504232030 METAR WIHH NIL=
202504232000 METAR WIHH NIL=
202504231930 METAR WIHH NIL=
202504231900 METAR WIHH NIL=
202504231830 METAR WIHH NIL=
202504231800 METAR WIHH 231800Z 00000KT 7000 SCT020 26/23 Q1011 NOSIG=
202504231730 METAR WIHH 231730Z 27004KT 7000 SCT020 27/22 Q1011 NOSIG=
202504231700 METAR WIHH 231700Z 25005KT 7000 SCT020 27/22 Q1011 NOSIG=
202504231630 METAR WIHH 231630Z 27005KT 7000 SCT020 27/22 Q1011 NOSIG=
202504231600 METAR WIHH 231600Z 27007KT 7000 SCT020 27/22 Q1011 NOSIG=
202504231530 METAR WIHH 231530Z 28005KT 7000 FEW020 27/22 Q1011 NOSIG=
202504231500 METAR WIHH 231500Z 25009KT 7000 FEW020 27/22 Q1010 NOSIG=
202504231430 METAR WIHH 231430Z 27007KT 7000 SCT020 27/22 Q1010 NOSIG=
202504231400 METAR WIHH 231400Z 26006KT 7000 SCT020 27/22 Q1010 NOSIG=
202504231330 METAR WIHH 231330Z 25006KT 8000 SCT020 27/22 Q1010 NOSIG=
202504231300 METAR WIHH 231300Z 25009KT 8000 SCT020 27/23 Q1009 NOSIG=
202504231230 METAR WIHH 231230Z 25008KT 8000 SCT020 27/22 Q1009 NOSIG=
202504231200 METAR WIHH 231200Z 22008KT 8000 SCT020 28/22 Q1009 NOSIG=
202504231130 METAR WIHH 231130Z 24010KT 8000 FEW020 28/22 Q1008 NOSIG=
202504231100 METAR WIHH 231100Z 24010KT 8000 FEW020 28/23 Q1008 NOSIG=
202504231030 METAR WIHH NIL=
202504231000 METAR WIHH 231000Z 24010KT 8000 FEW020 29/23 Q1007 NOSIG=
202504230930 METAR WIHH 230930Z 27010KT 8000 SCT020 30/23 Q1007 NOSIG=
202504230900 METAR WIHH 230900Z 25009KT 8000 SCT020 30/23 Q1007 NOSIG=
202504230830 METAR WIHH 230830Z 24012KT 8000 SCT020 31/23 Q1007 NOSIG=
202504230800 METAR WIHH 230800Z 23010KT 8000 SCT020 31/23 Q1007 RMK RA TO E AND S=
202504230730 METAR WIHH 230730Z 24010KT 8000 SCT020 32/23 Q1007 RMK RA TO E-SE=
202504230700 METAR WIHH 230700Z 23008KT 7000 SCT020 33/24 Q1008 RMK RA TO N AND S=
202504230630 METAR WIHH 230630Z 23008KT 7000 SCT020 33/24 Q1008 RMK RA TO N AND S=
202504230600 METAR WIHH 230600Z 21008KT 7000 SCT020 32/22 Q1009 NOSIG=
202504230530 METAR WIHH 230530Z 25007KT 7000 SCT020 32/22 Q1009 NOSIG=
202504230500 METAR WIHH 230500Z 24007KT 7000 SCT020 32/22 Q1010 NOSIG=
202504230430 METAR WIHH 230430Z 26004KT 7000 SCT020 32/22 Q1010 NOSIG=
202504230400 METAR WIHH NIL=
202504230330 METAR WIHH 230330Z 32005KT 7000 FEW020 33/22 Q1011 NOSIG=
202504230300 METAR WIHH NIL=
202504230200 METAR WIHH 230200Z 27005KT 7000 FEW020 30/22 Q1011 NOSIG=
202504230130 METAR WIHH 230130Z 25005KT 7000 FEW020 30/23 Q1011 NOSIG=
202504230100 METAR WIHH NIL=
202504230030 METAR WIHH 230030Z 26003KT 6000 FEW020 28/24 Q1011 NOSIG=
202504230000 METAR WIHH 230000Z 30003KT 5000 HZ FEW020 26/23 Q1010 NOSIG=
202504222300 METAR WIHH NIL=
202504222230 METAR WIHH 222230Z 24003KT 4000 BR FEW020 24/24 Q1010 NOSIG=
202504222200 METAR WIHH 222200Z 26003KT 4000 BR FEW020 24/24 Q1010 NOSIG=
202504222130 METAR WIHH 222130Z 00000KT 4000 BR FEW020 25/24 Q1009 NOSIG=
202504222100 METAR WIHH 222100Z 00000KT 4000 BR FEW020 25/24 Q1009 NOSIG=
202504222030 METAR WIHH NIL=
202504222000 METAR WIHH NIL=
202504221930 METAR WIHH NIL=
202504221900 METAR WIHH NIL=
202504221830 METAR WIHH NIL=
202504221800 METAR WIHH NIL=
202504221730 METAR WIHH NIL=
202504221700 METAR WIHH 221700Z 17003KT 5000 HZ FEW020 26/25 Q1011 NOSIG=
202504221630 METAR WIHH 221630Z 16003KT 6000 FEW020 26/25 Q1011 NOSIG=
202504221600 METAR WIHH 221600Z 17004KT 6000 FEW020 26/25 Q1011 NOSIG=
202504221530 METAR WIHH 221530Z 17004KT 8000 FEW020 26/25 Q1011 NOSIG=
202504221500 METAR WIHH 221500Z 20004KT 8000 FEW020 26/25 Q1011 NOSIG=
202504221430 METAR WIHH 221430Z 18004KT 7000 FEW020 26/25 Q1011 NOSIG=
202504221400 METAR WIHH 221400Z 24004KT 7000 FEW020 26/25 Q1011 NOSIG=
202504221330 METAR WIHH 221330Z 26005KT 7000 SCT020 27/25 Q1011 NOSIG=
202504221300 METAR WIHH 221300Z 28005KT 7000 SCT018 27/25 Q1010 NOSIG=
202504221230 METAR WIHH 221230Z 30003KT 6000 SCT018 26/25 Q1009 NOSIG=
202504221200 METAR WIHH 221200Z 27003KT 7000 SCT018 26/25 Q1010 NOSIG=
202504221130 METAR WIHH 221130Z 24003KT 7000 SCT018 26/25 Q1009 NOSIG=
202504221100 METAR WIHH 221100Z 21003KT 7000 SCT018 27/25 Q1009 NOSIG=
202504221030 METAR WIHH NIL=
202504221000 METAR WIHH 221000Z 28005KT 7000 TS FEW017CB SCT018 26/24 Q1008 RMK CB AND RA TO NE=
202504220930 METAR WIHH 220930Z 27005KT 6000 SCT018 FEW020CB 25/24 Q1008 RMK CB AND RA TO NE=
202504220900 METAR WIHH 220900Z 30008KT 4000 -TSRA FEW017CB SCT018 25/25 Q1008 RMK CB TO N-E=
202504220830 METAR WIHH 220830Z 30015KT 2500 TSRA FEW017CB BKN018 26/25 Q1008 RMK CB OTF=
202504220800 METAR WIHH 220800Z 30008KT 6000 SCT017 FEW018CB 32/24 Q1008 TEMPO FM0840 2000 TSRA FEW016CB BKN017 RMK CB AND RA TO S-NW=
202504220730 METAR WIHH 220730Z 33007KT 7000 SCT019 FEW020CB 32/23 Q1008 RMK CB TO SW AND RA TO SW-NW=
202504220700 METAR WIHH 220700Z 35009KT 7000 SCT019 FEW020CB 31/23 Q1009 NOSIG RMK CB TO SW=
202504220630 METAR WIHH 220630Z 02010KT 5000 HZ SCT018 31/23 Q1009 NOSIG=
202504220600 METAR WIHH NIL=
202504220530 METAR WIHH 220530Z 01008KT 5000 HZ SCT020 32/23 Q1010 RMK RA TO NE=
202504220500 METAR WIHH 220500Z 26005KT 6000 SCT020 33/22 Q1010 NOSIG=
202504220430 METAR WIHH 220430Z 22006KT 6000 SCT020 33/22 Q1011 NOSIG=
202504220400 METAR WIHH 220400Z 27005KT 6000 SCT020 32/21 Q1011 NOSIG=
202504220330 METAR WIHH 220330Z 15005KT 6000 FEW020 32/22 Q1011 NOSIG=
202504220300 METAR WIHH 220300Z 36003KT 5000 HZ FEW020 32/23 Q1012 NOSIG=
202504220230 METAR WIHH 220230Z 22004KT 5000 HZ FEW020 31/23 Q1012 NOSIG=
202504220200 METAR WIHH 220200Z 27005KT 5000 HZ FEW020 31/23 Q1012 NOSIG=
202504220130 METAR WIHH 220130Z 08003KT 4000 HZ FEW020 30/23 Q1012 NOSIG=
202504220100 METAR WIHH 220100Z 12003KT 5000 HZ FEW020 27/24 Q1012 NOSIG=
202504220030 METAR WIHH 220030Z 13003KT 5000 HZ FEW020 27/25 Q1012 NOSIG=
202504220000 METAR WIHH 220000Z 14003KT 5000 HZ FEW020 26/24 Q1012 NOSIG=
202504212330 METAR WIHH 212330Z 13003KT 5000 HZ SCT018 26/24 Q1011 NOSIG=
202504212300 METAR WIHH 212300Z 16003KT 5000 HZ SCT018 26/24 Q1011 NOSIG=
202504212230 METAR WIHH 212230Z 26003KT 6000 SCT018 25/24 Q1011 NOSIG=
202504212200 METAR WIHH 212200Z 26003KT 6000 SCT018 25/24 Q1011 NOSIG=
202504212130 METAR WIHH 212130Z 18003KT 6000 SCT018 26/24 Q1011 NOSIG=
202504212100 METAR WIHH NIL=
202504212030 METAR WIHH NIL=
202504212000 METAR WIHH NIL=
202504211930 METAR WIHH NIL=
202504211900 METAR WIHH NIL=
202504211830 METAR WIHH NIL=
202504211800 METAR WIHH NIL=
202504211730 METAR WIHH NIL=
202504211700 METAR WIHH 211700Z 24003KT 8000 SCT020 27/23 Q1012 NOSIG=
202504211630 METAR WIHH 211630Z 24004KT 8000 SCT020 27/23 Q1012 NOSIG=
202504211600 METAR WIHH 211600Z 23005KT 9000 SCT020 27/23 Q1011 NOSIG=
202504211530 METAR WIHH 211530Z 22004KT 9000 FEW020 27/23 Q1012 NOSIG=
202504211500 METAR WIHH 211500Z 25004KT 9000 FEW020 27/23 Q1011 NOSIG=
202504211430 METAR WIHH 211430Z 28004KT 9000 FEW020 27/23 Q1011 NOSIG=
202504211400 METAR WIHH NIL=
202504211330 METAR WIHH 211330Z 20004KT 9000 FEW020 28/23 Q1011 NOSIG=
202504211300 METAR WIHH 211300Z 24004KT 9000 FEW020 28/23 Q1011 NOSIG=
202504211230 METAR WIHH 211230Z 24004KT 8000 FEW020 28/23 Q1010 NOSIG=
202504211200 METAR WIHH 211200Z 25005KT 8000 FEW020 28/23 Q1010 NOSIG=
202504211130 METAR WIHH 211130Z 23008KT 8000 FEW020 28/23 Q1010 NOSIG=
202504211100 METAR WIHH 211100Z 21005KT 8000 SCT020 29/23 Q1010 NOSIG=
202504211030 METAR WIHH 211030Z 23010KT 8000 SCT020 29/23 Q1009 NOSIG=
202504211000 METAR WIHH 211000Z 22010KT 8000 SCT020 30/23 Q1009 NOSIG=
202504210930 METAR WIHH 210930Z 24010KT 8000 SCT020 31/22 Q1009 NOSIG=
202504210900 METAR WIHH 210900Z 28007KT 8000 SCT020 31/22 Q1008 NOSIG=
202504210830 METAR WIHH 210830Z 25006KT 8000 SCT020 31/23 Q1008 NOSIG=
202504210800 METAR WIHH 210800Z 24003KT 8000 SCT020 31/23 Q1008 NOSIG=
202504210730 METAR WIHH 210730Z 27005KT 8000 SCT020 31/22 Q1008 NOSIG=
202504210700 METAR WIHH 210700Z 24006KT 8000 SCT018 30/23 Q1009 NOSIG=
202504210630 METAR WIHH 210630Z 26008KT 7000 SCT018 30/23 Q1010 NOSIG=
202504210600 METAR WIHH 210600Z 24010KT 6000 SCT018 30/23 Q1010 NOSIG=
202504210530 METAR WIHH 210530Z 22007KT 6000 SCT018 29/23 Q1011 NOSIG=
202504210500 METAR WIHH 210500Z 23006KT 6000 SCT018 28/24 Q1011 NOSIG=
202504210430 METAR WIHH 210430Z 27005KT 6000 SCT018 28/24 Q1011 NOSIG=
202504210400 METAR WIHH 210400Z 26006KT 6000 SCT017 28/23 Q1012 NOSIG=
202504210330 METAR WIHH 210330Z 26007KT 6000 FEW016CB SCT017 28/23 Q1012 RMK CB AND RA TO E=
202504210300 METAR WIHH 210300Z 27007KT 5000 -RA BKN015 FEW016CB 27/23 Q1013 RMK CB TO NE=
202504210230 METAR WIHH 210230Z 24011KT 5000 HZ BKN014 FEW017CB 28/24 Q1013 TEMPO FM0240 3000 -TSRA RMK CB AND RA TO NE=
202504210200 METAR WIHH 210200Z 25004KT 5000 HZ FEW017CB SCT018 28/24 Q1013 TEMPO FM0230 3000 -RA BKN014 FEW016CB RMK CB AND RA TO NW=
202504210130 METAR WIHH 210130Z 26005KT 6000 SCT018 28/24 Q1012 NOSIG DUPE=
202504210100 METAR WIHH 210100Z 00000KT 6000 SCT018 28/23 Q1012 NOSIG=
202504210030 METAR WIHH 210030Z 00000KT 6000 SCT018 27/23 Q1012 NOSIG=
202504210000 METAR WIHH 210000Z 00000KT 6000 SCT018 26/23 Q1011 NOSIG=
202504202330 METAR WIHH 202330Z 15003KT 6000 SCT018 26/24 Q1011 NOSIG=
202504202300 METAR WIHH 202300Z 18003KT 6000 SCT018 26/23 Q1010 NOSIG=
202504202230 METAR WIHH 202230Z 07003KT 6000 FEW018 26/23 Q1010 NOSIG=
202504202200 METAR WIHH 202200Z 11004KT 6000 FEW018 26/23 Q1009 NOSIG=
202504202130 METAR WIHH 202130Z 10004KT 6000 FEW018 26/23 Q1009 NOSIG=
202504202100 METAR WIHH 202100Z 15005KT 6000 FEW020 27/23 Q1009 NOSIG=
202504202030 METAR WIHH NIL=
202504202000 METAR WIHH NIL=
202504201930 METAR WIHH NIL=
202504201900 METAR WIHH NIL=
202504201830 METAR WIHH NIL=
202504201800 METAR WIHH NIL=
202504201730 METAR WIHH 201730Z 00000KT 8000 FEW020 28/23 Q1009 NOSIG=
202504201700 METAR WIHH 201700Z 21005KT 8000 FEW020 28/23 Q1009 NOSIG=
202504201630 METAR WIHH 201630Z 22009KT 8000 FEW020 28/23 Q1009 NOSIG=
202504201600 METAR WIHH 201600Z 22009KT 8000 FEW020 28/23 Q1009 NOSIG=
202504201530 METAR WIHH 201530Z 21007KT 8000 FEW020 28/23 Q1010 NOSIG=
202504201500 METAR WIHH 201500Z 20004KT 8000 FEW020 29/23 Q1009 NOSIG=
202504201430 METAR WIHH 201430Z 22004KT 8000 FEW020 29/24 Q1010 NOSIG=
202504201400 METAR WIHH 201400Z 25006KT 8000 FEW020 29/23 Q1009 NOSIG=
202504201330 METAR WIHH 201330Z 24007KT 8000 FEW020 29/23 Q1009 NOSIG=
202504201300 METAR WIHH 201300Z METAR WIHH 201300Z 26007KT 8000 FEW020 29/23 Q1009 NOSIG=
202504201230 METAR WIHH 201230Z 24008KT 8000 FEW020 29/23 Q1008 NOSIG=
202504201200 METAR WIHH 201200Z 28008KT 8000 FEW020 30/22 Q1008 NOSIG=
202504201130 METAR WIHH 201130Z 24008KT 8000 FEW020 31/22 Q1007 NOSIG=
202504201100 METAR WIHH 201100Z 28010KT 8000 SCT020 31/22 Q1007 NOSIG=
202504201030 METAR WIHH 201030Z 25009KT 7000 SCT020 32/23 Q1006 RMK RA TO E=
202504201000 METAR WIHH NIL=
202504200930 METAR WIHH 200930Z 25005KT 7000 SCT020 34/23 Q1005 NOSIG=
202504200900 METAR WIHH 200900Z 33005KT 7000 SCT020 34/22 Q1005 NOSIG=
202504200830 METAR WIHH 200830Z 23005KT 7000 SCT020 34/21 Q1005 NOSIG=
202504200800 METAR WIHH 200800Z 23007KT 7000 FEW017CB SCT020 35/22 Q1006 RMK CB TO E=
202504200730 METAR WIHH 200730Z 28005KT 7000 SCT020 34/22 Q1006 RMK RA TO E=
202504200700 METAR WIHH NIL=
202504200630 METAR WIHH 200630Z 24009KT 6000 SCT020 33/23 Q1006 NOSIG RMK RA TO E=
202504200600 METAR WIHH 200600Z 24004KT 6000 SCT020 33/23 Q1007 RMK RA TO SE=
202504200530 METAR WIHH 200530Z 27003KT 6000 SCT020 33/22 Q1007 RMK RA TO S=
202504200500 METAR WIHH 200500Z 24003KT 6000 SCT020 33/23 Q1008 NOSIG=
202504200430 METAR WIHH 200430Z 04005KT 6000 SCT020 33/23 Q1008 NOSIG=
202504200400 METAR WIHH 200400Z 31005KT 6000 SCT020 33/22 Q1009 NOSIG=
202504200330 METAR WIHH 200330Z 32004KT 6000 FEW020 32/24 Q1010 NOSIG=
202504200300 METAR WIHH 200300Z 04004KT 6000 FEW020 30/24 Q1010 NOSIG=
202504200230 METAR WIHH 200230Z 23003KT 6000 FEW020 30/24 Q1010 NOSIG=
202504200200 METAR WIHH 200200Z 18004KT 6000 SCT020 29/23 Q1010 NOSIG=
202504200130 METAR WIHH 200130Z 29003KT 6000 SCT020 29/23 Q1010 NOSIG=
202504200100 METAR WIHH 200100Z 33003KT 6000 SCT020 28/24 Q1010 NOSIG=
202504200030 METAR WIHH 200030Z 00000KT 6000 SCT020 27/24 Q1009 NOSIG=
202504200000 METAR WIHH 200000Z 00000KT 6000 SCT020 25/24 Q1009 NOSIG=
202504192330 METAR WIHH 192330Z 12003KT 7000 SCT020 24/23 Q1009 NOSIG=
202504192300 METAR WIHH 192300Z 14003KT 7000 SCT020 24/23 Q1008 NOSIG=
202504192230 METAR WIHH 192230Z 09003KT 7000 SCT018 24/23 Q1008 NOSIG=
202504192200 METAR WIHH 192200Z 00000KT 7000 SCT018 24/23 Q1008 NOSIG=
202504192130 METAR WIHH 192130Z 00000KT 7000 SCT018 25/23 Q1008 NOSIG=
202504192100 METAR WIHH 192100Z 00000KT 7000 SCT018 25/23 Q1008 NOSIG=
202504192030 METAR WIHH NIL=
202504192000 METAR WIHH NIL=
202504191930 METAR WIHH NIL=
202504191900 METAR WIHH NIL=
202504191830 METAR WIHH NIL=
202504191800 METAR WIHH NIL=
202504191730 METAR WIHH NIL=
202504191700 METAR WIHH 191700Z 26006KT 5000 -RA BKN016 FEW018CB 27/25 Q1010 RMK CB TO NE=
202504191630 METAR WIHH 191630Z 24003KT 7000 SCT018 27/24 Q1010 RMK RA TO W-N=
202504191600 METAR WIHH 191600Z 28004KT 7000 SCT018 27/24 Q1010 RMK RA TO SW=
202504191530 METAR WIHH 191530Z 18004KT 7000 SCT018 28/24 Q1009 NOSIG=
202504191500 METAR WIHH 191500Z 13004KT 7000 SCT018 27/24 Q1009 NOSIG=
202504191430 METAR WIHH 191430Z 23004KT 7000 SCT018 27/24 Q1010 NOSIG=
202504191400 METAR WIHH 191400Z 21004KT 7000 SCT018 28/24 Q1009 NOSIG=
202504191330 METAR WIHH 191330Z 21005KT 7000 SCT018 28/24 Q1009 NOSIG=
202504191300 METAR WIHH 191300Z 21006KT 7000 SCT018 28/24 Q1009 NOSIG=
202504191230 METAR WIHH 191230Z 19007KT 7000 SCT018 FEW020CB 28/24 Q1008 RMK CB AND RA TO S=
202504191200 METAR WIHH 191200Z 19006KT 7000 FEW017CB SCT018 29/24 Q1008 RMK CB AND RA TO SW-S=
202504191130 METAR WIHH 191130Z 19006KT 7000 SCT018 FEW020CB 29/24 Q1007 RMK CB AND RA TO SW-S=
202504191100 METAR WIHH 191100Z 34005KT 8000 SCT018 30/24 Q1007 RMK RA TO SW-S=
202504191030 METAR WIHH 191030Z 05004KT 8000 SCT018 31/24 Q1006 RMK RA TO S=
202504191000 METAR WIHH 191000Z 34008KT 8000 SCT018 31/24 Q1006 RMK RA TO SE=
202504190930 METAR WIHH 190930Z 35008KT 8000 SCT018 FEW020CB 32/24 Q1005 RMK CB AND RA TO SE=
202504190900 METAR WIHH 190900Z 36009KT 8000 SCT018 FEW020CB 34/24 Q1005 RMK CB AND RA TO SE=
202504190830 METAR WIHH 190830Z 35009KT 8000 SCT018 FEW020CB 33/23 Q1005 RMK CB AND RA TO SE-S=
202504190800 METAR WIHH 190800Z 36009KT 8000 TS SCT018 FEW020CB 32/23 Q1005 RMK CB AND RA TO SE-SW=
202504190730 METAR WIHH 190730Z 01012KT 8000 SCT018 FEW020CB 33/23 Q1005 NOSIG RMK CB AND RA TO S=
202504190700 METAR WIHH 190700Z 36009KT 8000 SCT018 34/24 Q1005 NOSIG=
202504190630 METAR WIHH 190630Z 01011KT 8000 SCT018 34/24 Q1006 NOSIG=
202504190600 METAR WIHH 190600Z 36009KT 8000 SCT018 34/24 Q1006 NOSIG=
202504190530 METAR WIHH 190530Z 01007KT 8000 SCT018 34/22 Q1006 NOSIG=
202504190500 METAR WIHH 190500Z 13006KT 8000 SCT020 34/22 Q1007 NOSIG=
202504190430 METAR WIHH 190430Z 15006KT 8000 FEW020 33/23 Q1007 NOSIG=
202504190400 METAR WIHH 190400Z 01007KT 8000 FEW020 33/23 Q1008 NOSIG=
202504190330 METAR WIHH 190330Z 30005KT 8000 FEW020 32/23 Q1009 NOSIG=
202504190300 METAR WIHH 190300Z 24006KT 7000 SCT020 31/24 Q1009 NOSIG=
202504190230 METAR WIHH 190230Z 27006KT 7000 SCT020 30/24 Q1010 NOSIG=
202504190200 METAR WIHH 190200Z 25008KT 6000 SCT020 29/24 Q1009 NOSIG=
202504190130 METAR WIHH NIL=
202504190100 METAR WIHH 190100Z 23004KT 6000 SCT020 28/25 Q1009 NOSIG=
202504190030 METAR WIHH 190030Z 21004KT 6000 SCT020 27/25 Q1009 NOSIG=
202504190000 METAR WIHH 190000Z 18004KT 6000 SCT020 27/25 Q1009 NOSIG=
202504182330 METAR WIHH 182330Z 26003KT 6000 SCT020 26/25 Q1008 NOSIG=
202504182300 METAR WIHH 182300Z 00000KT 6000 SCT020 25/25 Q1008 NOSIG=
202504182230 METAR WIHH 182230Z 33004KT 7000 FEW018 25/25 Q1008 NOSIG=
202504182200 METAR WIHH 182200Z 00000KT 7000 FEW018 25/25 Q1008 NOSIG=
202504182130 METAR WIHH 182130Z 00000KT 7000 FEW018 25/25 Q1007 NOSIG=
202504182100 METAR WIHH 182100Z 00000KT 7000 SCT018 25/25 Q1007 RMK RA TO E=
202504182030 METAR WIHH NIL=
202504182000 METAR WIHH NIL=
202504181930 METAR WIHH NIL=
202504181900 METAR WIHH NIL=
202504181830 METAR WIHH NIL=
202504181800 METAR WIHH NIL=
202504181730 METAR WIHH NIL=
202504181700 METAR WIHH 181700Z 00000KT 7000 SCT020 25/24 Q1009 NOSIG=
202504181630 METAR WIHH 181630Z 00000KT 7000 SCT018 25/24 Q1009 NOSIG=
202504181600 METAR WIHH 181600Z 16003KT 7000 SCT018 25/24 Q1009 NOSIG=
202504181530 METAR WIHH 181530Z 17004KT 7000 SCT018 26/24 Q1009 RMK RA TO NE=
202504181500 METAR WIHH 181500Z 14004KT 7000 SCT018 26/25 Q1009 RMK RA TO NE-E=
202504181430 METAR WIHH 181430Z 13003KT 7000 SCT018 26/25 Q1009 RMK RA TO NE-E=
202504181400 METAR WIHH 181400Z 12003KT 7000 TS FEW017CB SCT018 26/25 Q1009 RMK CB AND RA TO E=
202504181330 METAR WIHH 181330Z 12003KT 6000 TS FEW017CB SCT018 26/25 Q1009 RMK CB TO E=
202504181300 METAR WIHH 181300Z 16003KT 6000 -TSRA FEW017CB SCT018 27/25 Q1009 RMK CB TO E-SE=
202504181230 METAR WIHH 181230Z 15006KT 6000 -TSRA FEW017CB SCT018 27/25 Q1008 RMK CB TO E-SE=
202504181200 METAR WIHH 181200Z 15003KT 6000 SCT018 28/25 Q1008 RMK RA TO SE=
202504181130 METAR WIHH 181130Z 16003KT 6000 FEW017CB SCT018 29/25 Q1008 RMK CB AND RA TO SE=
202504181100 METAR WIHH 181100Z 00000KT 6000 FEW017CB SCT018 28/26 Q1007 RMK CB AND RA TO SE=
202504181030 METAR WIHH 181030Z 34003KT 6000 SCT018 29/26 Q1007 RMK RA TO SE-SW=
202504181000 METAR WIHH 181000Z 07003KT 6000 -RA SCT018 29/26 Q1007 TEMPO TL1100 5000 -RA=
202504180930 METAR WIHH 180930Z 04003KT 7000 -RA SCT018 29/26 Q1006=
202504180900 METAR WIHH 180900Z 27003KT 7000 SCT018 29/26 Q1006 RMK RA TO SE=
202504180830 METAR WIHH NIL=
202504180800 METAR WIHH 180800Z 36005KT 6000 -RA FEW017CB SCT018 28/25 Q1006 RMK CB TO SE=
202504180730 METAR WIHH 180730Z 36010KT 7000 TS FEW017CB SCT018 31/25 Q1006 TEMPO FM0750 4000 -TSRA RMK CB AND RA TO NW=
202504180700 METAR WIHH NIL=
202504180630 METAR WIHH 180630Z 26008KT 7000 TS FEW016CB SCT018 32/24 Q1007 RMK CB AND RA TO E=
202504180600 METAR WIHH 180600Z 25012KT 7000 FEW017CB SCT018 32/23 Q1007 RMK CB AND RA TO E=
202504180530 METAR WIHH 180530Z 28010KT 8000 SCT018 33/23 Q1008 NOSIG=
202504180500 METAR WIHH 180500Z 26011KT 8000 SCT020 33/24 Q1008 NOSIG=
202504180430 METAR WIHH 180430Z 24010KT 8000 SCT020 32/24 Q1009 NOSIG=
202504180400 METAR WIHH 180400Z 21010KT 8000 FEW020 32/25 Q1009 NOSIG=
202504180330 METAR WIHH 180330Z 24010KT 8000 FEW020 32/24 Q1009 NOSIG=
202504180300 METAR WIHH 180300Z 22012KT 7000 SCT020 31/24 Q1010 NOSIG=
202504180230 METAR WIHH 180230Z 25009KT 6000 SCT018 30/24 Q1010 NOSIG=
202504180200 METAR WIHH 180200Z 24007KT 6000 SCT018 28/24 Q1010 NOSIG=
202504180130 METAR WIHH 180130Z 24007KT 5000 HZ SCT018 28/24 Q1010 NOSIG=
202504180100 METAR WIHH 180100Z 22005KT 3000 HZ SCT018 27/25 Q1009 NOSIG=
202504180030 METAR WIHH 180030Z 23004KT 2000 HZ SCT018 27/25 Q1009 NOSIG=
202504180000 METAR WIHH 180000Z 25003KT 3000 HZ SCT018 26/25 Q1009 NOSIG=
202504172330 METAR WIHH 172330Z 00000KT 3000 HZ SCT018 26/25 Q1009 NOSIG=
202504172300 METAR WIHH 172300Z 25003KT 3000 HZ FEW018 26/25 Q1009 NOSIG=
202504172230 METAR WIHH 172230Z 24003KT 5000 HZ FEW018 26/25 Q1008 NOSIG=
202504172200 METAR WIHH 172200Z 00000KT 5000 HZ FEW018 26/25 Q1008 NOSIG=
202504172130 METAR WIHH 172130Z 00000KT 6000 SCT018 26/25 Q1008 NOSIG=
202504172100 METAR WIHH NIL=
202504172030 METAR WIHH NIL=
202504172000 METAR WIHH NIL=
202504171930 METAR WIHH NIL=
202504171900 METAR WIHH NIL=
202504171830 METAR WIHH NIL=
202504171800 METAR WIHH NIL=
202504171730 METAR WIHH 171730Z 00000KT 6000 SCT020 26/24 Q1008 NOSIG=
202504171700 METAR WIHH 171700Z 00000KT 6000 SCT020 27/25 Q1009 NOSIG=
202504171630 METAR WIHH 171630Z 00000KT 6000 SCT018 27/25 Q1009 NOSIG=
202504171600 METAR WIHH 171600Z 00000KT 6000 SCT018 27/25 Q1009 NOSIG=
202504171530 METAR WIHH 171530Z 00000KT 6000 SCT018 27/25 Q1009 NOSIG=
202504171500 METAR WIHH 171500Z 00000KT 6000 SCT018 27/25 Q1010 NOSIG=
202504171430 METAR WIHH 171430Z 00000KT 6000 SCT018 27/25 Q1009 NOSIG=
202504171400 METAR WIHH 171400Z 00000KT 6000 SCT020 28/24 Q1009 NOSIG=
202504171330 METAR WIHH 171330Z 00000KT 7000 FEW020 27/24 Q1009 NOSIG=
202504171300 METAR WIHH 171300Z 00000KT 7000 FEW020 27/24 Q1009 NOSIG=
202504171230 METAR WIHH 171230Z 34003KT 7000 SCT020 28/24 Q1008 NOSIG=
202504171200 METAR WIHH 171200Z 33003KT 6000 SCT020 28/24 Q1008 NOSIG=
202504171130 METAR WIHH 171130Z 00000KT 6000 SCT020 28/24 Q1008 NOSIG=
202504171100 METAR WIHH 171100Z 00000KT 5000 HZ SCT020 28/24 Q1007 NOSIG=
202504171030 METAR WIHH 171030Z 34003KT 5000 HZ SCT020 29/24 Q1007 NOSIG=
202504171000 METAR WIHH 171000Z 01004KT 5000 HZ SCT018 29/24 Q1007 NOSIG=
202504170930 METAR WIHH 170930Z 04004KT 5000 HZ SCT018 30/23 Q1006 NOSIG=
202504170900 METAR WIHH 170900Z 34003KT 5000 HZ SCT018 30/25 Q1006 NOSIG=
202504170830 METAR WIHH 170830Z 00000KT 5000 HZ SCT018 30/22 Q1006 NOSIG=
202504170800 METAR WIHH 170800Z 33003KT 5000 SCT018 30/23 Q1006 NOSIG=
202504170730 METAR WIHH 170730Z 36003KT 5000 HZ SCT018 30/25 Q1007 NOSIG=
202504170700 METAR WIHH 170700Z 36003KT 5000 HZ SCT018 30/23 Q1007 NOSIG=
202504170630 METAR WIHH 170630Z 29003KT 5000 HZ SCT018 29/23 Q1008 NOSIG=
202504170600 METAR WIHH 170600Z 00000KT 5000 HZ SCT020 29/23 Q1008 NOSIG=
202504170530 METAR WIHH 170530Z 03003KT 5000 HZ SCT020 29/23 Q1008 NOSIG=
202504170500 METAR WIHH 170500Z 00000KT 5000 HZ SCT020 29/24 Q1009 NOSIG=
202504170430 METAR WIHH 170430Z 00000KT 5000 HZ SCT020 29/24 Q1010 NOSIG=
202504170400 METAR WIHH 170400Z 00000KT 5000 HZ SCT018 27/25 Q1010 NOSIG=
202504170330 METAR WIHH 170330Z 00000KT 5000 HZ SCT018 27/24 Q1011 NOSIG=
202504170300 METAR WIHH 170300Z 25003KT 4000 HZ SCT018 27/25 Q1011 NOSIG=
202504170230 METAR WIHH 170230Z 00000KT 4000 HZ SCT018 27/25 Q1011 NOSIG=
202504170200 METAR WIHH 170200Z 00000KT 4000 HZ SCT018 26/25 Q1010 NOSIG=
202504170130 METAR WIHH NIL=
202504170100 METAR WIHH 170100Z 00000KT 4000 HZ SCT018 26/25 Q1010 NOSIG=
202504170030 METAR WIHH 170030Z 28004KT 4000 BR BKN019 26/25 Q1009 NOSIG=
202504170000 METAR WIHH NIL=
202504162330 METAR WIHH 162330Z 10006KT 3000 -RA BKN018 25/25 Q1009 NOSIG=
202504162300 METAR WIHH 162300Z 13004KT 3000 -RA BKN017 25/25 Q1008 NOSIG=
202504162230 METAR WIHH 162230Z 09003KT 3000 -RA BKN016 FEW020CB 26/25 Q1008 RMK CB TO E=
202504162200 METAR WIHH 162200Z 01003KT 3000 -TSRA BKN016 25/25 Q1008 RMK CB TO SE=
202504162130 METAR WIHH NIL=
202504162100 METAR WIHH NIL=
202504162030 METAR WIHH NIL=
202504162000 METAR WIHH NIL=
202504161930 METAR WIHH NIL=
202504161900 METAR WIHH NIL=
202504161830 METAR WIHH NIL=
202504161800 METAR WIHH NIL=
202504161730 METAR WIHH NIL=
202504161700 METAR WIHH 161700Z 21003KT 4000 TS SCT016 FEW020CB 27/26 Q1009 RMK CB AND RA TO E AND S=
202504161630 METAR WIHH 161630Z 22003KT 4000 HZ BKN017 27/26 Q1009 RMK RA TO E-SE=
202504161600 METAR WIHH 161600Z 22004KT 4000 HZ BKN017 27/26 Q1009 RMK RA TO E-SE=
202504161530 METAR WIHH 161530Z 21004KT 4000 -RA BKN017 27/25 Q1009 NOSIG=
202504161500 METAR WIHH 161500Z 21004KT 4000 -RA BKN017 27/26 Q1009 NOSIG=
202504161430 METAR WIHH 161430Z 22005KT 4000 -RA BKN017 27/25 Q1009 NOSIG=
202504161400 METAR WIHH 161400Z 21005KT 4000 HZ SCT017 27/25 Q1009 RMK RA TO S=
202504161330 METAR WIHH 161330Z 19005KT 4000 HZ SCT017 27/25 Q1009 NOSIG=
202504161300 METAR WIHH 161300Z 21005KT 6000 SCT017 27/25 Q1009 NOSIG=
202504161230 METAR WIHH 161230Z 22005KT 6000 SCT018 27/25 Q1008 NOSIG=
202504161200 METAR WIHH 161200Z 21007KT 6000 SCT018 27/25 Q1008 NOSIG=
202504161130 METAR WIHH 161130Z 27006KT 6000 TS SCT018 27/25 Q1008 RMK CB TO SE=
202504161100 METAR WIHH 161100Z 24008KT 4000 -TSRA BKN017 FEW018CB 28/25 Q1008 RMK CB TO SE-S=
202504161030 METAR WIHH 161030Z 30005KT 5000 -TSRA BKN017 FEW018CB 29/24 Q1007 RMK CB TO SE-SW=
202504161000 METAR WIHH 161000Z 35009KT 5000 TS BKN018 FEW019CB 30/24 Q1007 RMK CB AND RA TO SE-SW=
202504160930 METAR WIHH 160930Z 35008KT 5000 HZ SCT018 FEW020CB 30/24 Q1006 TEMPO FM0950 3000 -TSRA RMK CB AND RA TO S-W=
202504160900 METAR WIHH 160900Z 35009KT 5000 HZ SCT018 FEW020CB 31/25 Q1006 RMK CB TO SW AND RA TO S-W=
202504160830 METAR WIHH 160830Z 01011KT 5000 HZ SCT018 FEW020CB 32/25 Q1006 RMK CB TO SW AND RA TO S-W=
202504160800 METAR WIHH 160800Z 35010KT 5000 HZ SCT019 FEW020CB 32/25 Q1006 RMK CB TO SW AND RA TO SE-SW=
202504160730 METAR WIHH 160730Z 02011KT 5000 HZ SCT019 FEW020CB 33/25 Q1006 RMK CB AND RA TO SW=
202504160700 METAR WIHH NIL=
202504160630 METAR WIHH 160630Z 01010KT 6000 SCT018 33/24 Q1007 NOSIG=
202504160600 METAR WIHH 160600Z 01011KT 6000 SCT018 32/24 Q1007 RMK RA TO NE=
202504160530 METAR WIHH 160530Z 35008KT 6000 SCT018 33/23 Q1007 RMK RA TO N-NE=
202504160500 METAR WIHH 160500Z 08008KT 6000 SCT018 33/23 Q1008 NOSIG=
202504160430 METAR WIHH 160430Z 11007KT 6000 SCT018 32/22 Q1008 NOSIG=
202504160400 METAR WIHH 160400Z 10009KT 6000 SCT018 33/23 Q1009 NOSIG=
202504160330 METAR WIHH 160330Z 15007KT 6000 SCT020 32/23 Q1009 NOSIG=
202504160300 METAR WIHH 160300Z 25004KT 6000 SCT020 32/24 Q1009 NOSIG=
202504160230 METAR WIHH 160230Z 19003KT 6000 FEW020 31/24 Q1010 NOSIG=
202504160200 METAR WIHH 160200Z 14003KT 6000 FEW020 30/24 Q1010 NOSIG=
202504160130 METAR WIHH 160130Z 15004KT 6000 FEW020 29/24 Q1010 NOSIG=
202504160100 METAR WIHH 160100Z 17004KT 6000 FEW020 28/25 Q1009 NOSIG=
202504160030 METAR WIHH 160030Z 20005KT 5000 HZ FEW020 26/23 Q1009 NOSIG=
202504160000 METAR WIHH 160000Z 23005KT 5000 HZ FEW019 26/24 Q1009 NOSIG=
202504152330 METAR WIHH 152330Z 23004KT 5000 HZ FEW019 25/23 Q1009 NOSIG=
202504152300 METAR WIHH 152300Z 22004KT 5000 HZ FEW019 25/24 Q1008 NOSIG=
202504152230 METAR WIHH 152230Z 26004KT 5000 HZ FEW018 25/24 Q1008 NOSIG=
202504152200 METAR WIHH 152200Z 20004KT 5000 HZ FEW018 25/24 Q1008 NOSIG=
202504152130 METAR WIHH NIL=
202504152100 METAR WIHH 152100Z 23005KT 4000 HZ SCT018 25/24 Q1008 NOSIG=
202504152030 METAR WIHH NIL=
202504152000 METAR WIHH NIL=
202504151930 METAR WIHH NIL=
202504151900 METAR WIHH NIL=
202504151830 METAR WIHH NIL=
202504151800 METAR WIHH NIL=
202504151730 METAR WIHH NIL=
202504151700 METAR WIHH 151700Z 00000KT 8000 SCT018 26/25 Q1010 NOSIG=
202504151630 METAR WIHH 151630Z 00000KT 8000 SCT018 26/25 Q1010 NOSIG=
202504151600 METAR WIHH 151600Z 00000KT 8000 SCT018 26/25 Q1010 NOSIG=
202504151530 METAR WIHH 151530Z 16003KT 8000 SCT018 26/25 Q1009 NOSIG=
202504151500 METAR WIHH 151500Z 15003KT 8000 SCT018 26/25 Q1009 NOSIG=
202504151430 METAR WIHH 151430Z 16003KT 8000 SCT018 26/24 Q1009 NOSIG=
202504151400 METAR WIHH 151400Z 11003KT 8000 SCT018 26/25 Q1010 RMK RA TO N=
202504151330 METAR WIHH 151330Z 08006KT 7000 TS FEW016CB SCT017 26/25 Q1010 RMK CB AND RA TO N-NE=
202504151300 METAR WIHH 151300Z 07006KT 7000 TS FEW016CB SCT017 27/25 Q1010 RMK CB AND RA TO N-NE=
202504151230 METAR WIHH 151230Z 12003KT 7000 TS FEW016CB SCT017 26/24 Q1009 RMK CB AND RA TO N-NE=
202504151200 METAR WIHH 151200Z 17003KT 7000 SCT017 26/25 Q1008 RMK RA TO E AND SW=
202504151130 METAR WIHH 151130Z 18008KT 6000 SCT017 26/24 Q1008 RMK RA TO N AND S=
202504151100 METAR WIHH 151100Z 22007KT 6000 TS FEW016CB SCT017 27/24 Q1008 RMK CB AND RA TO S=
202504151030 METAR WIHH 151030Z 28003KT 6000 -RA SCT016 FEW017CB 26/24 Q1008 RMK CB TO S=
202504151000 METAR WIHH 151000Z 27005KT 6000 TS SCT016 FEW017CB 29/24 Q1008 TEMPO FM1005 2000 -TSRA BKN015 FEW016CB RMK CB AND RA TO SW AND NW=
202504150900 METAR WIHH 150900Z 31005KT 6000 TS FEW016CB SCT017 30/24 Q1007 RMK CB AND RA TO S-W=
202504150830 METAR WIHH 150830Z 36006KT 6000 SCT018 30/23 Q1007 RMK RA TO S-SW=
202504150800 METAR WIHH 150800Z 05005KT 7000 SCT018 30/23 Q1007 RMK RA TO SW=
202504150730 METAR WIHH 150730Z 34004KT 7000 SCT018 31/23 Q1007 RMK RA TO NW=
202504150700 METAR WIHH 150700Z 34003KT 7000 SCT018 30/22 Q1007 NOSIG=
202504150630 METAR WIHH 150630Z 27005KT 7000 SCT018 30/22 Q1008 RMK RA TO SE=
202504150600 METAR WIHH 150600Z 29004KT 6000 SCT018 29/23 Q1008 RMK RA TO E=
202504150530 METAR WIHH 150530Z 27007KT 6000 SCT018 29/23 Q1009 RMK RA TO E=
202504150500 METAR WIHH 150500Z 26006KT 6000 SCT018 29/24 Q1009 RMK RA TO E=
202504150400 METAR WIHH NIL=
202504150330 METAR WIHH 150330Z 30005KT 6000 SCT017 31/23 Q1010 RMK RA TO NW=
202504150300 METAR WIHH 150300Z 27004KT 6000 SCT017 30/24 Q1010 RMK RA TO NW=
202504150230 METAR WIHH 150230Z 34003KT 6000 SCT018 29/24 Q1010 NOSIG=
202504150200 METAR WIHH 150200Z 25003KT 6000 SCT018 29/24 Q1010 NOSIG=
202504150130 METAR WIHH 150130Z 26003KT 5000 HZ SCT018 29/25 Q1010 NOSIG=
202504150100 METAR WIHH 150100Z 27003KT 5000 HZ SCT018 28/25 Q1010 NOSIG=
202504150030 METAR WIHH 150030Z 15003KT 4000 HZ SCT018 27/25 Q1010 NOSIG=
202504150000 METAR WIHH 150000Z 05003KT 4000 HZ SCT018 26/25 Q1009 NOSIG=
202504142330 METAR WIHH 142330Z 21003KT 4000 SCT018 26/24 Q1009 NOSIG=
202504142300 METAR WIHH 142300Z 00000KT 5000 HZ SCT018 26/24 Q1009 NOSIG=
202504142230 METAR WIHH 142230Z 00000KT 7000 SCT018 26/24 Q1008 NOSIG=
202504142200 METAR WIHH 142200Z 00000KT 7000 SCT018 26/25 Q1008 NOSIG=
202504142130 METAR WIHH 142130Z 00000KT 7000 SCT018 26/24 Q1008 NOSIG=
202504142100 METAR WIHH 142100Z 00000KT 7000 SCT018 26/25 Q1008 NOSIG=
202504142030 METAR WIHH NIL=
202504142000 METAR WIHH NIL=
202504141930 METAR WIHH NIL=
202504141900 METAR WIHH NIL=
202504141830 METAR WIHH NIL=
202504141800 METAR WIHH NIL=
202504141730 METAR WIHH NIL=
202504141700 METAR WIHH 141700Z 25005KT 8000 SCT018 28/24 Q1009 NOSIG=
202504141630 METAR WIHH 141630Z 00000KT 8000 SCT018 28/24 Q1009 NOSIG=
202504141600 METAR WIHH 141600Z 26005KT 8000 SCT018 28/24 Q1009 NOSIG=
202504141530 METAR WIHH 141530Z 25010KT 8000 SCT018 28/24 Q1009 NOSIG=
202504141500 METAR WIHH 141500Z 25007KT 8000 SCT018 28/24 Q1009 NOSIG=
202504141430 METAR WIHH 141430Z 25005KT 8000 SCT018 29/24 Q1009 NOSIG=
202504141400 METAR WIHH 141400Z 26005KT 8000 SCT018 29/24 Q1009 NOSIG=
202504141330 METAR WIHH 141330Z 26005KT 8000 SCT017 29/24 Q1009 RMK RA TO SE-S=
202504141300 METAR WIHH 141300Z 26006KT 8000 SCT015 29/24 Q1009 RMK RA TO SE-S=
202504141230 METAR WIHH 141230Z 23008KT 8000 SCT015 29/24 Q1008 RMK RA TO SE=
202504141200 METAR WIHH 141200Z 24010KT 8000 SCT015 30/24 Q1008 NOSIG RMK RA TO S=
202504141130 METAR WIHH 141130Z 23008KT 8000 SCT016 29/23 Q1007 RMK RA TO S=
202504141100 METAR WIHH 141100Z 25008KT 8000 SCT015 31/24 Q1007 NOSIG=
202504141030 METAR WIHH 141030Z 25010KT 8000 FEW016CB SCT017 31/24 Q1006 NOSIG RMK CB AND RA TO SE=
202504141000 METAR WIHH 141000Z 29006KT 8000 SCT017 33/24 Q1006 NOSIG=
202504140930 METAR WIHH 140930Z 26009KT 8000 SCT017 33/23 Q1006 NOSIG=
202504140900 METAR WIHH 140900Z 27008KT 8000 SCT016 33/23 Q1005 RMK RA TO SE=
202504140830 METAR WIHH 140830Z 27007KT 8000 SCT016 33/23 Q1005 RMK RA TO S=
202504140800 METAR WIHH 140800Z 24008KT 8000 SCT016 34/23 Q1006 NOSIG=
202504140730 METAR WIHH 140730Z 24010KT 8000 SCT016 32/24 Q1006 NOSIG=
202504140700 METAR WIHH 140700Z 24010KT 8000 SCT016 32/24 Q1006 NOSIG=
202504140630 METAR WIHH 140630Z 25010KT 8000 SCT016 33/23 Q1007 NOSIG=
202504140600 METAR WIHH 140600Z 27012KT 8000 SCT016 33/23 Q1008 NOSIG=
202504140530 METAR WIHH 140530Z 25015KT 8000 SCT015 33/24 Q1008 NOSIG=
202504140500 METAR WIHH 140500Z 27005KT 8000 SCT018 32/24 Q1009 NOSIG=
202504140430 METAR WIHH 140430Z 26010KT 8000 SCT018 32/23 Q1009 NOSIG=
202504140400 METAR WIHH 140400Z 26009KT 8000 SCT018 31/24 Q1010 NOSIG=
202504140330 METAR WIHH 140330Z 24008KT 8000 SCT018 31/24 Q1010 NOSIG=
202504140300 METAR WIHH 140300Z 27010KT 8000 SCT018 31/24 Q1010 NOSIG=
202504140230 METAR WIHH 140230Z 24015KT 8000 SCT018 30/24 Q1011 NOSIG=
202504140200 METAR WIHH 140200Z 25013KT 8000 SCT018 29/24 Q1011 NOSIG=
202504140130 METAR WIHH 140130Z 24012KT 8000 SCT018 28/24 Q1010 NOSIG=
202504140100 METAR WIHH 140100Z 25007KT 7000 SCT019 28/24 Q1010 NOSIG=
202504140030 METAR WIHH 140030Z 24007KT 7000 SCT019 27/24 Q1010 NOSIG=
202504140000 METAR WIHH 140000Z 25012KT 7000 SCT018 26/24 Q1010 RMK RA TO SW=
202504132330 METAR WIHH 132330Z 25004KT 8000 SCT018 25/24 Q1010 RMK RA TO SW=
202504132300 METAR WIHH 132300Z 23003KT 8000 FEW020 25/24 Q1009 NOSIG=
202504132230 METAR WIHH 132230Z 27003KT 8000 FEW020 25/24 Q1009 NOSIG=
202504132200 METAR WIHH 132200Z 25003KT 8000 FEW020 25/24 Q1009 NOSIG=
202504132130 METAR WIHH 132130Z 24003KT 8000 FEW020 25/24 Q1009 NOSIG=
202504132100 METAR WIHH 132100Z 27003KT 8000 FEW020 25/24 Q1008 NOSIG=
202504132030 METAR WIHH NIL=
202504132000 METAR WIHH NIL=
202504131930 METAR WIHH NIL=
202504131900 METAR WIHH NIL=
202504131830 METAR WIHH NIL=
202504131800 METAR WIHH NIL=
202504131730 METAR WIHH NIL=
202504131700 METAR WIHH 131700Z 21004KT 7000 SCT018 25/24 Q1011 RMK RA TO W=
202504131630 METAR WIHH 131630Z 24005KT 7000 SCT018 25/24 Q1012 RMK RA TO W=
202504131600 METAR WIHH 131600Z 25005KT 7000 SCT018 25/24 Q1012 RMK RA TO NW=
202504131530 METAR WIHH 131530Z 26007KT 7000 SCT018 25/24 Q1012 RMK RA TO NW=
202504131500 METAR WIHH 131500Z 29009KT 7000 -RA SCT018 25/24 Q1012 TEMPO TL1600 4000 -RA=
202504131430 METAR WIHH 131430Z 27012KT 6000 -RA SCT018 26/24 Q1012 TEMPO TL1500 4000 -RA=
202504131400 METAR WIHH 131400Z 24012KT 7000 -RA SCT020 26/24 Q1012 NOSIG=
202504131330 METAR WIHH 131330Z 25008KT 8000 SCT020 26/25 Q1011 RMK RA TO NW=
202504131300 METAR WIHH 131300Z 23005KT 8000 SCT020 26/25 Q1010 RMK RA TO NW=
202504131230 METAR WIHH 131230Z 22005KT 8000 SCT020 26/25 Q1010 RMK RA TO NW=
202504131200 METAR WIHH 131200Z 25004KT 7000 SCT020 26/25 Q1009 RMK RA TO NW-NE=
202504131130 METAR WIHH 131130Z 30004KT 0700 SCT019 FEW020CB 26/25 Q1009 RMK CB AND RA TO N-E=
202504131100 METAR WIHH 131100Z 21005KT 6000 SCT019 FEW020CB 26/25 Q1009 RMK CB AND RA TO N-E=
202504131030 METAR WIHH 131030Z 24005KT 6000 SCT018 FEW020CB 26/25 Q1009 RMK CB AND RA TO NE-E=
202504131000 METAR WIHH 131000Z 22005KT 5000 HZ SCT018 26/25 Q1008 RMK CB AND RA TO NE-E=
202504130930 METAR WIHH 130930Z 23005KT 5000 TS SCT018 26/25 Q1008 RMK CB AND RA TO NE-E=
202504130900 METAR WIHH 130900Z 22009KT 4000 TS SCT017 FEW018CB 26/25 Q1008 RMK CB AND RA TO NE-SE=
202504130830 METAR WIHH 130830Z 27010KT 3000 -TSRA BKN017 FEW018CB 26/25 Q1008 RMK CB TO E-SE=
202504130800 METAR WIHH 130800Z 17005KT 3000 -TSRA FEW015CB BKN016 25/25 Q1008 RMK CB TO S=
202504130730 METAR WIHH 130730Z 24015KT 2000 TSRA FEW015CB BKN016 25/24 Q1008 TEMPO FM0800 3000 -TSRA RMK CB OTF=
202504130700 METAR WIHH 130700Z 31007KT 3000 TSRA FEW015CB BKN017 27/25 Q1008 TEMPO FM0800 3000 -TSRA RMK CB OTF=
202504130630 METAR WIHH 130630Z 35009KT 2000 RA BKN016 FEW017CB 26/25 Q1008 TEMPO FM0700 3000 -TSRA RMK CB TO S AND W=
202504130600 METAR WIHH 130600Z 32009KT 3000 RA BKN017 FEW018CB 27/25 Q1009 TEMPO FM0630 2000 TSRA FEW017CB BKN018 RMK CB TO N=
202504130530 METAR WIHH 130530Z 33007KT 4000 -RA SCT017 FEW019CB 30/24 Q1009 TEMPO FM0600 2000 TSRA FEW017CB BKN018 RMK CB TO NW=
202504130500 METAR WIHH 130500Z 32007KT 6000 SCT018 FEW020CB 32/24 Q1009 TEMPO FM0510 3000 -TSRA RMK CB TO NW AND RA TO NW-N=
202504130430 METAR WIHH 130430Z 01003KT 7000 SCT018 FEW020CB 32/24 Q1010 TEMPO FM0510 3000 -TSRA RMK CB AND RA TO NW=
202504130400 METAR WIHH 130400Z 27004KT 7000 SCT018 FEW020CB 32/24 Q1010 RMK CB TO NW AND RA TO NW AND NE=
202504130330 METAR WIHH 130330Z 25004KT 7000 SCT018 31/24 Q1011 NOSIG=
202504130300 METAR WIHH 130300Z 16004KT 7000 SCT018 31/24 Q1011 NOSIG=
202504130230 METAR WIHH 130230Z 20004KT 6000 FEW018 30/24 Q1012 NOSIG=
202504130200 METAR WIHH 130200Z 23004KT 6000 FEW020 29/24 Q1011 NOSIG=
202504130130 METAR WIHH 130130Z 26004KT 5000 HZ FEW020 29/24 Q1011 NOSIG=
202504130100 METAR WIHH NIL=
202504130030 METAR WIHH 130030Z 25003KT 4000 HZ FEW020 26/25 Q1011 NOSIG=
202504130000 METAR WIHH NIL=
202504122330 METAR WIHH 122330Z 23003KT 4000 BR FEW020 25/24 Q1010 NOSIG=
202504122300 METAR WIHH 122300Z 00000KT 3000 BR FEW020 25/24 Q1009 NOSIG=
202504122230 METAR WIHH 122230Z 00000KT 5000 HZ FEW020 25/24 Q1009 NOSIG=
202504122200 METAR WIHH 122200Z 24003KT 4000 BR FEW020 25/24 Q1009 NOSIG=
202504122130 METAR WIHH 122130Z 00000KT 4000 BR FEW020 25/24 Q1009 NOSIG=
202504122100 METAR WIHH 122100Z 00000KT 4000 BR FEW020 25/24 Q1009 NOSIG=
202504122030 METAR WIHH NIL=
202504122000 METAR WIHH NIL=
202504121930 METAR WIHH NIL=
202504121900 METAR WIHH NIL=
202504121830 METAR WIHH NIL=
202504121800 METAR WIHH NIL=
202504121730 METAR WIHH NIL=
202504121700 METAR WIHH 121700Z 21003KT 5000 HZ SCT018 26/24 Q1011 NOSIG=
202504121600 METAR WIHH 121600Z 19003KT 5000 HZ SCT017 26/24 Q1011 NOSIG=
202504121530 METAR WIHH 121530Z 20003KT 5000 HZ SCT017 26/24 Q1011 NOSIG=
202504121500 METAR WIHH 121500Z 19003KT 5000 HZ SCT017 25/24 Q1011 RMK RA TO W=
202504121430 METAR WIHH 121430Z 24004KT 4000 HZ SCT017 FEW017CB 26/25 Q1011 RMK CB AND RA TO W=
202504121400 METAR WIHH 121400Z 19003KT 4000 TS SCT016 FEW017CB 26/25 Q1011 RMK CB AND RA TO SW-N=
202504121330 METAR WIHH 121330Z 23005KT 4000 HZ FEW017CB SCT017 26/25 Q1011 RMK CB AND RA TO W=
202504121300 METAR WIHH 121300Z 22003KT 4000 HZ FEW017CB SCT017 26/25 Q1010 RMK CB AND RA TO SW AND RA TO NW=
202504121230 METAR WIHH 121230Z 17003KT 4000 HZ FEW017CB SCT018 27/25 Q1009 RMK CB AND RA TO SW AND RA TO N=
202504121200 METAR WIHH 121200Z 16005KT 4000 HZ FEW017CB SCT018 27/25 Q1009 RMK CB AND RA TO SW=
202504121130 METAR WIHH 121130Z 13004KT 5000 HZ FEW017CB SCT018 28/24 Q1008 RMK CB AND RA TO W=
202504121100 METAR WIHH 121100Z 13004KT 4000 HZ FEW017 SCT018 28/25 Q1007 RMK CB AND RA TO W=
202504121030 METAR WIHH 121030Z 11007KT 5000 TS FEW017CB SCT018 28/25 Q1007 RMK CB AND RA TO W=
202504121000 METAR WIHH 121000Z 07008KT 5000 HZ FEW017CB SCT018 30/25 Q1007 RMK CB AND RA TO W=
202504120930 METAR WIHH 120930Z 15005KT 5000 HZ FEW017CB SCT018 29/25 Q1007 RMK CB AND RA TO W AND RA TO S=
202504120900 METAR WIHH 120900Z 11003KT 5000 TS FEW017CB SCT018 29/24 Q1007 RMK CB AND RA TO E AND RA TO S=
202504120830 METAR WIHH 120830Z 09005KT 5000 TS FEW017 SCT018 29/24 Q1007 RMK CB AND RA TO S=
202504120800 METAR WIHH 120800Z 12006KT 5000 TS FEW017CB SCT018 28/24 Q1006 RMK CB AND RA TO SE-SW=
202504120730 METAR WIHH 120730Z 34003KT 5000 TS FEW017CB SCT018 30/24 Q1007 TEMPO FM0740 3000 -TSRA BKN015 RMK CB AND RA TO E-S=
202504120700 METAR WIHH 120700Z 33004KT 5000 TS FEW017CB SCT018 31/24 Q1007 TEMPO FM0740 3000 -TSRA BKN015 RMK CB AND RA TO E-S=
202504120630 METAR WIHH 120630Z 29006KT 5000 TS FEW017CB SCT018 31/25 Q1007 TEMPO FM0645 3000 -TSRA BKN015 RMK CB AND RA TO E=
202504120600 METAR WIHH 120600Z 27005KT 5000 HZ SCT018 30/25 Q1008 RMK RA TO W=
202504120530 METAR WIHH 120530Z 34003KT 5000 HZ SCT018 31/24 Q1008 RMK RA TO NW=
202504120500 METAR WIHH 120500Z 27004KT 5000 HZ SCT018 30/24 Q1009 NOSIG=
202504120430 METAR WIHH 120430Z 29003KT 5000 HZ SCT018 30/24 Q1009 RMK RA TO N=
202504120400 METAR WIHH 120400Z 24003KT 4000 HZ SCT018 29/24 Q1010 TEMPO FM0415 3000 -RA BKN015 RMK RA TO N=
202504120330 METAR WIHH 120330Z 23003KT 4000 HZ SCT018 30/24 Q1010 RMK RA TO N=
202504120300 METAR WIHH 120300Z 02003KT 4000 HZ SCT018 30/24 Q1010 NOSIG RMK RA TO NE=
202504120230 METAR WIHH 120230Z 03003KT 4000 HZ SCT020 30/24 Q1011 RMK RA TO N=
202504120200 METAR WIHH 120200Z 24003KT 4000 HZ SCT020 28/24 Q1011 NOSIG=
202504120130 METAR WIHH 120130Z 23003KT 3000 HZ SCT020 28/25 Q1011 NOSIG=
202504120100 METAR WIHH 120100Z 25003KT 3000 HZ SCT020 27/25 Q1010 NOSIG=
202504120030 METAR WIHH 120030Z 19003KT 3000 BR SCT020 26/25 Q1010 NOSIG=
202504120000 METAR WIHH 120000Z 19003KT 4000 BR SCT020 26/25 Q1009 NOSIG=
202504112330 METAR WIHH 112330Z 23003KT 4000 BR SCT020 25/24 Q1009 NOSIG=
202504112300 METAR WIHH 112300Z 00000KT 4000 BR SCT020 25/24 Q1009 NOSIG=
202504112230 METAR WIHH 112230Z 00000KT 3000 BR SCT020 25/24 Q1008 NOSIG=
202504112200 METAR WIHH NIL=
202504112130 METAR WIHH NIL=
202504112100 METAR WIHH NIL=
202504112030 METAR WIHH NIL=
202504112000 METAR WIHH NIL=
202504111930 METAR WIHH NIL=
202504111900 METAR WIHH NIL=
202504111830 METAR WIHH NIL=
202504111800 METAR WIHH NIL=
202504111700 METAR WIHH NIL=
202504111600 METAR WIHH 111600Z 20003KT 3000 BR SCT020 25/25 Q1010 NOSIG=
202504111530 METAR WIHH 111530Z 00000KT 5000 HZ SCT020 25/24 Q1010 NOSIG=
202504111500 METAR WIHH 111500Z 17003KT 5000 HZ SCT020 25/24 Q1010 NOSIG=
202504111430 METAR WIHH 111430Z 11004KT 5000 HZ SCT020 26/24 Q1010 NOSIG=
202504111400 METAR WIHH 111400Z 12004KT 5000 HZ SCT018 26/24 Q1010 NOSIG=
202504111330 METAR WIHH 111330Z 12004KT 5000 HZ SCT018 26/24 Q1010 NOSIG=
202504111300 METAR WIHH 111300Z 10003KT 5000 HZ SCT018 26/24 Q1010 NOSIG=
202504111230 METAR WIHH 111230Z 07003KT 5000 -RA SCT018 FEW020CB 26/25 Q1009 RMK CB TO NE=
202504111200 METAR WIHH 111200Z 14006KT 5000 -RA SCT018 FEW020CB 25/25 Q1008 RMK CB TO NE=
202504111130 METAR WIHH 111130Z 14005KT 5000 -RA BKN018 FEW020CB 26/25 Q1008 RMK CB TO NE=
202504111100 METAR WIHH 111100Z 05003KT 3000 -TSRA BKN018 FEW020CB 26/25 Q1008 RMK CB TO SE=
202504111030 METAR WIHH 111030Z 20003KT 3000 -TSRA BKN018 FEW170CB 25/24 Q1008 RMK CB TO S=
202504111000 METAR WIHH 111000Z 28006KT 3000 TSRA FEW017CB BKN018 26/25 Q1007 RMK CB TO N-NE=
202504110930 METAR WIHH 110930Z 14006KT 5000 TSRA FEW017CB BKN018 26/24 Q1007 RMK CB TO S AND N=
202504110900 METAR WIHH 110900Z 20008KT 5000 -TSRA FEW017CB BKN018 27/24 Q1007 RMK CB TO SE AND NW=
202504110830 METAR WIHH 110830Z 20009KT 5000 -TSRA FEW017CB SCT018 27/24 Q1006 RMK CB TO SE AND NW=
202504110800 METAR WIHH 110800Z 24015KT 4000 -TS SCT018 FEW019CB 28/23 Q1006 TEMPO FM0805 3000 -TSRA RMK CB AND RA TO SE-W=
202504110730 METAR WIHH 110730Z 26014KT 6000 TS SCT019 FEW020CB 31/24 Q1006 RMK CB AND RA TO SE-SW=
202504110700 METAR WIHH 110700Z 12004KT 6000 TS SCT019 FEW020CB 30/24 Q1005 RMK CB AND RA TO SE-SW=
202504110630 METAR WIHH 110630Z 09015KT 6000 -TSRA FEW018CB SCT020 30/23 Q1006 RMK CB TO SE-S=
202504110600 METAR WIHH 110600Z 02012KT 6000 TS FEW018CB SCT020 33/23 Q1006 RMK CB TO SE AND RA TO E-SE=
202504110530 METAR WIHH NIL=
202504110500 METAR WIHH NIL=
202504110430 METAR WIHH 110430Z 03005KT 6000 SCT020 34/23 Q1008 RMK RA TO N=
202504110400 METAR WIHH NIL=
202504110300 METAR WIHH NIL=
202504110200 METAR WIHH NIL=
202504110100 METAR WIHH 110100Z 20003KT 3000 HZ FEW020 29/25 Q1009 NOSIG=
202504110030 METAR WIHH 110030Z 15004KT 3000 HZ FEW020 26/25 Q1009 NOSIG=
202504110000 METAR WIHH 110000Z 00000KT 3000 HZ FEW018 25/24 Q1009 NOSIG=
202504102330 METAR WIHH 110000Z 00000KT 3000 HZ FEW018 25/24 Q1009 NOSIG=
202504102300 METAR WIHH 102300Z 23003KT 2000 BR FEW018 25/24 Q1008 NOSIG=
202504102230 METAR WIHH 102230Z 00000KT 2000 BR FEW018 25/24 Q1008 NOSIG=
202504102200 METAR WIHH 102200Z 00000KT 3000 HZ FEW018 25/24 Q1008 NOSIG=
202504102130 METAR WIHH 102130Z 00000KT 4000 HZ FEW018 25/24 Q1007 NOSIG=
202504102100 METAR WIHH 102100Z 00000KT 4000 HZ FEW018 25/24 Q1007 NOSIG=
202504102030 METAR WIHH NIL=
202504102000 METAR WIHH NIL=
202504101930 METAR WIHH NIL=
202504101900 METAR WIHH NIL=
202504101830 METAR WIHH NIL=
202504101800 METAR WIHH NIL=
202504101730 METAR WIHH NIL=
202504101700 METAR WIHH 101700Z 00000KT 5000 HZ SCT018 25/23 Q1009 NOSIG=
202504101630 METAR WIHH 101630Z 00000KT 5000 HZ SCT018 25/23 Q1009 NOSIG=
202504101600 METAR WIHH 101600Z 00000KT 5000 HZ SCT018 25/23 Q1009 NOSIG=
202504101530 METAR WIHH 101530Z 00000KT 5000 HZ SCT018 25/23 Q1009 NOSIG=
202504101500 METAR WIHH 101500Z 26003KT 5000 HZ SCT018 25/23 Q1009 NOSIG=
202504101430 METAR WIHH 101430Z 26003KT 5000 HZ SCT018 25/23 Q1009 NOSIG=
202504101400 METAR WIHH 101400Z 23003KT 5000 HZ SCT017 25/23 Q1008 RMK RA TO SE=
202504101330 METAR WIHH 101330Z 23003KT 5000 HZ SCT017 25/23 Q1008 RMK RA TO SE=
202504101300 METAR WIHH 101300Z 07003KT 5000 HZ SCT017 25/23 Q1008 RMK RA TO SE=
202504101230 METAR WIHH 101230Z 12006KT 5000 -RA SCT015 25/23 Q1008 NOSIG=
202504101200 METAR WIHH 101200Z 14005KT 5000 TS SCT015 FEW017CB 26/23 Q1008 RMK CB AND RA TO E=
202504101130 METAR WIHH 101130Z 14005KT 5000 -TSRA SCT015 FEW017CB 27/24 Q1008 RMK CB TO SE-NE=
202504101100 METAR WIHH 101100Z 16004KT 5000 -RA SCT015 FEW017CB 26/25 Q1007 RMK CB TO SE=
202504101030 METAR WIHH 101030Z 18003KT 4000 -RA SCT015 FEW017CB 26/24 Q1007 RMK CB TO S=
202504101000 METAR WIHH 101000Z 18005KT 5000 -TSRA SCT015 FEW017CB 25/23 Q1006 RMK CB TO S=
202504100930 METAR WIHH 100930Z 18005KT 4000 -TSRA BKN015 FEW017CB 25/23 Q1006 RMK CB OTF=
202504100900 METAR WIHH 100900Z 22018KT 2000 -TSRA BKN015 FEW017CB 27/25 Q1006 RMK CB OTF=
202504100830 METAR WIHH 100830Z 03006KT 5000 TS FEW017CB SCT018 31/25 Q1005 TEMPO FM0850 3000 -TSRA BKN014 RMK CB AND RA TO SE-SW=
202504100800 METAR WIHH 100800Z 35007KT 6000 TS FEW017CB SCT018 32/25 Q1005 RMK CB AND RA TO SE-SW=
202504100730 METAR WIHH 100730Z 33003KT 6000 SCT018 32/24 Q1005 RMK RA TO S=
202504100700 METAR WIHH 100700Z 03008KT 6000 SCT018 32/24 Q1006 RMK RA TO S=
202504100630 METAR WIHH 100630Z 34004KT 6000 SCT018 32/24 Q1006 RMK RA TO S=
202504100600 METAR WIHH 100600Z 35003KT 6000 SCT018 33/25 Q1007 RMK RA TO S=
202504100530 METAR WIHH 100530Z 03003KT 6000 SCT018 32/24 Q1008 RMK RA TO NW=
202504100500 METAR WIHH 100500Z 27003KT 6000 SCT018 32/24 Q1009 NOSIG=
202504100430 METAR WIHH NIL=
202504100400 METAR WIHH NIL=
202504100330 METAR WIHH 100330Z 04007KT 6000 SCT018 31/23 Q1010 NOSIG=
202504100300 METAR WIHH 100300Z 15003KT 6000 SCT018 31/25 Q1011 NOSIG=
202504100230 METAR WIHH 100230Z 12003KT 5000 HZ SCT018 30/24 Q1011 NOSIG=
202504100200 METAR WIHH 100200Z 00000KT 5000 HZ SCT018 29/25 Q1011 NOSIG=
202504100130 METAR WIHH 100130Z 00000KT 5000 HZ SCT018 29/25 Q1011 NOSIG=
202504100100 METAR WIHH 100100Z 00000KT 6000 SCT020 29/25 Q1010 NOSIG=
202504100030 METAR WIHH 100030Z 00000KT 5000 HZ FEW020 28/25 Q1010 NOSIG=
202504100000 METAR WIHH 100000Z 21003KT 4000 HZ SCT020 27/25 Q1010 RMK RA TO SE=
202504092330 METAR WIHH 092330Z 22004KT 3000 BR SCT020 26/25 Q1010 RMK RA TO S=
202504092300 METAR WIHH 092300Z 20004KT 3000 BR SCT020 26/25 Q1009 RMK RA TO SE=
202504092230 METAR WIHH 092230Z 14003KT 5000 HZ SCT018 26/25 Q1009 NOSIG RMK RA TO E=
202504092200 METAR WIHH 092200Z 13003KT 5000 HZ SCT018 26/25 Q1009 NOSIG=
202504092130 METAR WIHH 092130Z 00000KT 5000 HZ SCT018 26/25 Q1009 NOSIG=
202504092100 METAR WIHH 092100Z 27003KT 5000 HZ SCT018 26/25 Q1008 NOSIG=
202504092030 METAR WIHH NIL=
202504092000 METAR WIHH NIL=
202504091930 METAR WIHH NIL=
202504091900 METAR WIHH NIL=
202504091830 METAR WIHH NIL=
202504091800 METAR WIHH NIL=
202504091730 METAR WIHH NIL=
202504091700 METAR WIHH NIL=
202504091630 METAR WIHH 091630Z 27003KT 8000 SCT020 27/25 Q1010 NOSIG=
202504091600 METAR WIHH 091600Z 27003KT 8000 SCT020 27/25 Q1010 NOSIG=
202504091530 METAR WIHH 091530Z 05003KT 8000 SCT020 28/25 Q1010 NOSIG=
202504091500 METAR WIHH 091500Z 06005KT 8000 FEW020 27/25 Q1010 NOSIG=
202504091430 METAR WIHH 091430Z 35003KT 8000 FEW020 27/25 Q1010 NOSIG=
202504091400 METAR WIHH 091400Z 36005KT 8000 FEW020 28/25 Q1010 NOSIG=
202504091330 METAR WIHH 091330Z 35005KT 8000 FEW020 29/24 Q1010 NOSIG=
202504091300 METAR WIHH 091300Z 05006KT 7000 SCT020 29/24 Q1009 NOSIG=
202504091230 METAR WIHH 091230Z 05007KT 7000 SCT020 29/24 Q1009 NOSIG=
202504091200 METAR WIHH 091200Z 01007KT 7000 SCT020 29/24 Q1009 NOSIG=
202504091130 METAR WIHH 091130Z 03007KT 7000 SCT020 29/24 Q1009 NOSIG=
202504091100 METAR WIHH 091100Z 01010KT 7000 SCT020 29/24 Q1008 NOSIG=
202504091030 METAR WIHH 091030Z 02010KT 7000 SCT020 30/24 Q1008 NOSIG=
202504091000 METAR WIHH 091000Z 02011KT 7000 SCT020 30/24 Q1007 NOSIG RMK RA TO SW=
202504090930 METAR WIHH 090930Z 04012KT 7000 SCT020 30/25 Q1007 NOSIG=
202504090900 METAR WIHH 090900Z 03009KT 7000 SCT020 30/25 Q1007 RMK RA TO W=
202504090830 METAR WIHH 090830Z 03010KT 6000 TS SCT018 FEW019CB 29/25 Q1007 NOSIG RMK CB AND RA TO W-NW=
202504090800 METAR WIHH 090800Z 02010KT 6000 TS SCT018 FEW019CB 28/24 Q1007 TEMPO FM0815 2000 -TSRA FEW017CB SCT018 RMK CB TO N AND RA TO NW-NE=
202504090730 METAR WIHH 090730Z 04010KT 6000 SCT019 FEW020CB 32/24 Q1007 TEMPO FM0735 2000 RA FEW017CB SCT018 RMK CB AND RA TO NE=
202504090700 METAR WIHH 090700Z 06010KT 6000 SCT020 32/24 Q1008 RMK RA TO NW=
202504090630 METAR WIHH 090630Z 05009KT 6000 SCT020 33/23 Q1011 RMK RA TO W=
202504090600 METAR WIHH 090600Z 03008KT 6000 SCT020 33/24 Q1009 RMK RA TO E=
202504090530 METAR WIHH 090530Z 04012KT 6000 SCT020 33/22 Q1009 RMK RA TO NW=
202504090500 METAR WIHH 090500Z 07012KT 5000 HZ SCT020 33/23 Q1010 RMK RA TO NW=
202504090430 METAR WIHH 090430Z 04011KT 6000 SCT020 33/23 Q1011 NOSIG=
202504090400 METAR WIHH NIL=
202504090330 METAR WIHH 090330Z 05011KT 6000 SCT020 32/24 Q1011 NOSIG=
202504090300 METAR WIHH 090300Z 09010KT 6000 SCT020 32/24 Q1011 NOSIG=
202504090230 METAR WIHH 090230Z 05009KT 6000 SCT020 31/23 Q1011 NOSIG=
202504090200 METAR WIHH 090200Z 11004KT 5000 HZ SCT020 30/24 Q1011 NOSIG=
202504090130 METAR WIHH 090130Z 12005KT 5000 HZ FEW020 30/24 Q1011 NOSIG=
202504090100 METAR WIHH 090100Z 11003KT 5000 HZ FEW020 28/24 Q1011 NOSIG=
202504090030 METAR WIHH 090030Z 00000KT 4000 HZ FEW020 28/24 Q1010 NOSIG=
202504090000 METAR WIHH 090000Z 13003KT 4000 HZ FEW020 27/24 Q1010 NOSIG=
202504082330 METAR WIHH 082330Z 00000KT 4000 HZ FEW020 26/25 Q1010 NOSIG=
202504082300 METAR WIHH 082300Z 00000KT 3000 HZ FEW020 25/24 Q1009 NOSIG=
202504082230 METAR WIHH 082230Z 00000KT 4000 HZ FEW020 26/25 Q1009 NOSIG=
202504082200 METAR WIHH 082200Z 00000KT 4000 HZ FEW018 26/24 Q1009 NOSIG=
202504082130 METAR WIHH 082130Z 00000KT 5000 HZ FEW018 26/25 Q1009 NOSIG=
202504082100 METAR WIHH NIL=
202504082030 METAR WIHH NIL=
202504082000 METAR WIHH NIL=
202504081930 METAR WIHH NIL=
202504081900 METAR WIHH NIL=
202504081830 METAR WIHH NIL=
202504081800 METAR WIHH 081800Z 21003KT 6000 FEW020 27/24 Q1011 NOSIG=
202504081730 METAR WIHH 081730Z 10003KT 6000 SCT018 28/24 Q1011 NOSIG=
202504081700 METAR WIHH 081700Z 09003KT 6000 SCT018 28/24 Q1012 NOSIG=
202504081630 METAR WIHH 081630Z 00000KT 6000 SCT018 28/24 Q1012 NOSIG=
202504081600 METAR WIHH 081600Z 00000KT 6000 SCT018 28/24 Q1012 NOSIG=
202504081530 METAR WIHH 081530Z 07003KT 6000 FEW018 28/23 Q1012 NOSIG=
202504081500 METAR WIHH 081500Z 24018KT 2000 -TSRA FEW016CB BKN017 27/25 Q1010 RMK CB OTF=
202504081430 METAR WIHH 081430Z 00000KT 6000 SCT018 28/25 Q1011 NOSIG=
202504081400 METAR WIHH 081400Z 00000KT 6000 SCT018 28/25 Q1011 NOSIG=
202504081330 METAR WIHH 081330Z 05003KT 6000 SCT018 29/24 Q1011 NOSIG=
202504081300 METAR WIHH 081300Z 05003KT 7000 FEW018 29/24 Q1011 NOSIG=
202504081230 METAR WIHH 081230Z 33004KT 7000 FEW018 29/24 Q1010 NOSIG=
202504081200 METAR WIHH 081200Z 36004KT 7000 FEW017CB SCT018 29/24 Q1010 RMK CB AND RA TO S=
202504081130 METAR WIHH 081130Z 02004KT 6000 FEW017CB SCT018 29/24 Q1009 RMK CB AND RA TO S=
202504081100 METAR WIHH 081100Z 01003KT 6000 FEW017CB SCT018 30/24 Q1009 RMK CB AND RA TO S=
202504081030 METAR WIHH 081030Z 35006KT 7000 FEW017CB SCT018 30/24 Q1009 RMK CB AND RA TO S=
202504081000 METAR WIHH 081000Z 35007KT 7000 SCT018 31/24 Q1009 RMK RA TO S=
202504080930 METAR WIHH 080930Z 35005KT 7000 SCT018 31/23 Q1008 RMK RA TO S=
202504080900 METAR WIHH 080900Z 32004KT 7000 SCT018 32/23 Q1008 RMK RA TO S=
202504080830 METAR WIHH 080830Z 03008KT 7000 SCT018 32/23 Q1008 NOSIG=
202504080800 METAR WIHH 080800Z 03007KT 7000 SCT018 32/23 Q1008 RMK RA TO SW=
202504080730 METAR WIHH 080730Z 05006KT 7000 SCT018 32/23 Q1009 NOSIG=
202504080700 METAR WIHH 080700Z 03007KT 7000 SCT018 32/22 Q1009 NOSIG=
202504080630 METAR WIHH 080630Z 09005KT 6000 SCT018 33/22 Q1010 NOSIG=
202504080600 METAR WIHH 080600Z 06007KT 6000 SCT018 33/22 Q1010 NOSIG=
202504080530 METAR WIHH 080530Z 03007KT 6000 SCT018 32/22 Q1011 NOSIG=
202504080500 METAR WIHH 080500Z 04008KT 6000 SCT018 33/22 Q1011 NOSIG=
202504080430 METAR WIHH 080430Z 02006KT 6000 SCT018 33/22 Q1011 NOSIG=
202504080400 METAR WIHH 080400Z 07003KT 6000 SCT018 31/23 Q1012 NOSIG=
202504080330 METAR WIHH 080330Z 11007KT 6000 SCT020 31/23 Q1012 NOSIG=
202504080300 METAR WIHH 080300Z 06003KT 5000 HZ FEW020 30/23 Q1013 NOSIG=
202504080230 METAR WIHH 080230Z 01004KT 5000 HZ FEW020 30/23 Q1013 NOSIG=
202504080200 METAR WIHH 080200Z 12003KT 5000 HZ FEW020 29/24 Q1013 NOSIG=
202504080130 METAR WIHH 080130Z 14003KT 4000 HZ FEW020 28/24 Q1012 NOSIG=
202504080100 METAR WIHH 080100Z 15003KT 3000 HZ FEW020 27/24 Q1012 NOSIG=
202504080030 METAR WIHH NIL=
202504080000 METAR WIHH 080000Z 00000KT 3000 HZ FEW018 26/24 Q1012 NOSIG=
202504072330 METAR WIHH 072330Z 16004KT 3000 HZ FEW018 26/25 Q1011 NOSIG=
202504072300 METAR WIHH 072300Z 13003KT 3000 HZ SCT018 26/24 Q1011 NOSIG=
202504072230 METAR WIHH 072230Z 00000KT 6000 SCT018 25/24 Q1011 NOSIG=
202504072200 METAR WIHH 072200Z 00000KT 6000 SCT018 26/24 Q1011 NOSIG=
202504072130 METAR WIHH 072130Z 14002KT 7000 SCT020 25/24 Q1010 NOSIG=
202504072100 METAR WIHH 072100Z 00000KT 7000 SCT020 26/23 Q1010 NOSIG=
202504072030 METAR WIHH NIL=
202504072000 METAR WIHH NIL=
202504071930 METAR WIHH NIL=
202504071900 METAR WIHH NIL=
202504071830 METAR WIHH NIL=
202504071800 METAR WIHH NIL=
202504071730 METAR WIHH NIL=
202504071700 METAR WIHH 071700Z 17005KT 7000 SCT018 27/24 Q1012 RMK RA TO E=
202504071630 METAR WIHH 071630Z 23003KT 8000 FEW020 27/25 Q1012 NOSIG=
202504071600 METAR WIHH 071600Z 24003KT 8000 FEW020 27/25 Q1012 NOSIG=
202504071530 METAR WIHH 071530Z 15003KT 8000 FEW020 28/24 Q1012 NOSIG=
202504071500 METAR WIHH 071500Z 08003KT 8000 FEW020 29/23 Q1012 NOSIG=
202504071430 METAR WIHH 071430Z 34003KT 8000 FEW020 28/25 Q1012 NOSIG=
202504071400 METAR WIHH 071400Z 35003KT 8000 FEW020 28/24 Q1011 NOSIG=
202504071330 METAR WIHH 071330Z 03003KT 8000 FEW020 29/24 Q1011 NOSIG=
202504071300 METAR WIHH 071300Z 02003KT 8000 FEW020 29/24 Q1011 NOSIG=
202504071230 METAR WIHH 071230Z 01005KT 8000 FEW020 29/23 Q1010 NOSIG=
202504071200 METAR WIHH 071200Z 03005KT 8000 FEW018 30/23 Q1010 NOSIG=
202504071130 METAR WIHH 071130Z 02008KT 8000 FEW020 30/23 Q1009 NOSIG=
202504071100 METAR WIHH 071100Z 03008KT 8000 SCT020 30/23 Q1008 NOSIG=
202504071030 METAR WIHH 071030Z 36006KT 8000 SCT019 31/23 Q1008 NOSIG=
202504071000 METAR WIHH 071000Z 02006KT 8000 SCT019 32/23 Q1008 NOSIG=
202504070930 METAR WIHH 070930Z 03008KT 8000 SCT019 32/23 Q1008 NOSIG=
202504070900 METAR WIHH 070900Z 35008KT 8000 SCT019 32/23 Q1007 NOSIG=
202504070830 METAR WIHH 070830Z 36010KT 8000 SCT019 33/23 Q1007 NOSIG=
202504070800 METAR WIHH 070800Z 02009KT 7000 SCT018 32/23 Q1008 NOSIG=
202504070730 METAR WIHH 070730Z 02008KT 7000 SCT018 33/24 Q1008 NOSIG=
202504070700 METAR WIHH 070700Z 05008KT 7000 SCT018 32/23 Q1008 NOSIG=
202504070630 METAR WIHH 070630Z 07010KT 7000 SCT019 33/23 Q1008 NOSIG=
202504070600 METAR WIHH 070600Z 05010KT 7000 SCT019 33/23 Q1009 NOSIG=
202504070530 METAR WIHH 070530Z 07008KT 7000 SCT019 33/23 Q1009 NOSIG=
202504070500 METAR WIHH 070500Z 08005KT 7000 SCT019 32/22 Q1010 NOSIG=
202504070430 METAR WIHH 070430Z 24005KT 7000 SCT019 31/23 Q1011 NOSIG=
202504070400 METAR WIHH 070400Z 04005KT 7000 SCT019 31/23 Q1011 NOSIG=
202504070330 METAR WIHH 070330Z 17005KT 7000 FEW020 30/24 Q1012 NOSIG=
202504070300 METAR WIHH 070300Z 13006KT 7000 FEW020 30/23 Q1012 NOSIG=
202504070230 METAR WIHH 070230Z 26003KT 6000 FEW020 29/23 Q1012 NOSIG=
202504070200 METAR WIHH 070200Z 00000KT 6000 FEW020 28/24 Q1012 NOSIG=
202504070130 METAR WIHH 070130Z 00000KT 5000 HZ FEW018 27/24 Q1012 NOSIG=
202504070100 METAR WIHH 070100Z 00000KT 5000 HZ FEW018 26/24 Q1012 NOSIG=
202504070030 METAR WIHH 070030Z 00000KT 4000 HZ FEW018 25/24 Q1012 NOSIG=
202504070000 METAR WIHH 070000Z 00000KT 4000 BR FEW018 25/24 Q1011 NOSIG=
202504062330 METAR WIHH 062330Z 00000KT 4000 BR FEW018 25/24 Q1011 NOSIG=
202504062300 METAR WIHH 062300Z 00000KT 4000 BR FEW018 24/24 Q1010 NOSIG=
202504062230 METAR WIHH 062230Z 00000KT 4000 BR FEW018 24/24 Q1010 NOSIG=
202504062200 METAR WIHH 062200Z 00000KT 5000 HZ FEW018 24/24 Q1010 NOSIG=
202504062130 METAR WIHH NIL=
202504062100 METAR WIHH NIL=
202504062030 METAR WIHH NIL=
202504062000 METAR WIHH NIL=
202504061930 METAR WIHH NIL=
202504061900 METAR WIHH NIL=
202504061830 METAR WIHH NIL=
202504061800 METAR WIHH NIL=
202504061730 METAR WIHH NIL=
202504061700 METAR WIHH 061700Z 00000KT 6000 SCT018 24/24 Q1011 NOSIG=
202504061630 METAR WIHH 061630Z 00000KT 6000 SCT018 24/24 Q1011 NOSIG=
202504061600 METAR WIHH 061600Z 00000KT 6000 SCT018 24/24 Q1011 NOSIG=
202504061530 METAR WIHH 061530Z 00000KT 6000 SCT018 24/24 Q1011 NOSIG=
202504061500 METAR WIHH 061500Z 19003KT 6000 SCT018 24/23 Q1011 NOSIG=
202504061430 METAR WIHH 061430Z 20003KT 6000 SCT016 24/23 Q1011 RMK RA TO E=
202504061400 METAR WIHH 061400Z 16003KT 5000 -RA SCT016 24/23 Q1011 NOSIG=
202504061330 METAR WIHH 061330Z 12003KT 4000 -RA SCT015 24/23 Q1011 NOSIG=
202504061300 METAR WIHH 061300Z 00000KT 4000 -RA SCT015 24/23 Q1011 NOSIG=
202504061230 METAR WIHH 061230Z 12003KT 4000 -RA BKN015 24/24 Q1011 RMK CB TO N=
202504061200 METAR WIHH 061200Z 12004KT 4000 -TSRA SCT015 24/24 Q1011 RMK CB TO NE=
202504061130 METAR WIHH 061130Z 13004KT 4000 -RA SCT015 24/24 Q1011 NOSIG=
202504061100 METAR WIHH 061100Z 21003KT 3000 TSRA BKN014 FEW017CB 25/24 Q1011 RMK CB TO N AND S=
202504061030 METAR WIHH 061030Z 02003KT 4000 -TSRA BKN014 FEW017CB 24/24 Q1010 RMK CB TO NW AND S=
202504061000 METAR WIHH 061000Z 25003KT 3000 -TSRA BKN014 FEW017CB 24/24 Q1009 RMK CB OTF DUPE=
202504060930 METAR WIHH 060930Z 22008KT 2000 -TSRA FEW017CB 25/24 Q1009 RMK CB OTF=
202504060900 METAR WIHH 060900Z 22012G23KT 1800 TSRA BKN012 25/23 Q1008 RMK CB TO S-NW=
202504060830 METAR WIHH 060830Z 27006G16KT 6000 BKN015 FEW017CB 27/23 Q1007 TEMPO FM0840 3000 -TSRA BKN014 RMK CB AND RA TO SE-W=
202504060800 METAR WIHH 060800Z 24004KT 6000 TS FEW017CB SCT018 28/23 Q1007 RMK CB AND RA TO SE-W=
202504060730 METAR WIHH 060730Z 36005KT 6000 TS FEW017CB SCT018 31/24 Q1007 RMK CB AND RA TO SE-W=
202504060700 METAR WIHH 060700Z 35007KT 6000 TS FEW017CB SCT018 32/24 Q1007 RMK CB AND RA TO SW-SE=
202504060630 METAR WIHH 060630Z 35006KT 6000 -TSRA FEW017 SCT018 32/24 Q1007 RMK CB TO S=
202504060600 METAR WIHH 060600Z 34007KT 6000 TS FEW017CB SCT020 33/25 Q1008 RMK CB AND RA TO SE=
202504060530 METAR WIHH 060530Z 34005KT 6000 SCT020 33/24 Q1008 RMK RA TO NE=
202504060500 METAR WIHH 060500Z 24003KT 7000 SCT020 33/22 Q1009 NOSIG=
202504060430 METAR WIHH 060430Z 15003KT 7000 SCT020 32/23 Q1009 NOSIG=
202504060400 METAR WIHH 060400Z 24003KT 7000 SCT020 32/23 Q1010 NOSIG=
202504060330 METAR WIHH 060330Z 11004KT 7000 FEW020 32/23 Q1010 NOSIG=
202504060300 METAR WIHH 060300Z 28003KT 7000 FEW020 31/22 Q1011 NOSIG=
202504060230 METAR WIHH 060230Z 29003KT 7000 FEW020 30/23 Q1011 NOSIG=
202504060200 METAR WIHH 060200Z 17003KT 6000 FEW020 30/24 Q1010 NOSIG=
202504060130 METAR WIHH 060130Z 29003KT 5000 HZ FEW020 29/24 Q1010 NOSIG=
202504060100 METAR WIHH 060100Z 06003KT 5000 HZ FEW020 28/24 Q1010=
202504060030 METAR WIHH 060030Z 03003KT 5000 HZ FEW020 26/25 Q1010 NOSIG=
202504060000 METAR WIHH 060000Z 04003KT 5000 HZ FEW020 25/25 Q1010 NOSIG=
202504052330 METAR WIHH 052330Z 18003KT 5000 HZ FEW020 25/24 Q1009 NOSIG=
202504052300 METAR WIHH 052300Z 27003KT 5000 HZ FEW020 25/24 Q1009 NOSIG=
202504052230 METAR WIHH 052230Z 23003KT 5000 HZ SCT020 25/24 Q1009 NOSIG=
202504052200 METAR WIHH 052200Z 24003KT 5000 HZ SCT020 25/24 Q1008 NOSIG=
202504052130 METAR WIHH 052130Z 21003KT 4000 BR SCT020 25/24 Q1008 NOSIG=
202504052100 METAR WIHH 052100Z 00000KT 4000 BR SCT020 25/24 Q1009 NOSIG=
202504052030 METAR WIHH NIL=
202504052000 METAR WIHH NIL=
202504051930 METAR WIHH NIL=
202504051900 METAR WIHH NIL=
202504051830 METAR WIHH NIL=
202504051800 METAR WIHH NIL=
202504051730 METAR WIHH 051730Z 31003KT 7000 SCT020 25/24 Q1010 NOSIG=
202504051700 METAR WIHH 051700Z 00000KT 8000 SCT020 25/24 Q1010 NOSIG=
202504051630 METAR WIHH 051630Z 00000KT 8000 SCT020 25/24 Q1010 NOSIG=
202504051600 METAR WIHH 051600Z 00000KT 8000 SCT020 26/24 Q1010 NOSIG=
202504051530 METAR WIHH 051530Z 00000KT 8000 SCT020 25/24 Q1010 NOSIG=
202504051500 METAR WIHH 051500Z 12003KT 8000 SCT020 26/24 Q1010 NOSIG=
202504051430 METAR WIHH 051430Z 13003KT 8000 SCT020 25/24 Q1010 NOSIG=
202504051400 METAR WIHH 051400Z 00000KT 8000 SCT020 25/25 Q1010 NOSIG=
202504051330 METAR WIHH 051330Z 00000KT 8000 SCT020 25/24 Q1010 NOSIG=
202504051300 METAR WIHH 051300Z 00000KT 7000 SCT017 25/24 Q1010 NOSIG=
202504051230 METAR WIHH 051230Z 17004KT 7000 SCT017 25/24 Q1010 RMK RA TO S=
202504051200 METAR WIHH 051200Z 14003KT 6000 -TSRA FEW016CB SCT017 25/24 Q1009 RMK CB TO SE=
202504051130 METAR WIHH 051130Z 12003KT 5000 -RA SCT015 FEW016CB 25/24 Q1009 RMK CB TO E-S=
202504051100 METAR WIHH 051100Z 12003KT 4000 -TSRA BKN015 FEW016CB 25/24 Q1009 RMK CB TO E-S=
202504051030 METAR WIHH 051030Z 34008KT 0500 TSRA SCT015 FEW016CB 27/25 Q1009 RMK CB OVER THE FIELD=
202504051000 METAR WIHH 051000Z 28005KT 5000 TS FEW016CB SCT017 27/24 Q1008 RMK CB AND RA TO N=
202504050930 METAR WIHH 050930Z 30005KT 6000 SCT017 27/24 Q1008 NOSIG=
202504050900 METAR WIHH 050900Z 26005KT 6000 SCT017 27/25 Q1007 RMK RA TO W-SW=
202504050830 METAR WIHH 050830Z 21005KT 5000 -RA FEW016CB SCT017 26/25 Q1007 RMK CB TO W=
202504050800 METAR WIHH 050800Z 01005KT 5000 -RA FEW016CB SCT017 26/23 Q1007 RMK CB TO N=
202504050730 METAR WIHH 050730Z 31007KT 5000 -RA FEW016CB SCT017 26/24 Q1007 RMK CB TO B=
202504050700 METAR WIHH 050700Z 33004KT 5000 -TSRA SCT016 FEW017CB 27/24 Q1008 RMK CB TO NE-SE=
202504050630 METAR WIHH 050630Z 26005KT 4000 -TSRA SCT016 27/24 Q1008 RMK CB AND RA TO NW-E=
202504050600 METAR WIHH 050600Z 10006KT 5000 -TS FEW016CB SCT017 30/25 Q1008 TEMPO FM0620 3000 -TSRA RMK CB AND RA TO E=
202504050530 METAR WIHH 050530Z 06008KT 6000 FEW016CB SCT017 29/25 Q1008 RMK CB AND RA TO SE AND NW=
202504050500 METAR WIHH 050500Z 36010KT 6000 FEW017CB SCT018 31/24 Q1009 RMK CB AND RA TO NW-NE=
202504050430 METAR WIHH 050430Z 31005KT 6000 SCT018 32/23 Q1009 RMK RA TO NW AND NE=
202504050400 METAR WIHH 050400Z 06005KT 6000 SCT018 32/23 Q1010 NOSIG=
202504050330 METAR WIHH 050330Z 05004KT 6000 SCT020 31/24 Q1010 NOSIG=
202504050300 METAR WIHH 050300Z 15003KT 6000 SCT020 31/24 Q1011 NOSIG=
202504050230 METAR WIHH 050230Z 35003KT 5000 HZ FEW020 30/23 Q1011 NOSIG=
202504050200 METAR WIHH 050200Z 13003KT 5000 HZ FEW020 29/24 Q1011 NOSIG=
202504050130 METAR WIHH 050130Z 14003KT 5000 HZ FEW020 28/24 Q1011 NOSIG=
202504050100 METAR WIHH 050100Z 00000KT 5000 HZ FEW020 27/24 Q1010 NOSIG=
202504050030 METAR WIHH 050030Z 00000KT 5000 HZ FEW020 27/24 Q1010 NOSIG=
202504050000 METAR WIHH 050000Z 00000KT 4000 HZ FEW020 26/24 Q1010 NOSIG=
202504042330 METAR WIHH 042330Z 00000KT 4000 HZ FEW020 26/24 Q1010 NOSIG=
202504042300 METAR WIHH 042300Z 14004KT 5000 HZ FEW020 26/24 Q1009 NOSIG=
202504042230 METAR WIHH 042230Z 00000KT 5000 HZ FEW020 26/24 Q1009 NOSIG=
202504042200 METAR WIHH 042200Z 12003KT 5000 HZ FEW020 26/24 Q1009 NOSIG=
202504042130 METAR WIHH 042130Z 00000KT 5000 FEW020 26/24 Q1009 NOSIG=
202504042100 METAR WIHH NIL=
202504042030 METAR WIHH NIL=
202504042000 METAR WIHH NIL=
202504041930 METAR WIHH NIL=
202504041900 METAR WIHH NIL=
202504041830 METAR WIHH NIL=
202504041800 METAR WIHH NIL=
202504041730 METAR WIHH 041730Z 00000KT 6000 FEW020 27/24 Q1010 NOSIG=
202504041700 METAR WIHH 041700Z 11003KT 6000 FEW020 27/24 Q1010 NOSIG=
202504041630 METAR WIHH NIL=
202504041600 METAR WIHH NIL=
202504041530 METAR WIHH 041530Z 14003KT 7000 FEW020 27/24 Q1010 NOSIG=
202504041500 METAR WIHH 041500Z 26003KT 7000 FEW020 27/24 Q1010 NOSIG=
202504041430 METAR WIHH 041430Z 22003KT 7000 FEW020 27/24 Q1010 NOSIG=
202504041400 METAR WIHH 041400Z 00000KT 7000 FEW020 27/24 Q1009 NOSIG=
202504041330 METAR WIHH 041330Z 00000KT 7000 FEW020 28/23 Q1009 NOSIG=
202504041300 METAR WIHH 041300Z 29003KT 7000 FEW020 28/24 Q1009 NOSIG=
202504041230 METAR WIHH 041230Z 24003KT 7000 FEW020 28/23 Q1009 NOSIG=
202504041200 METAR WIHH 041200Z 29003KT 7000 FEW020 29/23 Q1009 NOSIG=
202504041130 METAR WIHH 041130Z 32005KT 7000 FEW017CB SCT018 29/23 Q1008 RMK CB TO E=
202504041100 METAR WIHH NIL=
202504041030 METAR WIHH 041030Z 27003KT 7000 FEW017CB SCT018 30/23 Q1008 RMK CB TO E=
202504041000 METAR WIHH 041000Z 30003KT 7000 FEW017CB SCT018 30/23 Q1007 RMK CB TO E=
202504040930 METAR WIHH 040930Z 30005KT 6000 FEW017CB SCT018 30/23 Q1007 RMK CB TO E=
202504040900 METAR WIHH 040900Z 28004KT 6000 FEW017CB SCT018 30/24 Q1007 RMK CB TO SE=
202504040830 METAR WIHH 040830Z 27007KT 6000 SCT018 30/24 Q1007 RMK RA TO N=
202504040800 METAR WIHH 040800Z 232003KT 6000 SCT018 30/24 Q1007 RMK RA TO NW=
202504040730 METAR WIHH 040730Z 26006KT 6000 FEW017CB SCT018 30/25 Q1007 RMK CB AND RA TO NW AND RA TO SE=
202504040700 METAR WIHH 040700Z 17006KT 4000 -TSRA FEW017CB SCT018 29/25 Q1008 RMK CB TO W=
202504040630 METAR WIHH 040630Z 35008KT 7000 SCT020 32/24 Q1008 RMK RA TO N AND NW=
202504040600 METAR WIHH 040600Z 03008KT 8000 SCT020 32/24 Q1009 RMK RA TO NW=
202504040530 METAR WIHH 040530Z 11005KT 8000 SCT020 33/22 Q1009 NOSIG=
202504040500 METAR WIHH 040500Z 24006KT 8000 SCT020 32/22 Q1010 NOSIG=
202504040430 METAR WIHH 040430Z 26006KT 8000 SCT020 32/22 Q1011 NOSIG=
202504040400 METAR WIHH 040400Z 23007KT 8000 FEW020 31/24 Q1011 NOSIG=
202504040330 METAR WIHH 040330Z 29003KT 6000 FEW020 30/23 Q1011 NOSIG=
202504040300 METAR WIHH 040300Z 27004KT 6000 FEW020 29/24 Q1012 NOSIG=
202504040230 METAR WIHH 040230Z 04003KT 6000 FEW020 29/24 Q1012 NOSIG=
202504040200 METAR WIHH 040200Z 00000KT 6000 FEW020 28/24 Q1012 NOSIG=
202504040130 METAR WIHH 040130Z 12003KT 6000 FEW020 27/24 Q1012 NOSIG=
202504040100 METAR WIHH 040100Z 09003KT 6000 FEW020 26/24 Q1012 NOSIG=
202504040030 METAR WIHH 040030Z 00000KT 6000 FEW020 25/24 Q1011 NOSIG=
202504040000 METAR WIHH 040000Z 00000KT 6000 FEW020 25/25 Q1011 NOSIG=
202504032330 METAR WIHH 032330Z 00000KT 5000 HZ FEW020 24/24 Q1011 NOSIG=
202504032300 METAR WIHH 032300Z 00000KT 5000 HZ SCT020 24/24 Q1010 NOSIG=
202504032230 METAR WIHH 032230Z 00000KT 7000 SCT018 25/24 Q1010 NOSIG=
202504032200 METAR WIHH 032200Z 00000KT 7000 SCT018 25/24 Q1009 NOSIG=
202504032130 METAR WIHH 032130Z 00000KT 7000 SCT018 25/24 Q1009 NOSIG=
202504032100 METAR WIHH 032100Z 00000KT 6000 SCT018 25/24 Q1009 NOSIG=
202504032030 METAR WIHH NIL=
202504032000 METAR WIHH NIL=
202504031930 METAR WIHH NIL=
202504031900 METAR WIHH NIL=
202504031830 METAR WIHH NIL=
202504031800 METAR WIHH NIL=
202504031730 METAR WIHH 031730Z 00000KT 6000 RA SCT016 25/24 Q1011 NOSIG=
202504031700 METAR WIHH 031700Z 00000KT 6000 -RA SCT016 25/24 Q1011 NOSIG=
202504031630 METAR WIHH 031630Z 29004KT 6000 -TSRA SCT016 25/24 Q1011 RMK CB TO SE=
202504031600 METAR WIHH 031600Z 14008KT 4000 -TSRA SCT016 FEW017CB 25/24 Q1011 RMK CB TO SE=
202504031530 METAR WIHH 031530Z 29004KT 6000 -TSRA SCT016 25/24 Q1011 RMK CB TO E=
202504031500 METAR WIHH 031500Z 32004KT 4000 -TSRA SCT016 FEW017CB 25/24 Q1011 RMK CB OVER THE FIELD=
202504031430 METAR WIHH 031430Z 28004KT 7000 -TSRA SCT016 FEW017CB 27/24 Q1011 RMK CB TO SW=
202504031400 METAR WIHH 031400Z 15004KT 7000 -RA SCT019 28/24 Q1011 NOSIG=
202504031330 METAR WIHH 031330Z 02003KT 8000 SCT019 29/25 Q1010 RMK RA TO S=
202504031300 METAR WIHH NIL=
202504031230 METAR WIHH 031230Z 05003KT 7000 FEW018CB SCT019 29/24 Q1010 RMK CB AND RA TO S=
202504031200 METAR WIHH NIL=
202504031130 METAR WIHH 031130Z 34006KT 7000 FEW018CB SCT019 28/24 Q1008 RMK CB AND RA TO S=
202504031100 METAR WIHH 031100Z 36007KT 7000 FEW018CB SCT019 29/24 Q1008 RMK CB AND RA TO S=
202504031030 METAR WIHH 031030Z 34008KT 8000 FEW020 29/24 Q1008 NOSIG=
202504031000 METAR WIHH 031000Z 01007KT 8000 FEW020 31/24 Q1008 NOSIG=
202504030930 METAR WIHH 030930Z 02007KT 9000 FEW020 32/24 Q1008 NOSIG=
202504030900 METAR WIHH 030900Z 35005KT 9000 FEW020 32/24 Q1007 NOSIG=
202504030830 METAR WIHH 030830Z 35006KT 6000 SCT020 33/25 Q1007 NOSIG=
202504030800 METAR WIHH 030800Z 01006KT 7000 SCT018 32/24 Q1007 NOSIG=
202504030730 METAR WIHH 030730Z 03009KT 7000 SCT018 33/24 Q1007 NOSIG=
202504030700 METAR WIHH 030700Z 01007KT 7000 SCT018 32/24 Q1008 NOSIG=
202504030630 METAR WIHH 030630Z 30005KT 6000 SCT018 32/23 Q1009 RMK RA TO S=
202504030600 METAR WIHH 030600Z 02005KT 6000 31/23 Q1009 RMK RA TO S-SW=
202504030530 METAR WIHH 030530Z 01005KT 6000 SCT018 31/23 Q1010 RMK RA TO SW=
202504030500 METAR WIHH 030500Z 32003KT 6000 SCT010 31/23 Q1010 RMK RA TO W=
202504030430 METAR WIHH 030430Z 01003KT 6000 SCT018 31/24 Q1011 NOSIG=
202504030400 METAR WIHH 030400Z 07003KT 6000 SCT018 30/24 Q1011 RMK RA TO S=
202504030330 METAR WIHH 030330Z 09004KT 6000 SCT018 30/24 Q1011 NOSIG=
202504030300 METAR WIHH 030300Z 03004KT 6000 SCT018 29/24 Q1012 NOSIG=
202504030230 METAR WIHH 030230Z 14005KT 5000 SCT018 29/25 Q1012 NOSIG=
202504030200 METAR WIHH 030200Z 09005KT 4000 SCT018 28/25 Q1012 NOSIG=
202504030130 METAR WIHH 030130Z 10004KT 4000 HZ SCT018 27/25 Q1012 NOSIG=
202504030100 METAR WIHH NIL=
202504030030 METAR WIHH 030030Z 00000KT 3000 BR SCT018 26/25 Q1011 NOSIG=
202504030000 METAR WIHH 030000Z 00000KT 3000 BR SCT018 25/25 Q1011 NOSIG=
202504022330 METAR WIHH 022330Z 00000KT 3000 BR SCT018 25/24 Q1011 NOSIG=
202504022300 METAR WIHH 022300Z 00000KT 4000 BR SCT018 25/24 Q1010 NOSIG=
202504022230 METAR WIHH 022230Z 00000KT 5000 HZ SCT018 25/24 Q1010 NOSIG=
202504022200 METAR WIHH 022200Z 00000KT 5000 HZ SCT018 25/24 Q1009 NOSIG=
202504022130 METAR WIHH NIL=
202504022100 METAR WIHH NIL=
202504022030 METAR WIHH NIL=
202504022000 METAR WIHH NIL=
202504021930 METAR WIHH NIL=
202504021900 METAR WIHH NIL=
202504021830 METAR WIHH NIL=
202504021800 METAR WIHH NIL=
202504021730 METAR WIHH 021730Z 00000KT 6000 -RA SCT016 25/24 Q1011 NOSIG=
202504021700 METAR WIHH 021700Z 00000KT 6000 SCT016 25/24 Q1011 NOSIG=
202504021630 METAR WIHH 021630Z 00000KT 6000 SCT016 25/24 Q1011 NOSIG=
202504021600 METAR WIHH 021600Z 00000KT 6000 SCT016 25/24 Q1011 NOSIG=
202504021530 METAR WIHH 021530Z 00000KT 6000 -RA SCT016 25/24 Q1011 NOSIG=
202504021500 METAR WIHH 021500Z 00000KT 6000 -RA SCT016 25/24 Q1011 NOSIG=
202504021430 METAR WIHH 021430Z 00000KT 6000 -RA SCT016 25/24 Q1011 NOSIG=
202504021400 METAR WIHH NIL=
202504021330 METAR WIHH 021330Z 21003KT 6000 SCT016 FEW017CB 25/24 Q1010 RMK CB TO NE AND RA TO S=
202504021300 METAR WIHH 021300Z 21003KT 6000 TS SCT016 FEW017CB 24/23 Q1010 RMK CB TO E=
202504021230 METAR WIHH 021230Z 00000KT 5000 TS SCT014 FEW017CB 24/23 Q1010 RMK CB TO E=
202504021200 METAR WIHH 021200Z 20010KT 1000 TSRA BKN014 FEW017CB 24/22 Q1009 TEMPO TL1215 3000 -RA RMK CB OTF=
202504021130 METAR WIHH 021130Z 26008KT 4000 -TSRA FEW017CB SCT018 28/24 Q1009 TEMPO TL1215 4000 -RA BKN015=
202504021100 METAR WIHH 021100Z 09004KT 6000 SCT018 28/24 Q1008 TEMPO FM1130 3000 -RA BKN015 RMK CB AND RA TO SW=
202504021030 METAR WIHH 021030Z 07005KT 6000 SCT018 28/24 Q1008 RMK RA TO SE=
202504021000 METAR WIHH 021000Z 16004KT 7000 FEW017CB SCT018 28/24 Q1008=
202504020930 METAR WIHH 020930Z 19003KT 7000 SCT018 28/24 Q1007=
202504020900 METAR WIHH 020900Z 00000KT 7000 SCT018 28/23 Q1007=
202504020830 METAR WIHH 020830Z 30003KT 6000 SCT018 28/23 Q1007 RMK RA TO E=
202504020800 METAR WIHH 020800Z 00000KT 6000 SCT017 27/23 Q1007 RMK RA TO SE=
202504020730 METAR WIHH 020730Z 28003KT 6000 TS SCT016 FEW017CB 27/23 Q1007 RMK CB AND RA TO E=
202504020700 METAR WIHH 020700Z 29004KT 6000 SCT016 FEW017CB 26/23 Q1008 RMK CB AND RA TO E=
202504020630 METAR WIHH 020630Z 28008KT 6000 -RA SCT015 FEW017CB 26/23 Q1008 TEMPO TL0715 0400 -RA SCT014 RMK CB TO E=
202504020600 METAR WIHH 020600Z 28015KT 5000 -RA BKN015 FEW017CB 29/23 Q1008 RMK CB TO W=
202504020530 METAR WIHH 020530Z 28012KT 8000 FEW017CB SCT018 32/22 Q1008 RMK CB AND RA TO W=
202504020500 METAR WIHH 020500Z 22007KT 7000 SCT020 32/22 Q1009 RMK RA TO N=
202504020430 METAR WIHH 020430Z 28009KT 7000 SCT020 32/23 Q1009 NOSIG=
202504020400 METAR WIHH 020400Z 30008KT 7000 SCT020 31/23 Q1010 NOSIG=
202504020330 METAR WIHH 020330Z 24010KT 7000 FEW020 30/23 Q1010 NOSIG=
202504020300 METAR WIHH 020300Z 24007KT 7000 FEW020 30/24 Q1010 NOSIG=
202504020230 METAR WIHH 020230Z 22005KT 7000 SCT020 29/23 Q1010 NOSIG=
202504020200 METAR WIHH 020200Z 24007KT 6000 SCT020 29/24 Q1011 NOSIG=
202504020130 METAR WIHH 020130Z 25005KT 5000 HZ SCT020 28/24 Q1011 NOSIG=
202504020100 METAR WIHH 020100Z 29003KT 5000 HZ SCT020 28/24 Q1010 NOSIG=
202504020030 METAR WIHH 020030Z 20003KT 4000 SCT020 27/24 Q1010 NOSIG=
202504020000 METAR WIHH 020000Z 18003KT 4000 SCT020 26/24 Q1010 NOSIG=
202504012330 METAR WIHH 012330Z 14003KT 4000 HZ SCT018 26/25 Q1009 NOSIG=
202504012300 METAR WIHH 012300Z 14003KT 5000 HZ SCT018 26/26 Q1009 NOSIG=
202504012230 METAR WIHH 012230Z 00000KT 8000 SCT018 26/24 Q1009 NOSIG=
202504012200 METAR WIHH 012200Z 00000KT 8000 SCT020 26/24 Q1009 NOSIG=
202504012130 METAR WIHH NIL=
202504012100 METAR WIHH 012100Z 00000KT 8000 SCT020 26/24 Q1008 NOSIG=
202504012030 METAR WIHH NIL=
202504012000 METAR WIHH NIL=
202504011930 METAR WIHH NIL=
202504011900 METAR WIHH NIL=
202504011830 METAR WIHH NIL=
202504011800 METAR WIHH NIL=
202504011730 METAR WIHH NIL=
202504011700 METAR WIHH 011700Z 00000KT 8000 SCT020 26/24 Q1009 NOSIG=
202504011630 METAR WIHH 011630Z 00000KT 8000 SCT020 26/24 Q1009 NOSIG=
202504011600 METAR WIHH 011600Z 25003KT 8000 SCT020 26/24 Q1009 NOSIG=
202504011530 METAR WIHH 011530Z 24003KT 8000 SCT020 26/24 Q1009 NOSIG=
202504011500 METAR WIHH 011500Z 24003KT 8000 SCT020 26/24 Q1010 NOSIG=
202504011430 METAR WIHH 011430Z 24003KT 8000 SCT020 26/24 Q1010 NOSIG=
202504011400 METAR WIHH 011400Z 27003KT 8000 SCT020 27/24 Q1010 NOSIG=
202504011330 METAR WIHH 011330Z 23003KT 8000 SCT020 26/24 Q1010 NOSIG=
202504011300 METAR WIHH 011300Z 22003KT 8000 SCT020 26/24 Q1009 NOSIG=
202504011230 METAR WIHH 011230Z 22003KT 8000 SCT020 26/24 Q1009 NOSIG=
202504011200 METAR WIHH 011200Z 25004KT 8000 SCT020 26/24 Q1009 NOSIG=
202504011130 METAR WIHH 011130Z 29004KT 8000 SCT020 26/24 Q1008 NOSIG=
202504011100 METAR WIHH 011100Z 26004KT 8000 SCT020 27/24 Q1008 NOSIG=
202504011030 METAR WIHH 011030Z 27004KT 8000 SCT020 27/24 Q1008 NOSIG=
202504011000 METAR WIHH 011000Z 22005KT 8000 SCT020 27/24 Q1007 NOSIG=
202504010930 METAR WIHH 010930Z 18006KT 8000 SCT020 27/24 Q1007 NOSIG=
202504010900 METAR WIHH 010900Z 20005KT 7000 SCT018 27/24 Q1007 NOSIG=
202504010830 METAR WIHH 010830Z 18005KT 7000 SCT018 27/25 Q1007 NOSIG=
202504010800 METAR WIHH 010800Z 21006KT 6000 -RA SCT018 27/25 Q1008 NOSIG=
202504010730 METAR WIHH 010730Z 20005KT 4000 -RA BKN018 26/25 Q1008 NOSIG=
202504010700 METAR WIHH 010700Z 25009KT 3000 -RA BKN016 FEW020CB 25/24 Q1008 RMK CB TO S=
202504010630 METAR WIHH 010630Z 35010KT 7000 TS SCT017 FEW018CB 28/23 Q1009 TEMPO FM0700 0500 TSRA FEW017CB BKN018 RMK CB AND RA SW=
202504010600 METAR WIHH 010600Z 36010KT 7000 SCT018 FEW020CB 29/23 Q1009 TEMPO FM0700 2000 -TSRA FEW017CB BKN018 RMK CB AND RA TO W-N=
202504010530 METAR WIHH 010530Z 03010KT 6000 SCT018 30/24 Q1009 RMK RA TO W-N=
202504010500 METAR WIHH 010500Z 33008KT 6000 SCT018 31/24 Q1009 RMK RA TO N=
202504010430 METAR WIHH 010430Z 24007KT 6000 SCT018 30/24 Q1009 RMK RA TO N=
202504010400 METAR WIHH 010400Z 34007KT 6000 SCT018 30/24 Q1010 RMK RA TO NW-N=
202504010330 METAR WIHH 010330Z 32006KT 6000 SCT018 30/24 Q1010 RMK RA TO W-NW=
202504010300 METAR WIHH 010300Z 35007KT 6000 SCT018 29/24 Q1010 RMK RA TO NW=
202504010230 METAR WIHH 010230Z 31003KT 6000 SCT018 29/23 Q1010 RMK RA TO N=
202504010200 METAR WIHH 010200Z 21003KT 6000 SCT020 29/25 Q1010 RMK RA TO SW AND N=
202504010130 METAR WIHH 010130Z 23003KT 7000 SCT020 28/25 Q1010 NOSIG=
202504010100 METAR WIHH 010100Z 24003KT 7000 SCT020 28/25 Q1010 NOSIG=
202504010030 METAR WIHH 010030Z 23003KT 6000 SCT020 27/24 Q1009 NOSIG=
202504010000 METAR WIHH NIL=

# No short TAF reports from WIHH in databse.

###################################
#  large TAF from WIHH
###################################
202504302300 TAF WIHH 302300Z 0100/0200 15006KT 7000 FEW020
                      TEMPO 0108/0111 06012KT 4000 -RA SCT017=
202504301700 TAF WIHH 301700Z 3018/0118 15006KT 7000 SCT020
                      BECMG 3023/0101 00000KT 5000 HZ FEW020=
202504301100 TAF WIHH 301100Z 3012/0112 12006KT 7000 SCT018
                      BECMG 3018/3020 00000KT 5000 HZ FEW020=
202504300500 TAF WIHH 300500Z 3006/0106 15006KT 6000 SCT018
                      TEMPO 3010/3013 03014KT 4000 -RA FEW017CB
                       BECMG 3015/3017 5000 HZ=
202504292300 TAF WIHH 292300Z 3000/0100 13008KT 6000 SCT020
                      TEMPO 3009/3013 01012KT 4000 -RA FEW016CB
                       TEMPO 3018/3021 21005KT 3000 -RA BKN017=
202504291700 TAF WIHH 291700Z 2918/3018 18005KT 7000 SCT020
                      TEMPO 3010/3013 01012KT 4000 -RA FEW016CB
                       BKN018=
202504291100 TAF WIHH 291100Z 2912/3012 01006KT 7000 SCT020
                      BECMG 2914/2916 18005KT=
202504290500 TAF WIHH 290500Z 2906/3006 11008KT 7000 SCT020
                      TEMPO 2909/2912 36013KT 3000 -TSRA FEW016CB
                       BKN018
                      BECMG 2914/2916 18005KT 5000 HZ=
202504282300 TAF WIHH 282300Z 2900/3000 19005KT 6000 SCT020
                      TEMPO 2907/2911 03012KT 4000 -TSRA FEW017CB
                       SCT018
                      BECMG 2912/2914 16005KT=
202504281700 TAF WIHH 281700Z 2818/2918 16003KT 6000 FEW020
                      BECMG 2820/2822 00000KT 5000 HZ=
202504281100 TAF WIHH 281100Z 2812/2912 35006KT 7000 SCT020
                      BECMG 2818/2820 22004KT 5000 HZ FEW022=
202504280500 TAF WIHH 280500Z 2806/2906 02010KT 6000 SCT020
                      TEMPO 2808/2811 25012KT 3000 -TSRA FEW017CB
                       BKN018
                      BECMG 2812/2814 17004KT 5000 HZ=
202504272300 TAF WIHH 272300Z 2800/2900 07006KT 7000 SCT020
                      TEMPO 2808/2811 03010KT 3000 -TSRA FEW016CB
                       BKN018
                      BECMG 2813/2815 22005KT 5000 HZ=
202504271700 TAF WIHH 271700Z 2718/2818 22005KT 6000 SCT020
                      TEMPO 2807/2810 03010KT 3000 -TSRA FEW016CB
                       BKN018=
202504271100 TAF WIHH 271100Z 2712/2812 03006KT 6000 SCT018
                      TEMPO 2713/2716 18010KT 4000 -TSRA FEW016CB
                       BKN018
                      BECMG 2718/2720 12004KT 5000 HZ=
202504270600 TAF AMD WIHH 270600Z 2706/2806 36008KT 6000 SCT018
                      TEMPO 2706/2710 24013KT 4000 -TSRA FEW016CB
                       BKN018
                      BECMG 2712/2714 12004KT 5000 HZ=
202504270500 TAF WIHH 270500Z 2706/2806 36008KT 6000 SCT018
                      TEMPO 2708/2711 24013KT 4000 -TSRA FEW016CB
                       BKN018
                      BECMG 2713/2715 12004KT 5000 HZ=
202504262300 TAF WIHH 262300Z 2700/2800 15006KT 6000 SCT018
                      TEMPO 2709/2712 24010KT 4000 -RA FEW017CB
                       BKN018
                      TEMPO 2713/2715 18013G22KT 3000 -TSRA BKN015
                       FEW017CB
                      BECMG 2717/2719 00000KT 5000 HZ=
202504261700 TAF WIHH 261700Z 2618/2718 15005KT 6000 SCT018
                      BECMG 2622/2700 00000KT 5000 HZ
                      TEMPO 2707/2710 18014KT 4000 -RA FEW017CB
                       BKN018=
202504261100 TAF WIHH 261100Z 2612/2712 12005KT 6000 SCT018
                      TEMPO 2612/2614 18012KT 3000 -RA FEW017CB
                       BECMG 2615/2617 00000KT 5000 HZ=
202504260500 TAF WIHH 260500Z 2606/2706 15006KT 6000 SCT018
                      TEMPO 2607/2610 3000 -TSRA BKN016 FEW017CB
                       BECMG 2612/2614 5000 HZ=
202504252300 TAF WIHH 252300Z 2600/2700 22006KT 6000 SCT018
                      TEMPO 2602/2605 33010KT 4000 -RA
                      TEMPO 2608/2611 3000 -TSRA BKN016 FEW017CB
                       BECMG 2612/2614 16004KT 5000 HZ=
202504251700 TAF WIHH 251700Z 2518/2618 10005KT 5000 HZ SCT018
                      TEMPO 2605/2609 33012KT 3000 -TSRA FEW017CB
                       BKN018=
202504251100 TAF WIHH 251100Z 2512/2612 29008KT 5000 -TSRA FEW017CB BKN018
                      BECMG 2515/2517 16004KT 5000 HZ SCT020=
202504250500 TAF WIHH 250500Z 2506/2606 33012KT 6000 SCT018
                      TEMPO 2506/2510 3000 -TSRA BKN016 FEW017CB
                       BECMG 2512/2514 03004KT 5000 HZ=
202504242300 TAF WIHH 242300Z 2500/2600 15006KT 7000 SCT018
                      TEMPO 2506/2510 06015KT 3000 -TSRA BKN016
                       FEW017CB=
202504241700 TAF WIHH 241700Z 2418/2518 24005KT 7000 SCT018
                      BECMG 2423/2501 00000KT 5000 HZ
                      TEMPO 2507/2510 03014KT 3000 -TSRA BKN016
                       FEW017CB=
202504241100 TAF WIHH 241100Z 2412/2512 21006KT 7000 SCT018
                      BECMG 2418/2420 00000KT 5000 HZ=
202504240500 TAF WIHH 240500Z 2406/2506 24008KT 8000 SCT018
                      TEMPO 2409/2412 21015KT 4000 -RA FEW017CB
                       BKN018=
202504232300 TAF WIHH 232300Z 2400/2500 27008KT 8000 SCT018
                      BECMG 2400/2402 5000 HZ FEW020
                      TEMPO 2408/2411 23010G20KT 3000 -RA FEW016CB
                       BKN017=
202504231700 TAF WIHH 231700Z 2318/2418 17005KT 8000 SCT020
                      TEMPO 2405/2408 24012KT 3000 -TSRA FEW016CB
                       BKN018=
202504231100 TAF WIHH 231100Z 2312/2412 24008KT 8000 SCT020
                      BECMG 2315/2317 17004KT 5000 HZ FEW018=
202504230500 TAF WIHH 230500Z 2306/2406 27008KT 7000 SCT020
                      TEMPO 2307/2310 33010G20KT 3000 -TSRA FEW016CB
                       SCT018
                      BECMG 2312/2314 21003KT 5000 HZ=
202504222300 TAF WIHH 222300Z 2300/2400 26008KT 6000 FEW020
                      TEMPO 2307/2310 22012G24KT 3000 -TSRA FEW017CB
                       SCT018
                      BECMG 2312/2314 21004KT 5000 HZ=
202504221700 TAF WIHH 221700Z 2218/2318 16003KT 4000 HZ FEW022
                      BECMG 2302/2304 24006KT 6000 SCT020=
202504221100 TAF WIHH 221100Z 2212/2312 09008KT 6000 SCT018
                      BECMG 2218/2220 00000KT 5000 HZ FEW020=
202504220500 TAF WIHH 220500Z 2206/2306 26010KT 6000 SCT018
                      TEMPO 2209/2212 34012G24KT 3000 -TSRA BKN015
                       FEW017CB
                      BECMG 2214/2216 11004KT 5000 HZ=
202504212300 TAF WIHH 212300Z 2200/2300 27006KT 6000 SCT020
                      TEMPO 2206/2210 34015KT 3000 -TSRA BKN016
                       FEW018CB
                      BECMG 2212/2214 5000 HZ=
202504211700 TAF WIHH 211700Z 2118/2218 24005KT 7000 SCT020
                      BECMG 2123/2201 5000 HZ
                      TEMPO 2206/2210 34014KT 3000 -TSRA BKN015
                       FEW017CB=
202504211100 TAF WIHH 211100Z 2112/2212 24006KT 7000 SCT020
                      TEMPO 2118/2121 4000 -RA BKN017=
202504210500 TAF WIHH 210500Z 2106/2206 26008KT 6000 SCT018
                      TEMPO 2108/2111 30012G22KT 3000 -TSRA BKN014
                       FEW016CB
                      BECMG 2112/2114 5000 HZ
                      TEMPO 2117/2120 3000 -RA BKN017=
202504202300 TAF WIHH 202300Z 2100/2200 24008KT 6000 SCT020
                      TEMPO 2107/2110 33012KT 3000 -TSRA FEW016CB
                       BKN018=
202504201100 TAF WIHH 201100Z 2012/2112 25006KT 7000 SCT020
                      BECMG 2016/2018 21005KT 5000 HZ=
202504200500 TAF WIHH 200500Z 2006/2106 01010KT 7000 SCT020
                      TEMPO 2009/2012 3000 -TSRA FEW016CB BKN018
                       BECMG 2014/2016 21005KT 5000 HZ=
202504192300 TAF WIHH 192300Z 2000/2100 36008KT 7000 SCT020
                      TEMPO 2008/2011 23014KT 3000 -TSRA BKN015
                       FEW017CB
                      BECMG 2012/2014 16005KT 5000 HZ=
202504191700 TAF WIHH 191700Z 1918/2018 26008KT 4000 -RA BKN016 FEW018CB
                      BECMG 1921/1923 00000KT 4000 HZ SCT018=
202504191100 TAF WIHH 191100Z 1912/2012 23006KT 7000 SCT018
                      TEMPO 1913/1916 28010KT 4000 -RA
                      BECMG 1917/1919 00000KT 5000 HZ=
202504182300 TAF WIHH 182300Z 1900/2000 27006KT 7000 SCT018
                      TEMPO 1906/1910 34015KT 3000 -TSRA BKN015
                       FEW017CB
                      BECMG 1913/1915 5000 HZ=
202504181700 TAF WIHH 181700Z 1818/1918 15005KT 6000 SCT020
                      BECMG 1823/1901 00000KT 5000 HZ
                      TEMPO 1906/1909 24012KT 3000 -TSRA FEW017CB
                       BKN018=
202504181100 TAF WIHH 181100Z 1812/1912 03006KT 6000 SCT018
                      TEMPO 1812/1815 27010KT 3000 -RA FEW017CB
                       BKN018
                      BECMG 1816/1818 5000 HZ=
202504180500 TAF WIHH 180500Z 1806/1906 21006KT 7000 SCT018
                      TEMPO 1807/1810 36014KT 3000 -TSRA BKN016
                       FEW017CB=
202504172300 TAF WIHH 172300Z 1800/1900 25006KT 6000 SCT020
                      BECMG 1800/1802 5000 HZ FEW018
                      TEMPO 1806/1810 36013KT 3000 -TSRA FEW016CB
                       BKN017=
202504171700 TAF WIHH 171700Z 1718/1818 21005KT 6000 SCT020
                      TEMPO 1804/1807 36012KT 3000 -RA FEW017CB
                       BKN018=
202504171100 TAF WIHH 171100Z 1712/1812 21005KT 6000 SCT020
                      TEMPO 1719/1723 35013KT 3000 -RA FEW016CB
                       BKN018
                      BECMG 1801/1803 28005KT 5000 HZ=
202504170500 TAF WIHH 170500Z 1706/1806 12004KT 6000 SCT020
                      TEMPO 1709/1712 35013KT 3000 -TSRA FEW016CB
                       BKN018
                      BECMG 1714/1716 21005KT 5000 HZ=
202504162300 TAF WIHH 162300Z 1700/1800 12004KT 3000 -RA BKN016
                      BECMG 1702/1704 03008KT 6000 SCT018
                      TEMPO 1707/1711 35012KT 3000 -TSRA BKN015
                       FEW017CB=
202504161700 TAF WIHH 161700Z 1618/1718 22004KT 4000 HZ SCT018
                      BECMG 1622/1700 00000KT 3000 BR FEW020=
202504161100 TAF WIHH 161100Z 1612/1712 23007KT 4000 -TSRA BKN018 FEW018CB
                      BECMG 1615/1617 00000KT 5000 HZ SCT020=
202504160500 TAF WIHH 160500Z 1606/1706 06010KT 7000 SCT018
                      TEMPO 1608/1611 09008KT 4000 -RA BKN016 FEW017CB
                       BECMG 1613/1615 22004KT 5000 HZ FEW020=
202504152300 TAF WIHH 152300Z 1600/1700 15006KT 7000 SCT020
                      TEMPO 1606/1610 30014KT 4000 -RA FEW017CB
                       BKN018=
202504151700 TAF WIHH 151700Z 1518/1618 21005KT 7000 SCT018
                      BECMG 1523/1601 5000 HZ FEW020
                      TEMPO 1607/1610 34014KT 4000 -RA FEW017CB
                       BKN018=
202504151100 TAF WIHH 151100Z 1512/1612 27006KT 6000 SCT018
                      TEMPO 1512/1515 4000 -RA BKN017
                      BECMG 1516/1518 5000 HZ=
202504150500 TAF WIHH 150500Z 1506/1606 24006KT 6000 SCT018
                      TEMPO 1506/1510 34014KT 3000 -TSRA BKN016
                       FEW017CB
                      BECMG 1512/1514 5000 HZ=
202504142300 TAF WIHH 142300Z 1500/1600 24008KT 7000 SCT020
                      TEMPO 1508/1511 35013KT 3000 -TSRA FEW016CB
                       BKN018=
202504141700 TAF WIHH 141700Z 1418/1518 25006KT 8000 SCT020
                      TEMPO 1506/1509 35013KT 3000 -TSRA FEW016CB
                       BKN018=
202504141100 TAF WIHH 141100Z 1412/1512 27008KT 8000 SCT018
                      BECMG 1417/1419 21006KT 5000 HZ=
202504140500 TAF WIHH 140500Z 1406/1506 24008KT 8000 SCT018
                      TEMPO 1407/1410 32010G20KT 2000 TSRA FEW015CB
                       BKN016
                      BECMG 1412/1414 21006KT 5000 HZ=
202504132300 TAF WIHH 132300Z 1400/1500 15006KT 7000 SCT018
                      TEMPO 1406/1410 24013G22KT 2000 TSRA BKN015
                       FEW017CB
                      TEMPO 1413/1416 34010KT 4000 -RA
                      BECMG 1418/1420 5000 HZ=
202504131700 TAF WIHH 131700Z 1318/1418 24005KT 7000 SCT018
                      BECMG 1323/1401 5000 HZ
                      TEMPO 1406/1409 34014KT 3000 -TSRA BKN016
                       FEW018CB=
202504131100 TAF WIHH 131100Z 1312/1412 21006KT 6000 SCT018
                      TEMPO 1312/1315 03010KT 3000 RA FEW017CB
                       BKN018
                      BECMG 1317/1319 00000KT 4000 BR=
202504130500 TAF WIHH 130500Z 1306/1406 24006KT 6000 SCT018
                      TEMPO 1306/1310 33012G28KT 2000 TSRA BKN014
                       FEW017CB
                      BECMG 1314/1316 5000 HZ=
202504122300 TAF WIHH 122300Z 1300/1400 02006KT 6000 FEW020
                      TEMPO 1303/1305 4000 -RA SCT018
                      TEMPO 1308/1312 34012KT 3000 -TSRA BKN015
                       FEW017CB
                      BECMG 1314/1316 21004KT 5000 HZ=
202504121700 TAF WIHH 121700Z 1218/1318 22003KT 5000 HZ FEW022
                      BECMG 1222/1300 00000KT 3000 BR SCT018=
202504121100 TAF WIHH 121100Z 1212/1312 16004KT 5000 HZ SCT018
                      BECMG 1217/1219 00000KT 3000 BR FEW020=
202504120500 TAF WIHH 120500Z 1206/1306 35010KT 6000 SCT018
                      TEMPO 1207/1210 3000 -TSRA BKN015 FEW017CB
                       BECMG 1212/1214 16005KT 5000 HZ=
202504112300 TAF WIHH 112300Z 1200/1300 08006KT 6000 SCT018
                      TEMPO 1200/1202 4000 -RA
                      TEMPO 1207/1210 03012G24KT 3000 -TSRA BKN016
                       FEW017CB=
202504111700 TAF WIHH 111700Z 1118/1218 00000KT 3000 BR FEW020
                      BECMG 1202/1204 04007KT 6000 SCT018=
202504111100 TAF WIHH 111100Z 1112/1212 04007KT 4000 -RA FEW017CB SCT018
                      BECMG 1116/1118 11003KT 5000 HZ FEW022=
202504110500 TAF WIHH 110500Z 1106/1206 06008KT 6000 SCT018
                      TEMPO 1107/1111 03012G23KT 3000 -TSRA BKN014
                       FEW017CB
                      BECMG 1113/1115 12003KT 5000 HZ FEW020=
202504102300 TAF WIHH 102300Z 1100/1200 09006KT 6000 SCT020
                      TEMPO 1109/1112 15012G22KT 3000 -TSRA BKN015
                       FEW017CB
                      BECMG 1113/1115 5000 HZ=
202504101700 TAF WIHH 101700Z 1018/1118 03005KT 6000 SCT018
                      TEMPO 1019/1022 3000 -RA FEW017CB
                      BECMG 1023/1101 00000KT 4000 BR=
202504101100 TAF WIHH 101100Z 1012/1112 09006KT 6000 SCT018
                      TEMPO 1012/1015 3000 -RA FEW017CB
                      BECMG 1017/1019 00000KT 5000 HZ=
202504100500 TAF WIHH 100500Z 1006/1106 03006KT 6000 SCT018
                      TEMPO 1007/1010 12014KT 3000 RA FEW017CB
                       BECMG 1012/1015 5000 HZ
                      TEMPO 1018/1021 3000 -RA BKN017=
202504092300 TAF WIHH 092300Z 1000/1100 12006KT 6000 SCT018
                      TEMPO 1000/1003 4000 -RA
                      TEMPO 1007/1010 03012KT 3000 -TSRA BKN016
                       FEW017CB=
202504091730 TAF WIHH 091730Z 0918/1018 02004KT 5000 HZ FEW022
                      BECMG 1002/1004 12006KT 7000 SCT020=
202504091700 TAF WIHH 091700Z NIL=
202504091100 TAF WIHH 091100Z 0912/1012 08008KT 7000 SCT018
                      BECMG 0916/0918 14003KT 5000 HZ FEW020=
202504090500 TAF WIHH 090500Z 0906/1006 08010KT 6000 SCT018
                      TEMPO 0908/0912 03012G25KT 3000 -TSRA BKN015
                       FEW017CB
                      BECMG 0914/0916 5000 HZ
                      TEMPO 0919/0922 16008KT 4000 -TSRA SCT016
                       FEW017CB=
202504082300 TAF WIHH 082300Z 0900/1000 09006KT 7000 FEW020
                      TEMPO 0909/0912 04014KT 4000 -RA SCT018=
202504081700 TAF WIHH 081700Z 0818/0918 12005KT 7000 SCT020
                      BECMG 0823/0901 00000KT 5000 HZ FEW020
                      TEMPO 0907/0910 03014KT 4000 -RA FEW017CB
                       BKN018=
202504081100 TAF WIHH 081100Z 0812/0912 03006KT 7000 SCT018
                      BECMG 0817/0819 00000KT 5000 HZ FEW020=
202504080500 TAF WIHH 080500Z 0806/0906 06006KT 6000 SCT018
                      TEMPO 0808/0811 12014KT 4000 -RA BKN017=
202504072300 TAF WIHH 072300Z 0800/0900 07008KT 8000 SCT018
                      BECMG 0800/0802 13003KT 5000 HZ FEW020
                      TEMPO 0808/0811 02010KT 4000 -RA BKN016=
202504071700 TAF WIHH 071700Z 0718/0818 07005KT 8000 FEW020
                      TEMPO 0719/0722 17006KT 4000 -RA BKN017=
202504071100 TAF WIHH 071100Z 0712/0812 12005KT 7000 SCT020
                      TEMPO 0715/0718 35010KT 3000 -RA BKN017=
202504070500 TAF WIHH 070500Z 0706/0806 13006KT 7000 SCT020
                      TEMPO 0707/0711 35013KT 3000 -TSRA FEW015CB
                       BKN017
                      BECMG 0713/0715 22005KT 5000 HZ=
202504062300 TAF WIHH 062300Z 0700/0800 12005KT 4000 BR FEW022
                      BECMG 0702/0704 7000 SCT018
                      TEMPO 0708/0712 36012KT 3000 -TSRA BKN015
                       FEW017CB
                      BECMG 0714/0716 00000KT 5000 HZ SCT018=
202504061700 TAF WIHH 061700Z 0618/0718 12003KT 4000 HZ FEW020
                      BECMG 0702/0704 29006KT 7000 SCT018=
202504061100 TAF WIHH 061100Z 0612/0712 22005KT 3000 -TSRA BKN015 FEW017CB
                      BECMG 0615/0617 00000KT 4000 HZ FEW020=
202504060500 TAF WIHH 060500Z 0606/0706 29008KT 8000 SCT018
                      TEMPO 0607/0611 36012KT 4000 -TSRA BKN016
                       FEW017CB
                      BECMG 0613/0615 21004KT FEW020=
202504052300 TAF WIHH 052300Z 0600/0700 13006KT 8000 SCT020
                      TEMPO 0607/0610 36013KT 3000 -TSRA FEW015CB
                       BKN017
                      BECMG 0612/0614 21005KT 5000 HZ=
202504051700 TAF WIHH 051700Z 0518/0618 14005KT 8000 SCT020
                      TEMPO 0607/0610 36013KT 3000 -TSRA FEW015CB
                       BKN017=
202504051100 TAF WIHH 051100Z 0512/0612 29006KT 7000 SCT018
                      TEMPO 0512/0515 21008KT 4000 -RA BKN017
                      BECMG 0517/0519 14005KT 5000 HZ=
202504050500 TAF WIHH 050500Z 0506/0606 27006KT 7000 SCT020
                      TEMPO 0507/0510 17013KT 4000 -TSRA FEW016CB
                       BKN017=
202504042300 TAF WIHH 042300Z 0500/0600 32008KT 6000 FEW020
                      TEMPO 0507/0510 23012KT 4000 -TSRA SCT016
                       FEW017CB
                      BECMG 0512/0514 21003KT SCT018=
202504041700 TAF WIHH 041700Z 0418/0518 23003KT 5000 HZ FEW020
                      BECMG 0500/0502 28007KT 6000 SCT018=
202504041100 TAF WIHH 041100Z 0412/0512 31008KT 7000 SCT018
                      BECMG 0418/0420 22003KT 5000 HZ FEW020=
202504040655 TAF AMD WIHH 040655Z 0407/0506 25008KT 7000 SCT018
                      TEMPO 0407/0412 23010G22KT 3000 -TSRA BKN015
                       FEW017CB
                      BECMG 0414/0416 17004KT 5000 HZ=
202504040500 TAF WIHH 040500Z 0406/0506 25008KT 7000 SCT018
                      TEMPO 0409/0413 23010G22KT 3000 -TSRA BKN015
                       FEW017CB
                      BECMG 0414/0416 17004KT 5000 HZ=
202504032300 TAF WIHH 032300Z 0400/0500 09006KT 7000 SCT018
                      BECMG 0400/0402 5000 HZ FEW020
                      TEMPO 0407/0411 01013KT 3000 -TSRA FEW016CB
                       BKN017=
202504031700 TAF WIHH 031700Z 0318/0418 15005KT 6000 SCT020
                      TEMPO 0405/0408 01012KT 3000 -TSRA FEW016CB
                       BKN018=
202504031400 TAF AMD WIHH 031400Z 0314/0412 01006KT 8000 SCT018
                      TEMPO 0314/0317 15006KT 4000 -RA BKN016=
202504031100 TAF WIHH 031100Z 0312/0412 01006KT 8000 SCT018
                      BECMG 0314/0316 21008KT 5000 HZ FEW020=
202504030500 TAF WIHH 030500Z 0306/0406 09006KT 7000 SCT018
                      TEMPO 0307/0310 28010G20KT 3000 -TSRA BKN016
                       FEW017CB
                      TEMPO 0312/0314 21008KT 4000 HZ=
202504022300 TAF WIHH 022300Z 0300/0400 31007KT 6000 SCT018
                      TEMPO 0306/0310 27012G22KT 3000 -TSRA BKN016
                       FEW017CB
                      TEMPO 0313/0316 22010KT 4000 -RA BKN015=
202504021700 TAF WIHH 021700Z 0218/0318 15004KT 6000 SCT018
                      TEMPO 0219/0222 3000 -RA
                      BECMG 0223/0301 10005KT 4000 HZ=
202504021100 TAF WIHH 021100Z 0212/0312 15008KT 6000 SCT018
                      TEMPO 0212/0215 2000 -TSRA BKN016 FEW017CB
                       BECMG 0217/0219 00000KT 4000 HZ=
202504020555 TAF AMD WIHH 020555Z 0206/0306 32012G20KT 7000 SCT018
                      TEMPO 0206/0210 3000 -TSRA BKN016 FEW017CB
                       BECMG 0212/0214 15004KT 5000 HZ=
202504020500 TAF WIHH 020500Z 0206/0306 32012KT 7000 SCT018
                      TEMPO 0207/0211 3000 -TSRA BKN016 FEW017CB
                       BECMG 0213/0215 15004KT 5000 HZ=
202504012300 TAF WIHH 012300Z 0200/0300 27008KT 8000 SCT020
                      TEMPO 0204/0208 34013KT 2000 -TSRA FEW016CB
                       BKN018
                      BECMG 0210/0212 21005KT 5000 HZ=
202504011700 TAF WIHH 011700Z 0118/0218 25005KT 8000 FEW020
                      TEMPO 0206/0209 35013KT 2000 -TSRA FEW016CB
                       BKN018=
202504011100 TAF WIHH 011100Z 0112/0212 27006KT 8000 SCT020
                      BECMG 0118/0120 21005KT=
202504010500 TAF WIHH 010500Z 0106/0206 25008KT 7000 SCT020
                      TEMPO 0106/0110 31012G22KT 2000 -TSRA BKN015
                       FEW017CB
                      BECMG 0112/0114 5000 HZ SCT018=
