##########################################################
# Query made at 05/05/2026 03:14:48 UTC
# Time interval: from 03/01/2023 00:00  to 03/31/2023 23:59  UTC
##########################################################

##########################################################
# WIHH, Jakarta Halim Perdanakusuma (Indonesia)
# WMO index: 96747. WIGOS ID: Unknown
# Latitude 06-15S. Longitude 106-54E. Altitude 30 m.
##########################################################

###################################
#  METAR/SPECI from WIHH
###################################
202303312330 METAR WIHH 312330Z 23007KT 6000 SCT020 27/24 Q1009 NOSIG=
202303312300 METAR WIHH 312300Z 25005KT 6000 SCT020 27/24 Q1009 NOSIG=
202303312230 METAR WIHH 312230Z 29007KT 6000 FEW020 27/24 Q1009 NOSIG=
202303312200 METAR WIHH 312200Z 27005KT 6000 FEW020 26/24 Q1008 NOSIG=
202303312130 METAR WIHH NIL=
202303312100 METAR WIHH NIL=
202303312030 METAR WIHH NIL=
202303312000 METAR WIHH NIL=
202303311930 METAR WIHH NIL=
202303311900 METAR WIHH NIL=
202303311830 METAR WIHH NIL=
202303311800 METAR WIHH NIL=
202303311730 METAR WIHH NIL=
202303311700 METAR WIHH NIL=
202303311630 METAR WIHH NIL=
202303311600 METAR WIHH NIL=
202303311530 METAR WIHH NIL=
202303311500 METAR WIHH 311500Z 23005L7KT 7000 FEW020 27/25 Q1010 NOSIG=
202303311430 METAR WIHH 311430Z 24005KT 7000 FEW020 27/24 Q1010 NOSIG=
202303311400 METAR WIHH 311400Z 25006KT 6000 FEW020 27/24 Q1009 NOSIG=
202303311330 METAR WIHH 311330Z 25008KT 6000 FEW020 27/24 Q1009 NOSIG=
202303311300 METAR WIHH 311300Z 24003KT 6000 FEW020 28/23 Q1009 NOSIG=
202303311230 METAR WIHH 311230Z 27006KT 6000 FEW020 28/23 Q1008 NOSIG=
202303311200 METAR WIHH 311200Z 24008KT 6000 FEW020 29/23 Q1009 NOSIG=
202303311130 METAR WIHH 311130Z 28003KT 6000 SCT020 30/22 Q1009 NOSIG=
202303311100 METAR WIHH 311100Z 24006KT 6000 SCT017 30/23 Q1009 NOSIG=
202303311030 METAR WIHH 311030Z 27006KT 6000 SCT017 30/23 Q1007 NOSIG=
202303311000 METAR WIHH 311000Z 28007KT 6000 SCT017 31/23 Q1007 NOSIG=
202303310930 METAR WIHH 310930Z 27004KT 6000 SCT017 31/22 Q1006 NOSIG=
202303310900 METAR WIHH 310900Z 25004KT 6000 SCT017 32/24 Q1006 NOSIG=
202303310830 METAR WIHH 310830Z 27004KT 6000 SCT017 32/23 Q1007 NOSIG=
202303310800 METAR WIHH 310800Z 31006KT 6000 SCT017 32/23 Q1007 NOSIG=
202303310730 METAR WIHH 310730Z 29007KT 6000 SCT017 33/23 Q1007 NOSIG=
202303310700 METAR WIHH 310700Z 27007KT 6000 SCT017 33/23 Q1007 NOSIG=
202303310630 METAR WIHH 310630Z 26005KT 6000 SCT017 32/23 Q1007 NOSIG=
202303310600 METAR WIHH 310600Z 24006KT 6000 SCT017 32/23 Q1007 NOSIG=
202303310530 METAR WIHH 310530Z 28005KT 6000 SCT017 32/24 Q1008 NOSIG=
202303310500 METAR WIHH 310500Z 25005KT 6000 SCT020 31/25 Q1008 NOSIG=
202303310430 METAR WIHH 310430Z 26006KT 6000 SCT020 30/24 Q1009 NOSIG=
202303310400 METAR WIHH 310400Z 27006KT 6000 SCT020 30/25 Q1010 NOSIG=
202303310330 METAR WIHH 310330Z 26006KT 6000 SCT020 30/24 Q1010 NOSIG=
202303310300 METAR WIHH 310300Z 25007KT 6000 SCT020 30/24 Q1011 NOSIG=
202303310230 METAR WIHH 310230Z 26003KT 5000 HZ SCT020 29/24 Q1011 NOSIG=
202303310200 METAR WIHH 310200Z 27004KT 5000 HZ SCT020 28/24 Q1011 NOSIG=
202303310130 METAR WIHH 310130Z 25007KT 5000 HZ SCT020 28/24 Q1011 NOSIG=
202303310100 METAR WIHH 310100Z 24010KT 5000 HZ SCT020 27/25 Q1010 NOSIG=
202303310030 METAR WIHH 310030Z 24003KT 5000 HZ SCT020 26/24 Q1010 NOSIG=
202303310000 METAR WIHH 310000Z 24003KT 5000 HZ SCT020 25/24 Q1010 NOSIG=
202303302330 METAR WIHH 302330Z 27003KT 5000 BR SCT020 25/25 Q1009 NOSIG=
202303302300 METAR WIHH 302300Z 28003KT 5000 BR SCT020 25/25 Q1009 NOSIG=
202303302230 METAR WIHH 302230Z 30003KT 5000 BR SCT020 25/25 Q1009 NOSIG=
202303302200 METAR WIHH 302200Z 28003KT 5000 BR SCT020 25/25 Q1008 NOSIG=
202303302130 METAR WIHH 302130Z 00000KT 5000 HZ SCT020 25/25 Q1008 NOSIG=
202303302100 METAR WIHH 302100Z 26003KT 5000 HZ SCT020 25/25 Q1009 NOSIG=
202303302030 METAR WIHH NIL=
202303302000 METAR WIHH NIL=
202303301930 METAR WIHH NIL=
202303301900 METAR WIHH NIL=
202303301830 METAR WIHH NIL=
202303301800 METAR WIHH NIL=
202303301730 METAR WIHH NIL=
202303301700 METAR WIHH 301700Z 33006KT 5000 HZ FEW017CB SCT018 26/26 Q1010 RMK CB AND RA TO NE=
202303301630 METAR WIHH 301630Z 33006KT 5000 HZ FEW017CB SCT018 26/26 Q1010 RMK CB AND RA TO N=
202303301600 METAR WIHH 301600Z 27003KT 5000 HZ FEW017CB SCT018 26/26 Q1010 RMK CB AND RA TO W=
202303301530 METAR WIHH 301530Z 27003KT 5000 HZ FEW020 26/26 Q1010 NOSIG=
202303301500 METAR WIHH 301500Z 27003KT 5000 HZ FEW020 26/26 Q1010 NOSIG=
202303301430 METAR WIHH 301430Z 21003KT 5000 HZ FEW020 26/26 Q1010 NOSIG=
202303301400 METAR WIHH 301400Z 21003KT 5000 HZ SCT018 26/26 Q1009 NOSIG=
202303301330 METAR WIHH 301330Z 21003KT 5000 HZ SCT016 26/26 Q1009 NOSIG=
202303301300 METAR WIHH 301300Z 00000KT 5000 -RA SCT016 25/25 Q1009 NOSIG=
202303301230 METAR WIHH 301230Z 00000KT 5000 -RA SCT016 25/25 Q1009 NOSIG=
202303301200 METAR WIHH 301200Z 00000KT 5000 -RA SCT016 25/25 Q1008 NOSIG=
202303301130 METAR WIHH 301130Z 00000KT 6000 SCT016 25/25 Q1007 RMK RA TO N-NE=
202303301100 METAR WIHH 301100Z 21003KT 6000 SCT016 25/25 Q1007 RMK RA TO NE=
202303301030 METAR WIHH 301030Z 27003KT 5000 -TSRA FEW015CB SCT016 25/25 Q1007 RMK CB TO NE=
202303301000 METAR WIHH 301000Z 35003KT 5000 -TSRA FEW015CB SCT016 25/24 Q1006 RMK CB TO N=
202303300930 METAR WIHH 300930Z 27003KT 5000 -TSRA FEW015CB SCT016 26/25 Q1006 RMK CB TO NW=
202303300900 METAR WIHH 300900Z 33003KT 5000 -TSRA FEW015CB SCT016 26/25 Q1006 RMK CB TO NE=
202303300830 METAR WIHH 300830Z 35003KT 4000 -TSRA FEW016CB SCT017 25/25 Q1006 RMK CB TO NE=
202303300800 METAR WIHH 300800Z 18010KT 5000 -TSRA FEW017CB SCT018 27/25 Q1006 RMK CB TO SE AND SW=
202303300730 METAR WIHH 300730Z 35006KT 6000 TS FEW017CB SCT018 31/25 Q1006 RMK CB AND RA TO SW=
202303300700 METAR WIHH 300700Z 33007KT 6000 FEW017CB SCT018 30/24 Q1007 RMK CB AND RA TO SW=
202303300630 METAR WIHH 300630Z NIL=
202303300600 METAR WIHH 300600Z 32003KT 6000 SCT018 30/25 Q1008 NOSIG=
202303300530 METAR WIHH NIL=
202303300500 METAR WIHH 300500Z 00000KT 6000 SCT018 30/25 Q1008 RMK RA TO E=
202303300430 METAR WIHH 300430Z 29008KT 6000 SCT020 30/24 Q1009 RMK RA TO NW=
202303300400 METAR WIHH 300400Z 24008KT 6000 SCT020 30/24 Q1009 NOSIG=
202303300330 METAR WIHH 300330Z 26007KT 6000 SCT020 30/24 Q1010 NOSIG=
202303300300 METAR WIHH 300300Z 28003KT 6000 SCT020 29/24 Q1010 NOSIG=
202303300230 METAR WIHH 300230Z 26005KT 6000 FEW020 30/25 Q1010 NOSIG=
202303300200 METAR WIHH 300200Z 24006KT 6000 FEW020 29/24 Q1010 NOSIG=
202303300130 METAR WIHH 300130Z 23007KT 5000 HZ FEW020 28/25 Q1010 NOSIG=
202303300100 METAR WIHH 300100Z 23005KT 5000 HZ FEW020 27/24 Q1010 NOSIG=
202303300030 METAR WIHH NIL=
202303300000 METAR WIHH NIL=
202303292330 METAR WIHH 292330Z 25003KT 3000 BR FEW020 24/23 Q1009 NOSIG=
202303292300 METAR WIHH 292300Z 00000KT 2000 BR FEW018 24/24 Q1008 NOSIG=
202303292230 METAR WIHH 292230Z 00000KT 3000 BR FEW020 24/24 Q1008 NOSIG=
202303292200 METAR WIHH 292200Z 227003KT 3000 BR FEW020 24/24 Q1008 NOSIG=
202303292130 METAR WIHH 292130Z 28003KT 3000 BR FEW020 24/24 Q1007 NOSIG=
202303292100 METAR WIHH 292100Z 26003KT 3000 BR FEW020 24/24 Q1007 NOSIG=
202303292030 METAR WIHH NIL=
202303292000 METAR WIHH NIL=
202303291930 METAR WIHH NIL=
202303291900 METAR WIHH NIL=
202303291830 METAR WIHH NIL=
202303291800 METAR WIHH NIL=
202303291730 METAR WIHH NIL=
202303291700 METAR WIHH NIL=
202303291630 METAR WIHH NIL=
202303291600 METAR WIHH NIL=
202303291530 METAR WIHH NIL=
202303291500 METAR WIHH 291500Z 00000KT 4000 BR SCT018 25/24 Q1010 NOSIG=
202303291430 METAR WIHH NIL=
202303291400 METAR WIHH NIL=
202303291330 METAR WIHH NIL=
202303291300 METAR WIHH NIL=
202303291230 METAR WIHH NIL=
202303291200 METAR WIHH 291200Z 17004KT 5000 -RA SCT018 24/24 Q1009 NOSIG=
202303291130 METAR WIHH 291130Z 25003KT 4000 -RA SCT016 24/23 Q1009 NOSIG=
202303291100 METAR WIHH 291100Z 25004KT 4000 -RA FEW018CB SCT016 24/23 Q1008 RMK CB TO SE=
202303291030 METAR WIHH 291030Z 25010KT 2000 -TSRA FEW017CB BKN016 24/23 Q1008 RMK CB OTF=
202303291000 METAR WIHH 291000Z 24011KT 5000 -RA FEW017CB SCT016 28/24 Q1008 RMK CB TO W=
202303290930 METAR WIHH 290930Z 25007KT 6000 -RA FEW017CB SCT016 28/24 Q1007 RMK CB TO SW=
202303290900 METAR WIHH 290900Z 25009KT 6000 FEW017CB SCT016 30/23 Q1007 RMK CB AND RA TO SW=
202303290830 METAR WIHH NIL=
202303290800 METAR WIHH 290800Z 33004KT 6000 SCT018 30/24 Q1007 NOSIG=
202303290730 METAR WIHH 290730Z 35007KT 6000 SCT018 31/24 Q1007 NOSIG=
202303290700 METAR WIHH 290700Z 36007KT 6000 SCT018 31/23 Q1008 NOSIG=
202303290630 METAR WIHH 290630Z 01004KT 6000 SCT018 31/23 Q1008 NOSIG=
202303290600 METAR WIHH 290600Z 00000KT 6000 SCT018 31/23 Q1008 NOSIG=
202303290530 METAR WIHH 290530Z 34003KT 5000 HZ SCT018 31/23 Q1009 NOSIG=
202303290500 METAR WIHH 290500Z 29003KT 5000 HZ SCT018 30/25 Q1009 RMK RA TO S=
202303290430 METAR WIHH 290430Z 26005KT 5000 HZ SCT018 29/25 Q1010 RMK RA TO S=
202303290400 METAR WIHH 290400Z 35006KT 5000 HZ SCT016 28/25 Q1010 RMK RA TO W=
202303290330 METAR WIHH 290330Z 26005KT 4000 HZ SCT016 28/25 Q1011 RMK RA TO NW=
202303290300 METAR WIHH 290300Z 31003KT 4000 HZ SCT016 29/25 Q1011 RMK RA TO SE AND NW=
202303290230 METAR WIHH 290230Z 30004KT 2000 HZ SCT016 28/25 Q1011 RMK RA TO S=
202303290200 METAR WIHH 290200Z 25004KT 2000 HZ SCT016 27/25 Q1011 RMK RA TO NE AND S=
202303290130 METAR WIHH 290130Z 00000KT 2000 -RA BKN016 27/25 Q1011 NOSIG=
202303290100 METAR WIHH 290100Z 00000KT 2000 BR FEW016CB SCT017 27/25 Q1011 TEMPO FM0100 TL0200 2000 MOD TSRA BKN015 RMK CB AND RA TO NW=
202303290030 METAR WIHH 290030Z 00000KT 2000 BR FEW016CB SCT017 26/25 Q1011 TEMPO FM0100 TL0200 2000 MOD TSRA BKN015 RMK CB AND RA TO NW=
202303290000 METAR WIHH 290000Z 00000KT 2000 BR FEW020 26/26 Q1010 NOSIG=
202303282330 METAR WIHH 282330Z 00000KT 1000 FG FEW022 25/25 Q1010 NOSIG=
202303282300 METAR WIHH 282300Z 00000KT 1000 FG FEW022 25/25 Q1010 NOSIG=
202303282230 METAR WIHH 282230Z 00000KT 2000 BR FEW022 25/25 Q1009 NOSIG=
202303282200 METAR WIHH 282200Z 00000KT 2000 BR FEW022 25/25 Q1009 NOSIG=
202303282130 METAR WIHH 282130Z 00000KT 2000 BR FEW022 25/25 Q1009 NOSIG=
202303282100 METAR WIHH NIL=
202303282030 METAR WIHH NIL=
202303282000 METAR WIHH NIL=
202303281930 METAR WIHH NIL=
202303281900 METAR WIHH NIL=
202303281830 METAR WIHH NIL=
202303281800 METAR WIHH NIL=
202303281730 METAR WIHH NIL=
202303281700 METAR WIHH NIL=
202303281630 METAR WIHH NIL=
202303281600 METAR WIHH NIL=
202303281530 METAR WIHH NIL=
202303281500 METAR WIHH NIL=
202303281430 METAR WIHH NIL=
202303281400 METAR WIHH NIL=
202303281330 METAR WIHH NIL=
202303281300 METAR WIHH NIL=
202303281230 METAR WIHH NIL=
202303281200 METAR WIHH NIL=
202303281130 METAR WIHH NIL=
202303281100 METAR WIHH 281100Z 05004KT 5000 HZ SCT020 28/24 Q1008 NOSIG=
202303281030 METAR WIHH 281030Z 06004KT 5000 HZ SCT020 28/24 Q1007 NOSIG=
202303281000 METAR WIHH 281000Z 03004KT 5000 HZ SCT020 28/24 Q1007 NOSIG=
202303280930 METAR WIHH 280930Z 32006KT 5000 HZ SCT020 28/25 Q1007 NOSIG=
202303280900 METAR WIHH 280900Z 3400KT 5000 HZ SCT020 28/25 Q1007 NOSIG=
202303280830 METAR WIHH 280830Z 02007KT 5000 HZ SCT020 29/25 Q1007 NOSIG=
202303280800 METAR WIHH 280800Z 03005KT 5000 HZ SCT020 29/25 Q1007 NOSIG=
202303280730 METAR WIHH 280730Z 31003KT 5000 HZ SCT020 29/25 Q1008 NOSIG=
202303280700 METAR WIHH 280700Z 32003KT 5000 HZ SCT020 29/25 Q1008 NOSIG=
202303280630 METAR WIHH 280630Z 33003KT 5000 HZ SCT020 29/25 Q1008 NOSIG=
202303280600 METAR WIHH 280600Z 31003KT 5000 HZ SCT020 29/24 Q1009 NOSIG=
202303280530 METAR WIHH 280530Z 02005KT 5000 HZ SCT020 29/24 Q1009 RMK RA TO N=
202303280500 METAR WIHH 280500Z 03004KT 5000 HZ SCT020 29/25 Q1009 RMK RA TO N=
202303280430 METAR WIHH 280430Z 34003KT 5000 HZ SCT020 30/25 Q1010 RMK RA TO NW=
202303280400 METAR WIHH 280400Z 33003KT 5000 HZ SCT020 30/25 Q1010 NOSIG=
202303280330 METAR WIHH 280330Z 33003KT 5000 HZ SCT020 30/25 Q1011 NOSIG=
202303280300 METAR WIHH 280300Z 27005KT 5000 HZ SCT020 30/25 Q1011 NOSIG=
202303280230 METAR WIHH 280230Z 24003KT 5000 HZ SCT020 29/25 Q1011 NOSIG=
202303280200 METAR WIHH 280200Z 25003KT 4000 HZ SCT020 30/23 Q1011 NOSIG=
202303280130 METAR WIHH 280130Z 21004KT 4000 HZ SCT020 30/23 Q1010 NOSIG=
202303280100 METAR WIHH 280100Z 21003KT 4000 HZ FEW020 26/25 Q1010 NOSIG=
202303280030 METAR WIHH 280030Z 18003KT 4000 BR FEW020 25/25 Q1010 NOSIG=
202303280000 METAR WIHH 280000Z 00000KT 4000 BR SCT020 25/25 Q1010 NOSIG=
202303272330 METAR WIHH 272330Z 00000KT 4000 BR SCT020 25/25 Q1010 NOSIG=
202303272300 METAR WIHH 272300Z 00000KT 4000 BR FEW020 25/25 Q1009 NOSIG=
202303272230 METAR WIHH 272230Z 00000KT 4000 BR FEW020 25/25 Q1008 NOSIG=
202303272200 METAR WIHH 272200Z 00000KT 4000 BR FEW020 25/25 Q1008 NOSIG=
202303272130 METAR WIHH 272130Z 00000KT 4000 BR FEW020 25/25 Q1008 NOSIG=
202303272100 METAR WIHH 272100Z 00000KT 4000 BR FEW020 25/25 Q1008 NOSIG=
202303272030 METAR WIHH 272030Z 00000KT 5000 HZ SCT018 25/24 Q1008 NOSIG=
202303272000 METAR WIHH NIL=
202303271930 METAR WIHH NIL=
202303271900 METAR WIHH NIL=
202303271830 METAR WIHH NIL=
202303271800 METAR WIHH NIL=
202303271730 METAR WIHH NIL=
202303271700 METAR WIHH NIL=
202303271630 METAR WIHH NIL=
202303271600 METAR WIHH NIL=
202303271530 METAR WIHH NIL=
202303271500 METAR WIHH NIL=
202303271430 METAR WIHH NIL=
202303271400 METAR WIHH NIL=
202303271330 METAR WIHH NIL=
202303271300 METAR WIHH NIL=
202303271230 METAR WIHH NIL=
202303271200 METAR WIHH 271200Z 18002KT 6000 SCT018 25/25 Q1008 NOSIG=
202303271130 METAR WIHH 271130Z 18002KT 6000 SCT016 25/25 Q1008 RMK RA TO S=
202303271100 METAR WIHH 271100Z 28002KT 5000 -RA SCT015 25/25 Q1008 NOSIG=
202303271030 METAR WIHH 271030Z 00000KT 5000 -TSRA FEW014CB BKN015 25/25 Q1008 RMK CB TO E=
202303271000 METAR WIHH 271000Z 03004KT 3000 -TSRA FEW014CB BKN015 24/24 Q1008 TEMPO TL1130 4000 -RA BKN015 RMK CB TO SE=
202303270930 METAR WIHH 270930Z 35007KT 0800 TSRA FEW014CB BKN015 26/25 Q1008 TEMPO TL1100 3000 -TSRA BKN015 RMK CB OVER THE FIELD=
202303270900 METAR WIHH 270900Z 03006KT 5000 -TSRA FEW017CB SCT018 30/23 Q1006 RMK CB TO N-NE=
202303270830 METAR WIHH 270830Z 18010KT 6000 FEW017CB SCT018 30/23 Q1006 TEMPO FM0900 2000 TSRA BKN015 RMK CB AND RA TO NW-NE=
202303270800 METAR WIHH 270800Z 18006KT 6000 SCT018 32/25 Q1006 NOSIG=
202303270730 METAR WIHH 270730Z 26005KT 6000 SCT018 31/24 Q1007 RMK RA TO S=
202303270700 METAR WIHH 270700Z 25005KT 6000 SCT018 31/24 Q1007 NOSIG=
202303270630 METAR WIHH 270630Z 00000KT 6000 SCT018 30/24 Q1007 NOSIG=
202303270600 METAR WIHH 270600Z 28004KT 6000 SCT018 30/23 Q1008 NOSIG=
202303270530 METAR WIHH 270530Z 27003KT 6000 SCT018 30/24 Q1008 RMK RA TO NE=
202303270500 METAR WIHH 270500Z 25004KT 5000 -TSRA FEW017CB SCT018 28/24 Q1009 RMK CB TO NE=
202303270430 METAR WIHH 270430Z 24010KT 5000 -RA FEW017CB SCT018 29/23 Q1009 RMK CB TO SW=
202303270400 METAR WIHH 270400Z 24010KT 6000 FEW017CB SCT018 32/24 Q1009 TEMPO FM0430 2000 TSRA BKN015 RMK CB AND RA TO SW=
202303270330 METAR WIHH 270330Z 27006KT 6000 SCT020 31/23 Q1010 NOSIG=
202303270300 METAR WIHH 270300Z 24010KT 6000 SCT020 30/23 Q1010 NOSIG=
202303270230 METAR WIHH 270230Z 27008KT 6000 SCT020 30/24 Q1010 NOSIG=
202303270200 METAR WIHH 270200Z 21003KT 6000 FEW020 29/23 Q1010 NOSIG=
202303270130 METAR WIHH 270130Z 24004KT 6000 FEW020 29/23 Q1010 NOSIG=
202303270100 METAR WIHH 270100Z 14003KT 6000 FEW020 28/23 Q1010 NOSIG=
202303270030 METAR WIHH 270030Z 00000KT 5000 HZ FEW020 25/23 Q1009 NOSIG=
202303270000 METAR WIHH 270000Z 00000KT 5000 HZ FEW020 25/23 Q1009 NOSIG=
202303262330 METAR WIHH 262330Z 00000KT 5000 HZ FEW020 25/24 Q1008 NOSIG=
202303262300 METAR WIHH 262300Z 00000KT 5000 HZ FEW020 24/23 Q1007 NOSIG=
202303262230 METAR WIHH 262230Z 22003KT 5000 HZ FEW020 24/23 Q1007 NOSIG=
202303262200 METAR WIHH 262200Z 00000KT 6000 FEW018 24/23 Q1007 NOSIG=
202303262130 METAR WIHH NIL=
202303262100 METAR WIHH NIL=
202303262030 METAR WIHH NIL=
202303262000 METAR WIHH NIL=
202303261930 METAR WIHH NIL=
202303261900 METAR WIHH NIL=
202303261830 METAR WIHH NIL=
202303261800 METAR WIHH NIL=
202303261730 METAR WIHH NIL=
202303261700 METAR WIHH NIL=
202303261630 METAR WIHH NIL=
202303261600 METAR WIHH NIL=
202303261530 METAR WIHH NIL=
202303261500 METAR WIHH NIL=
202303261430 METAR WIHH NIL=
202303261400 METAR WIHH NIL=
202303261330 METAR WIHH NIL=
202303261300 METAR WIHH NIL=
202303261230 METAR WIHH NIL=
202303261200 METAR WIHH NIL=
202303261130 METAR WIHH NIL=
202303261100 METAR WIHH NIL=
202303261030 METAR WIHH NIL=
202303261000 METAR WIHH NIL=
202303260930 METAR WIHH 260930Z 23016KT 5000 -RA FEW018CB BKN015 26/23 Q1007 RMK CB TO S=
202303260900 METAR WIHH 260900Z 22016KT 5000 TS FEW018CB BKN015 27/23 Q1007 RMK CB AND RA TO S-SW=
202303260830 METAR WIHH 260830Z 36006KT 5000 HZ FEW018CB SCT016 31/23 Q1006 RMK CB AND RA TO S-SW=
202303260800 METAR WIHH 260800Z 32006KT 6000 FEW018CB SCT017 32/23 Q1006 RMK CB AND RA TO S=
202303260730 METAR WIHH 260730Z 32004KT 6000 FEW018CB SCT018 32/24 Q1006 RMK CB TO S=
202303260700 METAR WIHH 260700Z 32008KT 6000 FEW018CB SCT018 31/25 Q1006 RMK CB TO S=
202303260630 METAR WIHH NIL=
202303260600 METAR WIHH 260600Z 01007KT 6000 SCT018 31/25 Q1006 NOSIG=
202303260530 METAR WIHH 260530Z 36006KT 6000 SCT018 32/24 Q1007 NOSIG=
202303260500 METAR WIHH 260500Z 30003KT 6000 SCT018 32/23 Q1007 NOSIG=
202303260430 METAR WIHH 260430Z 29003KT 6000 SCT018 32/23 Q1008 NOSIG=
202303260400 METAR WIHH 260400Z 22007KT 6000 SCT018 31/24 Q1008 NOSIG=
202303260330 METAR WIHH 260330Z 25003KT 6000 SCT018 30/24 Q1009 NOSIG=
202303260300 METAR WIHH 260300Z 26006KT 6000 SCT018 29/25 Q1009 NOSIG=
202303260230 METAR WIHH 260230Z 23007KT 6000 FEW018 29/25 Q1009 NOSIG=
202303260200 METAR WIHH 260200Z 23007KT 6000 FEW020 28/25 Q1010 NOSIG=
202303260100 METAR WIHH NIL=
202303260030 METAR WIHH 260030Z 00000KT 6000 FEW020 25/25 Q1009 NOSIG=
202303260000 METAR WIHH 260000Z 00000KT 6000 SCT018 25/25 Q1009 RMK NOSIG=
202303252330 METAR WIHH 252330Z 00000KT 6000 SCT018 25/25 Q1009 RMK RA TO SW=
202303252300 METAR WIHH 252300Z 00000KT 6000 SCT018 25/25 Q1009 RMK RA TO NW=
202303252230 METAR WIHH 252230Z 00000KT 6000 SCT017 24/24 Q1009 RMK RA TO NW=
202303252200 METAR WIHH 252200Z 25003KT 5000 -RA SCT017 24/24 Q1009 NOSIG=
202303252130 METAR WIHH NIL=
202303252100 METAR WIHH NIL=
202303252030 METAR WIHH NIL=
202303252000 METAR WIHH NIL=
202303251930 METAR WIHH NIL=
202303251900 METAR WIHH NIL=
202303251830 METAR WIHH NIL=
202303251800 METAR WIHH NIL=
202303251730 METAR WIHH NIL=
202303251700 METAR WIHH NIL=
202303251630 METAR WIHH NIL=
202303251600 METAR WIHH NIL=
202303251530 METAR WIHH NIL=
202303251500 METAR WIHH NIL=
202303251430 METAR WIHH NIL=
202303251400 METAR WIHH NIL=
202303251330 METAR WIHH NIL=
202303251300 METAR WIHH NIL=
202303251230 METAR WIHH NIL=
202303251200 METAR WIHH 251200Z 15004KT 4000 -RA BKN018 25/25 Q1009 TEMPO TL1300 3000 -RA=
202303251130 METAR WIHH 251130Z 12006KT 3000 -RA FEW017CB BKN018 25/25 Q1008 TEMPO TL1200 3000 -RA RMK CB TO E=
202303251100 METAR WIHH NIL=
202303251030 METAR WIHH NIL=
202303251000 METAR WIHH 251000Z 12004KT 4000 -RA FEW017CB BKN018 26/26 Q1008 TEMPO TL1030 4000 -RA RMK CB TO E=
202303250930 METAR WIHH 250930Z 01003KT 4000 -RA FEW017CB BKN018 26/26 Q1007 TEMPO TL1030 4000 -RA RMK CB TO E=
202303250900 METAR WIHH 250900Z 04005KT 3000 -TSRA FEW017CB SCT018 25/25 Q1007 TEMPO TL0930 4000 -RA RMK CB TO NE=
202303250830 METAR WIHH 250830Z 03008KT 3000 -TSRA FEW017CB BKN018 25/25 Q1007 TEMPO TL0900 4000 -RA BKN016 RMK CB TO NW=
202303250800 METAR WIHH 250800Z 16010KT 2000 -TSRA FEW017CB BKN018 28/24 Q1007 TEMPO TL0900 4000 -RA BKN016 RMK CB TO NW=
202303250730 METAR WIHH 250730Z 20010KT 3000 -TSRA FEW017CB BKN018 28/24 Q1007 TEMPO FM0740 1500 TSRA BKN016 RMK CB OTF=
202303250700 METAR WIHH 250700Z 35006KT 4000 -TSRA FEW017CB SCT018 32/24 Q1006 TEMPO FM0720 1500 TSRA BKN016 RMK CB TO NW AND E=
202303250630 METAR WIHH 250630Z 33010KT 5000 TS FEW017CB SCT018 33/24 Q1007 TEMPO FM0700 4000 -TSRA BKN016 RMK CB AND RA TO E=
202303250600 METAR WIHH 250600Z 26007KT 5000 HZ FEW016CB SCT018 34/24 Q1007 RMK CB AND RA TO E=
202303250530 METAR WIHH 250530Z 250500Z 30003KT 5000 HZ SCT018 34/24 Q1008 NOSIG=
202303250500 METAR WIHH 250500Z 250500Z 31003KT 5000 HZ SCT018 33/24 Q1008 NOSIG=
202303250430 METAR WIHH 250430Z 30003KT 5000 HZ SCT018 33/24 Q1009 NOSIG=
202303250400 METAR WIHH 250400Z 32003KT 5000 HZ SCT018 32/25 Q1010 NOSIG=
202303250330 METAR WIHH 250330Z 02003KT 5000 HZ SCT020 32/25 Q1010 NOSIG=
202303250300 METAR WIHH 250300Z 27003KT 5000 HZ SCT020 31/25 Q1011 NOSIG=
202303250230 METAR WIHH 250230Z 30004KT 5000 HZ SCT020 30/26 Q1011 NOSIG=
202303250200 METAR WIHH 250200Z 24005KT 5000 HZ FEW020 29/26 Q1010 NOSIG=
202303250130 METAR WIHH 250130Z 23003KT 5000 HZ FEW020 29/25 Q1010 NOSIG=
202303250100 METAR WIHH 250100Z 26003KT 5000 HZ FEW020 28/25 Q1010 NOSIG=
202303250030 METAR WIHH 250030Z 00000KT 4000 HZ FEW020 27/25 Q1010 NOSIG=
202303250000 METAR WIHH 250000Z 25003KT 4000 HZ SCT018 27/24 Q1009 NOSIG=
202303242330 METAR WIHH 242330Z 27003KT 4000 HZ SCT018 26/25 Q1009 NOSIG=
202303242300 METAR WIHH 242300Z 00000KT 4000 HZ SCT018 26/24 Q1009 NOSIG=
202303242230 METAR WIHH 242230Z 00000KT 4000 HZ SCT018 26/24 Q1009 NOSIG=
202303242200 METAR WIHH 242200Z 00000KT 5000 HZ FEW018 26/24 Q1009 NOSIG=
202303242130 METAR WIHH 242130Z 00000KT 5000 HZ FEW018 26/24 Q1008 NOSIG=
202303242100 METAR WIHH NIL=
202303242030 METAR WIHH NIL=
202303242000 METAR WIHH NIL=
202303241930 METAR WIHH NIL=
202303241900 METAR WIHH NIL=
202303241830 METAR WIHH NIL=
202303241800 METAR WIHH NIL=
202303241730 METAR WIHH NIL=
202303241700 METAR WIHH NIL=
202303241630 METAR WIHH NIL=
202303241600 METAR WIHH NIL=
202303241530 METAR WIHH NIL=
202303241500 METAR WIHH NIL=
202303241430 METAR WIHH NIL=
202303241400 METAR WIHH NIL=
202303241330 METAR WIHH NIL=
202303241300 METAR WIHH NIL=
202303241230 METAR WIHH NIL=
202303241200 METAR WIHH NIL=
202303241130 METAR WIHH 241130Z 16008KT 5000 HZ SCT017 FEW018CB 29/23 Q1007 RMK CB AND RA TO E-S=
202303241100 METAR WIHH 241100Z 16008KT 5000 HZ SCT017 FEW018CB 29/23 Q1007 RMK CB AND RA TO E-S=
202303241030 METAR WIHH 241030Z 34005KT 5000 HZ SCT017 FEW018CB 30/24 Q1007 RMK CB AND RA TO SE-SW=
202303241000 METAR WIHH 241000Z 241000Z 35005KT 5000 HZ SCT017 FEW018CB 30/24 Q1006 RMK CB AND RA TO S=
202303240930 METAR WIHH 240930Z 01005KT 6000 SCT017 FEW018CB 31/24 Q1005 RMK CB AND RA TO SW=
202303240900 METAR WIHH 240900Z 02006KT 6000 SCT017 FEW018CB 32/24 Q1005 RMK CB AND RA TO S=
202303240830 METAR WIHH 240830Z 34008KT 6000 FEW018CB SCT018 32/24 Q1005 RMK CB AND RA TO S=
202303240800 METAR WIHH 240800Z 33009KT 6000 SCT018 32/24 Q1006 RMK RA TO S=
202303240730 METAR WIHH 240730Z 35005KT 6000 SCT018 33/25 Q1006 RMK RA TO SW=
202303240700 METAR WIHH 240700Z 34008KT 6000 SCT018 33/24 Q1007 RMK RA TO S=
202303240630 METAR WIHH 240630Z 02007KT 6000 SCT018 33/23 Q1007 NOSIG=
202303240600 METAR WIHH 240600Z 34006KT 5000 HZ SCT018 33/23 Q1008 NOSIG=
202303240530 METAR WIHH 240530Z 02006KT 5000 HZ SCT018 33/23 Q1008 NOSIG=
202303240500 METAR WIHH 240500Z 01007KT 5000 HZ SCT018 33/24 Q1009 NOSIG=
202303240430 METAR WIHH 240430Z 35003KT 5000 HZ SCT018 33/23 Q1009 NOSIG=
202303240400 METAR WIHH 240400Z 35003KT 5000 HZ SCT018 32/23 Q1010 NOSIG=
202303240330 METAR WIHH 240330Z 00000KT 5000 HZ SCT018 31/24 Q1010 NOSIG=
202303240300 METAR WIHH 240300Z 00000KT 5000 HZ SCT018 31/24 Q1010 NOSIG=
202303240230 METAR WIHH 240230Z 00000KT 5000 HZ SCT018 30/24 Q1010 NOSIG=
202303240200 METAR WIHH 240200Z 06003KT 4000 HZ SCT018 30/24 Q1010 NOSIG=
202303240130 METAR WIHH 240130Z 00000KT 4000 HZ SCT018 29/25 Q1010 NOSIG=
202303240100 METAR WIHH 240100Z 00000KT 4000 HZ FEW020 29/26 Q1010 NOSIG=
202303240030 METAR WIHH 240030Z 00000KT 3000 HZ FEW020 28/26 Q1010 NOSIG=
202303240000 METAR WIHH 240000Z 00000KT 3000 BR SCT020 26/26 Q1009 NOSIG=
202303232330 METAR WIHH 232330Z 00000KT 3000 BR SCT020 25/25 Q1009 NOSIG=
202303232300 METAR WIHH 232300Z 00000KT 3000 BR SCT020 25/25 Q1009 NOSIG=
202303232230 METAR WIHH 232230Z 00000KT 3000 BR FEW020 26/26 Q1009 NOSIG=
202303232200 METAR WIHH 232200Z 00000KT 3000 BR FEW020 25/25 Q1008 NOSIG=
202303232130 METAR WIHH NIL=
202303232100 METAR WIHH NIL=
202303232030 METAR WIHH NIL=
202303232000 METAR WIHH NIL=
202303231930 METAR WIHH NIL=
202303231900 METAR WIHH NIL=
202303231830 METAR WIHH NIL=
202303231800 METAR WIHH NIL=
202303231730 METAR WIHH NIL=
202303231700 METAR WIHH NIL=
202303231630 METAR WIHH NIL=
202303231600 METAR WIHH NIL=
202303231530 METAR WIHH NIL=
202303231500 METAR WIHH NIL=
202303231430 METAR WIHH NIL=
202303231400 METAR WIHH NIL=
202303231330 METAR WIHH NIL=
202303231300 METAR WIHH NIL=
202303231230 METAR WIHH NIL=
202303231200 METAR WIHH 231200Z 05004KT 7000 FEW020 30/25 Q1007 NOSIG=
202303231130 METAR WIHH NIL=
202303231100 METAR WIHH 231100Z 01005KT 6000 SCT018 30/25 Q1006 NOSIG=
202303231030 METAR WIHH 231030Z 03007KT 6000 SCT018 31/24 Q1005 NOSIG=
202303231000 METAR WIHH 231000Z 01007KT 6000 SCT018 31/24 Q1005 NOSIG=
202303230930 METAR WIHH 230930Z 05007KT 6000 SCT018 32/24 Q1004 NOSIG=
202303230900 METAR WIHH 230900Z 02004KT 6000 SCT018 32/24 Q1005 NOSIG=
202303230830 METAR WIHH 230830Z 33005KT 6000 SCT018 33/24 Q1005 NOSIG=
202303230800 METAR WIHH 230800Z 31008KT 6000 SCT018 33/24 Q1005 NOSIG=
202303230730 METAR WIHH 230730Z 33008KT 5000 HZ SCT018 33/24 Q1006 NOSIG=
202303230700 METAR WIHH 230700Z 01007KT 5000 HZ SCT018 33/24 Q1006 NOSIG=
202303230630 METAR WIHH 230630Z 05006KT 5000 HZ SCT018 32/24 Q1007 RMK RA TO SW=
202303230600 METAR WIHH 230600Z 03007KT 5000 HZ SCT018 32/24 Q1007 RMK RA TO SW=
202303230530 METAR WIHH 230530Z 005007KT 5000 HZ FEW016CB SCT018 33/23 Q1008 RMK CB AND RA TO W=
202303230500 METAR WIHH 230500Z 06010KT 5000 HZ SCT018 33/23 Q1008 RMK RA TO SE-NW=
202303230430 METAR WIHH 230430Z 04006KT 6000 SCT018 33/23 Q1008 NOSIG=
202303230400 METAR WIHH 230400Z 22004KT 6000 SCT018 33/24 Q1009 NOSIG=
202303230330 METAR WIHH 230330Z 29005KT 6000 SCT018 31/24 Q1009 NOSIG=
202303230300 METAR WIHH 230300Z 05003KT 6000 SCT018 32/25 Q1009 NOSIG=
202303230230 METAR WIHH 230230Z 09003KT 5000 HZ SCT018 31/25 Q1009 NOSIG=
202303230200 METAR WIHH 230200Z 12003KT 4000 HZ FEW018 30/25 Q1009 NOSIG=
202303230130 METAR WIHH 230130Z 16003KT 4000 HZ FEW020 29/26 Q1009 NOSIG=
202303230100 METAR WIHH 230100Z 18003KT 3000 HZ FEW020 29/25 Q1009 NOSIG=
202303230030 METAR WIHH 230030Z 17003KT 3000 HZ FEW020 27/25 Q1009 NOSIG=
202303230000 METAR WIHH 230000Z 20003KT 3000 HZ FEW020 26/25 Q1008 RMK RA TO NW=
202303222330 METAR WIHH 222330Z 00000KT 3000 HZ FEW020 26/25 Q1008 RMK RA TO NW=
202303222300 METAR WIHH 222300Z 17003KT 3000 HZ FEW020 26/25 Q1008 RMK RA TO NW=
202303222230 METAR WIHH 222230Z 15003KT 4000 HZ FEW020 26/25 Q1008 RMK RA TO NW=
202303222200 METAR WIHH 222200Z 13003KT 6000 FEW020 27/26 Q1008 NOSIG=
202303222130 METAR WIHH NIL=
202303222100 METAR WIHH NIL=
202303222030 METAR WIHH NIL=
202303222000 METAR WIHH NIL=
202303221930 METAR WIHH NIL=
202303221900 METAR WIHH NIL=
202303221830 METAR WIHH NIL=
202303221800 METAR WIHH NIL=
202303221730 METAR WIHH NIL=
202303221700 METAR WIHH NIL=
202303221630 METAR WIHH NIL=
202303221600 METAR WIHH NIL=
202303221530 METAR WIHH NIL=
202303221500 METAR WIHH NIL=
202303221430 METAR WIHH NIL=
202303221400 METAR WIHH NIL=
202303221330 METAR WIHH NIL=
202303221300 METAR WIHH NIL=
202303221230 METAR WIHH NIL=
202303221200 METAR WIHH 221200Z 01003KT 6000 FEW020 29/24 Q1007 NOSIG=
202303221130 METAR WIHH 221130Z 02005KT 6000 FEW020 30/23 Q1006 NOSIG=
202303221100 METAR WIHH 221100Z 35005KT 6000 FEW020 30/23 Q1006 NOSIG=
202303221030 METAR WIHH 221030Z 02008KT 6000 SCT020 31/24 Q1006 NOSIG=
202303221000 METAR WIHH 221000Z 36008KT 6000 SCT020 31/23 Q1005 NOSIG=
202303220930 METAR WIHH 220930Z 32008KT 6000 SCT020 32/24 Q1005 NOSIG=
202303220900 METAR WIHH 220900Z 02010KT 6000 SCT020 32/24 Q1005 NOSIG=
202303220830 METAR WIHH 220830Z 01008KT 5000 HZ SCT020 32/24 Q1005 NOSIG=
202303220800 METAR WIHH 220800Z 01005KT 5000 HZ SCT020 33/24 Q1005 NOSIG=
202303220730 METAR WIHH 220730Z 36005KT 5000 HZ SCT020 33/24 Q1005 NOSIG=
202303220700 METAR WIHH 220700Z 06005KT 5000 HZ SCT020 32/24 Q1006 NOSIG=
202303220630 METAR WIHH 220630Z 12005KT 5000 -RA SCT018 30/26 Q1006 NOSIG=
202303220600 METAR WIHH 220600Z 01005KT 5000 HZ SCT019 32/24 Q1007 RMK RA TO E=
202303220530 METAR WIHH 220530Z 16003KT 5000 HZ SCT020 32/24 Q1007 RMK RA TO NE=
202303220500 METAR WIHH 220500Z 14003KT 5000 HZ SCT020 32/24 Q1008 RMK RA TO N=
202303220430 METAR WIHH 220430Z 21003KT 5000 HZ SCT020 32/24 Q1008 NOSIG=
202303220400 METAR WIHH 220400Z 09003KT 5000 HZ SCT020 31/24 Q1009 NOSIG=
202303220330 METAR WIHH 220330Z 19003KT 5000 HZ SCT020 32/24 Q1010 NOSIG=
202303220300 METAR WIHH 220300Z 22008KT 5000 HZ SCT020 30/25 Q1010 RMK RA TO SE=
202303220230 METAR WIHH 220230Z 21003KT 5000 HZ SCT020 30/25 Q1010 NOSIG=
202303220200 METAR WIHH 220200Z 25003KT 5000 HZ FEW018 29/24 Q1010 NOSIG=
202303220130 METAR WIHH 220130Z 24005KT 5000 HZ SCT018 28/24 Q1010 RMK RA TO NE=
202303220100 METAR WIHH 220100Z 18003KT 5000 HZ SCT018 28/24 Q1010 RMK RA TO N=
202303220030 METAR WIHH 220030Z 24003KT 4000 HZ FEW018 27/24 Q1009 NOSIG=
202303220000 METAR WIHH 220000Z 00000KT 4000 HZ FEW018 26/25 Q1009 NOSIG=
202303212330 METAR WIHH 212330Z 18003KT 3000 HZ FEW018 26/25 Q1009 NOSIG=
202303212300 METAR WIHH 212300Z 00000KT 3000 HZ SCT016 26/25 Q1008 NOSIG=
202303212230 METAR WIHH 212230Z 00000KT 3000 HZ SCT018 25/24 Q1008 NOSIG=
202303212200 METAR WIHH 212200Z 00000KT 3000 HZ SCT018 25/24 Q1008 NOSIG=
202303212130 METAR WIHH 212130Z 00000KT 4000 HZ SCT018 25/24 Q1008 RMK RA TO S=
202303212100 METAR WIHH 212100Z 17003KT 4000 HZ FEW018 25/24 Q1008 NOSIG=
202303212030 METAR WIHH NIL=
202303212000 METAR WIHH NIL=
202303211930 METAR WIHH NIL=
202303211900 METAR WIHH NIL=
202303211830 METAR WIHH NIL=
202303211800 METAR WIHH NIL=
202303211730 METAR WIHH NIL=
202303211700 METAR WIHH 211700Z 00000KT 4000 -RA SCT018 26/24 Q1010 NOSIG=
202303211630 METAR WIHH 211630Z 00000KT 5000 -RA SCT018 27/24 Q1010 NOSIG=
202303211600 METAR WIHH 211600Z 00000KT 6000 SCT018 27/24 Q1010 RMK RA TO N=
202303211530 METAR WIHH 211530Z 00000KT 6000 SCT018 28/25 Q1010 RMK RA TO SW=
202303211500 METAR WIHH 211500Z 02003KT 6000 SCT018 28/24 Q1010 RMK RA TO S=
202303211430 METAR WIHH 211430Z 00000KT 6000 SCT018 28/24 Q1009 NOSIG=
202303211400 METAR WIHH 211400Z 33003KT 6000 SCT017 FEW018CB 29/24 Q1009 RMK CB AND RA TO S=
202303211330 METAR WIHH 211330Z 35004KT 6000 SCT017 FEW018CB 29/24 Q1008 RMK CB TO S=
202303211300 METAR WIHH 211300Z 36005KT 6000 FEW019 29/24 Q1008 NOSIG=
202303211230 METAR WIHH 211230Z 36005KT 6000 FEW019 29/24 Q1008 NOSIG=
202303211200 METAR WIHH 211200Z 02006KT 6000 FEW019 29/24 Q1008 NOSIG=
202303211130 METAR WIHH 211130Z 35005KT 6000 SCT019 29/24 Q1007 NOSIG=
202303211100 METAR WIHH 211100Z 02007KT 6000 SCT018 30/23 Q1007 NOSIG=
202303211030 METAR WIHH 211030Z 02007KT 6000 SCT018 30/23 Q1006 NOSIG=
202303211000 METAR WIHH 211000Z 01007KT 6000 SCT018 31/24 Q1006 NOSIG=
202303210930 METAR WIHH 210930Z 02012KT 6000 SCT018 31/24 Q1006 NOSIG=
202303210900 METAR WIHH 210900Z 36007KT 6000 SCT018 32/24 Q1005 NOSIG=
202303210830 METAR WIHH 210830Z 36013KT 6000 SCT018 32/24 Q1006 NOSIG=
202303210800 METAR WIHH 210800Z 36013KT 6000 SCT018 32/24 Q1006 NOSIG=
202303210730 METAR WIHH 210730Z 03013KT 6000 SCT018 33/24 Q1006 NOSIG=
202303210700 METAR WIHH 210700Z 05012KT 6000 SCT018 33/23 Q1006 NOSIG=
202303210630 METAR WIHH 210630Z 35010KT 6000 SCT018 33/23 Q1007 NOSIG=
202303210600 METAR WIHH 210600Z 05008KT 6000 SCT018 32/23 Q1007 NOSIG=
202303210530 METAR WIHH 210530Z 06010KT 6000 SCT018 32/22 Q1007 NOSIG=
202303210500 METAR WIHH 210500Z 02008KT 6000 SCT018 32/23 Q1008 NOSIG=
202303210430 METAR WIHH 210430Z 04006KT 6000 SCT018 32/22 Q1009 NOSIG=
202303210400 METAR WIHH 210400Z 05006KT 6000 SCT018 32/22 Q1009 NOSIG=
202303210330 METAR WIHH 210330Z 05004KT 5000 HZ SCT018 32/22 Q1009 NOSIG=
202303210300 METAR WIHH 210300Z 02004KT 6000 FEW020 31/22 Q1010 NOSIG=
202303210230 METAR WIHH 210230Z 07005KT 6000 FEW020 30/22 Q1010 NOSIG=
202303210200 METAR WIHH 210200Z 00000KT 5000 HZ NSC 30/22 Q1010 NOSIG=
202303210130 METAR WIHH 210130Z 00000KT 5000 HZ NSC 29/23 Q1010 NOSIG=
202303210100 METAR WIHH 210100Z 00000KT 5000 HZ NSC 29/22 Q1009 NOSIG=
202303210030 METAR WIHH 210030Z 00000KT 4000 HZ FEW022 25/24 Q1008 NOSIG=
202303210000 METAR WIHH 210000Z 00000KT 4000 HZ FEW022 25/23 Q1008 NOSIG=
202303202330 METAR WIHH 202330Z 00000KT 4000 BR FEW020 24/24 Q1008 NOSIG=
202303202300 METAR WIHH 202300Z 00000KT 4000 BR FEW020 24/24 Q1008 NOSIG=
202303202230 METAR WIHH 202230Z 000000KT 4000 BR FEW020 24/24 Q1008 NOSIG=
202303202200 METAR WIHH 202200Z 00000KT 5000 HZ FEW020 24/24 Q1008 NOSIG=
202303202130 METAR WIHH 202130Z 00000KT 5000 HZ FEW020 24/23 Q1008 NOSIG=
202303202100 METAR WIHH NIL=
202303202030 METAR WIHH NIL=
202303202000 METAR WIHH NIL=
202303201930 METAR WIHH NIL=
202303201900 METAR WIHH NIL=
202303201830 METAR WIHH NIL=
202303201800 METAR WIHH NIL=
202303201730 METAR WIHH NIL=
202303201700 METAR WIHH NIL=
202303201630 METAR WIHH NIL=
202303201600 METAR WIHH NIL=
202303201530 METAR WIHH NIL=
202303201500 METAR WIHH 201500Z 13004KT 6000 SCT020 24/23 Q1010 RMK RA TO NE=
202303201430 METAR WIHH NIL=
202303201400 METAR WIHH 201400Z 12005KT 6000 SCT018 25/23 Q1010 RMK RA TO NE=
202303201330 METAR WIHH 201330Z 007003KT 6000 SCT018 26/23 Q1010 RMK RA TO E=
202303201300 METAR WIHH 201300Z 04003KT 6000 SCT018 26/23 Q1010 RMK RA TO E=
202303201230 METAR WIHH 201230Z 15005KT 5000 HZ SCT018 26/23 Q1010 RMK RA TO NE=
202303201200 METAR WIHH NIL=
202303201130 METAR WIHH 201130Z 201130Z 10008KT 5000 HZ SCT018 26/23 Q1008 RMK RA TO NE=
202303201100 METAR WIHH 201100Z 201100Z 14008KT 5000 HZ SCT018 26/23 Q1008 RMK RA TO SE=
202303201030 METAR WIHH NIL=
202303201000 METAR WIHH 201000Z 23003KT 5000 HZ SCT018 28/23 Q1007 RMK RA TO NE-S=
202303200930 METAR WIHH 200930Z 29003KT 5000 HZ SCT018 28/22 Q1007 RMK RA TO SE=
202303200900 METAR WIHH 200900Z 24010KT 5000 HZ FEW016CB SCT018 28/22 Q1007 RMK CB AND RA TO SE=
202303200830 METAR WIHH 200830Z 21015KT 5000 HZ FEW016CB SCT018 28/22 Q1007 RMK CB AND RA TO SE=
202303200800 METAR WIHH 200800Z 23015KT 5000 HZ FEW016CB SCT018 27/23 Q1006 RMK CB AND RA TO SW=
202303200730 METAR WIHH 200730Z 29008KT 5000 HZ SCT018 33/24 Q1006 RMK RA TO S=
202303200700 METAR WIHH NIL=
202303200630 METAR WIHH 200630Z 03008KT 5000 HZ SCT020 33/24 Q1007 NOSIG=
202303200600 METAR WIHH 200600Z 01008KT 5000 HZ SCT020 33/24 Q1007 NOSIG=
202303200530 METAR WIHH 200530Z 03005KT 5000 HZ SCT020 33/24 Q1008 NOSIG=
202303200500 METAR WIHH 200500Z 01008KT 5000 HZ SCT020 33/24 Q1009 NOSIG=
202303200430 METAR WIHH 200430Z 03007KT 5000 HZ SCT020 33/24 Q1009 NOSIG=
202303200400 METAR WIHH 200400Z 18003KT 5000 HZ SCT020 32/24 Q1010 NOSIG=
202303200330 METAR WIHH 200330Z 13003KT 5000 HZ FEW022 32/23 Q1010 NOSIG=
202303200300 METAR WIHH 200300Z 00000KT 5000 HZ FEW022 31/24 Q1010 NOSIG=
202303200230 METAR WIHH 200230Z 00000KT 5000 HZ FEW022 31/24 Q1010 NOSIG=
202303200200 METAR WIHH 200200Z 29003KT 5000 HZ FEW022 30/23 Q1010 NOSIG=
202303200130 METAR WIHH 200130Z 29003KT 4000 HZ FEW022 30/23 Q1009 NOSIG=
202303200100 METAR WIHH 200100Z 27003KT 4000 HZ FEW022 28/24 Q1009 NOSIG=
202303200030 METAR WIHH 200030Z 17003KT 4000 HZ FEW022 27/24 Q1009 NOSIG=
202303200000 METAR WIHH 200000Z 00000KT 4000 HZ FEW022 25/23 Q1008 NOSIG=
202303192330 METAR WIHH 192330Z 00000KT 4000 HZ FEW022 24/23 Q1008 NOSIG=
202303192300 METAR WIHH 192300Z 00000KT 5000 HZ FEW022 24/23 Q1008 NOSIG=
202303192230 METAR WIHH 192230Z 18003KT 5000 HZ FEW022 24/23 Q1008 NOSIG=
202303192200 METAR WIHH 192200Z 00000KT 5000 HZ FEW022 24/23 Q1008 NOSIG=
202303192130 METAR WIHH NIL=
202303192100 METAR WIHH NIL=
202303192030 METAR WIHH NIL=
202303192000 METAR WIHH NIL=
202303191930 METAR WIHH NIL=
202303191900 METAR WIHH NIL=
202303191830 METAR WIHH NIL=
202303191800 METAR WIHH NIL=
202303191730 METAR WIHH NIL=
202303191700 METAR WIHH 191700Z 00000KT 4000 HZ FEW022 26/25 Q1010 NOSIG=
202303191630 METAR WIHH 191630Z 00000KT 4000 HZ FEW022 27/25 Q1010 NOSIG=
202303191600 METAR WIHH 191600Z 00000KT 4000 HZ FEW022 27/25 Q1010 NOSIG=
202303191530 METAR WIHH 191530Z 09003KT 4000 HZ FEW022 26/24 Q1010 NOSIG=
202303191500 METAR WIHH 191500Z 19003KT 5000 HZ FEW020 27/24 Q1010 NOSIG=
202303191430 METAR WIHH 191430Z 20004KT 5000 HZ FEW020 26/24 Q1010 NOSIG=
202303191400 METAR WIHH 191400Z 20005KT 5000 HZ FEW020 27/24 Q1010 NOSIG=
202303191330 METAR WIHH 191330Z 21005KT 5000 HZ FEW020 28/25 Q1010 NOSIG=
202303191300 METAR WIHH 191300Z 04003KT 6000 FEW020 28/25 Q1009 NOSIG=
202303191230 METAR WIHH 191230Z 30003KT 6000 FEW020 28/24 Q1009 RMK RA TO S=
202303191200 METAR WIHH 191200Z 33003KT 6000 FEW020 28/24 Q1008 RMK RA TO S=
202303191130 METAR WIHH 191130Z 33003KT 5000 HZ SCT020 28/24 Q1008 RMK RA TO S=
202303191100 METAR WIHH 191100Z 33005KT 5000 HZ SCT020 29/25 Q1007 RMK RA TO SW SW=
202303191030 METAR WIHH 191030Z 34008KT 5000 HZ SCT020 30/25 Q1006 RMK RA TO SW=
202303191000 METAR WIHH 191000Z 33008KT 5000 HZ SCT020 30/25 Q1006 RMK RA TO S=
202303190930 METAR WIHH 190930Z 36008KT 5000 HZ SCT020 30/25 Q1006 NOSIG=
202303190900 METAR WIHH 190900Z 36008KT 5000 HZ SCT020 30/25 Q1006 NOSIG=
202303190830 METAR WIHH 190830Z 02008KT 5000 HZ SCT020 31/24 Q1006 NOSIG=
202303190800 METAR WIHH 190800Z 31008KT 5000 HZ SCT020 32/24 Q1006 RMK RA TO SW=
202303190730 METAR WIHH 190730Z 36008KT 5000 HZ SCT020 33/24 Q1006 RMK RA TO SW=
202303190700 METAR WIHH 190700Z 36008KT 5000 HZ SCT020 33/24 Q1006 RMK RA TO SW=
202303190630 METAR WIHH 190630Z 02010KT 5000 HZ SCT020 33/24 Q1007 RMK RA TO SW=
202303190600 METAR WIHH 190600Z 02010KT 5000 HZ SCT020 33/24 Q1007 NOSIG=
202303190530 METAR WIHH 190530Z 10007KT 5000 HZ SCT020 33/23 Q1008 NOSIG=
202303190500 METAR WIHH 190500Z 07005KT 5000 HZ SCT020 32/22 Q1008 NOSIG=
202303190430 METAR WIHH 190430Z 03008KT 5000 HZ SCT020 32/23 Q1009 NOSIG=
202303190400 METAR WIHH 190400Z 01005KT 5000 HZ SCT020 32/23 Q1010 NOSIG=
202303190330 METAR WIHH 190330Z 06005KT 5000 HZ SCT020 31/23 Q1010 NOSIG=
202303190300 METAR WIHH 190300Z 34003KT 5000 HZ SCT020 31/24 Q1010 NOSIG=
202303190230 METAR WIHH 190230Z 33005KT 5000 HZ SCT020 31/24 Q1010 NOSIG=
202303190200 METAR WIHH 190200Z 35005KT 5000 HZ SCT020 30/25 Q1010 NOSIG=
202303190130 METAR WIHH 190130Z 00000KT 4000 HZ SCT020 29/24 Q1010 NOSIG=
202303190100 METAR WIHH 190100Z 00000KT 4000 HZ NSC 28/25 Q1010 NOSIG=
202303190030 METAR WIHH 190030Z 00000KT 4000 HZ NSC 27/25 Q1009 NOSIG=
202303190000 METAR WIHH 190000Z 00000KT 4000 HZ NSC 26/24 Q1009 NOSIG=
202303182330 METAR WIHH 182330Z 00000KT 4000 HZ FEW020 25/24 Q1009 NOSIG=
202303182300 METAR WIHH 182300Z 00000KT 4000 HZ FEW020 24/23 Q1008 NOSIG=
202303182230 METAR WIHH 182230Z 00000KT 4000 HZ FEW018 25/24 Q1008 NOSIG=
202303182200 METAR WIHH 182200Z 00000KT 4000 HZ FEW018 25/24 Q1008 NOSIG=
202303182130 METAR WIHH 182130Z 00000KT 5000 HZ FEW018 25/23 Q1008 NOSIG=
202303182100 METAR WIHH NIL=
202303182030 METAR WIHH NIL=
202303182000 METAR WIHH NIL=
202303181930 METAR WIHH NIL=
202303181900 METAR WIHH NIL=
202303181830 METAR WIHH NIL=
202303181800 METAR WIHH NIL=
202303181730 METAR WIHH NIL=
202303181700 METAR WIHH 181700Z 00000KT 6000 FEW018 25/23 Q1010 NOSIG=
202303181630 METAR WIHH 181630Z 00000KT 6000 FEW018 26/23 Q1010 NOSIG=
202303181600 METAR WIHH 181600Z 00000KT 6000 FEW018 26/23 Q1010 NOSIG=
202303181530 METAR WIHH 181530Z 17003KT 6000 FEW018 26/23 Q1010 NOSIG=
202303181500 METAR WIHH 181500Z 18003KT 6000 FEW018 26/23 Q1010 NOSIG=
202303181430 METAR WIHH 181430Z 22006KT 6000 SCT018 26/23 Q1010 NOSIG=
202303181400 METAR WIHH 181400Z 23008KT 6000 SCT018 27/24 Q1010 NOSIG=
202303181330 METAR WIHH 181330Z 25005KT 6000 SCT018 28/25 Q1010 RMK RA TO W=
202303181300 METAR WIHH 181300Z 00000KT 6000 SCT016 FEW018CB 28/25 Q1010 RMK CB TO SW=
202303181230 METAR WIHH 181230Z 00000KT 6000 SCT017 FEW018CB 28/25 Q1009 RMK CB AND RA TO S=
202303181200 METAR WIHH 181200Z 35003KT 6000 SCT016 FEW018CB 29/24 Q1009 RMK CB TO S=
202303181130 METAR WIHH 181130Z 35003KT 6000 FEW018CB FEW018 29/24 Q1008 RMK CB TO S=
202303181100 METAR WIHH 181100Z 03008KT 6000 FEW018 30/24 Q1007 NOSIG=
202303181030 METAR WIHH 181030Z 36006KT 7000 FEW020 30/24 Q1006 NOSIG=
202303181000 METAR WIHH 181000Z 01007KT 7000 FEW020 31/23 Q1006 NOSIG=
202303180930 METAR WIHH 180930Z 33005KT 7000 FEW020 31/23 Q1006 NOSIG=
202303180900 METAR WIHH 180900Z 36006KT 6000 FEW018 31/24 Q1006 NOSIG=
202303180830 METAR WIHH 180830Z 02008KT 6000 FEW018 32/23 Q1006 NOSIG=
202303180800 METAR WIHH NIL=
202303180730 METAR WIHH NIL=
202303180700 METAR WIHH 180700Z 36007KT 6000 SCT018 33/23 Q1007 NOSIG=
202303180630 METAR WIHH 180630Z 180630Z 32005KT 6000 SCT018 33/23 Q1007 NOSIG=
202303180600 METAR WIHH 180600Z 36008KT 5000 HZ SCT018 32/23 Q1008 NOSIG=
202303180530 METAR WIHH 180530Z 05007KT 5000 HZ SCT018 32/23 Q1008 NOSIG=
202303180500 METAR WIHH 180500Z 02006KT 5000 HZ SCT018 33/22 Q1009 NOSIG=
202303180430 METAR WIHH 180430Z 30003KT 6000 SCT020 32/22 Q1009 NOSIG=
202303180400 METAR WIHH 180400Z 18003KT 6000 FEW020 32/22 Q1010 NOSIG=
202303180330 METAR WIHH 180330Z 16005KT 6000 FEW020 31/22 Q1010 NOSIG=
202303180300 METAR WIHH 180300Z 10004KT 6000 FEW020 31/22 Q1011 NOSIG=
202303180230 METAR WIHH 180230Z 25003KT 6000 FEW020 30/24 Q1011 NOSIG=
202303180200 METAR WIHH 180200Z 00000KT 6000 FEW020 29/23 Q1011 NOSIG=
202303180130 METAR WIHH 180130Z 180130Z 00000KT 6000 FEW022 29/22 Q1011 NOSIG=
202303180100 METAR WIHH 180100Z 180100Z 00000KT 5000 HZ FEW022 28/23 Q1011 NOSIG=
202303180030 METAR WIHH 180030Z 180030Z 00000KT 6000 FEW022 27/23 Q1011 NOSIG=
202303180000 METAR WIHH 180000Z 180000Z 18003KT 6000 FEW022 26/23 Q1010 NOSIG=
202303172330 METAR WIHH 172330Z 172330Z 23003KT 5000 HZ FEW022 24/23 Q1010 NOSIG=
202303172300 METAR WIHH 172300Z 172300Z 19003KT 5000 HZ FEW022 24/23 Q1010 NOSIG=
202303172230 METAR WIHH 172230Z 172230Z 00000KT 5000 HZ FEW022 24/23 Q1009 NOSIG=
202303172200 METAR WIHH 172200Z 1172200Z 00000KT 5000 HZ FEW020 25/23 Q1009 NOSIG=
202303172130 METAR WIHH NIL=
202303172100 METAR WIHH NIL=
202303172030 METAR WIHH NIL=
202303172000 METAR WIHH NIL=
202303171930 METAR WIHH NIL=
202303171900 METAR WIHH NIL=
202303171830 METAR WIHH NIL=
202303171800 METAR WIHH NIL=
202303171730 METAR WIHH NIL=
202303171700 METAR WIHH NIL=
202303171630 METAR WIHH NIL=
202303171600 METAR WIHH NIL=
202303171530 METAR WIHH NIL=
202303171500 METAR WIHH 171500Z 171500Z 13004KT 7000 FEW020 26/21 Q1012 NOSIG=
202303171430 METAR WIHH 171430Z 171430Z 10003KT 6000 FEW020 26/21 Q1012 NOSIG=
202303171400 METAR WIHH 171400Z 171400Z 16004KT 6000 SCT020 26/21 Q1012 RMK RA TO NW=
202303171330 METAR WIHH 171330Z 171330Z 10007KT 5000 HZ SCT018 28/24 Q1012 RMK RA TO NW=
202303171300 METAR WIHH 171300Z 171300Z 04003KT 6000 SCT020 29/24 Q1011 RMK RA TO S=
202303171230 METAR WIHH 171230Z 171230Z 03003KT 6000 SCT020 29/25 Q1011 RMK RA TO S=
202303171200 METAR WIHH 171200Z 171200Z 36006KT 6000 SCT020 29/24 Q1010 RMK RA TO S=
202303171130 METAR WIHH 171130Z 171130Z 02003KT 6000 SCT020 29/23 Q1010 RMK RA TO S=
202303171100 METAR WIHH 171100Z 171100Z 35005KT 6000 SCT018 29/24 Q1009 NOSIG=
202303171030 METAR WIHH 171030Z 171030Z 33003KT 6000 SCT018 30/23 Q1008 NOSIG=
202303171000 METAR WIHH NIL=
202303170930 METAR WIHH 170930Z 170930Z 33005KT 6000 SCT018 30/23 Q1007 NOSIG=
202303170900 METAR WIHH NIL=
202303170830 METAR WIHH 170830Z 170830Z 36008KT 6000 SCT018 31/23 Q1007 NOSIG=
202303170800 METAR WIHH 170800Z 170730Z 33005KT 5000 HZ SCT018 29/24 Q1008 RMK RA TO SE=
202303170730 METAR WIHH NIL=
202303170700 METAR WIHH 170700Z 170700Z 33006KT 5000 -RA SCT018 30/23 Q1008 NOSIG=
202303170630 METAR WIHH 170630Z 170630Z 02008KT 5000 HZ SCT020 31/24 Q1009 NOSIG=
202303170600 METAR WIHH NIL=
202303170530 METAR WIHH NIL=
202303170500 METAR WIHH NIL=
202303170430 METAR WIHH 170430Z 170430Z 30003KT 5000 HZ SCT020 32/22 Q1010 NOSIG=
202303170400 METAR WIHH 170400Z 170400Z 33003KT 5000 HZ SCT020 31/23 Q1011 NOSIG=
202303170330 METAR WIHH 170330Z 170330Z 32003KT 5000 HZ SCT020 31/23 Q1011 NOSIG=
202303170300 METAR WIHH 170300Z 170300Z 04003KT 5000 HZ SCT020 30/22 Q1011 NOSIG=
202303170230 METAR WIHH 170230Z 170230Z 09003KT 5000 HZ SCT020 29/23 Q1012 NOSIG=
202303170200 METAR WIHH 170200Z 10003KT 5000 HZ FEW020 29/24 Q1011 NOSIG=
202303170130 METAR WIHH 170130Z 36003KT 5000 HZ FEW020 29/24 Q1012 NOSIG=
202303170100 METAR WIHH 170100Z 00000KT 3000 HZ FEW022 28/24 Q1012 NOSIG=
202303170030 METAR WIHH 170030Z 15003KT 3000 HZ FEW022 27/24 Q1011 NOSIG=
202303170000 METAR WIHH 170000Z 15003KT 3000 HZ FEW022 25/24 Q1011 NOSIG=
202303162330 METAR WIHH 162330Z 14003KT 4000 HZ FEW022 25/23 Q1011 NOSIG=
202303162300 METAR WIHH 162300Z 00000KT 4000 HZ FEW022 24/23 Q1010 NOSIG=
202303162230 METAR WIHH 162230Z 00000KT 6000 FEW022 25/23 Q1010 NOSIG=
202303162200 METAR WIHH 162200Z 00000KT 6000 FEW020 25/23 Q1010 NOSIG=
202303162130 METAR WIHH NIL=
202303162100 METAR WIHH NIL=
202303162030 METAR WIHH NIL=
202303162000 METAR WIHH NIL=
202303161930 METAR WIHH NIL=
202303161900 METAR WIHH NIL=
202303161830 METAR WIHH NIL=
202303161800 METAR WIHH NIL=
202303161730 METAR WIHH NIL=
202303161700 METAR WIHH 161700Z 18003KT 6000 FEW022 26/25 Q1012 NOSIG=
202303161630 METAR WIHH 161630Z 00000KT 6000 FEW020 26/25 Q1012 NOSIG=
202303161600 METAR WIHH 161600Z 18003KT 6000 FEW020 26/25 Q1012 NOSIG=
202303161530 METAR WIHH 161530Z 18003KT 6000 FEW020 27/25 Q1012 NOSIG=
202303161500 METAR WIHH 161500Z 24003KT 6000 FEW020 26/25 Q1011 NOSIG=
202303161430 METAR WIHH 161430Z 36003KT 6000 FEW022 27/24 Q1011 NOSIG=
202303161400 METAR WIHH 161400Z 36003KT 6000 FEW022 27/24 Q1011 NOSIG=
202303161330 METAR WIHH 161330Z 33003KT 6000 FEW022 27/24 Q1011 NOSIG=
202303161300 METAR WIHH 161300Z 34003KT 6000 FEW022 27/24 Q1010 NOSIG=
202303161230 METAR WIHH 161230Z 34004KT 6000 FEW022 28/24 Q1010 NOSIG=
202303161200 METAR WIHH 161200Z 34005KT 6000 FEW022 28/23 Q1010 NOSIG=
202303161130 METAR WIHH 161130Z 36008KT 6000 FEW022 29/23 Q1009 NOSIG=
202303161100 METAR WIHH 161100Z 36008KT 6000 FEW022 29/24 Q1009 NOSIG=
202303161030 METAR WIHH 161030Z 36008KT 6000 FEW020 30/23 Q1008 NOSIG=
202303161000 METAR WIHH 161000Z 36008KT 6000 FEW020 31/24 Q1008 NOSIG=
202303160930 METAR WIHH 160930Z 36010KT 6000 FEW020 31/24 Q1008 NOSIG=
202303160900 METAR WIHH 160900Z 36010KT 6000 SCT020 31/24 Q1008 NOSIG=
202303160830 METAR WIHH 160830Z 36010KT 6000 SCT020 31/24 Q1008 NOSIG=
202303160800 METAR WIHH 160800Z 36010KT 6000 SCT020 31/23 Q1008 NOSIG=
202303160730 METAR WIHH 160730Z 02010KT 6000 SCT020 32/22 Q1008 NOSIG=
202303160700 METAR WIHH 160700Z 36010KT 6000 SCT020 32/23 Q1009 NOSIG=
202303160630 METAR WIHH 160630Z 36010KT 6000 SCT020 32/23 Q1010 NOSIG=
202303160600 METAR WIHH 160600Z 36010KT 6000 SCT020 31/22 Q1010 NOSIG=
202303160530 METAR WIHH 160530Z 03010KT 6000 SCT020 31/22 Q1010 NOSIG=
202303160500 METAR WIHH 160500Z 36010KT 6000 SCT020 32/22 Q1011 NOSIG=
202303160430 METAR WIHH 160430Z 36008KT 6000 SCT020 32/22 Q1011 NOSIG=
202303160400 METAR WIHH 160400Z 06003KT 6000 SCT020 31/20 Q1011 NOSIG=
202303160330 METAR WIHH 160330Z 04005KT 6000 SCT020 31/21 Q1012 NOSIG=
202303160300 METAR WIHH 160300Z 01005KT 6000 FEW022 30/21 Q1012 NOSIG=
202303160230 METAR WIHH 160230Z 04006KT 6000 FEW020 29/23 Q1012 NOSIG=
202303160200 METAR WIHH 160200Z 10003KT 5000 HZ FEW022 29/23 Q1012 NOSIG=
202303160130 METAR WIHH 160130Z 04003KT 4000 HZ FEW022 28/23 Q1012 NOSIG=
202303160100 METAR WIHH 160100Z 13003KT 4000 HZ FEW022 27/23 Q1012 NOSIG=
202303160030 METAR WIHH 160030Z 09003KT 4000 HZ FEW022 26/23 Q1012 NOSIG=
202303160000 METAR WIHH 160000Z 08003KT 3000 HZ FEW022 25/23 Q1011 NOSIG=
202303152330 METAR WIHH 152330Z 06003KT 3000 HZ FEW020 25/23 Q1011 NOSIG=
202303152300 METAR WIHH 152300Z 09002KT 2000 BR FEW018 24/23 Q1010 NOSIG=
202303152230 METAR WIHH 152230Z 00000KT 2000 BR FEW018 24/23 Q1010 NOSIG=
202303152200 METAR WIHH 152200Z 00000KT 2000 BR FEW018 24/24 Q1009 NOSIG=
202303152130 METAR WIHH NIL=
202303152100 METAR WIHH NIL=
202303152030 METAR WIHH NIL=
202303152000 METAR WIHH NIL=
202303151930 METAR WIHH NIL=
202303151900 METAR WIHH NIL=
202303151830 METAR WIHH NIL=
202303151800 METAR WIHH NIL=
202303151730 METAR WIHH NIL=
202303151700 METAR WIHH 151700Z 06003KT 3000 BR FEW018 25/24 Q1011 NOSIG=
202303151630 METAR WIHH 151630Z 09003KT 4000 HZ SCT018 25/24 Q1011 NOSIG=
202303151600 METAR WIHH 151600Z 00000KT 4000 HZ SCT018 25/24 Q1011 NOSIG=
202303151530 METAR WIHH 151530Z 00000KT 3000 HZ SCT018 25/24 Q1011 NOSIG=
202303151500 METAR WIHH 151500Z 00000KT 3000 HZ SCT018 25/24 Q1011 NOSIG=
202303151430 METAR WIHH 151430Z 19003KT 4000 HZ SCT018 26/24 Q1011 NOSIG=
202303151400 METAR WIHH 151400Z 12006KT 4000 HZ SCT018 26/24 Q1011 NOSIG=
202303151330 METAR WIHH 151330Z 14005KT 4000 HZ SCT018 26/24 Q1011 NOSIG=
202303151300 METAR WIHH 151300Z 13004KT 4000 HZ SCT018 26/24 Q1010 NOSIG=
202303151230 METAR WIHH 151230Z 13003KT 5000 HZ SCT018 27/24 Q1010 NOSIG=
202303151200 METAR WIHH 151200Z 08003KT 5000 HZ SCT018 27/24 Q1010 NOSIG=
202303151130 METAR WIHH 151130Z 00000KT 5000 HZ SCT018 26/24 Q1010 NOSIG=
202303151100 METAR WIHH 151100Z 00000KT 6000 SCT018 27/23 Q1009 NOSIG=
202303151030 METAR WIHH 151030Z 03003KT 6000 SCT018 27/23 Q1009 NOSIG=
202303151000 METAR WIHH 151000Z 05003KT 6000 SCT018 27/23 Q1008 NOSIG=
202303150930 METAR WIHH 150930Z 04004KT 6000 SCT018 27/23 Q1008 NOSIG=
202303150900 METAR WIHH 150900Z 07003KT 5000 HZ SCT018 27/23 Q1008 NOSIG=
202303150830 METAR WIHH 150830Z 02004KT 5000 HZ SCT017 27/24 Q1009 NOSIG=
202303150800 METAR WIHH 150800Z 36003KT 5000 HZ SCT016 26/24 Q1009 RMK RA TO E=
202303150730 METAR WIHH 150730Z 32004KT 5000 HZ SCT016 25/24 Q1009 NOSIG=
202303150700 METAR WIHH 150700Z 01006KT 5000 -RA SCT016 FEW018CB 25/24 Q1009 RMK CB TO SE=
202303150630 METAR WIHH 150630Z 35010KT 3000 -TSRA BKN015 FEW018CB 26/24 Q1010 RMK CB TO NW-NE=
202303150600 METAR WIHH 150600Z 02008KT 4000 HZ FEW018CB BKN015 28/24 Q1010 TEMPO FM0620 2000 TSRA RMK CB AND RA TO NW-NE=
202303150530 METAR WIHH 150530Z METAR WIHH 150530Z 00000KT 5000 HZ SCT016 28/24 Q1010 RMK RA TO N=
202303150500 METAR WIHH 150500Z METAR WIHH 150500Z 36003KT 5000 HZ SCT016 28/24 Q1011 RMK RA TO N=
202303150430 METAR WIHH 150430Z METAR WIHH 150430Z 17003KT 5000 HZ SCT015 27/24 Q1011 NOSIG=
202303150400 METAR WIHH 150400Z METAR WIHH 150400Z 13004KT 5000 HZ SCT015 27/23 Q1011 RMK RA TO N=
202303150330 METAR WIHH 150330Z METAR WIHH 150330Z 13003KT 5000 HZ SCT015 26/24 Q1011 NOSIG=
202303150300 METAR WIHH 150300Z METAR WIHH 150300Z 22003KT 5000 HZ BKN015 26/24 Q1011 NOSIG=
202303150230 METAR WIHH 150230Z METAR WIHH 150230Z 13003KT 5000 HZ SCT016 26/23 Q1011 RMK RA TO SW=
202303150200 METAR WIHH 150200Z METAR WIHH 150200Z 12003KT 4000 HZ SCT015 25/24 Q1011 RMK RA TO W=
202303150130 METAR WIHH 150130Z METAR WIHH 150130Z 17004KT 4000 -RA BKN015 24/24 Q1011 NOSIG=
202303150100 METAR WIHH 150100Z METAR WIHH 23003KT 4000 -RA BKN015 24/23 Q1011 NOSIG=
202303150030 METAR WIHH 150030Z 00000KT 2500 -RA BKN015 24/23 Q1011 NOSIG=
202303150000 METAR WIHH 150000Z 23003KT 2500 -RA BKN015 24/23 Q1011 NOSIG=
202303142330 METAR WIHH NIL=
202303142300 METAR WIHH NIL=
202303142230 METAR WIHH NIL=
202303142200 METAR WIHH NIL=
202303142130 METAR WIHH NIL=
202303142100 METAR WIHH NIL=
202303142030 METAR WIHH NIL=
202303142000 METAR WIHH NIL=
202303141930 METAR WIHH NIL=
202303141900 METAR WIHH NIL=
202303141830 METAR WIHH NIL=
202303141800 METAR WIHH NIL=
202303141730 METAR WIHH NIL=
202303141700 METAR WIHH NIL=
202303141630 METAR WIHH NIL=
202303141600 METAR WIHH NIL=
202303141530 METAR WIHH NIL=
202303141500 METAR WIHH NIL=
202303141430 METAR WIHH NIL=
202303141400 METAR WIHH NIL=
202303141330 METAR WIHH NIL=
202303141300 METAR WIHH NIL=
202303141230 METAR WIHH NIL=
202303141200 METAR WIHH NIL=
202303141130 METAR WIHH NIL=
202303141100 METAR WIHH NIL=
202303141030 METAR WIHH NIL=
202303141000 METAR WIHH NIL=
202303140930 METAR WIHH 140930Z 36005KT 6000 SCT018 28/23 Q1007 NOSIG=
202303140900 METAR WIHH 140900Z 36004KT 6000 SCT018 29/23 Q1007 NOSIG=
202303140830 METAR WIHH 140830Z 01004KT 6000 SCT018 29/24 Q1007 NOSIG=
202303140800 METAR WIHH 140800Z 02006KT 6000 SCT018 30/24 Q1007 NOSIG=
202303140730 METAR WIHH NIL=
202303140700 METAR WIHH 140700Z 32005KT 5000 HZ SCT016 30/24 Q1008 NOSIG=
202303140630 METAR WIHH NIL=
202303140600 METAR WIHH 140600Z 34005KT 5000 HZ SCT016 28/23 Q1008 NOSIG=
202303140530 METAR WIHH 140530Z 03005KT 5000 HZ SCT016 28/24 Q1009 NOSIG=
202303140500 METAR WIHH 140500Z 01005KT 5000 HZ SCT016 27/24 Q1010 RMK RA TO SE=
202303140430 METAR WIHH 140430Z 35003KT 5000 HZ FEW015CB SCT016 27/24 Q1011 RMK CB AND RA TO NE=
202303140400 METAR WIHH NIL=
202303140330 METAR WIHH 140330Z 29003KT 5000 HZ SCT018 28/24 Q1010 RMK RA TO NE=
202303140300 METAR WIHH 140300Z 30003KT 5000 HZ SCT018 28/24 Q1011 RMK RA TO NE=
202303140230 METAR WIHH 140230Z 27005KT 4000 HZ BKN018 27/24 Q1011 NOSIG=
202303140200 METAR WIHH 140200Z 26004KT 4000 HZ BKN018 27/24 Q1011 RMK RA TO NE=
202303140130 METAR WIHH 140130Z 24003KT 5000 HZ SCT018 26/24 Q1011 RMK RA TO E=
202303140100 METAR WIHH 140100Z 24003KT 4000 HZ SCT018 26/23 Q1010 RMK RA TO N=
202303140030 METAR WIHH 140030Z 25003KT 5000 HZ SCT018 26/23 Q1010 RMK RA TO NW=
202303140000 METAR WIHH NIL=
202303132330 METAR WIHH NIL=
202303132300 METAR WIHH NIL=
202303132230 METAR WIHH NIL=
202303132200 METAR WIHH NIL=
202303132130 METAR WIHH NIL=
202303132100 METAR WIHH NIL=
202303132030 METAR WIHH NIL=
202303132000 METAR WIHH NIL=
202303131930 METAR WIHH NIL=
202303131900 METAR WIHH NIL=
202303131830 METAR WIHH NIL=
202303131800 METAR WIHH NIL=
202303131730 METAR WIHH NIL=
202303131700 METAR WIHH NIL=
202303131630 METAR WIHH NIL=
202303131600 METAR WIHH NIL=
202303131530 METAR WIHH NIL=
202303131500 METAR WIHH NIL=
202303131430 METAR WIHH NIL=
202303131400 METAR WIHH NIL=
202303131330 METAR WIHH NIL=
202303131300 METAR WIHH NIL=
202303131230 METAR WIHH NIL=
202303131200 METAR WIHH NIL=
202303131130 METAR WIHH NIL=
202303131100 METAR WIHH NIL=
202303131030 METAR WIHH NIL=
202303131000 METAR WIHH NIL=
202303130930 METAR WIHH 130930Z 36008KT 5000 HZ FEW020 30/23 Q1006 NOSIG=
202303130900 METAR WIHH 130900Z 33008KT 5000 HZ FEW020 31/23 Q1006 NOSIG=
202303130830 METAR WIHH 130830Z 36008KT 5000 HZ SCT020 31/24 Q1006 NOSIG=
202303130800 METAR WIHH 130800Z 36008KT 5000 HZ SCT020 32/24 Q1006 NOSIG=
202303130730 METAR WIHH 130730Z 36010KT 5000 HZ SCT020 32/24 Q1006 NOSIG=
202303130700 METAR WIHH 130700Z 36010KT 5000 HZ SCT020 32/24 Q1007 NOSIG=
202303130630 METAR WIHH 130630Z 27005KT 5000 HZ SCT020 32/24 Q1007 NOSIG=
202303130600 METAR WIHH 130600Z 33005KT 5000 HZ SCT020 32/23 Q1007 NOSIG=
202303130530 METAR WIHH 130530Z 36007KT 5000 HZ SCT020 32/23 Q1008 NOSIG=
202303130500 METAR WIHH 130500Z 33007KT 5000 HZ SCT020 32/23 Q1008 NOSIG=
202303130430 METAR WIHH 130430Z 30004KT 5000 HZ FEW020 32/24 Q1009 NOSIG=
202303130400 METAR WIHH 130400Z 18004KT 5000 HZ FEW020 32/24 Q1009 NOSIG=
202303130330 METAR WIHH 130330Z 06005KT 5000 HZ FEW020 31/23 Q1009 NOSIG=
202303130300 METAR WIHH 130300Z 03005KT 5000 HZ FEW020 30/24 Q1010 NOSIG=
202303130230 METAR WIHH NIL=
202303130200 METAR WIHH 130200Z 24003KT 5000 HZ FEW022 28/24 Q1010 NOSIG=
202303130130 METAR WIHH 130130Z 09004KT 4000 HZ FEW022 27/24 Q1010 NOSIG=
202303130100 METAR WIHH 130100Z 18003KT 4000 HZ FEW020 26/23 Q1010 NOSIG=
202303130030 METAR WIHH 130030Z 00000KT 3000 HZ FEW020 25/23 Q1010 NOSIG=
202303130000 METAR WIHH NIL=
202303122330 METAR WIHH NIL=
202303122300 METAR WIHH NIL=
202303122230 METAR WIHH NIL=
202303122200 METAR WIHH NIL=
202303122130 METAR WIHH NIL=
202303122100 METAR WIHH NIL=
202303122030 METAR WIHH NIL=
202303122000 METAR WIHH NIL=
202303121930 METAR WIHH NIL=
202303121900 METAR WIHH NIL=
202303121830 METAR WIHH NIL=
202303121800 METAR WIHH NIL=
202303121730 METAR WIHH NIL=
202303121700 METAR WIHH NIL=
202303121630 METAR WIHH NIL=
202303121600 METAR WIHH NIL=
202303121530 METAR WIHH NIL=
202303121500 METAR WIHH NIL=
202303121430 METAR WIHH NIL=
202303121400 METAR WIHH NIL=
202303121330 METAR WIHH NIL=
202303121300 METAR WIHH NIL=
202303121230 METAR WIHH NIL=
202303121200 METAR WIHH NIL=
202303121130 METAR WIHH NIL=
202303121100 METAR WIHH NIL=
202303121030 METAR WIHH NIL=
202303121000 METAR WIHH NIL=
202303120930 METAR WIHH NIL=
202303120900 METAR WIHH NIL=
202303120830 METAR WIHH NIL=
202303120800 METAR WIHH NIL=
202303120730 METAR WIHH NIL=
202303120700 METAR WIHH NIL=
202303120630 METAR WIHH NIL=
202303120600 METAR WIHH NIL=
202303120530 METAR WIHH NIL=
202303120500 METAR WIHH NIL=
202303120430 METAR WIHH NIL=
202303120400 METAR WIHH NIL=
202303120330 METAR WIHH NIL=
202303120300 METAR WIHH NIL=
202303120230 METAR WIHH NIL=
202303120200 METAR WIHH NIL=
202303120130 METAR WIHH NIL=
202303120100 METAR WIHH NIL=
202303120030 METAR WIHH NIL=
202303120000 METAR WIHH NIL=
202303112330 METAR WIHH NIL=
202303112300 METAR WIHH NIL=
202303112230 METAR WIHH NIL=
202303112200 METAR WIHH NIL=
202303112130 METAR WIHH NIL=
202303112100 METAR WIHH NIL=
202303112030 METAR WIHH NIL=
202303112000 METAR WIHH NIL=
202303111930 METAR WIHH NIL=
202303111900 METAR WIHH NIL=
202303111830 METAR WIHH NIL=
202303111800 METAR WIHH NIL=
202303111730 METAR WIHH NIL=
202303111700 METAR WIHH NIL=
202303111630 METAR WIHH NIL=
202303111600 METAR WIHH NIL=
202303111530 METAR WIHH NIL=
202303111500 METAR WIHH NIL=
202303111430 METAR WIHH NIL=
202303111400 METAR WIHH NIL=
202303111330 METAR WIHH NIL=
202303111300 METAR WIHH NIL=
202303111230 METAR WIHH NIL=
202303111200 METAR WIHH NIL=
202303111130 METAR WIHH NIL=
202303111100 METAR WIHH NIL=
202303111030 METAR WIHH NIL=
202303111000 METAR WIHH NIL=
202303110930 METAR WIHH NIL=
202303110900 METAR WIHH NIL=
202303110830 METAR WIHH NIL=
202303110800 METAR WIHH NIL=
202303110730 METAR WIHH NIL=
202303110700 METAR WIHH NIL=
202303110630 METAR WIHH NIL=
202303110600 METAR WIHH NIL=
202303110530 METAR WIHH NIL=
202303110500 METAR WIHH NIL=
202303110430 METAR WIHH NIL=
202303110400 METAR WIHH NIL=
202303110330 METAR WIHH NIL=
202303110300 METAR WIHH NIL=
202303110230 METAR WIHH NIL=
202303110200 METAR WIHH NIL=
202303110130 METAR WIHH NIL=
202303110100 METAR WIHH NIL=
202303110030 METAR WIHH NIL=
202303110000 METAR WIHH NIL=
202303102330 METAR WIHH NIL=
202303102300 METAR WIHH NIL=
202303102230 METAR WIHH NIL=
202303102200 METAR WIHH NIL=
202303102130 METAR WIHH NIL=
202303102100 METAR WIHH NIL=
202303102030 METAR WIHH NIL=
202303102000 METAR WIHH NIL=
202303101930 METAR WIHH NIL=
202303101900 METAR WIHH NIL=
202303101830 METAR WIHH NIL=
202303101800 METAR WIHH NIL=
202303101730 METAR WIHH NIL=
202303101700 METAR WIHH NIL=
202303101630 METAR WIHH NIL=
202303101600 METAR WIHH NIL=
202303101530 METAR WIHH NIL=
202303101500 METAR WIHH NIL=
202303101430 METAR WIHH NIL=
202303101400 METAR WIHH NIL=
202303101330 METAR WIHH NIL=
202303101300 METAR WIHH NIL=
202303101230 METAR WIHH NIL=
202303101200 METAR WIHH NIL=
202303101130 METAR WIHH NIL=
202303101100 METAR WIHH NIL=
202303101030 METAR WIHH NIL=
202303101000 METAR WIHH 101000Z 33004KT 6000 SCT018 30/24 Q1007 RMK RA TO S=
202303100930 METAR WIHH 100930Z 33004KT 6000 SCT020 30/24 Q1007 RMK RA TO S=
202303100900 METAR WIHH NIL=
202303100830 METAR WIHH 100830Z 01008KT 6000 SCT020 31/24 Q1007 NOSIG=
202303100800 METAR WIHH 100800Z 35005KT 6000 SCT018 31/25 Q1007 RMK RA TO E=
202303100730 METAR WIHH 100730Z 26003KT 5000 HZ SCT018 FEW018CB 28/25 Q1008 RMK CB AND RA TO W=
202303100700 METAR WIHH 100700Z 31005KT 5000 HZ SCT016 FEW018CB 28/26 Q1008 RMK CB AND RA TO W=
202303100630 METAR WIHH 100630Z 15005KT 4000 -TSRA BKN016 FEW018CB 28/24 Q1008 RMK CB TO SW=
202303100600 METAR WIHH 100600Z 34008KT 5000 HZ BKN017 32/24 Q1009 RMK RA TO NE AND SW=
202303100530 METAR WIHH 100530Z 03008KT 5000 HZ SCT018 32/24 Q1009 RMK RA TO E AND NW=
202303100500 METAR WIHH 100500Z 03004KT 5000 HZ SCT018 32/24 Q1009 RMK RA TO E=
202303100430 METAR WIHH 100430Z 34004KT 5000 HZ SCT018 31/23 Q1010 RMK RA TO E=
202303100400 METAR WIHH 100400Z 34003KT 5000 HZ SCT018 30/23 Q1011 RMK RA TO NE=
202303100330 METAR WIHH 100330Z 31003KT 5000 HZ SCT018 30/24 Q1011 RMK RA TO E=
202303100300 METAR WIHH 100300Z 27003KT 5000 HZ SCT018 30/24 Q1012 NOSIG=
202303100230 METAR WIHH 100230Z 00000KT 5000 HZ SCT020 30/23 Q1012 NOSIG=
202303100200 METAR WIHH 100200Z 30003KT 5000 HZ FEW020 29/23 Q1012 NOSIG=
202303100130 METAR WIHH 100130Z 24004KT 5000 HZ FEW020 28/24 Q1012 NOSIG=
202303100100 METAR WIHH 100100Z 00000KT 5000 HZ FEW022 27/24 Q1011 NOSIG=
202303100030 METAR WIHH 100030Z 21003KT 5000 HZ FEW022 26/24 Q1011 NOSIG=
202303100000 METAR WIHH 100000Z 18003KT 5000 HZ FEW022 25/23 Q1011 NOSIG=
202303092330 METAR WIHH NIL=
202303092300 METAR WIHH NIL=
202303092230 METAR WIHH NIL=
202303092200 METAR WIHH NIL=
202303092130 METAR WIHH NIL=
202303092100 METAR WIHH NIL=
202303092030 METAR WIHH NIL=
202303092000 METAR WIHH NIL=
202303091930 METAR WIHH NIL=
202303091900 METAR WIHH NIL=
202303091830 METAR WIHH NIL=
202303091800 METAR WIHH NIL=
202303091730 METAR WIHH NIL=
202303091700 METAR WIHH NIL=
202303091630 METAR WIHH NIL=
202303091600 METAR WIHH NIL=
202303091530 METAR WIHH NIL=
202303091500 METAR WIHH NIL=
202303091430 METAR WIHH NIL=
202303091400 METAR WIHH NIL=
202303091330 METAR WIHH NIL=
202303091300 METAR WIHH NIL=
202303091230 METAR WIHH NIL=
202303091200 METAR WIHH NIL=
202303091130 METAR WIHH NIL=
202303091100 METAR WIHH NIL=
202303091030 METAR WIHH NIL=
202303091000 METAR WIHH NIL=
202303090930 METAR WIHH 090930Z 03007KT 6000 SCT018 31/23 Q1008 RMK RA TO S=
202303090900 METAR WIHH 090900Z 36005KT 6000 SCT018 32/23 Q1008 NOSIG=
202303090830 METAR WIHH 090830Z 31005KT 6000 SCT018 32/24 Q1008 RMK RA TO S=
202303090800 METAR WIHH 090800Z 01004KT 6000 SCT018 32/24 Q1009 RMK RA TO S=
202303090730 METAR WIHH 090730Z 32010KT 6000 SCT018 31/24 Q1009 RMK RA TO S=
202303090700 METAR WIHH 090700Z 27004KT 6000 SCT018 30/24 Q1009 NOSIG=
202303090630 METAR WIHH 090630Z 35005KT 6000 SCT018 31/23 Q1009 NOSIG=
202303090600 METAR WIHH 090600Z 32004KT 6000 SCT018 30/24 Q1010 TEMPO FM0615 4000 RA BKN015 RMK RA TO NW AND E=
202303090530 METAR WIHH 090530Z 33004KT 6000 SCT018 30/23 Q1011 TEMPO FM0635 4000 RA BKN015 RMK RA TO E AND W=
202303090500 METAR WIHH 090500Z 29005KT 6000 SCT018 30/24 Q1011 NOSIG=
202303090430 METAR WIHH 090430Z 34004KT 6000 SCT017 29/24 Q1011 NOSIG=
202303090400 METAR WIHH 090400Z 27006KT 6000 SCT017 29/23 Q1012 NOSIG=
202303090330 METAR WIHH 090330Z 18003KT 6000 SCT016 29/25 Q1012 NOSIG=
202303090300 METAR WIHH 090300Z 24006KT 6000 SCT016 28/25 Q1013 NOSIG=
202303090230 METAR WIHH 090230Z 33003KT 5000 HZ BKN016 27/25 Q1013 NOSIG=
202303090200 METAR WIHH 090200Z 28003KT 5000 -RA BKN016 25/25 Q1013 NOSIG=
202303090130 METAR WIHH 090130Z 30004KT 4000 -RA BKN016 24/24 Q1013 NOSIG=
202303090100 METAR WIHH 090100Z 34006KT 5000 -RA BKN017 24/24 Q1013 NOSIG=
202303090030 METAR WIHH 090030Z 00000KT 5000 HZ BKN017 25/25 Q1013 RMK RA TO NW=
202303090000 METAR WIHH NIL=
202303082330 METAR WIHH NIL=
202303082300 METAR WIHH NIL=
202303082230 METAR WIHH NIL=
202303082200 METAR WIHH NIL=
202303082130 METAR WIHH NIL=
202303082100 METAR WIHH NIL=
202303082030 METAR WIHH NIL=
202303082000 METAR WIHH NIL=
202303081930 METAR WIHH NIL=
202303081900 METAR WIHH NIL=
202303081830 METAR WIHH NIL=
202303081800 METAR WIHH NIL=
202303081730 METAR WIHH NIL=
202303081700 METAR WIHH NIL=
202303081630 METAR WIHH NIL=
202303081600 METAR WIHH NIL=
202303081530 METAR WIHH NIL=
202303081500 METAR WIHH NIL=
202303081430 METAR WIHH NIL=
202303081400 METAR WIHH NIL=
202303081330 METAR WIHH NIL=
202303081300 METAR WIHH NIL=
202303081230 METAR WIHH NIL=
202303081200 METAR WIHH NIL=
202303081130 METAR WIHH NIL=
202303081100 METAR WIHH NIL=
202303081030 METAR WIHH NIL=
202303081000 METAR WIHH NIL=
202303080930 METAR WIHH NIL=
202303080900 METAR WIHH 080900Z 02006KT 5000 HZ SCT018 29/24 Q1010 RMK RA TO NE=
202303080830 METAR WIHH 080830Z 05006KT 5000 HZ SCT018 28/25 Q1010 RMK RA TO NE=
202303080800 METAR WIHH 080800Z 03006KT 5000 HZ SCT018 26/25 Q1010 RMK RA TO NE=
202303080730 METAR WIHH 080730Z 06006KT 5000 HZ SCT018 26/25 Q1011 RMK RA TO NE=
202303080700 METAR WIHH 080700Z 34004KT 4000 -RA SCT018 25/25 Q1011 NOSIG=
202303080630 METAR WIHH NIL=
202303080600 METAR WIHH 080600Z 31008KT 6000 SCT017 27/24 Q1012 RMK RA TO NW=
202303080530 METAR WIHH 080530Z 27008KT 6000 SCT017 27/24 Q1012 RMK RA TO NW=
202303080500 METAR WIHH 080500Z 27008KT 6000 SCT017 29/23 Q1012 RMK RA TO W=
202303080430 METAR WIHH 080430Z 24008KT 5000 HZ SCT017 28/24 Q1013 NOSIG=
202303080400 METAR WIHH 080400Z 26008KT 5000 HZ SCT017 28/24 Q1013 RMK RA TO W=
202303080330 METAR WIHH 080330Z 26008KT 5000 HZ SCT017 29/24 Q1013 NOSIG=
202303080300 METAR WIHH NIL=
202303080230 METAR WIHH NIL=
202303080200 METAR WIHH NIL=
202303080130 METAR WIHH 080130Z 26004KT 5000 HZ SCT017 27/25 Q1013 NOSIG=
202303080100 METAR WIHH 080100Z 23003KT 5000 HZ SCT018 27/24 Q1013 NOSIG=
202303080030 METAR WIHH 080030Z 20003KT 5000 HZ SCT018 26/24 Q1013 NOSIG=
202303080000 METAR WIHH NIL=
202303072330 METAR WIHH NIL=
202303072300 METAR WIHH NIL=
202303072230 METAR WIHH NIL=
202303072200 METAR WIHH NIL=
202303072130 METAR WIHH NIL=
202303072100 METAR WIHH NIL=
202303072030 METAR WIHH NIL=
202303072000 METAR WIHH NIL=
202303071930 METAR WIHH NIL=
202303071900 METAR WIHH NIL=
202303071830 METAR WIHH NIL=
202303071800 METAR WIHH NIL=
202303071730 METAR WIHH NIL=
202303071700 METAR WIHH NIL=
202303071630 METAR WIHH NIL=
202303071600 METAR WIHH NIL=
202303071530 METAR WIHH NIL=
202303071500 METAR WIHH NIL=
202303071430 METAR WIHH NIL=
202303071400 METAR WIHH NIL=
202303071330 METAR WIHH NIL=
202303071300 METAR WIHH NIL=
202303071230 METAR WIHH NIL=
202303071200 METAR WIHH NIL=
202303071130 METAR WIHH NIL=
202303071100 METAR WIHH NIL=
202303071030 METAR WIHH NIL=
202303071000 METAR WIHH NIL=
202303070930 METAR WIHH 070930Z 32006KT 6000 FEW018CB SCT018 31/23 Q1008 RMK CB AND RA TO S=
202303070900 METAR WIHH 070900Z 03006KT 7000 FEW018CB SCT018 31/23 Q1008 RMK CB TO S=
202303070830 METAR WIHH 070830Z 33006KT 6000 SCT018 31/23 Q1008 RMK RA TO SE=
202303070800 METAR WIHH NIL=
202303070730 METAR WIHH NIL=
202303070700 METAR WIHH NIL=
202303070630 METAR WIHH 070630Z 02008KT 6000 SCT018 31/24 Q1010 NOSIG=
202303070600 METAR WIHH 070600Z 01008KT 6000 SCT018 31/24 Q1010 NOSIG=
202303070530 METAR WIHH 070530Z 36006KT 6000 SCT018 31/24 Q1010 NOSIG=
202303070500 METAR WIHH 070500Z 01010KT 6000 SCT018 31/24 Q1011 NOSIG=
202303070430 METAR WIHH 070430Z 29004KT 6000 SCT020 32/23 Q1011 NOSIG=
202303070400 METAR WIHH 070400Z 26006KT 6000 SCT020 31/22 Q1012 NOSIG=
202303070330 METAR WIHH 070330Z 26005KT 7000 SCT020 30/23 Q1012 NOSIG=
202303070300 METAR WIHH 070300Z 25005KT 7000 FEW020 29/22 Q1012 NOSIG=
202303070230 METAR WIHH NIL=
202303070200 METAR WIHH NIL=
202303070130 METAR WIHH NIL=
202303070100 METAR WIHH 070100Z 18003KT 7000 FEW022 26/22 Q1012 NOSIG=
202303070030 METAR WIHH 070030Z 19003KT 7000 FEW022 25/23 Q1012 NOSIG=
202303070000 METAR WIHH NIL=
202303062330 METAR WIHH NIL=
202303062300 METAR WIHH NIL=
202303062230 METAR WIHH NIL=
202303062200 METAR WIHH NIL=
202303062130 METAR WIHH NIL=
202303062100 METAR WIHH NIL=
202303062030 METAR WIHH NIL=
202303062000 METAR WIHH NIL=
202303061930 METAR WIHH NIL=
202303061900 METAR WIHH NIL=
202303061830 METAR WIHH NIL=
202303061800 METAR WIHH NIL=
202303061730 METAR WIHH NIL=
202303061700 METAR WIHH NIL=
202303061630 METAR WIHH NIL=
202303061600 METAR WIHH NIL=
202303061530 METAR WIHH NIL=
202303061500 METAR WIHH NIL=
202303061430 METAR WIHH NIL=
202303061400 METAR WIHH NIL=
202303061330 METAR WIHH NIL=
202303061300 METAR WIHH NIL=
202303061230 METAR WIHH NIL=
202303061200 METAR WIHH NIL=
202303061130 METAR WIHH NIL=
202303061100 METAR WIHH NIL=
202303061030 METAR WIHH NIL=
202303061000 METAR WIHH NIL=
202303060930 METAR WIHH 060930Z 27010KT 6000 SCT018 31/22 Q1008 RMK RA TO E=
202303060900 METAR WIHH 060900Z 24010KT 6000 FEW017CB SCT018 32/22 Q1008 RMK CB AND RA TO E=
202303060830 METAR WIHH 060830Z 27007KT 6000 SCT018 33/23 Q1008 RMK RA TO SE=
202303060800 METAR WIHH 060800Z 27015KT 6000 SCT018 33/23 Q1008 RMK RA TO NE AND SE=
202303060730 METAR WIHH 060730Z 25015KT 6000 SCT018 32/22 Q1008 RMK RA TO E=
202303060700 METAR WIHH 060700Z 25007KT 6000 SCT018 33/23 Q1009 NOSIG=
202303060630 METAR WIHH 060630Z 24015KT 6000 SCT018 33/23 Q1009 RMK RA TO SE=
202303060600 METAR WIHH 060600Z 24011KT 6000 SCT018 32/23 Q1010 NOSIG=
202303060530 METAR WIHH 060530Z 27012KT 6000 SCT018 32/22 Q1011 NOSIG=
202303060500 METAR WIHH 060500Z 24015KT 6000 SCT018 31/22 Q1011 NOSIG=
202303060430 METAR WIHH 060430Z 26011KT 6000 SCT020 32/23 Q1012 NOSIG=
202303060400 METAR WIHH 060400Z 24015KT 6000 SCT020 31/22 Q1012 NOSIG=
202303060330 METAR WIHH 060330Z 27012KT 6000 SCT020 31/23 Q1013 NOSIG=
202303060300 METAR WIHH NIL=
202303060230 METAR WIHH 060230Z 22012KT 6000 FEW020 30/24 Q1013 NOSIG=
202303060200 METAR WIHH 060200Z 24012KT 6000 FEW020 28/24 Q1013 NOSIG=
202303060130 METAR WIHH 060130Z 24008KT 7000 FEW022 28/24 Q1013 NOSIG=
202303060100 METAR WIHH NIL=
202303060030 METAR WIHH 060030Z 24008KT 7000 FEW022 26/24 Q1013 NOSIG=
202303060000 METAR WIHH NIL=
202303052330 METAR WIHH NIL=
202303052300 METAR WIHH NIL=
202303052230 METAR WIHH NIL=
202303052200 METAR WIHH NIL=
202303052130 METAR WIHH NIL=
202303052100 METAR WIHH NIL=
202303052030 METAR WIHH NIL=
202303052000 METAR WIHH NIL=
202303051930 METAR WIHH NIL=
202303051900 METAR WIHH NIL=
202303051830 METAR WIHH NIL=
202303051800 METAR WIHH NIL=
202303051730 METAR WIHH NIL=
202303051700 METAR WIHH NIL=
202303051630 METAR WIHH NIL=
202303051600 METAR WIHH NIL=
202303051530 METAR WIHH NIL=
202303051500 METAR WIHH NIL=
202303051430 METAR WIHH NIL=
202303051400 METAR WIHH NIL=
202303051330 METAR WIHH NIL=
202303051300 METAR WIHH NIL=
202303051230 METAR WIHH NIL=
202303051200 METAR WIHH NIL=
202303051130 METAR WIHH NIL=
202303051100 METAR WIHH NIL=
202303051030 METAR WIHH NIL=
202303051000 METAR WIHH NIL=
202303050930 METAR WIHH NIL=
202303050900 METAR WIHH NIL=
202303050830 METAR WIHH NIL=
202303050800 METAR WIHH NIL=
202303050730 METAR WIHH NIL=
202303050700 METAR WIHH NIL=
202303050630 METAR WIHH NIL=
202303050600 METAR WIHH NIL=
202303050530 METAR WIHH NIL=
202303050500 METAR WIHH NIL=
202303050430 METAR WIHH NIL=
202303050400 METAR WIHH NIL=
202303050330 METAR WIHH NIL=
202303050300 METAR WIHH NIL=
202303050230 METAR WIHH NIL=
202303050200 METAR WIHH NIL=
202303050130 METAR WIHH NIL=
202303050100 METAR WIHH NIL=
202303050030 METAR WIHH NIL=
202303050000 METAR WIHH NIL=
202303042330 METAR WIHH NIL=
202303042300 METAR WIHH NIL=
202303042230 METAR WIHH NIL=
202303042200 METAR WIHH NIL=
202303042130 METAR WIHH NIL=
202303042100 METAR WIHH NIL=
202303042030 METAR WIHH NIL=
202303042000 METAR WIHH NIL=
202303041930 METAR WIHH NIL=
202303041900 METAR WIHH NIL=
202303041830 METAR WIHH NIL=
202303041800 METAR WIHH NIL=
202303041730 METAR WIHH NIL=
202303041700 METAR WIHH NIL=
202303041630 METAR WIHH NIL=
202303041600 METAR WIHH NIL=
202303041530 METAR WIHH NIL=
202303041500 METAR WIHH NIL=
202303041430 METAR WIHH NIL=
202303041400 METAR WIHH NIL=
202303041330 METAR WIHH NIL=
202303041300 METAR WIHH NIL=
202303041230 METAR WIHH NIL=
202303041200 METAR WIHH NIL=
202303041130 METAR WIHH NIL=
202303041100 METAR WIHH NIL=
202303041030 METAR WIHH NIL=
202303041000 METAR WIHH NIL=
202303040930 METAR WIHH NIL=
202303040900 METAR WIHH NIL=
202303040830 METAR WIHH NIL=
202303040800 METAR WIHH NIL=
202303040730 METAR WIHH NIL=
202303040700 METAR WIHH NIL=
202303040630 METAR WIHH NIL=
202303040600 METAR WIHH NIL=
202303040530 METAR WIHH NIL=
202303040500 METAR WIHH NIL=
202303040430 METAR WIHH NIL=
202303040400 METAR WIHH NIL=
202303040330 METAR WIHH NIL=
202303040300 METAR WIHH NIL=
202303040230 METAR WIHH NIL=
202303040200 METAR WIHH NIL=
202303040130 METAR WIHH NIL=
202303040100 METAR WIHH NIL=
202303040030 METAR WIHH NIL=
202303040000 METAR WIHH NIL=
202303032330 METAR WIHH NIL=
202303032300 METAR WIHH NIL=
202303032230 METAR WIHH NIL=
202303032200 METAR WIHH NIL=
202303032130 METAR WIHH NIL=
202303032100 METAR WIHH NIL=
202303032030 METAR WIHH NIL=
202303032000 METAR WIHH NIL=
202303031930 METAR WIHH NIL=
202303031900 METAR WIHH NIL=
202303031830 METAR WIHH NIL=
202303031800 METAR WIHH NIL=
202303031730 METAR WIHH NIL=
202303031700 METAR WIHH NIL=
202303031630 METAR WIHH NIL=
202303031600 METAR WIHH NIL=
202303031530 METAR WIHH NIL=
202303031500 METAR WIHH NIL=
202303031430 METAR WIHH NIL=
202303031400 METAR WIHH NIL=
202303031330 METAR WIHH NIL=
202303031300 METAR WIHH NIL=
202303031230 METAR WIHH NIL=
202303031200 METAR WIHH NIL=
202303031130 METAR WIHH NIL=
202303031100 METAR WIHH NIL=
202303031030 METAR WIHH NIL=
202303031000 METAR WIHH NIL=
202303030930 METAR WIHH 030930Z 35003KT 6000 SCT018 28/24 Q1010 RMK RA TO W TEMPO FM1000 3000 RA BKN016=
202303030900 METAR WIHH 030900Z 35003KT 6000 SCT018 26/24 Q1010 RMK RA TO W TEMPO FM0915 3000 RA BKN016=
202303030830 METAR WIHH NIL=
202303030800 METAR WIHH 030800Z 27005KT 5000 -RA FEW017CB SCT018 26/24 Q1010 CB TO N AND SW TEMPO FM0830 3000 TSRA BKN016=
202303030730 METAR WIHH 030730Z 02006KT 5000 -TSRA FEW017CB SCT018 26/24 Q1011 CB TO NW AND NE TEMPO M0740 34012G23KT 2000 TSRA BKN016=
202303030700 METAR WIHH 030700Z 02006KT 5000 TS FEW017CB SCT018 27/25 Q1011 CB AND RA TO NW AND NE TEMPO M0730 3000 TSRA BKN016=
202303030630 METAR WIHH 030630Z 36005KT 5000 HZ FEW017CB SCT018 28/24 Q1011 CB AND RA TO N-NE TEMPO M0640 3000 TSRA BKN016=
202303030600 METAR WIHH 030600Z 33003KT 5000 HZ FEW017CB SCT018 26/24 Q1011 CB AND RA TO NW-N TEMPO FM0640 3000 TSRA BKN016=
202303030530 METAR WIHH 030530Z 24012KT 6000 FEW017CB SCT018 31/23 Q1012 RMK CB AND RA TO W TEMPO FM0540 3000 TSRA BKN016=
202303030500 METAR WIHH 030500Z 24012KT 6000 SCT018 31/23 Q1012 RMK RA TO NE AND W=
202303030430 METAR WIHH 030430Z 24012KT 7000 SCT018 31/24 Q1013 NOSIG=
202303030400 METAR WIHH 030400Z 24012KT 7000 SCT018 31/24 Q1013 NOSIG=
202303030330 METAR WIHH NIL=
202303030300 METAR WIHH 030300Z 24012KT 7000 FEW020 30/23 Q1014 NOSIG=
202303030230 METAR WIHH 030230Z 27012KT 7000 FEW020 30/24 Q1014 NOSIG=
202303030200 METAR WIHH 030200Z 27006KT 6000 FEW020 28/23 Q1014 NOSIG=
202303030130 METAR WIHH 030130Z 26008KT 6000 SCT020 28/25 Q1014 NOSIG=
202303030100 METAR WIHH 030100Z 23007KT 6000 SCT020 27/25 Q1014 NOSIG=
202303030030 METAR WIHH 030030Z 24004KT 6000 SCT020 26/25 Q1013 NOSIG=
202303030000 METAR WIHH NIL=
202303022330 METAR WIHH NIL=
202303022300 METAR WIHH NIL=
202303022230 METAR WIHH NIL=
202303022200 METAR WIHH NIL=
202303022130 METAR WIHH NIL=
202303022100 METAR WIHH NIL=
202303022030 METAR WIHH NIL=
202303022000 METAR WIHH NIL=
202303021930 METAR WIHH NIL=
202303021900 METAR WIHH NIL=
202303021830 METAR WIHH NIL=
202303021800 METAR WIHH NIL=
202303021730 METAR WIHH NIL=
202303021700 METAR WIHH NIL=
202303021630 METAR WIHH NIL=
202303021600 METAR WIHH NIL=
202303021530 METAR WIHH NIL=
202303021500 METAR WIHH NIL=
202303021430 METAR WIHH NIL=
202303021400 METAR WIHH NIL=
202303021330 METAR WIHH NIL=
202303021300 METAR WIHH NIL=
202303021230 METAR WIHH NIL=
202303021200 METAR WIHH NIL=
202303021130 METAR WIHH NIL=
202303021100 METAR WIHH NIL=
202303021030 METAR WIHH NIL=
202303021000 METAR WIHH NIL=
202303020930 METAR WIHH 020930Z 25006KT 5000 HZ SCT015 26/25 Q1010 RMK RA TO NW=
202303020900 METAR WIHH 020900Z 23006KT 5000 -RA BKN015 25/25 Q1010 NOSIG=
202303020830 METAR WIHH 020830Z 21006KT 5000 -RA BKN015 25/24 Q1011 NOSIG=
202303020800 METAR WIHH 020800Z 24008KT 5000 -RA BKN015 25/24 Q1011 NOSIG=
202303020730 METAR WIHH 020730Z 27008KT 5000 -RA BKN015 25/24 Q1012 NOSIG=
202303020700 METAR WIHH 020700Z 26008KT 5000 -RA BKN015 25/25 Q1012 NOSIG=
202303020630 METAR WIHH NIL=
202303020600 METAR WIHH 020600Z 27008KT 5000 -RA BKN015 26/25 Q1012 NOSIG=
202303020530 METAR WIHH 020530Z 27006KT 4000 -RA BKN015 26/26 Q1013 NOSIG=
202303020500 METAR WIHH 020500Z 26004KT 5000 -RA BKN016 26/25 Q1013 NOSIG=
202303020430 METAR WIHH 020430Z 24007KT 5000 -RA SCT016 26/25 Q1013 NOSIG=
202303020400 METAR WIHH 020400Z 25005KT 5000 -RA SCT016 26/25 Q1014 NOSIG=
202303020330 METAR WIHH NIL=
202303020300 METAR WIHH 020300Z 28004KT 5000 -RA SCT016 25/25 Q1014 NOSIG=
202303020230 METAR WIHH 020230Z 27005KT 5000 -RA SCT016 25/24 Q1014 NOSIG=
202303020200 METAR WIHH 020200Z 26003KT 5000 -RA SCT016 24/24 Q1013 NOSIG=
202303020130 METAR WIHH 020130Z 30004KT 5000 -RA SCT016 24/24 Q1013 NOSIG=
202303020100 METAR WIHH 020100Z 24004KT 5000 -RA SCT016 24/23 Q1013 BECMG AT0200 6000 NSW=
202303020030 METAR WIHH NIL=
202303020000 METAR WIHH NIL=
202303012330 METAR WIHH NIL=
202303012300 METAR WIHH NIL=
202303012230 METAR WIHH NIL=
202303012200 METAR WIHH NIL=
202303012130 METAR WIHH NIL=
202303012100 METAR WIHH NIL=
202303012030 METAR WIHH NIL=
202303012000 METAR WIHH NIL=
202303011930 METAR WIHH NIL=
202303011900 METAR WIHH NIL=
202303011830 METAR WIHH NIL=
202303011800 METAR WIHH NIL=
202303011730 METAR WIHH NIL=
202303011700 METAR WIHH NIL=
202303011630 METAR WIHH NIL=
202303011600 METAR WIHH NIL=
202303011530 METAR WIHH NIL=
202303011500 METAR WIHH NIL=
202303011430 METAR WIHH NIL=
202303011400 METAR WIHH NIL=
202303011330 METAR WIHH NIL=
202303011300 METAR WIHH NIL=
202303011230 METAR WIHH NIL=
202303011200 METAR WIHH NIL=
202303011130 METAR WIHH NIL=
202303011100 METAR WIHH NIL=
202303011030 METAR WIHH NIL=
202303011000 METAR WIHH NIL=
202303010930 METAR WIHH 010930Z 25007KT 5000 HZ BKN015 FEW018CB 26/24 Q1009 RMK CB AND RA TO NE=
202303010900 METAR WIHH 010900Z 25004KT 5000 HZ BKN015 FEW018CB 26/24 Q1009 RMK CB AND RA TO N=
202303010830 METAR WIHH 010830Z 25003KT 5000 HZ SCT016 FEW018CB 25/24 Q1009 TEMPO FM0900 -RA RMK CB AND A TO NW=
202303010800 METAR WIHH 010800Z 25003KT 5000 -RA BKN014 FEW018CB 25/24 Q1009 RMK CB TO N=
202303010730 METAR WIHH 010730Z 26005KT 1000 TSRA BKN014 FEW018CB 25/24 Q1010 TEMPO TL0800 4000 -RA KN015 RMK CB OTF=
202303010700 METAR WIHH 010700Z 25005KT 3000 -TSRA BKN015 FEW018CB 25/24 Q1009 TEMPO TL0730 4000 -RA KN015 RMK CB OTF=
202303010630 METAR WIHH 010630Z 34003KT 4000 -RA BKN015 FEW018CB 25/24 Q1009 TEMP0 TL0700 4000 -RA BKN015 MK CB TO W=
202303010600 METAR WIHH 010600Z 25005KT 5000 HZ BKN015 FEW018CB 27/24 Q1010 TEMP0 TL0610 3000 RA RMK CB AND RA TO W=
202303010530 METAR WIHH 010530Z 25003KT 5000 -RA BKN015 26/24 Q1010 TEMPO TL0600 3000 -RA BKN015=
202303010500 METAR WIHH 010500Z 25003KT 5000 -RA BKN015 28/24 Q1011 TEMPO TL0515 2000 MOD RA BKN015=
202303010430 METAR WIHH NIL=
202303010400 METAR WIHH 010400Z 28006KT 6000 SCT018 29/23 Q1012 RMK RA TO NE=
202303010330 METAR WIHH 010330Z 25015KT 6000 SCT018 29/23 Q1012 RMK RA TO NE=
202303010300 METAR WIHH 010300Z 25010KT 6000 SCT018 28/24 Q1012 RMK RA TO N=
202303010230 METAR WIHH 010230Z 25006KT 6000 SCT018 27/24 Q1012 RMK RA TO N=
202303010200 METAR WIHH NIL=
202303010130 METAR WIHH 010130Z 24006KT 5000 HZ SCT015 26/24 Q1012 RMK RA TO W=
202303010100 METAR WIHH 010100Z 24006KT 5000 -RA BKN015 26/25 Q1012 NOSIG=
202303010030 METAR WIHH 010030Z 25004KT 6000 SCT018 26/25 Q1012 RMK RA TO SW=
202303010000 METAR WIHH NIL=

# No short TAF reports from WIHH in databse.

###################################
#  large TAF from WIHH
###################################
202303312300 TAF WIHH 312300Z 0100/0200 25008KT 6000 SCT020
                      TEMPO 0102/0104 4000 -RA BKN018
                      TEMPO 0107/0110 30012KT 3000 RA FEW016CB
                       BKN017
                      BECMG 0111/0113 5000 HZ=
202303311700 TAF WIHH 311700Z 3118/0118 24005KT 6000 FEW020
                      BECMG 0101/0103 30008KT SCT020=
202303311100 TAF WIHH 311100Z 3112/0112 25006KT 6000 SCT020
                      BECMG 3115/3117 34004KT FEW020=
202303310500 TAF WIHH 310500Z 3106/0106 27006KT 6000 SCT020
                      TEMPO 3109/3112 34012KT 4000 -RA FEW017CB
                       BKN018
                      BECMG 3114/3116 5000 HZ=
202303302300 TAF WIHH 302300Z 3100/0100 27006KT 7000 SCT020
                      TEMPO 3107/3110 33012KT 3000 TSRA FEW016CB
                       BKN017
                      BECMG 3113/3115 21005KT 5000 HZ=
202303301700 TAF WIHH 301700Z 3018/3118 27006KT 5000 HZ SCT018
                      TEMPO 3018/3021 33007KT 3000 TSRA FEW016CB
                       BECMG 3022/3100 2000 BR
                      TEMPO 3101/3104 3000 RA BKN017=
202303301100 TAF WIHH 301100Z 3012/3112 35007KT 6000 SCT017
                      TEMPO 3012/3014 5000 RA
                      BECMG 3015/3017 27003KT 4000 HZ=
202303300500 TAF WIHH 300500Z 3006/3106 27010KT 6000 SCT018
                      TEMPO 3006/3010 33010G25KT 2000 TSRA FEW015CB
                       BKN016
                      BECMG 3012/3014 20004KT 4000 HZ=
202303292300 TAF WIHH 292300Z 3000/3100 26004KT 4000 HZ FEW020
                      BECMG 3002/3004 33008KT 6000 SCT018
                      TEMPO 3006/3010 27012G25KT 2000 TSRA FEW016CB
                       BKN017
                      BECMG 3012/3014 23005KT 5000 HZ SCT020=
202303291700 TAF WIHH 291700Z 2918/3018 24003KT 4000 BR FEW020
                      TEMPO 3000/3003 30008KT 3000 -RA SCT018=
202303291100 TAF WIHH 291100Z 2912/3012 24006KT 4000 -RA BKN016
                      BECMG 2914/2916 28004KT 5000 HZ SCT020=
202303290500 TAF WIHH 290500Z 2906/3006 32010KT 6000 SCT018
                      TEMPO 2909/2912 3000 -TSRA FEW016CB BKN017
                       BECMG 2913/2915 27006KT 5000 HZ
                      TEMPO 2919/2922 21008KT 4000 -RA BKN018=
202303282300 TAF WIHH 282300Z 2900/3000 30006KT 5000 HZ SCT020
                      TEMPO 2900/2903 34008KT 4000 -TSRA FEW017CB
                       TEMPO 2907/2910 03012KT 3000 -TSRA FEW016CB
                       BKN017
                      BECMG 2912/2914 00000KT=
202303281700 TAF WIHH 281700Z 2818/2918 30005KT 6000 SCT020
                      BECMG 2901/2903 03008KT
                      TEMPO 2906/2909 3000 RA FEW017CB=
202303281100 TAF WIHH 281100Z 2812/2912 34006KT 5000 HZ SCT020
                      TEMPO 2817/2820 02008KT 3000 RA BKN018
                      BECMG 2822/2900 VRB03KT=
202303280500 TAF WIHH 280500Z 2806/2906 27008KT 5000 HZ SCT018
                      TEMPO 2806/2810 34010G25KT 2000 TSRA FEW016CB
                       BKN017
                      TEMPO 2816/2819 3000 RA FEW017CB
                      BECMG 2822/2900 00000KT 4000=
202303272300 TAF WIHH 272300Z 2800/2900 27008KT 7000 SCT020
                      TEMPO 2807/2810 35010G25KT 2000 TSRA FEW015CB
                       BKN016
                      BECMG 2812/2814 00000KT 5000 HZ
                      TEMPO 2816/2819 32014KT 2000 TSRA FEW015CB
                       BKN016=
202303271700 TAF WIHH 271700Z 2718/2818 00000KT 5000 HZ SCT018
                      BECMG 2801/2803 27010KT 7000 NSW
                      TEMPO 2808/2811 35012KT 3000 TSRA FEW015CB
                       BKN016=
202303271100 TAF WIHH 271100Z 2712/2812 27007KT 5000 HZ SCT017
                      BECMG 2716/2718 00000KT 3000 BR
                      BECMG 2800/2802 28010KT 7000 NSW=
202303270500 TAF WIHH 270500Z 2706/2806 27010KT 6000 SCT018
                      TEMPO 2706/2709 3000 TSRA FEW015CB BKN016
                       BECMG 2714/2716 21005KT 4000 HZ=
202303262300 TAF WIHH 262300Z 2700/2800 10008KT 6000 FEW020
                      TEMPO 2707/2711 30010KT 3000 RA FEW017CB
                       BKN018
                      BECMG 2712/2714 22004KT SCT020=
202303261705 TAF WIHH 261705Z 2618/2718 15003KT 4000 HZ FEW020
                      BECMG 2702/2704 10008KT 6000 SCT018=
202303261700 TAF WIHH 261700Z NIL=
202303261100 TAF WIHH 261100Z 2612/2712 28006KT 6000 SCT018
                      TEMPO 2612/2614 4000 -RA BKN018
                      BECMG 2615/2617 22003KT 5000 HZ=
202303260500 TAF WIHH 260500Z 2606/2706 30008KT 6000 SCT018
                      TEMPO 2608/2611 24010KT 3000 -TSRA FEW017CB
                       BKN018
                      BECMG 2612/2614 27004KT 5000 HZ=
202303252300 TAF WIHH 252300Z 2600/2700 15006KT 5000 HZ SCT020
                      TEMPO 2606/2609 34012KT 2000 TSRA FEW016CB
                       BKN017
                      BECMG 2612/2614 6000 NSW=
202303251700 TAF WIHH 251700Z 2518/2618 34006KT 5000 HZ SCT018
                      TEMPO 2520/2523 4000 -RA BKN018
                      TEMPO 2606/2609 09010KT 3000 -TSRA FEW017CB
                       BKN018
                      BECMG 2612/2614 16003KT 6000=
202303251100 TAF WIHH 251100Z 2512/2612 06006KT 4000 -RA SCT018
                      BECMG 2523/2601 00000KT 3000 BR
                      TEMPO 2606/2609 12010KT 3000 -TSRA FEW017CB
                       BKN018=
202303250500 TAF WIHH 250500Z 2506/2606 03008KT 5000 HZ SCT020
                      TEMPO 2507/2510 24008G18KT 3000 -TSRA FEW016CB
                       BKN017
                      BECMG 2512/2514 32005KT 6000
                      TEMPO 2519/2522 3000 -RA FEW017CB BKN018
                       BECMG 2523/2601 23003KT 3000 BR SCT016=
202303242300 TAF WIHH 242300Z 2500/2600 35008KT 6000 SCT018
                      TEMPO 2508/2511 26010KT 4000 RA FEW016CB
                       BECMG 2512/2514 20005KT 5000 HZ=
202303241700 TAF WIHH 241700Z 2418/2518 35004KT 5000 HZ FEW020
                      BECMG 2501/2503 07008KT 7000 NSW SCT018=
202303241100 TAF WIHH 241100Z 2412/2512 02007KT 5000 HZ SCT018
                      TEMPO 2413/2416 18008KT 3000 RA FEW016CB
                       BECMG 2417/2419 00000KT=
202303240500 TAF WIHH 240500Z 2406/2506 34007KT 6000 SCT018
                      BECMG 2415/2417 00000KT 4000 HZ=
202303232300 TAF WIHH 232300Z 2400/2500 22003KT 4000 HZ FEW022
                      BECMG 2402/2404 36008KT 6000 SCT020
                      TEMPO 2410/2413 30010KT 3000 TSRA FEW017CB
                       BKN018
                      BECMG 2414/2416 20005KT 5000 HZ=
202303231700 TAF WIHH 231700Z 2318/2418 20005KT 5000 HZ FEW020
                      BECMG 2402/2404 05008KT 6000 SCT018=
202303231100 TAF WIHH 231100Z 2312/2412 01006KT 6000 SCT020
                      BECMG 2315/2317 20004KT 5000 HZ FEW022=
202303230500 TAF WIHH 230500Z 2306/2406 02010KT 6000 SCT018
                      TEMPO 2307/2310 4000 -RA BKN017
                      BECMG 2312/2314 18004KT 5000 HZ FEW022=
202303222300 TAF WIHH 222300Z 2300/2400 12008KT 5000 HZ SCT020
                      TEMPO 2306/2309 4000 RA BKN018
                      BECMG 2311/2313 02005KT 6000=
202303221700 TAF WIHH 221700Z 2218/2318 02005KT 6000 FEW020
                      BECMG 2302/2304 15008KT SCT020=
202303221100 TAF WIHH 221100Z 2212/2312 03006KT 6000 SCT020
                      BECMG 2220/2222 12004KT 5000 HZ=
202303220500 TAF WIHH 220500Z 2206/2306 09008KT 5000 HZ SCT020
                      TEMPO 2207/2210 3000 RA FEW017CB BKN018
                      BECMG 2211/2213 34005KT
                      BECMG 2218/2220 6000 FEW020=
202303212300 TAF WIHH 212300Z 2200/2300 03006KT 6000 SCT018
                      TEMPO 2207/2210 16007KT 3000 TSRA FEW017CB
                       BKN018
                      BECMG 2211/2213 5000 HZ
                      TEMPO 2216/2219 33005KT 3000 RA FEW017CB=
202303211700 TAF WIHH 211700Z 2118/2218 35004KT 5000 HZ SCT018
                      TEMPO 1818/1821 3000 RA
                      BECMG 2122/2200 06008KT 6000 NSW=
202303211100 TAF WIHH 211100Z 2112/2212 03008KT 7000 SCT020
                      BECMG 2115/2117 15004KT 5000 HZ=
202303210500 TAF WIHH 210500Z 2106/2206 03008KT 7000 SCT020
                      TEMPO 2108/2110 16007KT 4000 RA FEW018CB
                       BECMG 2114/2116 00000KT 5000 HZ=
202303202300 TAF WIHH 202300Z 2100/2200 14003KT 4000 HZ FEW022
                      BECMG 2102/2104 03008KT 6000 SCT020
                      TEMPO 2108/2111 4000 -RA FEW017CB BKN018
                       BECMG 2112/2114 5000 HZ=
202303201700 TAF WIHH 201700Z 2018/2118 12004KT 5000 HZ FEW022
                      BECMG 2101/2103 05008KT 6000 SCT020=
202303201100 TAF WIHH 201100Z 2012/2112 14006KT 6000 SCT020
                      TEMPO 2012/2014 4000 -RA BKN018
                      BECMG 2015/2017 12003KT 5000 HZ=
202303200500 TAF WIHH 200500Z 2006/2106 02008KT 6000 SCT020
                      TEMPO 2007/2010 19010KT 4000 -RA BKN018
                      BECMG 2011/2012 14005KT 5000 HZ=
202303192300 TAF WIHH 192300Z 2000/2100 12006KT 6000 SCT020
                      TEMPO 2007/2010 06010KT 4000 RA BKN018
                      BECMG 2011/2013 5000 HZ=
202303191700 TAF WIHH 191700Z 1918/2018 09005KT 5000 HZ FEW020
                      BECMG 2001/2003 6000 SCT020
                      TEMPO 2007/2010 03008KT 4000 RA BKN018=
202303191100 TAF WIHH 191100Z 1912/2012 36006KT 6000 SCT020
                      BECMG 1918/1920 06003KT 5000 HZ=
202303190500 TAF WIHH 190500Z 1906/2006 06006KT 6000 SCT020
                      TEMPO 1908/1911 34008KT 4000 RA BKN018
                      BECMG 1913/1915 5000 HZ=
202303182300 TAF WIHH 182300Z 1900/2000 09007KT 7000 FEW020
                      BECMG 1905/1907 36010KT SCT018
                      TEMPO 1910/1913 16008KT 4000 RA FEW017CB=
202303181700 TAF WIHH 181700Z 1818/1918 36005KT 5000 HZ FEW018
                      BECMG 1900/1902 7000 NSW SCT020
                      TEMPO 1911/1914 18006KT 4000 RA FEW018CB=
202303181100 TAF WIHH 181100Z 1812/1912 36007KT 7000 FEW020
                      BECMG 1815/1817 09004KT 5000 HZ SCT018=
202303180500 TAF WIHH 180500Z 1806/1906 18007KT 7000 SCT020
                      TEMPO 1810/1813 4000 RA FEW018CB
                      BECMG 1814/1816 36006KT 5000 HZ=
202303172300 TAF WIHH 172300Z 1800/1900 02006KT 6000 FEW022
                      TEMPO 1807/1810 35010KT 4000 -RA SCT018
                      BECMG 1812/1814 14005KT 5000 HZ=
202303171700 TAF WIHH 171700Z 1718/1818 20004KT 5000 HZ FEW020
                      BECMG 1800/1802 05006KT 6000=
202303171100 TAF WIHH 171100Z 1712/1812 18004KT 6000 SCT018
                      BECMG 1716/1718 5000 HZ FEW020=
202303170500 TAF WIHH 170500Z 1706/1806 35006KT 6000 SCT018
                      TEMPO 1708/1711 15008KT 4000 -RA FEW017CB
                       BECMG 1712/1714 03005KT 5000 HZ=
202303162300 TAF WIHH 162300Z 1700/1800 09006KT 6000 FEW020
                      TEMPO 1707/1710 03010KT 4000 RA SCT018
                      BECMG 1712/1714 5000 HZ=
202303161700 TAF WIHH 161700Z 1618/1718 34005KT 6000 FEW020
                      BECMG 1703/1705 06008KT SCT020=
202303161100 TAF WIHH 161100Z 1612/1712 03006KT 6000 SCT020
                      BECMG 1623/1701 34003KT 5000 HZ FEW022=
202303160500 TAF WIHH 160500Z 1606/1706 06008KT 6000 SCT018
                      TEMPO 1608/1611 4000 RA FEW017CB
                      BECMG 1613/1615 31005KT 5000 HZ
                      BECMG 1620/1622 00000KT FEW020=
202303152300 TAF WIHH 152300Z 1600/1700 15006KT 6000 SCT020
                      TEMPO 1606/1609 02008KT 3000 TSRA FEW016CB
                       BKN017
                      BECMG 1611/1613 5000 HZ=
202303151700 TAF WIHH 151700Z 1518/1618 15005KT 4000 HZ SCT018
                      BECMG 1602/1604 6000 NSW
                      TEMPO 1608/1611 02008KT 3000 TSRA FEW016CB=
202303151100 TAF WIHH 151100Z 1512/1612 03006KT 6000 SCT018
                      TEMPO 1517/1521 3000 TSRA FEW016CB BKN017
                       BECMG 1522/1600 15007KT 4000 HZ=
202303150500 TAF WIHH 150500Z 1506/1606 13006KT 5000 HZ SCT016
                      TEMPO 1507/1510 03008KT 3000 TSRA FEW015CB
                       BKN016
                      TEMPO 1518/1522 36005KT 2000 TSRA FEW015CB
                       BKN016=
202303142300 TAF WIHH 142300Z 1500/1600 23005KT 4000 HZ SCT018
                      TEMPO 1500/1502 4000 -RA BKN016
                      TEMPO 1506/1509 02008KT 3000 -TSRA FEW016CB
                       BKN017
                      BECMG 1511/1513 16005KT 5000 HZ=
202303141700 TAF WIHH 141700Z 1418/1518 35005KT 3000 -RA BKN017
                      BECMG 1422/1500 02008KT 4000 HZ SCT018=
202303141100 TAF WIHH 141100Z 1412/1512 22004KT 5000 HZ SCT018
                      TEMPO 1417/1421 36006KT 4000 -RA FEW016CB
                       BKN017=
202303140500 TAF WIHH 140500Z 1406/1506 33008KT 5000 HZ SCT018
                      TEMPO 1406/1410 3000 -RA FEW016CB
                      BECMG 1411/1413 02005KT 6000
                      TEMPO 1418/1422 22010KT 2000 -TSRA FEW017CB
                       BKN018=
202303132300 TAF WIHH 132300Z 1400/1500 12006KT 5000 HZ SCT018
                      TEMPO 1400/1403 34010KT 4000 RA BKN018
                      TEMPO 1407/1410 03012KT 3000 -TSRA FEW016CB
                       BKN017
                      BECMG 1412/1414 6000=
202303131700 TAF WIHH 131700Z 1318/1418 21005KT 5000 HZ SCT020
                      BECMG 1323/1401 36003KT
                      TEMPO 1404/1408 09010KT 4000 RA BKN018=
202303131100 TAF WIHH 131100Z 1312/1412 30006KT 5000 HZ SCT018
                      TEMPO 1312/1315 12008KT 3000 RA FEW017CB
                       BECMG 1316/1318 VRB03KT 4000 BR=
202303130500 TAF WIHH 130500Z 1306/1406 34006KT 5000 HZ SCT020
                      TEMPO 1310/1313 06010KT 3000 -TSRA FEW017CB
                       BKN018
                      BECMG 1315/1317 00000KT 6000=
202303122300 TAF WIHH 122300Z 1300/1400 35006KT 6000 FEW020
                      TEMPO 1310/1313 16008KT 3000 TSRA FEW015CB
                       BKN016
                      BECMG 1314/1316 00000KT 4000 HZ SCT018=
202303121700 TAF WIHH 121700Z 1218/1318 35005KT 5000 HZ SCT018
                      BECMG 1301/1303 27010KT 7000
                      TEMPO 1312/1315 16008KT 3000 TSRA FEW015CB
                       BKN016=
202303121100 TAF WIHH 121100Z 1212/1312 35006KT 7000 SCT020
                      TEMPO 1213/1216 18007KT 4000 RA FEW018CB
                       BECMG 1217/1219 00000KT 5000 HZ=
202303120500 TAF WIHH 120500Z 1206/1306 26006KT 5000 HZ SCT017
                      TEMPO 1208/1212 16008KT 3000 TSRA FEW015CB
                       BKN016
                      BECMG 1215/1217 00000KT 3000 BR=
202303112300 TAF WIHH 112300Z 1200/1300 30006KT 5000 HZ SCT018
                      TEMPO 1208/1212 36010KT 4000 -RA FEW017CB
                       BKN018
                      BECMG 1213/1215 22005KT=
202303111700 TAF WIHH 111700Z 1118/1218 23003KT 3000 BR FEW022
                      TEMPO 1200/1203 02006KT 4000 -RA SCT020=
202303111100 TAF WIHH 111100Z 1112/1212 16006KT 4000 HZ SCT020
                      TEMPO 1112/1114 3000 -RA FEW017CB
                      BECMG 1116/1118 05003KT=
202303110500 TAF WIHH 110500Z 1106/1206 35008KT 5000 HZ SCT020
                      TEMPO 1107/1111 3000 -TSRA FEW017CB BKN018
                       BECMG 1112/1114 16004KT=
202303102300 TAF WIHH 102300Z 1100/1200 21006KT 5000 HZ SCT020
                      TEMPO 1108/1112 24012KT 3000 -TSRA FEW017CB
                       BKN018
                      BECMG 1113/1115 6000=
202303101700 TAF WIHH 101700Z 1018/1118 27005KT 5000 HZ SCT018
                      BECMG 1103/1105 6000 SCT020
                      TEMPO 1109/1112 21012KT 4000 RA BKN018=
202303101100 TAF WIHH 101100Z 1012/1112 32006KT 4000 RA BKN018
                      BECMG 1015/1017 VRB03KT 5000 HZ
                      BECMG 1023/1101 6000 FEW020=
202303100600 TAF AMD WIHH 100600Z 1006/1106 31006KT 6000 SCT018
                      TEMPO 1006/1010 27012KT 3000 -TSRA FEW017CB
                       BKN018
                      BECMG 1012/1014 5000 HZ
                      BECMG 1018/1020 00000KT FEW020=
202303100500 TAF WIHH 100500Z 1006/1106 31006KT 6000 SCT018
                      TEMPO 1007/1010 27012KT 3000 -TSRA FEW017CB
                       BKN018
                      BECMG 1012/1014 5000 HZ
                      BECMG 1018/1020 00000KT FEW020=
202303092300 TAF WIHH 092300Z 1000/1100 34008KT 7000 FEW022
                      TEMPO 1006/1009 25012KT 3000 TSRA FEW016CB
                       BKN017
                      BECMG 1014/1016 00000KT 5000 HZ=
202303091700 TAF WIHH 091700Z 0918/1018 35006KT 6000 FEW022
                      TEMPO 1005/1008 24012KT 4000 RA FEW017CB
                       SCT018=
202303091100 TAF WIHH 091100Z 0912/1012 33007KT 7000 SCT020
                      BECMG 0916/0918 26004KT 5000 HZ=
202303090500 TAF WIHH 090500Z 0906/1006 24010KT 6000 SCT017
                      TEMPO 0907/0910 4000 TSRA FEW015CB BKN016
                       BECMG 0911/0913 18005KT 5000 HZ=
202303082300 TAF WIHH 082300Z 0900/1000 35008KT 4000 BR SCT020
                      TEMPO 0900/0903 4000 -RA BKN017
                      TEMPO 0907/0910 02006KT 3000 -TSRA FEW017CB
                       BKN018
                      BECMG 0912/0914 12004KT 5000 HZ FEW020=
202303081700 TAF WIHH 081700Z 0818/0918 03003KT 5000 HZ FEW020
                      BECMG 0900/0902 35008KT 6000
                      TEMPO 0906/0910 4000 -RA SCT018=
202303081100 TAF WIHH 081100Z 0812/0912 20005KT 6000 SCT018
                      BECMG 0816/0818 06004KT 5000 HZ=
202303080500 TAF WIHH 080500Z 0806/0906 32008KT 5000 HZ SCT018
                      TEMPO 0806/0810 4000 -RA FEW017CB BKN018
                       BECMG 0811/0813 20005KT 6000=
202303072300 TAF WIHH 072300Z 0800/0900 24008KT 6000 SCT020
                      TEMPO 0807/0810 27014KT 3000 TSRA FEW017CB
                       BKN018
                      BECMG 0811/0813 5000 HZ=
202303071700 TAF WIHH 071700Z 0718/0818 27005KT 6000 FEW020
                      BECMG 0800/0802 03003KT
                      TEMPO 0807/0810 34010KT 4000 RA BKN018=
202303071100 TAF WIHH 071100Z 0712/0812 30006KT 6000 SCT020
                      BECMG 0716/0718 01004KT FEW020=
202303070500 TAF WIHH 070500Z 0706/0806 27008KT 6000 SCT020
                      TEMPO 0707/0710 30012KT 4000 RA BKN018
                      BECMG 0712/0714 5000 HZ=
202303062300 TAF WIHH 062300Z 0700/0800 24010KT 7000 FEW020
                      TEMPO 0709/0712 4000 RA FEW017CB SCT018
                      BECMG 0713/0715 00000KT 5000 HZ=
202303061700 TAF WIHH 061700Z 0618/0718 20004KT 6000 FEW022
                      BECMG 0701/0703 28012KT
                      TEMPO 0707/0710 4000 RA FEW017CB SCT018=
202303061100 TAF WIHH 061100Z 0612/0712 26010KT 7000 SCT018
                      BECMG 0615/0617 20005KT 5000 HZ=
202303060500 TAF WIHH 060500Z 0606/0706 24012KT 7000 SCT020
                      TEMPO 0607/0610 30012KT 4000 RA FEW017CB
                       BECMG 0611/0613 18006KT 5000 HZ=
202303052300 TAF WIHH 052300Z 0600/0700 27010KT 6000 FEW020
                      TEMPO 0606/0609 4000 -TSRA FEW017CB BKN018
                       BECMG 0611/0613 24005KT SCT020=
202303051700 TAF WIHH 051700Z 0518/0618 25005KT 6000 FEW020
                      BECMG 0601/0603 29010KT SCT018=
202303051100 TAF WIHH 051100Z 0512/0612 24005KT 6000 SCT018
                      BECMG 0516/0518 5000 HZ FEW020=
202303050500 TAF WIHH 050500Z 0506/0606 27008KT 4000 -RA BKN018
                      BECMG 0510/0512 24005KT 6000 SCT020
                      BECMG 0515/0517 5000 HZ FEW022=
202303042300 TAF WIHH 042300Z 0500/0600 24006KT 6000 SCT020
                      TEMPO 0506/0509 27012KT 2000 TSRA FEW017CB
                       BKN018
                      BECMG 0511/0513 7000 NSW=
202303041700 TAF WIHH 041700Z 0418/0518 27005KT 6000 FEW020
                      BECMG 0501/0503 5000 HZ SCT020
                      TEMPO 0505/0508 24012KT 3000 RA BKN018=
202303041100 TAF WIHH 041100Z 0412/0512 24006KT 5000 HZ SCT018
                      TEMPO 0415/0418 30010KT 3000 RA BKN018
                      BECMG 0421/0423 4000 BR=
202303040500 TAF WIHH 040500Z 0406/0506 27006KT 6000 SCT018
                      TEMPO 0407/0410 30012KT 3000 TSRA FEW017CB
                       BKN018
                      BECMG 0412/0414 5000 HZ=
202303032300 TAF WIHH 032300Z 0400/0500 25007KT 7000 SCT020
                      TEMPO 0406/0409 32012KT 2000 TSRA FEW016CB
                       BKN017
                      BECMG 0412/0414 5000 HZ=
202303031700 TAF WIHH 031700Z 0318/0418 24005KT 6000 SCT018
                      TEMPO 0321/0400 3000 RA FEW017CB
                      TEMPO 0405/0408 32012KT 2000 TSRA FEW015CB
                       BKN016=
202303031100 TAF WIHH 031100Z 0312/0412 34007KT 5000 RA SCT018
                      TEMPO 0312/0314 3000 TSRA FEW015CB BKN016
                       BECMG 0315/0317 27006KT HZ
                      TEMPO 0320/0323 32010KT 3000 RA BKN016=
202303030500 TAF WIHH 030500Z 0306/0406 25012KT 7000 SCT018
                      TEMPO 0306/0309 3000 TSRA BKN016 FEW017CB
                       BECMG 0312/0314 32006KT 5000 HZ
                      TEMPO 0320/0323 3000 RA BKN016=
202303022300 TAF WIHH 022300Z 0300/0400 28010KT 6000 FEW020
                      TEMPO 0306/0310 31012KT 3000 -TSRA FEW017CB
                       BKN018
                      BECMG 0311/0313 26006KT SCT020=
202303021700 TAF WIHH 021700Z 0218/0318 25004KT 5000 HZ SCT020
                      BECMG 0223/0301 28010KT 6000=
202303021100 TAF WIHH 021100Z 0212/0312 23006KT 6000 SCT018
                      BECMG 0214/0216 5000 HZ FEW020=
202303020500 TAF WIHH 020500Z 0206/0306 26008KT 5000 -RA SCT016
                      TEMPO 0207/0210 3000 -TSRA FEW017CB
                      BECMG 0212/0214 23010KT 6000 SCT018
                      TEMPO 0219/0222 4000 -RA BKN016=
202303012300 TAF WIHH 012300Z 0200/0300 27008KT 4000 -RA SCT018
                      TEMPO 0200/0203 34012G23KT 2000 TSRA FEW017CB
                       BKN018
                      TEMPO 0207/0210 4000 -RA
                      BECMG 0211/0213 24005KT 6000
                      TEMPO 0219/0222 3000 -RA BKN015=
202303011700 TAF WIHH 011700Z 0118/0218 27006KT 6000 SCT018
                      TEMPO 0120/0123 4000 -RA
                      BECMG 0202/0204 6000
                      TEMPO 0207/0210 34012KT 3000 -TSRA FEW017CB
                       BKN018=
202303011100 TAF WIHH 011100Z 0112/0212 24008KT 5000 HZ SCT018
                      TEMPO 0114/0117 27005KT 4000 -RA
                      TEMPO 0120/0123 3000 -RA BKN018
                      BECMG 0202/0204 6000=
202303010500 TAF WIHH 010500Z 0106/0206 27010KT 5000 HZ SCT018
                      TEMPO 0106/0110 30012G20KT 2000 TSRA FEW017CB
                       BKN018
                      BECMG 0112/0114 24008KT
                      TEMPO 0120/0123 3000 -RA BKN016
                      BECMG 0202/0204 6000=
